{"type": "FeatureCollection", "features": [{"type": "Feature", "properties": {"STATE": "Alabama", "STATE_FIPS": "01", "CD_2DIG": "01", "STATE_CODE": 1, "CLIMDIV": 101, "ID": 101, "CD_NEW": 1, "FIPS_CD": "0101", "NCDC_GEO_I": 30.0, "NAME": "NORTHERN VALLEY", "ST_ABBRV": "AL", "SHAPE_AREA": 0.0, "SHAPE_LEN": 0.0}, "geometry": {"type": "Polygon", "coordinates": [[[-86.32, 34.99], [-86.31, 34.99], [-86.31, 34.97], [-86.3, 34.97], [-86.29, 34.96], [-86.26, 34.95], [-86.26, 34.93], [-86.27, 34.92], [-86.27, 34.92], [-86.28, 34.94], [-86.29, 34.95], [-86.31, 34.93], [-86.33, 34.94], [-86.32, 34.93], [-86.31, 34.91], [-86.32, 34.9], [-86.33, 34.9], [-86.34, 34.89], [-86.34, 34.88], [-86.35, 34.87], [-86.35, 34.87], [-86.35, 34.86], [-86.33, 34.85], [-86.34, 34.84], [-86.33, 34.83], [-86.34, 34.82], [-86.34, 34.81], [-86.34, 34.79], [-86.34, 34.78], [-86.34, 34.75], [-86.35, 34.74], [-86.36, 34.74], [-86.36, 34.63], [-86.33, 34.61], [-86.33, 34.6], [-86.32, 34.6], [-86.3, 34.59], [-86.31, 34.58], [-86.33, 34.57], [-86.33, 34.57], [-86.31, 34.56], [-86.31, 34.55], [-86.31, 34.54], [-86.32, 34.53], [-86.33, 34.51], [-86.34, 34.51], [-86.35, 34.52], [-86.36, 34.52], [-86.37, 34.51], [-86.38, 34.52], [-86.39, 34.51], [-86.39, 34.51], [-86.39, 34.5], [-86.4, 34.5], [-86.41, 34.49], [-86.42, 34.48], [-86.44, 34.48], [-86.45, 34.48], [-86.47, 34.48], [-86.48, 34.48], [-86.5, 34.48], [-86.53, 34.5], [-86.54, 34.51], [-86.55, 34.54], [-86.55, 34.54], [-86.56, 34.47], [-86.58, 34.37], [-86.58, 34.3], [-86.86, 34.31], [-86.97, 34.31], [-87.09, 34.31], [-87.11, 34.31], [-87.11, 34.3], [-87.18, 34.3], [-87.29, 34.3], [-87.37, 34.3], [-87.5, 34.3], [-87.56, 34.31], [-87.61, 34.31], [-87.71, 34.31], [-87.85, 34.31], [-87.94, 34.31], [-88.06, 34.32], [-88.17, 34.32], [-88.17, 34.38], [-88.16, 34.46], [-88.15, 34.5], [-88.13, 34.63], [-88.12, 34.72], [-88.12, 34.75], [-88.11, 34.81], [-88.1, 34.89], [-88.14, 34.91], [-88.15, 34.92], [-88.17, 34.96], [-88.19, 34.97], [-88.2, 35.0], [-88.2, 35.01], [-88.16, 35.01], [-88.0, 35.01], [-87.85, 35.01], [-87.66, 35.0], [-87.63, 35.0], [-87.52, 35.0], [-87.43, 35.0], [-87.31, 35.0], [-87.09, 35.0], [-86.94, 34.99], [-86.86, 34.99], [-86.64, 34.99], [-86.61, 34.99], [-86.46, 34.99], [-86.37, 34.99], [-86.32, 34.99]]]}}, {"type": "Feature", "properties": {"STATE": "Alabama", "STATE_FIPS": "01", "CD_2DIG": "03", "STATE_CODE": 1, "CLIMDIV": 103, "ID": 103, "CD_NEW": 3, "FIPS_CD": "0103", "NCDC_GEO_I": 31.0, "NAME": "UPPER PLAINS", "ST_ABBRV": "AL", "SHAPE_AREA": 0.0, "SHAPE_LEN": 0.0}, "geometry": {"type": "Polygon", "coordinates": [[[-87.11, 34.3], [-87.11, 34.17], [-87.11, 34.13], [-87.11, 34.08], [-87.11, 33.99], [-87.15, 33.99], [-87.14, 33.98], [-87.13, 33.97], [-87.12, 33.96], [-87.11, 33.96], [-87.1, 33.94], [-87.1, 33.93], [-87.09, 33.92], [-87.08, 33.91], [-87.1, 33.9], [-87.09, 33.89], [-87.01, 33.89], [-87.01, 33.89], [-87.01, 33.87], [-87.0, 33.87], [-86.99, 33.86], [-86.97, 33.86], [-86.96, 33.86], [-86.96, 33.84], [-86.95, 33.84], [-86.95, 33.8], [-86.97, 33.8], [-86.97, 33.79], [-87.01, 33.79], [-87.01, 33.77], [-87.02, 33.77], [-87.02, 33.74], [-87.03, 33.74], [-87.03, 33.73], [-87.04, 33.73], [-87.04, 33.69], [-87.06, 33.69], [-87.06, 33.66], [-87.09, 33.66], [-87.09, 33.63], [-87.14, 33.63], [-87.14, 33.61], [-87.18, 33.61], [-87.18, 33.6], [-87.2, 33.6], [-87.2, 33.59], [-87.2, 33.58], [-87.2, 33.56], [-87.19, 33.56], [-87.19, 33.55], [-87.2, 33.55], [-87.21, 33.54], [-87.22, 33.54], [-87.23, 33.54], [-87.24, 33.54], [-87.24, 33.53], [-87.25, 33.51], [-87.26, 33.51], [-87.26, 33.53], [-87.28, 33.52], [-87.26, 33.5], [-87.27, 33.5], [-87.29, 33.5], [-87.29, 33.5], [-87.29, 33.49], [-87.3, 33.48], [-87.3, 33.49], [-87.31, 33.49], [-87.33, 33.49], [-87.34, 33.48], [-87.34, 33.46], [-87.31, 33.46], [-87.31, 33.44], [-87.28, 33.44], [-87.28, 33.43], [-87.27, 33.42], [-87.27, 33.42], [-87.25, 33.42], [-87.25, 33.41], [-87.25, 33.4], [-87.23, 33.4], [-87.23, 33.37], [-87.21, 33.37], [-87.21, 33.36], [-87.2, 33.36], [-87.2, 33.34], [-87.18, 33.34], [-87.18, 33.32], [-87.16, 33.32], [-87.16, 33.31], [-87.13, 33.31], [-87.13, 33.29], [-87.09, 33.29], [-87.09, 33.28], [-87.07, 33.28], [-87.07, 33.28], [-87.07, 33.25], [-87.03, 33.25], [-87.03, 33.21], [-87.02, 33.21], [-87.02, 33.19], [-87.03, 33.19], [-87.03, 33.17], [-87.0, 33.17], [-87.0, 33.16], [-86.97, 33.16], [-86.97, 33.16], [-86.97, 33.1], [-86.95, 33.1], [-86.95, 33.08], [-86.93, 33.08], [-86.93, 33.06], [-86.92, 33.06], [-86.92, 33.06], [-86.9, 33.06], [-86.9, 33.05], [-86.88, 33.05], [-86.88, 33.07], [-86.82, 33.07], [-86.82, 33.07], [-86.76, 33.07], [-86.61, 33.07], [-86.62, 33.06], [-86.62, 33.05], [-86.6, 33.06], [-86.6, 33.05], [-86.58, 33.04], [-86.57, 33.03], [-86.56, 33.02], [-86.55, 33.02], [-86.54, 33.02], [-86.52, 33.02], [-86.52, 33.0], [-86.51, 32.99], [-86.52, 32.97], [-86.52, 32.95], [-86.52, 32.93], [-86.5, 32.91], [-86.49, 32.91], [-86.49, 32.9], [-86.48, 32.87], [-86.46, 32.87], [-86.45, 32.86], [-86.45, 32.85], [-86.46, 32.84], [-86.46, 32.83], [-86.46, 32.81], [-86.45, 32.81], [-86.44, 32.8], [-86.43, 32.79], [-86.41, 32.79], [-86.41, 32.78], [-86.4, 32.76], [-86.37, 32.75], [-86.41, 32.75], [-86.41, 32.63], [-86.41, 32.41], [-86.42, 32.4], [-86.44, 32.4], [-86.46, 32.41], [-86.46, 32.38], [-86.47, 32.37], [-86.49, 32.37], [-86.49, 32.36], [-86.49, 32.35], [-86.49, 32.35], [-86.53, 32.34], [-86.54, 32.35], [-86.54, 32.36], [-86.55, 32.37], [-86.56, 32.37], [-86.57, 32.38], [-86.58, 32.38], [-86.59, 32.36], [-86.6, 32.36], [-86.61, 32.37], [-86.62, 32.38], [-86.61, 32.4], [-86.62, 32.41], [-86.63, 32.4], [-86.65, 32.4], [-86.65, 32.4], [-86.66, 32.38], [-86.68, 32.36], [-86.68, 32.35], [-86.71, 32.36], [-86.72, 32.37], [-86.72, 32.39], [-86.72, 32.4], [-86.73, 32.4], [-86.74, 32.39], [-86.75, 32.39], [-86.76, 32.39], [-86.77, 32.4], [-86.78, 32.39], [-86.78, 32.37], [-86.77, 32.34], [-86.79, 32.31], [-86.8, 32.31], [-86.81, 32.31], [-86.82, 32.32], [-86.82, 32.34], [-86.81, 32.35], [-86.81, 32.35], [-86.82, 32.37], [-86.83, 32.38], [-86.84, 32.4], [-86.85, 32.42], [-86.83, 32.42], [-86.83, 32.43], [-86.84, 32.43], [-86.85, 32.44], [-86.86, 32.44], [-86.86, 32.45], [-86.87, 32.47], [-86.88, 32.48], [-86.88, 32.49], [-86.89, 32.5], [-86.89, 32.51], [-86.91, 32.54], [-86.9, 32.56], [-86.9, 32.58], [-86.9, 32.58], [-86.9, 32.59], [-86.91, 32.62], [-86.91, 32.63], [-86.92, 32.66], [-86.92, 32.66], [-87.02, 32.66], [-87.02, 32.75], [-87.02, 32.84], [-87.16, 32.84], [-87.22, 32.84], [-87.23, 32.83], [-87.32, 32.83], [-87.32, 32.88], [-87.42, 32.87], [-87.42, 32.9], [-87.42, 32.97], [-87.42, 33.0], [-87.5, 33.0], [-87.62, 33.0], [-87.72, 33.01], [-87.71, 33.02], [-87.83, 33.02], [-87.83, 33.09], [-87.84, 33.09], [-87.84, 33.15], [-87.86, 33.14], [-87.88, 33.14], [-87.89, 33.13], [-87.9, 33.13], [-87.95, 33.11], [-87.95, 33.09], [-87.96, 33.09], [-87.97, 33.08], [-87.99, 33.08], [-87.99, 33.07], [-88.0, 33.07], [-88.03, 33.06], [-88.04, 33.05], [-88.03, 33.05], [-88.05, 33.04], [-88.06, 33.04], [-88.06, 33.05], [-88.09, 33.04], [-88.11, 33.04], [-88.12, 33.04], [-88.14, 33.04], [-88.14, 33.04], [-88.15, 33.04], [-88.15, 33.02], [-88.17, 33.01], [-88.17, 33.0], [-88.23, 32.99], [-88.34, 32.99], [-88.33, 33.07], [-88.32, 33.18], [-88.29, 33.37], [-88.28, 33.5], [-88.27, 33.59], [-88.25, 33.72], [-88.23, 33.87], [-88.22, 33.94], [-88.21, 34.03], [-88.2, 34.09], [-88.19, 34.18], [-88.19, 34.2], [-88.19, 34.22], [-88.17, 34.32], [-88.06, 34.32], [-87.94, 34.31], [-87.85, 34.31], [-87.71, 34.31], [-87.61, 34.31], [-87.56, 34.31], [-87.5, 34.3], [-87.37, 34.3], [-87.29, 34.3], [-87.18, 34.3], [-87.11, 34.3]]]}}, {"type": "Feature", "properties": {"STATE": "Alabama", "STATE_FIPS": "01", "CD_2DIG": "02", "STATE_CODE": 1, "CLIMDIV": 102, "ID": 102, "CD_NEW": 2, "FIPS_CD": "0102", "NCDC_GEO_I": 32.0, "NAME": "APPALACHIAN MOUNTAIN", "ST_ABBRV": "AL", "SHAPE_AREA": 0.0, "SHAPE_LEN": 0.0}, "geometry": {"type": "Polygon", "coordinates": [[[-85.61, 34.98], [-85.6, 34.93], [-85.58, 34.82], [-85.56, 34.75], [-85.53, 34.63], [-85.51, 34.52], [-85.53, 34.51], [-85.54, 34.5], [-85.56, 34.5], [-85.56, 34.49], [-85.57, 34.49], [-85.58, 34.48], [-85.57, 34.48], [-85.58, 34.46], [-85.58, 34.44], [-85.59, 34.42], [-85.6, 34.42], [-85.6, 34.41], [-85.61, 34.41], [-85.62, 34.39], [-85.63, 34.38], [-85.63, 34.37], [-85.64, 34.37], [-85.66, 34.36], [-85.68, 34.35], [-85.68, 34.34], [-85.77, 34.26], [-85.81, 34.26], [-85.81, 34.24], [-85.82, 34.24], [-85.84, 34.24], [-85.84, 34.2], [-85.91, 34.2], [-86.0, 34.2], [-86.04, 34.2], [-86.11, 34.2], [-86.11, 34.19], [-86.17, 34.19], [-86.17, 34.18], [-86.19, 34.18], [-86.2, 34.18], [-86.3, 34.1], [-86.32, 34.07], [-86.33, 34.05], [-86.33, 33.99], [-86.34, 33.97], [-86.35, 33.96], [-86.36, 33.95], [-86.37, 33.94], [-86.33, 33.94], [-86.32, 33.93], [-86.34, 33.92], [-86.35, 33.92], [-86.35, 33.91], [-86.34, 33.89], [-86.35, 33.88], [-86.37, 33.87], [-86.37, 33.87], [-86.39, 33.85], [-86.39, 33.85], [-86.41, 33.84], [-86.43, 33.82], [-86.44, 33.82], [-86.45, 33.82], [-86.47, 33.82], [-86.49, 33.81], [-86.51, 33.81], [-86.52, 33.8], [-86.58, 33.8], [-86.58, 33.77], [-86.54, 33.77], [-86.54, 33.74], [-86.53, 33.74], [-86.53, 33.72], [-86.53, 33.72], [-86.53, 33.66], [-86.53, 33.66], [-86.53, 33.63], [-86.54, 33.63], [-86.54, 33.62], [-86.55, 33.62], [-86.55, 33.56], [-86.54, 33.55], [-86.52, 33.55], [-86.52, 33.52], [-86.54, 33.52], [-86.54, 33.52], [-86.56, 33.52], [-86.57, 33.51], [-86.57, 33.5], [-86.58, 33.5], [-86.59, 33.5], [-86.59, 33.48], [-86.6, 33.47], [-86.67, 33.47], [-86.67, 33.45], [-86.69, 33.45], [-86.69, 33.44], [-86.7, 33.44], [-86.7, 33.43], [-86.72, 33.43], [-86.72, 33.42], [-86.75, 33.42], [-86.75, 33.4], [-86.76, 33.4], [-86.76, 33.39], [-86.78, 33.39], [-86.78, 33.37], [-86.8, 33.37], [-86.81, 33.36], [-86.83, 33.36], [-86.83, 33.33], [-86.88, 33.33], [-86.89, 33.33], [-86.89, 33.32], [-86.9, 33.32], [-86.93, 33.3], [-86.93, 33.28], [-86.93, 33.27], [-86.95, 33.27], [-86.95, 33.27], [-86.97, 33.27], [-86.98, 33.25], [-86.98, 33.25], [-87.03, 33.25], [-87.07, 33.25], [-87.07, 33.28], [-87.07, 33.28], [-87.09, 33.28], [-87.09, 33.29], [-87.13, 33.29], [-87.13, 33.31], [-87.16, 33.31], [-87.16, 33.32], [-87.18, 33.32], [-87.18, 33.34], [-87.2, 33.34], [-87.2, 33.36], [-87.21, 33.36], [-87.21, 33.37], [-87.23, 33.37], [-87.23, 33.4], [-87.25, 33.4], [-87.25, 33.41], [-87.25, 33.42], [-87.27, 33.42], [-87.27, 33.42], [-87.28, 33.43], [-87.28, 33.44], [-87.31, 33.44], [-87.31, 33.46], [-87.34, 33.46], [-87.34, 33.48], [-87.33, 33.49], [-87.31, 33.49], [-87.3, 33.49], [-87.3, 33.48], [-87.29, 33.49], [-87.29, 33.5], [-87.29, 33.5], [-87.27, 33.5], [-87.26, 33.5], [-87.28, 33.52], [-87.26, 33.53], [-87.26, 33.51], [-87.25, 33.51], [-87.24, 33.53], [-87.24, 33.54], [-87.23, 33.54], [-87.22, 33.54], [-87.21, 33.54], [-87.2, 33.55], [-87.19, 33.55], [-87.19, 33.56], [-87.2, 33.56], [-87.2, 33.58], [-87.2, 33.59], [-87.2, 33.6], [-87.18, 33.6], [-87.18, 33.61], [-87.14, 33.61], [-87.14, 33.63], [-87.09, 33.63], [-87.09, 33.66], [-87.06, 33.66], [-87.06, 33.69], [-87.04, 33.69], [-87.04, 33.73], [-87.03, 33.73], [-87.03, 33.74], [-87.02, 33.74], [-87.02, 33.77], [-87.01, 33.77], [-87.01, 33.79], [-86.97, 33.79], [-86.97, 33.8], [-86.95, 33.8], [-86.95, 33.84], [-86.96, 33.84], [-86.96, 33.86], [-86.97, 33.86], [-86.99, 33.86], [-87.0, 33.87], [-87.01, 33.87], [-87.01, 33.89], [-87.01, 33.89], [-87.09, 33.89], [-87.1, 33.9], [-87.08, 33.91], [-87.09, 33.92], [-87.1, 33.93], [-87.1, 33.94], [-87.11, 33.96], [-87.12, 33.96], [-87.13, 33.97], [-87.14, 33.98], [-87.15, 33.99], [-87.11, 33.99], [-87.11, 34.08], [-87.11, 34.13], [-87.11, 34.17], [-87.11, 34.3], [-87.11, 34.31], [-87.09, 34.31], [-86.97, 34.31], [-86.86, 34.31], [-86.58, 34.3], [-86.58, 34.37], [-86.56, 34.47], [-86.55, 34.54], [-86.55, 34.54], [-86.54, 34.51], [-86.53, 34.5], [-86.5, 34.48], [-86.48, 34.48], [-86.47, 34.48], [-86.45, 34.48], [-86.44, 34.48], [-86.42, 34.48], [-86.41, 34.49], [-86.4, 34.5], [-86.39, 34.5], [-86.39, 34.51], [-86.39, 34.51], [-86.38, 34.52], [-86.37, 34.51], [-86.36, 34.52], [-86.35, 34.52], [-86.34, 34.51], [-86.33, 34.51], [-86.32, 34.53], [-86.31, 34.54], [-86.31, 34.55], [-86.31, 34.56], [-86.33, 34.57], [-86.33, 34.57], [-86.31, 34.58], [-86.3, 34.59], [-86.32, 34.6], [-86.33, 34.6], [-86.33, 34.61], [-86.36, 34.63], [-86.36, 34.74], [-86.35, 34.74], [-86.34, 34.75], [-86.34, 34.78], [-86.34, 34.79], [-86.34, 34.81], [-86.34, 34.82], [-86.33, 34.83], [-86.34, 34.84], [-86.33, 34.85], [-86.35, 34.86], [-86.35, 34.87], [-86.35, 34.87], [-86.34, 34.88], [-86.34, 34.89], [-86.33, 34.9], [-86.32, 34.9], [-86.31, 34.91], [-86.32, 34.93], [-86.33, 34.94], [-86.31, 34.93], [-86.29, 34.95], [-86.28, 34.94], [-86.27, 34.92], [-86.27, 34.92], [-86.26, 34.93], [-86.26, 34.95], [-86.29, 34.96], [-86.3, 34.97], [-86.31, 34.97], [-86.31, 34.99], [-86.25, 34.99], [-86.01, 34.99], [-85.82, 34.99], [-85.61, 34.98]]]}}, {"type": "Feature", "properties": {"STATE": "Alabama", "STATE_FIPS": "01", "CD_2DIG": "04", "STATE_CODE": 1, "CLIMDIV": 104, "ID": 104, "CD_NEW": 4, "FIPS_CD": "0104", "NCDC_GEO_I": 33.0, "NAME": "EASTERN VALLEY", "ST_ABBRV": "AL", "SHAPE_AREA": 0.0, "SHAPE_LEN": 0.0}, "geometry": {"type": "Polygon", "coordinates": [[[-85.4, 33.96], [-85.43, 33.96], [-85.5, 33.96], [-85.5, 33.94], [-85.53, 33.94], [-85.53, 33.89], [-85.6, 33.89], [-85.6, 33.87], [-85.64, 33.88], [-85.64, 33.85], [-85.59, 33.85], [-85.59, 33.8], [-85.6, 33.8], [-85.6, 33.79], [-85.62, 33.79], [-85.62, 33.77], [-85.64, 33.77], [-85.64, 33.65], [-85.66, 33.64], [-85.66, 33.63], [-85.69, 33.63], [-85.69, 33.61], [-85.72, 33.61], [-85.72, 33.6], [-85.74, 33.6], [-85.74, 33.56], [-85.8, 33.56], [-85.8, 33.54], [-85.85, 33.5], [-85.9, 33.5], [-85.91, 33.45], [-85.92, 33.45], [-85.92, 33.4], [-85.94, 33.4], [-85.94, 33.38], [-85.98, 33.38], [-85.98, 33.29], [-86.02, 33.29], [-86.12, 33.3], [-86.12, 33.24], [-86.12, 33.19], [-86.17, 33.2], [-86.17, 33.1], [-86.32, 33.1], [-86.38, 33.1], [-86.4, 33.1], [-86.49, 33.1], [-86.51, 33.09], [-86.51, 33.09], [-86.51, 33.07], [-86.52, 33.06], [-86.52, 33.04], [-86.52, 33.02], [-86.54, 33.02], [-86.55, 33.02], [-86.56, 33.02], [-86.57, 33.03], [-86.58, 33.04], [-86.6, 33.05], [-86.6, 33.06], [-86.62, 33.05], [-86.62, 33.06], [-86.61, 33.07], [-86.76, 33.07], [-86.82, 33.07], [-86.82, 33.07], [-86.88, 33.07], [-86.88, 33.05], [-86.9, 33.05], [-86.9, 33.06], [-86.92, 33.06], [-86.92, 33.06], [-86.93, 33.06], [-86.93, 33.08], [-86.95, 33.08], [-86.95, 33.1], [-86.97, 33.1], [-86.97, 33.16], [-86.97, 33.16], [-87.0, 33.16], [-87.0, 33.17], [-87.03, 33.17], [-87.03, 33.19], [-87.02, 33.19], [-87.02, 33.21], [-87.03, 33.21], [-87.03, 33.25], [-86.98, 33.25], [-86.98, 33.25], [-86.97, 33.27], [-86.95, 33.27], [-86.95, 33.27], [-86.93, 33.27], [-86.93, 33.28], [-86.93, 33.3], [-86.9, 33.32], [-86.89, 33.32], [-86.89, 33.33], [-86.88, 33.33], [-86.83, 33.33], [-86.83, 33.36], [-86.81, 33.36], [-86.8, 33.37], [-86.78, 33.37], [-86.78, 33.39], [-86.76, 33.39], [-86.76, 33.4], [-86.75, 33.4], [-86.75, 33.42], [-86.72, 33.42], [-86.72, 33.43], [-86.7, 33.43], [-86.7, 33.44], [-86.69, 33.44], [-86.69, 33.45], [-86.67, 33.45], [-86.67, 33.47], [-86.6, 33.47], [-86.59, 33.48], [-86.59, 33.5], [-86.58, 33.5], [-86.57, 33.5], [-86.57, 33.51], [-86.56, 33.52], [-86.54, 33.52], [-86.54, 33.52], [-86.52, 33.52], [-86.52, 33.55], [-86.54, 33.55], [-86.55, 33.56], [-86.55, 33.62], [-86.54, 33.62], [-86.54, 33.63], [-86.53, 33.63], [-86.53, 33.66], [-86.53, 33.66], [-86.53, 33.72], [-86.53, 33.72], [-86.53, 33.74], [-86.54, 33.74], [-86.54, 33.77], [-86.58, 33.77], [-86.58, 33.8], [-86.52, 33.8], [-86.51, 33.81], [-86.49, 33.81], [-86.47, 33.82], [-86.45, 33.82], [-86.44, 33.82], [-86.43, 33.82], [-86.41, 33.84], [-86.39, 33.85], [-86.39, 33.85], [-86.37, 33.87], [-86.37, 33.87], [-86.35, 33.88], [-86.34, 33.89], [-86.35, 33.91], [-86.35, 33.92], [-86.34, 33.92], [-86.32, 33.93], [-86.33, 33.94], [-86.37, 33.94], [-86.36, 33.95], [-86.35, 33.96], [-86.34, 33.97], [-86.33, 33.99], [-86.33, 34.05], [-86.32, 34.07], [-86.3, 34.1], [-86.2, 34.18], [-86.19, 34.18], [-86.17, 34.18], [-86.17, 34.19], [-86.11, 34.19], [-86.11, 34.2], [-86.04, 34.2], [-86.0, 34.2], [-85.91, 34.2], [-85.84, 34.2], [-85.84, 34.24], [-85.82, 34.24], [-85.81, 34.24], [-85.81, 34.26], [-85.77, 34.26], [-85.68, 34.34], [-85.68, 34.35], [-85.66, 34.36], [-85.64, 34.37], [-85.63, 34.37], [-85.63, 34.38], [-85.62, 34.39], [-85.61, 34.41], [-85.6, 34.41], [-85.6, 34.42], [-85.59, 34.42], [-85.58, 34.44], [-85.58, 34.46], [-85.57, 34.48], [-85.58, 34.48], [-85.57, 34.49], [-85.56, 34.49], [-85.56, 34.5], [-85.54, 34.5], [-85.53, 34.51], [-85.51, 34.52], [-85.48, 34.38], [-85.47, 34.31], [-85.43, 34.13], [-85.42, 34.09], [-85.41, 34.02], [-85.4, 33.96]]]}}, {"type": "Feature", "properties": {"STATE": "Alabama", "STATE_FIPS": "01", "CD_2DIG": "05", "STATE_CODE": 1, "CLIMDIV": 105, "ID": 105, "CD_NEW": 5, "FIPS_CD": "0105", "NCDC_GEO_I": 34.0, "NAME": "PIEDMONT PLATEAU", "ST_ABBRV": "AL", "SHAPE_AREA": 0.0, "SHAPE_LEN": 0.0}, "geometry": {"type": "Polygon", "coordinates": [[[-85.4, 33.96], [-85.39, 33.9], [-85.37, 33.84], [-85.36, 33.75], [-85.33, 33.62], [-85.3, 33.48], [-85.28, 33.35], [-85.23, 33.11], [-85.2, 32.95], [-85.19, 32.87], [-85.18, 32.86], [-85.18, 32.85], [-85.16, 32.86], [-85.15, 32.84], [-85.17, 32.83], [-85.17, 32.83], [-85.17, 32.81], [-85.15, 32.79], [-85.14, 32.79], [-85.14, 32.79], [-85.13, 32.78], [-85.12, 32.77], [-85.14, 32.77], [-85.14, 32.76], [-85.13, 32.74], [-85.12, 32.74], [-85.11, 32.73], [-85.12, 32.72], [-85.12, 32.69], [-85.11, 32.68], [-85.1, 32.68], [-85.1, 32.67], [-85.09, 32.66], [-85.1, 32.64], [-85.08, 32.63], [-85.09, 32.62], [-85.08, 32.62], [-85.08, 32.6], [-85.07, 32.58], [-85.03, 32.55], [-85.03, 32.54], [-85.02, 32.54], [-85.01, 32.53], [-85.01, 32.52], [-85.0, 32.51], [-85.06, 32.51], [-85.06, 32.47], [-85.14, 32.47], [-85.2, 32.47], [-85.33, 32.47], [-85.33, 32.41], [-85.43, 32.41], [-85.44, 32.48], [-85.44, 32.5], [-85.49, 32.5], [-85.66, 32.57], [-85.66, 32.58], [-85.7, 32.58], [-85.7, 32.6], [-85.71, 32.6], [-85.71, 32.58], [-85.8, 32.58], [-85.8, 32.49], [-85.89, 32.49], [-85.86, 32.48], [-85.87, 32.47], [-85.88, 32.46], [-85.88, 32.45], [-85.89, 32.45], [-85.93, 32.45], [-85.94, 32.44], [-85.96, 32.44], [-85.96, 32.45], [-85.97, 32.45], [-85.99, 32.44], [-86.0, 32.43], [-86.01, 32.43], [-86.02, 32.42], [-86.03, 32.42], [-86.04, 32.42], [-86.05, 32.41], [-86.08, 32.41], [-86.09, 32.42], [-86.09, 32.42], [-86.12, 32.42], [-86.14, 32.43], [-86.15, 32.42], [-86.17, 32.44], [-86.18, 32.44], [-86.19, 32.43], [-86.19, 32.44], [-86.18, 32.45], [-86.19, 32.46], [-86.2, 32.45], [-86.21, 32.47], [-86.23, 32.47], [-86.23, 32.48], [-86.24, 32.49], [-86.25, 32.5], [-86.26, 32.5], [-86.27, 32.48], [-86.28, 32.49], [-86.29, 32.47], [-86.31, 32.49], [-86.31, 32.49], [-86.31, 32.47], [-86.32, 32.45], [-86.32, 32.44], [-86.32, 32.44], [-86.31, 32.42], [-86.32, 32.41], [-86.32, 32.42], [-86.34, 32.43], [-86.4, 32.43], [-86.4, 32.41], [-86.41, 32.41], [-86.41, 32.63], [-86.41, 32.75], [-86.37, 32.75], [-86.4, 32.76], [-86.41, 32.78], [-86.41, 32.79], [-86.43, 32.79], [-86.44, 32.8], [-86.45, 32.81], [-86.46, 32.81], [-86.46, 32.83], [-86.46, 32.84], [-86.45, 32.85], [-86.45, 32.86], [-86.46, 32.87], [-86.48, 32.87], [-86.49, 32.9], [-86.49, 32.91], [-86.5, 32.91], [-86.52, 32.93], [-86.52, 32.95], [-86.52, 32.97], [-86.51, 32.99], [-86.52, 33.0], [-86.52, 33.02], [-86.52, 33.04], [-86.52, 33.06], [-86.51, 33.07], [-86.51, 33.09], [-86.51, 33.09], [-86.49, 33.1], [-86.4, 33.1], [-86.38, 33.1], [-86.32, 33.1], [-86.17, 33.1], [-86.17, 33.2], [-86.12, 33.19], [-86.12, 33.24], [-86.12, 33.3], [-86.02, 33.29], [-85.98, 33.29], [-85.98, 33.38], [-85.94, 33.38], [-85.94, 33.4], [-85.92, 33.4], [-85.92, 33.45], [-85.91, 33.45], [-85.9, 33.5], [-85.85, 33.5], [-85.8, 33.54], [-85.8, 33.56], [-85.74, 33.56], [-85.74, 33.6], [-85.72, 33.6], [-85.72, 33.61], [-85.69, 33.61], [-85.69, 33.63], [-85.66, 33.63], [-85.66, 33.64], [-85.64, 33.65], [-85.64, 33.77], [-85.62, 33.77], [-85.62, 33.79], [-85.6, 33.79], [-85.6, 33.8], [-85.59, 33.8], [-85.59, 33.85], [-85.64, 33.85], [-85.64, 33.88], [-85.6, 33.87], [-85.6, 33.89], [-85.53, 33.89], [-85.53, 33.94], [-85.5, 33.94], [-85.5, 33.96], [-85.43, 33.96], [-85.4, 33.96]]]}}, {"type": "Feature", "properties": {"STATE": "Alabama", "STATE_FIPS": "01", "CD_2DIG": "06", "STATE_CODE": 1, "CLIMDIV": 106, "ID": 106, "CD_NEW": 6, "FIPS_CD": "0106", "NCDC_GEO_I": 35.0, "NAME": "PRAIRIE", "ST_ABBRV": "AL", "SHAPE_AREA": 0.0, "SHAPE_LEN": 0.0}, "geometry": {"type": "Polygon", "coordinates": [[[-86.41, 32.41], [-86.4, 32.41], [-86.4, 32.43], [-86.34, 32.43], [-86.32, 32.42], [-86.32, 32.41], [-86.31, 32.42], [-86.32, 32.44], [-86.32, 32.44], [-86.32, 32.45], [-86.31, 32.47], [-86.31, 32.49], [-86.31, 32.49], [-86.29, 32.47], [-86.28, 32.49], [-86.27, 32.48], [-86.26, 32.5], [-86.25, 32.5], [-86.24, 32.49], [-86.23, 32.48], [-86.23, 32.47], [-86.21, 32.47], [-86.2, 32.45], [-86.19, 32.46], [-86.18, 32.45], [-86.19, 32.44], [-86.19, 32.43], [-86.18, 32.44], [-86.17, 32.44], [-86.15, 32.42], [-86.14, 32.43], [-86.12, 32.42], [-86.09, 32.42], [-86.09, 32.42], [-86.08, 32.41], [-86.05, 32.41], [-86.04, 32.42], [-86.03, 32.42], [-86.02, 32.42], [-86.01, 32.43], [-86.0, 32.43], [-85.99, 32.44], [-85.97, 32.45], [-85.96, 32.45], [-85.96, 32.44], [-85.94, 32.44], [-85.93, 32.45], [-85.89, 32.45], [-85.88, 32.45], [-85.88, 32.46], [-85.87, 32.47], [-85.86, 32.48], [-85.89, 32.49], [-85.8, 32.49], [-85.8, 32.58], [-85.71, 32.58], [-85.71, 32.6], [-85.7, 32.6], [-85.7, 32.58], [-85.66, 32.58], [-85.66, 32.57], [-85.49, 32.5], [-85.44, 32.5], [-85.44, 32.48], [-85.43, 32.41], [-85.43, 32.38], [-85.43, 32.32], [-85.43, 32.23], [-85.43, 32.15], [-85.41, 32.15], [-85.41, 32.14], [-85.43, 32.14], [-85.43, 32.06], [-85.43, 32.01], [-85.51, 32.01], [-85.51, 32.0], [-85.54, 32.0], [-85.59, 32.0], [-85.6, 31.98], [-85.6, 31.97], [-85.6, 31.96], [-85.62, 31.94], [-85.65, 31.91], [-85.65, 31.9], [-85.66, 31.89], [-85.66, 31.88], [-85.79, 31.88], [-85.79, 31.97], [-85.88, 31.97], [-85.88, 31.98], [-85.89, 31.99], [-85.89, 32.05], [-85.91, 32.05], [-85.91, 32.05], [-85.95, 32.05], [-85.95, 32.06], [-85.96, 32.05], [-85.96, 32.04], [-85.98, 32.04], [-85.98, 32.05], [-86.0, 32.05], [-86.0, 31.97], [-86.0, 31.97], [-86.12, 31.97], [-86.12, 31.97], [-86.24, 31.97], [-86.3, 31.97], [-86.3, 32.04], [-86.3, 32.05], [-86.41, 32.05], [-86.4, 32.04], [-86.41, 32.04], [-86.41, 31.96], [-86.41, 31.96], [-86.49, 31.96], [-86.5, 31.96], [-86.61, 31.96], [-86.8, 31.96], [-86.86, 31.96], [-86.86, 32.04], [-86.86, 32.05], [-86.99, 32.05], [-87.0, 32.05], [-87.12, 32.05], [-87.18, 32.05], [-87.18, 32.06], [-87.19, 32.07], [-87.19, 32.08], [-87.2, 32.09], [-87.22, 32.09], [-87.23, 32.1], [-87.25, 32.12], [-87.26, 32.12], [-87.25, 32.13], [-87.26, 32.15], [-87.28, 32.15], [-87.31, 32.18], [-87.32, 32.18], [-87.33, 32.2], [-87.34, 32.2], [-87.36, 32.2], [-87.37, 32.21], [-87.37, 32.22], [-87.39, 32.22], [-87.39, 32.23], [-87.39, 32.24], [-87.41, 32.24], [-87.42, 32.24], [-87.43, 32.25], [-87.44, 32.26], [-87.44, 32.27], [-87.47, 32.26], [-87.49, 32.27], [-87.51, 32.27], [-87.52, 32.25], [-87.52, 32.13], [-87.62, 32.13], [-87.62, 32.01], [-87.67, 32.0], [-87.67, 31.99], [-87.75, 31.99], [-87.87, 31.99], [-87.98, 31.99], [-88.07, 31.99], [-88.08, 32.0], [-88.1, 31.99], [-88.1, 32.0], [-88.11, 32.01], [-88.12, 32.02], [-88.11, 32.04], [-88.12, 32.05], [-88.11, 32.06], [-88.1, 32.07], [-88.08, 32.07], [-88.07, 32.06], [-88.05, 32.08], [-88.04, 32.08], [-88.05, 32.09], [-88.05, 32.1], [-88.04, 32.12], [-88.04, 32.14], [-88.04, 32.15], [-88.02, 32.14], [-88.02, 32.16], [-88.01, 32.19], [-88.01, 32.2], [-88.01, 32.22], [-88.02, 32.23], [-88.01, 32.25], [-88.01, 32.26], [-88.02, 32.27], [-88.02, 32.29], [-88.0, 32.28], [-88.01, 32.29], [-88.0, 32.3], [-87.99, 32.29], [-87.98, 32.31], [-87.97, 32.3], [-87.96, 32.3], [-87.95, 32.3], [-87.94, 32.3], [-87.94, 32.28], [-87.93, 32.28], [-87.93, 32.29], [-87.93, 32.31], [-88.01, 32.31], [-88.15, 32.31], [-88.21, 32.31], [-88.32, 32.31], [-88.42, 32.31], [-88.41, 32.38], [-88.39, 32.58], [-88.37, 32.75], [-88.35, 32.88], [-88.34, 32.99], [-88.23, 32.99], [-88.17, 33.0], [-88.17, 33.01], [-88.15, 33.02], [-88.15, 33.04], [-88.14, 33.04], [-88.14, 33.04], [-88.12, 33.04], [-88.11, 33.04], [-88.09, 33.04], [-88.06, 33.05], [-88.06, 33.04], [-88.05, 33.04], [-88.03, 33.05], [-88.04, 33.05], [-88.03, 33.06], [-88.0, 33.07], [-87.99, 33.07], [-87.99, 33.08], [-87.97, 33.08], [-87.96, 33.09], [-87.95, 33.09], [-87.95, 33.11], [-87.9, 33.13], [-87.89, 33.13], [-87.88, 33.14], [-87.86, 33.14], [-87.84, 33.15], [-87.84, 33.09], [-87.83, 33.09], [-87.83, 33.02], [-87.71, 33.02], [-87.72, 33.01], [-87.62, 33.0], [-87.5, 33.0], [-87.42, 33.0], [-87.42, 32.97], [-87.42, 32.9], [-87.42, 32.87], [-87.32, 32.88], [-87.32, 32.83], [-87.23, 32.83], [-87.22, 32.84], [-87.16, 32.84], [-87.02, 32.84], [-87.02, 32.75], [-87.02, 32.66], [-86.92, 32.66], [-86.92, 32.66], [-86.91, 32.63], [-86.91, 32.62], [-86.9, 32.59], [-86.9, 32.58], [-86.9, 32.58], [-86.9, 32.56], [-86.91, 32.54], [-86.89, 32.51], [-86.89, 32.5], [-86.88, 32.49], [-86.88, 32.48], [-86.87, 32.47], [-86.86, 32.45], [-86.86, 32.44], [-86.85, 32.44], [-86.84, 32.43], [-86.83, 32.43], [-86.83, 32.42], [-86.85, 32.42], [-86.84, 32.4], [-86.83, 32.38], [-86.82, 32.37], [-86.81, 32.35], [-86.81, 32.35], [-86.82, 32.34], [-86.82, 32.32], [-86.81, 32.31], [-86.8, 32.31], [-86.79, 32.31], [-86.77, 32.34], [-86.78, 32.37], [-86.78, 32.39], [-86.77, 32.4], [-86.76, 32.39], [-86.75, 32.39], [-86.74, 32.39], [-86.73, 32.4], [-86.72, 32.4], [-86.72, 32.39], [-86.72, 32.37], [-86.71, 32.36], [-86.68, 32.35], [-86.68, 32.36], [-86.66, 32.38], [-86.65, 32.4], [-86.65, 32.4], [-86.63, 32.4], [-86.62, 32.41], [-86.61, 32.4], [-86.62, 32.38], [-86.61, 32.37], [-86.6, 32.36], [-86.59, 32.36], [-86.58, 32.38], [-86.57, 32.38], [-86.56, 32.37], [-86.55, 32.37], [-86.54, 32.36], [-86.54, 32.35], [-86.53, 32.34], [-86.49, 32.35], [-86.49, 32.35], [-86.49, 32.36], [-86.49, 32.37], [-86.47, 32.37], [-86.46, 32.38], [-86.46, 32.41], [-86.44, 32.4], [-86.42, 32.4], [-86.41, 32.41]]]}}, {"type": "Feature", "properties": {"STATE": "Alabama", "STATE_FIPS": "01", "CD_2DIG": "07", "STATE_CODE": 1, "CLIMDIV": 107, "ID": 107, "CD_NEW": 7, "FIPS_CD": "0107", "NCDC_GEO_I": 36.0, "NAME": "COASTAL PLAIN", "ST_ABBRV": "AL", "SHAPE_AREA": 0.0, "SHAPE_LEN": 0.0}, "geometry": {"type": "Polygon", "coordinates": [[[-85.0, 32.51], [-85.0, 32.49], [-85.0, 32.47], [-84.99, 32.45], [-84.97, 32.44], [-84.96, 32.42], [-84.98, 32.41], [-84.98, 32.39], [-84.99, 32.39], [-84.97, 32.38], [-84.99, 32.37], [-84.98, 32.36], [-85.0, 32.35], [-85.01, 32.34], [-85.01, 32.33], [-84.93, 32.3], [-84.92, 32.29], [-84.9, 32.27], [-84.89, 32.26], [-84.9, 32.26], [-84.92, 32.23], [-84.92, 32.22], [-84.93, 32.22], [-84.97, 32.22], [-84.98, 32.21], [-84.97, 32.2], [-84.97, 32.2], [-84.96, 32.2], [-84.97, 32.19], [-85.01, 32.18], [-85.03, 32.17], [-85.05, 32.14], [-85.06, 32.13], [-85.05, 32.1], [-85.05, 32.09], [-85.05, 32.08], [-85.06, 32.05], [-85.05, 32.04], [-85.06, 32.03], [-85.06, 32.01], [-85.06, 32.0], [-85.07, 31.98], [-85.07, 31.97], [-85.09, 31.96], [-85.08, 31.94], [-85.09, 31.93], [-85.1, 31.92], [-85.11, 31.91], [-85.11, 31.9], [-85.12, 31.89], [-85.13, 31.89], [-85.13, 31.88], [-85.14, 31.86], [-85.14, 31.85], [-85.14, 31.84], [-85.13, 31.82], [-85.13, 31.79], [-85.14, 31.78], [-85.13, 31.77], [-85.13, 31.76], [-85.12, 31.74], [-85.12, 31.73], [-85.13, 31.72], [-85.13, 31.7], [-85.11, 31.69], [-85.11, 31.68], [-85.09, 31.66], [-85.08, 31.66], [-85.09, 31.64], [-85.07, 31.63], [-85.06, 31.62], [-85.06, 31.61], [-85.06, 31.6], [-85.06, 31.58], [-85.06, 31.57], [-85.05, 31.56], [-85.04, 31.55], [-85.04, 31.54], [-85.05, 31.53], [-85.04, 31.52], [-85.07, 31.48], [-85.07, 31.47], [-85.07, 31.45], [-85.07, 31.43], [-85.07, 31.43], [-85.08, 31.41], [-85.08, 31.4], [-85.08, 31.38], [-85.09, 31.36], [-85.09, 31.36], [-85.09, 31.35], [-85.09, 31.34], [-85.08, 31.33], [-85.09, 31.29], [-85.1, 31.28], [-85.11, 31.28], [-85.11, 31.26], [-85.11, 31.26], [-85.1, 31.23], [-85.1, 31.23], [-85.1, 31.21], [-85.11, 31.2], [-85.11, 31.19], [-85.1, 31.18], [-85.1, 31.16], [-85.09, 31.16], [-85.08, 31.16], [-85.06, 31.14], [-85.05, 31.12], [-85.04, 31.11], [-85.03, 31.1], [-85.03, 31.08], [-85.03, 31.07], [-85.02, 31.06], [-85.01, 31.05], [-85.01, 31.03], [-85.0, 31.02], [-85.0, 31.01], [-85.0, 31.0], [-85.07, 31.0], [-85.24, 31.0], [-85.37, 31.0], [-85.5, 31.0], [-85.57, 31.0], [-85.75, 31.0], [-85.75, 30.99], [-85.87, 30.99], [-86.0, 30.99], [-86.12, 30.99], [-86.24, 30.99], [-86.29, 30.99], [-86.37, 30.99], [-86.38, 30.99], [-86.5, 30.99], [-86.56, 30.99], [-86.66, 31.0], [-86.7, 30.99], [-86.72, 31.0], [-86.93, 31.0], [-87.05, 31.0], [-87.15, 31.0], [-87.24, 31.0], [-87.25, 31.0], [-87.3, 31.0], [-87.41, 31.0], [-87.46, 31.0], [-87.6, 31.0], [-87.62, 31.0], [-87.62, 31.1], [-87.62, 31.17], [-87.62, 31.24], [-87.64, 31.24], [-87.65, 31.25], [-87.68, 31.26], [-87.69, 31.28], [-87.69, 31.28], [-87.7, 31.28], [-87.71, 31.29], [-87.72, 31.3], [-87.74, 31.3], [-87.75, 31.3], [-87.77, 31.3], [-87.77, 31.29], [-87.79, 31.3], [-87.8, 31.31], [-87.8, 31.32], [-87.81, 31.32], [-87.81, 31.31], [-87.79, 31.28], [-87.78, 31.28], [-87.8, 31.27], [-87.82, 31.28], [-87.83, 31.28], [-87.83, 31.26], [-87.84, 31.25], [-87.84, 31.25], [-87.84, 31.24], [-87.84, 31.23], [-87.84, 31.23], [-87.85, 31.23], [-87.86, 31.24], [-87.86, 31.23], [-87.86, 31.22], [-87.85, 31.21], [-87.86, 31.2], [-87.87, 31.22], [-87.88, 31.21], [-87.87, 31.2], [-87.88, 31.2], [-87.89, 31.2], [-87.9, 31.2], [-87.91, 31.2], [-87.91, 31.19], [-87.93, 31.19], [-87.94, 31.19], [-87.95, 31.18], [-87.94, 31.17], [-87.94, 31.16], [-87.96, 31.16], [-87.97, 31.16], [-87.99, 31.17], [-88.02, 31.14], [-88.3, 31.14], [-88.33, 31.14], [-88.33, 31.11], [-88.43, 31.11], [-88.43, 31.15], [-88.44, 31.28], [-88.45, 31.37], [-88.45, 31.49], [-88.46, 31.62], [-88.46, 31.71], [-88.47, 31.89], [-88.47, 31.95], [-88.45, 32.12], [-88.43, 32.25], [-88.42, 32.31], [-88.32, 32.31], [-88.21, 32.31], [-88.15, 32.31], [-88.01, 32.31], [-87.93, 32.31], [-87.93, 32.29], [-87.93, 32.28], [-87.94, 32.28], [-87.94, 32.3], [-87.95, 32.3], [-87.96, 32.3], [-87.97, 32.3], [-87.98, 32.31], [-87.99, 32.29], [-88.0, 32.3], [-88.01, 32.29], [-88.0, 32.28], [-88.02, 32.29], [-88.02, 32.27], [-88.01, 32.26], [-88.01, 32.25], [-88.02, 32.23], [-88.01, 32.22], [-88.01, 32.2], [-88.01, 32.19], [-88.02, 32.16], [-88.02, 32.14], [-88.04, 32.15], [-88.04, 32.14], [-88.04, 32.12], [-88.05, 32.1], [-88.05, 32.09], [-88.04, 32.08], [-88.05, 32.08], [-88.07, 32.06], [-88.08, 32.07], [-88.1, 32.07], [-88.11, 32.06], [-88.12, 32.05], [-88.11, 32.04], [-88.12, 32.02], [-88.11, 32.01], [-88.1, 32.0], [-88.1, 31.99], [-88.08, 32.0], [-88.07, 31.99], [-87.98, 31.99], [-87.87, 31.99], [-87.75, 31.99], [-87.67, 31.99], [-87.67, 32.0], [-87.62, 32.01], [-87.62, 32.13], [-87.52, 32.13], [-87.52, 32.25], [-87.51, 32.27], [-87.49, 32.27], [-87.47, 32.26], [-87.44, 32.27], [-87.44, 32.26], [-87.43, 32.25], [-87.42, 32.24], [-87.41, 32.24], [-87.39, 32.24], [-87.39, 32.23], [-87.39, 32.22], [-87.37, 32.22], [-87.37, 32.21], [-87.36, 32.2], [-87.34, 32.2], [-87.33, 32.2], [-87.32, 32.18], [-87.31, 32.18], [-87.28, 32.15], [-87.26, 32.15], [-87.25, 32.13], [-87.26, 32.12], [-87.25, 32.12], [-87.23, 32.1], [-87.22, 32.09], [-87.2, 32.09], [-87.19, 32.08], [-87.19, 32.07], [-87.18, 32.06], [-87.18, 32.05], [-87.12, 32.05], [-87.0, 32.05], [-86.99, 32.05], [-86.86, 32.05], [-86.86, 32.04], [-86.86, 31.96], [-86.8, 31.96], [-86.61, 31.96], [-86.5, 31.96], [-86.49, 31.96], [-86.41, 31.96], [-86.41, 31.96], [-86.41, 32.04], [-86.4, 32.04], [-86.41, 32.05], [-86.3, 32.05], [-86.3, 32.04], [-86.3, 31.97], [-86.24, 31.97], [-86.12, 31.97], [-86.12, 31.97], [-86.0, 31.97], [-86.0, 31.97], [-86.0, 32.05], [-85.98, 32.05], [-85.98, 32.04], [-85.96, 32.04], [-85.96, 32.05], [-85.95, 32.06], [-85.95, 32.05], [-85.91, 32.05], [-85.91, 32.05], [-85.89, 32.05], [-85.89, 31.99], [-85.88, 31.98], [-85.88, 31.97], [-85.79, 31.97], [-85.79, 31.88], [-85.66, 31.88], [-85.66, 31.89], [-85.65, 31.9], [-85.65, 31.91], [-85.62, 31.94], [-85.6, 31.96], [-85.6, 31.97], [-85.6, 31.98], [-85.59, 32.0], [-85.54, 32.0], [-85.51, 32.0], [-85.51, 32.01], [-85.43, 32.01], [-85.43, 32.06], [-85.43, 32.14], [-85.41, 32.14], [-85.41, 32.15], [-85.43, 32.15], [-85.43, 32.23], [-85.43, 32.32], [-85.43, 32.38], [-85.43, 32.41], [-85.33, 32.41], [-85.33, 32.47], [-85.2, 32.47], [-85.14, 32.47], [-85.06, 32.47], [-85.06, 32.51], [-85.0, 32.51]]]}}, {"type": "Feature", "properties": {"STATE": "Alabama", "STATE_FIPS": "01", "CD_2DIG": "08", "STATE_CODE": 1, "CLIMDIV": 108, "ID": 108, "CD_NEW": 8, "FIPS_CD": "0108", "NCDC_GEO_I": 37.0, "NAME": "GULF", "ST_ABBRV": "AL", "SHAPE_AREA": 0.0, "SHAPE_LEN": 0.0}, "geometry": {"type": "MultiPolygon", "coordinates": [[[[-87.6, 31.0], [-87.59, 30.96], [-87.59, 30.95], [-87.61, 30.92], [-87.62, 30.9], [-87.62, 30.9], [-87.62, 30.89], [-87.63, 30.88], [-87.63, 30.86], [-87.62, 30.85], [-87.63, 30.85], [-87.62, 30.83], [-87.6, 30.83], [-87.6, 30.82], [-87.58, 30.81], [-87.57, 30.8], [-87.56, 30.8], [-87.54, 30.78], [-87.55, 30.77], [-87.54, 30.76], [-87.54, 30.75], [-87.53, 30.74], [-87.51, 30.73], [-87.5, 30.72], [-87.48, 30.72], [-87.48, 30.71], [-87.47, 30.7], [-87.45, 30.7], [-87.44, 30.69], [-87.41, 30.68], [-87.4, 30.65], [-87.39, 30.63], [-87.4, 30.61], [-87.41, 30.6], [-87.41, 30.58], [-87.42, 30.57], [-87.43, 30.55], [-87.44, 30.53], [-87.45, 30.53], [-87.45, 30.51], [-87.43, 30.5], [-87.43, 30.5], [-87.43, 30.49], [-87.43, 30.49], [-87.43, 30.48], [-87.44, 30.48], [-87.42, 30.46], [-87.42, 30.46], [-87.42, 30.45], [-87.41, 30.45], [-87.4, 30.45], [-87.4, 30.42], [-87.41, 30.42], [-87.43, 30.42], [-87.44, 30.4], [-87.45, 30.4], [-87.45, 30.38], [-87.46, 30.37], [-87.46, 30.36], [-87.49, 30.34], [-87.49, 30.35], [-87.51, 30.34], [-87.51, 30.34], [-87.52, 30.32], [-87.52, 30.3], [-87.54, 30.29], [-87.56, 30.29], [-87.56, 30.29], [-87.56, 30.27], [-87.57, 30.27], [-87.61, 30.26], [-87.66, 30.25], [-87.68, 30.25], [-87.71, 30.24], [-87.74, 30.24], [-87.8, 30.23], [-87.83, 30.23], [-87.88, 30.23], [-87.94, 30.23], [-87.98, 30.23], [-88.01, 30.22], [-88.03, 30.22], [-88.02, 30.23], [-87.96, 30.24], [-87.95, 30.24], [-87.96, 30.25], [-87.94, 30.26], [-87.92, 30.25], [-87.92, 30.25], [-87.9, 30.24], [-87.88, 30.24], [-87.87, 30.24], [-87.85, 30.24], [-87.82, 30.25], [-87.8, 30.25], [-87.78, 30.26], [-87.77, 30.26], [-87.75, 30.28], [-87.76, 30.29], [-87.77, 30.31], [-87.8, 30.33], [-87.81, 30.33], [-87.83, 30.35], [-87.84, 30.37], [-87.84, 30.38], [-87.85, 30.38], [-87.87, 30.39], [-87.91, 30.41], [-87.91, 30.45], [-87.92, 30.47], [-87.93, 30.48], [-87.93, 30.5], [-87.92, 30.51], [-87.92, 30.52], [-87.9, 30.54], [-87.9, 30.55], [-87.9, 30.56], [-87.92, 30.59], [-87.91, 30.62], [-87.92, 30.63], [-87.92, 30.64], [-87.93, 30.64], [-87.93, 30.65], [-87.94, 30.66], [-87.93, 30.67], [-87.94, 30.67], [-87.95, 30.67], [-87.97, 30.67], [-88.0, 30.68], [-88.0, 30.69], [-87.99, 30.7], [-87.99, 30.72], [-87.99, 30.72], [-88.0, 30.71], [-88.01, 30.72], [-88.01, 30.73], [-88.0, 30.75], [-87.98, 30.76], [-87.99, 30.77], [-88.0, 30.77], [-88.01, 30.77], [-88.02, 30.76], [-88.02, 30.74], [-88.02, 30.7], [-88.03, 30.69], [-88.01, 30.69], [-88.02, 30.68], [-88.02, 30.67], [-88.03, 30.67], [-88.06, 30.66], [-88.06, 30.65], [-88.05, 30.63], [-88.06, 30.63], [-88.05, 30.61], [-88.06, 30.61], [-88.07, 30.59], [-88.08, 30.57], [-88.09, 30.56], [-88.08, 30.55], [-88.08, 30.53], [-88.09, 30.53], [-88.1, 30.51], [-88.1, 30.49], [-88.1, 30.47], [-88.11, 30.45], [-88.1, 30.43], [-88.11, 30.4], [-88.11, 30.38], [-88.11, 30.36], [-88.13, 30.34], [-88.14, 30.35], [-88.14, 30.34], [-88.16, 30.33], [-88.18, 30.32], [-88.19, 30.32], [-88.2, 30.32], [-88.19, 30.34], [-88.19, 30.34], [-88.19, 30.36], [-88.21, 30.36], [-88.22, 30.37], [-88.23, 30.37], [-88.24, 30.38], [-88.26, 30.38], [-88.27, 30.38], [-88.28, 30.39], [-88.29, 30.39], [-88.3, 30.39], [-88.3, 30.37], [-88.31, 30.37], [-88.31, 30.38], [-88.32, 30.39], [-88.34, 30.4], [-88.34, 30.4], [-88.36, 30.41], [-88.37, 30.39], [-88.38, 30.4], [-88.4, 30.39], [-88.4, 30.53], [-88.41, 30.61], [-88.41, 30.72], [-88.42, 30.88], [-88.43, 31.0], [-88.43, 31.11], [-88.33, 31.11], [-88.33, 31.14], [-88.3, 31.14], [-88.02, 31.14], [-87.99, 31.17], [-87.97, 31.16], [-87.96, 31.16], [-87.94, 31.16], [-87.94, 31.17], [-87.95, 31.18], [-87.94, 31.19], [-87.93, 31.19], [-87.91, 31.19], [-87.91, 31.2], [-87.9, 31.2], [-87.89, 31.2], [-87.88, 31.2], [-87.87, 31.2], [-87.88, 31.21], [-87.87, 31.22], [-87.86, 31.2], [-87.85, 31.21], [-87.86, 31.22], [-87.86, 31.23], [-87.86, 31.24], [-87.85, 31.23], [-87.84, 31.23], [-87.84, 31.23], [-87.84, 31.24], [-87.84, 31.25], [-87.84, 31.25], [-87.83, 31.26], [-87.83, 31.28], [-87.82, 31.28], [-87.8, 31.27], [-87.78, 31.28], [-87.79, 31.28], [-87.81, 31.31], [-87.81, 31.32], [-87.8, 31.32], [-87.8, 31.31], [-87.79, 31.3], [-87.77, 31.29], [-87.77, 31.3], [-87.75, 31.3], [-87.74, 31.3], [-87.72, 31.3], [-87.71, 31.29], [-87.7, 31.28], [-87.69, 31.28], [-87.69, 31.28], [-87.68, 31.26], [-87.65, 31.25], [-87.64, 31.24], [-87.62, 31.24], [-87.62, 31.17], [-87.62, 31.1], [-87.62, 31.0], [-87.6, 31.0]]], [[[-88.12, 30.27], [-88.11, 30.26], [-88.1, 30.25], [-88.09, 30.26], [-88.07, 30.25], [-88.08, 30.24], [-88.11, 30.24], [-88.12, 30.25], [-88.14, 30.25], [-88.17, 30.25], [-88.21, 30.24], [-88.27, 30.23], [-88.26, 30.24], [-88.22, 30.25], [-88.18, 30.25], [-88.16, 30.25], [-88.14, 30.26], [-88.13, 30.25], [-88.12, 30.26], [-88.12, 30.27]]], [[[-87.46, 30.31], [-87.46, 30.3], [-87.49, 30.29], [-87.52, 30.29], [-87.5, 30.3], [-87.49, 30.3], [-87.48, 30.3], [-87.46, 30.31]]]]}}]}