{"type": "FeatureCollection", "features": [{"type": "Feature", "properties": {"STATE": "Arizona", "STATE_FIPS": "04", "CD_2DIG": "01", "STATE_CODE": 2, "CLIMDIV": 201, "ID": 201, "CD_NEW": 1, "FIPS_CD": "0401", "NCDC_GEO_I": 23.0, "NAME": "NORTHWEST", "ST_ABBRV": "AZ", "SHAPE_AREA": 0.0, "SHAPE_LEN": 0.0}, "geometry": {"type": "Polygon", "coordinates": [[[-114.05, 36.99], [-114.05, 37.0], [-114.05, 37.0], [-113.97, 37.0], [-113.8, 37.0], [-113.58, 37.0], [-113.41, 37.0], [-113.12, 37.0], [-113.11, 37.0], [-113.01, 37.0], [-112.88, 37.0], [-112.75, 37.0], [-112.54, 37.0], [-112.54, 37.0], [-112.54, 36.98], [-112.53, 36.97], [-112.53, 36.95], [-112.55, 36.94], [-112.55, 36.92], [-112.55, 36.91], [-112.57, 36.9], [-112.58, 36.87], [-112.59, 36.86], [-112.58, 36.85], [-112.59, 36.84], [-112.6, 36.82], [-112.6, 36.82], [-112.6, 36.81], [-112.61, 36.8], [-112.62, 36.78], [-112.62, 36.77], [-112.62, 36.76], [-112.62, 36.76], [-112.62, 36.75], [-112.61, 36.74], [-112.62, 36.73], [-112.62, 36.71], [-112.64, 36.68], [-112.64, 36.67], [-112.62, 36.63], [-112.62, 36.6], [-112.63, 36.59], [-112.63, 36.58], [-112.63, 36.57], [-112.65, 36.56], [-112.65, 36.55], [-112.66, 36.54], [-112.66, 36.53], [-112.65, 36.53], [-112.65, 36.51], [-112.64, 36.51], [-112.64, 36.5], [-112.64, 36.49], [-112.64, 36.48], [-112.63, 36.49], [-112.62, 36.47], [-112.64, 36.46], [-112.64, 36.44], [-112.64, 36.43], [-112.64, 36.43], [-112.63, 36.43], [-112.62, 36.41], [-112.63, 36.4], [-112.63, 36.39], [-112.65, 36.38], [-112.65, 36.37], [-112.67, 36.35], [-112.68, 36.34], [-112.69, 36.35], [-112.7, 36.36], [-112.72, 36.35], [-112.73, 36.34], [-112.72, 36.33], [-112.72, 36.32], [-112.73, 36.32], [-112.75, 36.32], [-112.76, 36.32], [-112.76, 36.31], [-112.77, 36.3], [-112.79, 36.3], [-112.79, 36.29], [-112.81, 36.29], [-112.83, 36.29], [-112.84, 36.28], [-112.85, 36.28], [-112.87, 36.28], [-112.88, 36.28], [-112.88, 36.26], [-112.9, 36.25], [-112.92, 36.26], [-112.93, 36.26], [-112.93, 36.24], [-112.96, 36.24], [-112.98, 36.23], [-113.01, 36.24], [-113.02, 36.24], [-113.04, 36.23], [-113.05, 36.21], [-113.07, 36.2], [-113.1, 36.19], [-113.11, 36.18], [-113.13, 36.17], [-113.14, 36.17], [-113.15, 36.17], [-113.18, 36.16], [-113.2, 36.15], [-113.21, 36.13], [-113.2, 36.12], [-113.21, 36.11], [-113.22, 36.09], [-113.24, 36.09], [-113.26, 36.09], [-113.28, 36.1], [-113.3, 36.1], [-113.31, 36.1], [-113.32, 36.09], [-113.33, 36.07], [-113.35, 36.06], [-113.35, 36.04], [-113.35, 36.01], [-113.34, 36.0], [-113.34, 35.99], [-113.33, 35.98], [-113.32, 35.98], [-113.32, 35.96], [-113.33, 35.95], [-113.33, 35.93], [-113.33, 35.91], [-113.32, 35.9], [-113.31, 35.89], [-113.31, 35.89], [-113.31, 35.87], [-113.31, 35.86], [-113.32, 35.85], [-113.33, 35.84], [-113.33, 35.83], [-113.33, 35.82], [-113.33, 35.81], [-113.33, 35.8], [-113.33, 35.74], [-113.33, 35.53], [-113.33, 35.4], [-113.33, 35.19], [-113.33, 35.02], [-113.33, 34.95], [-113.33, 34.83], [-113.33, 34.73], [-113.33, 34.63], [-113.33, 34.57], [-113.33, 34.47], [-113.33, 34.32], [-113.35, 34.3], [-113.37, 34.29], [-113.4, 34.3], [-113.41, 34.29], [-113.43, 34.3], [-113.45, 34.3], [-113.47, 34.3], [-113.47, 34.3], [-113.49, 34.3], [-113.5, 34.3], [-113.52, 34.31], [-113.53, 34.31], [-113.54, 34.31], [-113.55, 34.29], [-113.56, 34.29], [-113.58, 34.26], [-113.59, 34.24], [-113.6, 34.23], [-113.62, 34.23], [-113.63, 34.23], [-113.63, 34.22], [-113.65, 34.22], [-113.66, 34.21], [-113.68, 34.21], [-113.7, 34.21], [-113.72, 34.22], [-113.73, 34.24], [-113.75, 34.24], [-113.78, 34.23], [-113.79, 34.24], [-113.81, 34.23], [-113.82, 34.24], [-113.83, 34.22], [-113.84, 34.22], [-113.85, 34.24], [-113.85, 34.25], [-113.87, 34.26], [-113.9, 34.25], [-113.93, 34.25], [-113.95, 34.26], [-113.97, 34.26], [-114.01, 34.25], [-114.02, 34.27], [-114.03, 34.26], [-114.05, 34.27], [-114.05, 34.28], [-114.06, 34.28], [-114.07, 34.29], [-114.1, 34.3], [-114.11, 34.3], [-114.13, 34.3], [-114.14, 34.3], [-114.16, 34.32], [-114.17, 34.34], [-114.18, 34.35], [-114.2, 34.36], [-114.23, 34.37], [-114.23, 34.38], [-114.25, 34.39], [-114.26, 34.4], [-114.28, 34.4], [-114.29, 34.41], [-114.29, 34.42], [-114.3, 34.43], [-114.33, 34.44], [-114.34, 34.45], [-114.37, 34.45], [-114.39, 34.46], [-114.38, 34.48], [-114.38, 34.5], [-114.38, 34.51], [-114.38, 34.53], [-114.41, 34.57], [-114.42, 34.58], [-114.44, 34.59], [-114.42, 34.6], [-114.42, 34.61], [-114.44, 34.62], [-114.44, 34.64], [-114.46, 34.66], [-114.45, 34.67], [-114.47, 34.69], [-114.47, 34.71], [-114.49, 34.72], [-114.49, 34.72], [-114.49, 34.73], [-114.5, 34.73], [-114.5, 34.73], [-114.5, 34.73], [-114.52, 34.74], [-114.53, 34.75], [-114.55, 34.77], [-114.56, 34.77], [-114.57, 34.8], [-114.58, 34.82], [-114.58, 34.83], [-114.59, 34.84], [-114.6, 34.85], [-114.62, 34.86], [-114.63, 34.86], [-114.64, 34.88], [-114.64, 34.89], [-114.63, 34.91], [-114.63, 34.92], [-114.63, 34.94], [-114.63, 34.96], [-114.63, 34.97], [-114.63, 34.98], [-114.63, 35.0], [-114.64, 35.02], [-114.63, 35.03], [-114.63, 35.04], [-114.61, 35.06], [-114.6, 35.07], [-114.6, 35.07], [-114.62, 35.09], [-114.64, 35.1], [-114.65, 35.1], [-114.63, 35.12], [-114.62, 35.12], [-114.6, 35.12], [-114.58, 35.13], [-114.57, 35.14], [-114.57, 35.16], [-114.57, 35.18], [-114.57, 35.2], [-114.58, 35.21], [-114.58, 35.23], [-114.59, 35.26], [-114.6, 35.29], [-114.6, 35.3], [-114.6, 35.32], [-114.6, 35.35], [-114.62, 35.38], [-114.63, 35.41], [-114.65, 35.43], [-114.66, 35.45], [-114.67, 35.46], [-114.67, 35.48], [-114.68, 35.51], [-114.67, 35.52], [-114.67, 35.52], [-114.66, 35.53], [-114.66, 35.56], [-114.67, 35.57], [-114.68, 35.58], [-114.66, 35.59], [-114.65, 35.6], [-114.65, 35.61], [-114.67, 35.62], [-114.68, 35.64], [-114.69, 35.65], [-114.69, 35.66], [-114.68, 35.68], [-114.68, 35.69], [-114.7, 35.7], [-114.71, 35.71], [-114.7, 35.74], [-114.7, 35.76], [-114.7, 35.77], [-114.7, 35.79], [-114.71, 35.81], [-114.7, 35.81], [-114.7, 35.83], [-114.7, 35.85], [-114.7, 35.85], [-114.68, 35.86], [-114.66, 35.87], [-114.68, 35.89], [-114.7, 35.9], [-114.71, 35.91], [-114.71, 35.93], [-114.73, 35.94], [-114.73, 35.96], [-114.74, 35.98], [-114.74, 35.98], [-114.74, 35.99], [-114.74, 36.01], [-114.72, 36.03], [-114.73, 36.04], [-114.74, 36.04], [-114.74, 36.05], [-114.74, 36.07], [-114.75, 36.08], [-114.75, 36.09], [-114.74, 36.1], [-114.71, 36.11], [-114.69, 36.11], [-114.68, 36.11], [-114.67, 36.12], [-114.67, 36.12], [-114.66, 36.12], [-114.64, 36.14], [-114.63, 36.14], [-114.62, 36.13], [-114.6, 36.14], [-114.57, 36.15], [-114.54, 36.15], [-114.53, 36.15], [-114.51, 36.15], [-114.5, 36.14], [-114.51, 36.13], [-114.5, 36.13], [-114.49, 36.13], [-114.47, 36.14], [-114.46, 36.14], [-114.45, 36.13], [-114.43, 36.14], [-114.42, 36.15], [-114.4, 36.15], [-114.38, 36.14], [-114.37, 36.14], [-114.36, 36.13], [-114.35, 36.12], [-114.34, 36.11], [-114.33, 36.11], [-114.31, 36.08], [-114.31, 36.07], [-114.31, 36.07], [-114.31, 36.06], [-114.3, 36.06], [-114.29, 36.05], [-114.27, 36.04], [-114.27, 36.04], [-114.26, 36.03], [-114.24, 36.01], [-114.21, 36.02], [-114.19, 36.02], [-114.18, 36.03], [-114.15, 36.02], [-114.15, 36.03], [-114.14, 36.04], [-114.14, 36.06], [-114.12, 36.09], [-114.11, 36.1], [-114.12, 36.11], [-114.12, 36.12], [-114.1, 36.12], [-114.09, 36.14], [-114.09, 36.15], [-114.07, 36.18], [-114.06, 36.19], [-114.05, 36.19], [-114.05, 36.25], [-114.05, 36.29], [-114.05, 36.39], [-114.05, 36.46], [-114.05, 36.5], [-114.05, 36.62], [-114.05, 36.69], [-114.05, 36.75], [-114.05, 36.84], [-114.05, 36.96], [-114.05, 36.99]]]}}, {"type": "Feature", "properties": {"STATE": "Arizona", "STATE_FIPS": "04", "CD_2DIG": "02", "STATE_CODE": 2, "CLIMDIV": 202, "ID": 202, "CD_NEW": 2, "FIPS_CD": "0402", "NCDC_GEO_I": 24.0, "NAME": "NORTHEAST", "ST_ABBRV": "AZ", "SHAPE_AREA": 0.0, "SHAPE_LEN": 0.0}, "geometry": {"type": "Polygon", "coordinates": [[[-109.05, 37.0], [-109.05, 37.0], [-109.05, 36.99], [-109.05, 36.98], [-109.05, 36.97], [-109.05, 36.97], [-109.05, 36.94], [-109.05, 36.93], [-109.05, 36.93], [-109.05, 36.88], [-109.05, 36.77], [-109.05, 36.72], [-109.05, 36.71], [-109.05, 36.7], [-109.05, 36.7], [-109.05, 36.7], [-109.05, 36.69], [-109.05, 36.68], [-109.05, 36.66], [-109.05, 36.65], [-109.05, 36.65], [-109.05, 36.63], [-109.05, 36.63], [-109.05, 36.61], [-109.05, 36.59], [-109.05, 36.5], [-109.05, 36.38], [-109.05, 36.37], [-109.05, 36.36], [-109.05, 36.35], [-109.05, 36.33], [-109.05, 36.32], [-109.05, 36.31], [-109.05, 36.3], [-109.05, 36.3], [-109.05, 36.3], [-109.05, 36.3], [-109.05, 36.29], [-109.05, 36.29], [-109.05, 36.29], [-109.05, 36.29], [-109.05, 36.26], [-109.05, 36.25], [-109.05, 36.25], [-109.05, 36.18], [-109.05, 36.18], [-109.05, 36.13], [-109.05, 36.12], [-109.05, 36.07], [-109.05, 36.05], [-109.05, 36.03], [-109.05, 36.03], [-109.05, 36.02], [-109.05, 36.01], [-109.05, 36.0], [-109.05, 35.99], [-109.05, 35.99], [-109.05, 35.99], [-109.05, 35.98], [-109.05, 35.96], [-109.05, 35.94], [-109.05, 35.92], [-109.05, 35.89], [-109.05, 35.89], [-109.05, 35.89], [-109.05, 35.88], [-109.05, 35.76], [-109.05, 35.63], [-109.05, 35.61], [-109.05, 35.55], [-109.05, 35.55], [-109.05, 35.54], [-109.05, 35.5], [-109.05, 35.42], [-109.05, 35.38], [-109.05, 35.38], [-109.05, 35.37], [-109.05, 35.36], [-109.05, 35.25], [-109.05, 35.25], [-109.05, 35.24], [-109.05, 35.22], [-109.05, 35.17], [-109.05, 35.15], [-109.05, 35.13], [-109.05, 34.95], [-109.05, 34.8], [-109.05, 34.79], [-109.05, 34.77], [-109.05, 34.75], [-109.05, 34.71], [-109.05, 34.7], [-109.05, 34.68], [-109.05, 34.52], [-109.05, 34.37], [-109.05, 34.17], [-109.05, 34.0], [-109.05, 33.88], [-109.05, 33.78], [-109.05, 33.78], [-109.07, 33.78], [-109.1, 33.78], [-109.13, 33.78], [-109.25, 33.78], [-109.35, 33.78], [-109.36, 33.75], [-109.36, 33.74], [-109.36, 33.73], [-109.37, 33.72], [-109.38, 33.72], [-109.4, 33.72], [-109.42, 33.71], [-109.44, 33.71], [-109.46, 33.7], [-109.47, 33.7], [-109.48, 33.69], [-109.48, 33.67], [-109.48, 33.66], [-109.48, 33.66], [-109.5, 33.65], [-109.5, 33.64], [-109.52, 33.64], [-109.52, 33.63], [-109.53, 33.62], [-109.55, 33.62], [-109.56, 33.63], [-109.58, 33.62], [-109.61, 33.61], [-109.6, 33.6], [-109.63, 33.58], [-109.64, 33.59], [-109.66, 33.58], [-109.68, 33.57], [-109.67, 33.57], [-109.67, 33.55], [-109.68, 33.55], [-109.69, 33.54], [-109.7, 33.54], [-109.71, 33.53], [-109.73, 33.52], [-109.73, 33.52], [-109.74, 33.51], [-109.74, 33.5], [-109.74, 33.49], [-109.75, 33.49], [-109.76, 33.48], [-109.78, 33.48], [-109.78, 33.48], [-109.81, 33.49], [-109.81, 33.5], [-109.82, 33.51], [-109.82, 33.52], [-109.82, 33.53], [-109.84, 33.53], [-109.84, 33.54], [-109.87, 33.56], [-109.88, 33.57], [-109.89, 33.57], [-109.9, 33.58], [-109.91, 33.58], [-109.92, 33.57], [-109.95, 33.57], [-109.96, 33.58], [-109.97, 33.58], [-110.0, 33.58], [-110.0, 33.58], [-110.0, 33.78], [-110.0, 34.0], [-110.14, 34.0], [-110.35, 34.0], [-110.59, 34.0], [-110.75, 34.0], [-110.75, 34.15], [-110.75, 34.26], [-110.77, 34.26], [-110.77, 34.27], [-110.76, 34.28], [-110.76, 34.29], [-110.78, 34.3], [-110.79, 34.31], [-110.8, 34.3], [-110.81, 34.3], [-110.82, 34.3], [-110.82, 34.29], [-110.83, 34.28], [-110.84, 34.27], [-110.85, 34.27], [-110.88, 34.28], [-110.89, 34.29], [-110.89, 34.29], [-110.9, 34.3], [-110.9, 34.3], [-110.91, 34.3], [-110.93, 34.31], [-110.94, 34.31], [-110.95, 34.31], [-110.97, 34.32], [-110.98, 34.34], [-110.99, 34.34], [-111.0, 34.36], [-111.03, 34.36], [-111.03, 34.35], [-111.04, 34.34], [-111.05, 34.35], [-111.06, 34.36], [-111.05, 34.36], [-111.04, 34.37], [-111.04, 34.38], [-111.05, 34.38], [-111.06, 34.38], [-111.07, 34.38], [-111.08, 34.39], [-111.09, 34.39], [-111.11, 34.39], [-111.11, 34.39], [-111.14, 34.39], [-111.14, 34.38], [-111.15, 34.38], [-111.15, 34.39], [-111.16, 34.4], [-111.18, 34.41], [-111.2, 34.41], [-111.22, 34.42], [-111.22, 34.43], [-111.23, 34.43], [-111.24, 34.43], [-111.25, 34.45], [-111.25, 34.45], [-111.26, 34.44], [-111.27, 34.44], [-111.29, 34.44], [-111.31, 34.43], [-111.31, 34.43], [-111.33, 34.42], [-111.35, 34.43], [-111.35, 34.44], [-111.36, 34.44], [-111.37, 34.44], [-111.38, 34.43], [-111.39, 34.42], [-111.4, 34.43], [-111.4, 34.41], [-111.41, 34.4], [-111.4, 34.4], [-111.39, 34.4], [-111.39, 34.39], [-111.4, 34.38], [-111.41, 34.38], [-111.42, 34.38], [-111.42, 34.39], [-111.42, 34.41], [-111.43, 34.42], [-111.42, 34.44], [-111.41, 34.44], [-111.43, 34.45], [-111.44, 34.43], [-111.45, 34.43], [-111.46, 34.43], [-111.47, 34.41], [-111.48, 34.42], [-111.48, 34.43], [-111.49, 34.42], [-111.51, 34.42], [-111.51, 34.42], [-111.52, 34.41], [-111.54, 34.41], [-111.55, 34.42], [-111.54, 34.42], [-111.53, 34.42], [-111.53, 34.43], [-111.52, 34.43], [-111.52, 34.45], [-111.51, 34.44], [-111.47, 34.46], [-111.49, 34.46], [-111.51, 34.45], [-111.53, 34.46], [-111.51, 34.47], [-111.51, 34.5], [-111.52, 34.49], [-111.52, 34.48], [-111.53, 34.47], [-111.55, 34.46], [-111.56, 34.47], [-111.56, 34.5], [-111.55, 34.53], [-111.55, 34.64], [-111.55, 34.64], [-111.55, 34.7], [-111.55, 34.8], [-111.66, 34.8], [-111.72, 34.8], [-111.78, 34.8], [-111.78, 34.82], [-111.78, 34.86], [-111.78, 34.98], [-111.81, 34.98], [-111.81, 34.98], [-111.99, 34.98], [-112.02, 34.97], [-112.23, 34.97], [-112.25, 34.97], [-112.33, 34.97], [-112.34, 35.15], [-112.44, 35.15], [-112.44, 35.22], [-112.44, 35.26], [-112.47, 35.24], [-112.47, 35.24], [-112.5, 35.24], [-112.54, 35.24], [-112.58, 35.24], [-112.6, 35.27], [-112.62, 35.27], [-112.62, 35.28], [-112.62, 35.3], [-112.63, 35.3], [-112.64, 35.3], [-112.66, 35.29], [-112.67, 35.3], [-112.68, 35.31], [-112.7, 35.31], [-112.72, 35.31], [-112.73, 35.3], [-112.75, 35.31], [-112.76, 35.31], [-112.78, 35.32], [-112.8, 35.32], [-112.89, 35.34], [-112.94, 35.35], [-112.95, 35.36], [-112.96, 35.38], [-112.98, 35.39], [-113.0, 35.4], [-113.09, 35.45], [-113.14, 35.47], [-113.15, 35.48], [-113.16, 35.5], [-113.18, 35.51], [-113.2, 35.51], [-113.22, 35.51], [-113.25, 35.52], [-113.26, 35.53], [-113.28, 35.53], [-113.3, 35.53], [-113.33, 35.53], [-113.33, 35.74], [-113.33, 35.8], [-113.33, 35.81], [-113.33, 35.82], [-113.33, 35.83], [-113.33, 35.84], [-113.32, 35.85], [-113.31, 35.86], [-113.31, 35.87], [-113.31, 35.89], [-113.31, 35.89], [-113.32, 35.9], [-113.33, 35.91], [-113.33, 35.93], [-113.33, 35.95], [-113.32, 35.96], [-113.32, 35.98], [-113.33, 35.98], [-113.34, 35.99], [-113.34, 36.0], [-113.35, 36.01], [-113.35, 36.04], [-113.35, 36.06], [-113.33, 36.07], [-113.32, 36.09], [-113.31, 36.1], [-113.3, 36.1], [-113.28, 36.1], [-113.26, 36.09], [-113.24, 36.09], [-113.22, 36.09], [-113.21, 36.11], [-113.2, 36.12], [-113.21, 36.13], [-113.2, 36.15], [-113.18, 36.16], [-113.15, 36.17], [-113.14, 36.17], [-113.13, 36.17], [-113.11, 36.18], [-113.1, 36.19], [-113.07, 36.2], [-113.05, 36.21], [-113.04, 36.23], [-113.02, 36.24], [-113.01, 36.24], [-112.98, 36.23], [-112.96, 36.24], [-112.93, 36.24], [-112.93, 36.26], [-112.92, 36.26], [-112.9, 36.25], [-112.88, 36.26], [-112.88, 36.28], [-112.87, 36.28], [-112.85, 36.28], [-112.84, 36.28], [-112.83, 36.29], [-112.81, 36.29], [-112.79, 36.29], [-112.79, 36.3], [-112.77, 36.3], [-112.76, 36.31], [-112.76, 36.32], [-112.75, 36.32], [-112.73, 36.32], [-112.72, 36.32], [-112.72, 36.33], [-112.73, 36.34], [-112.72, 36.35], [-112.7, 36.36], [-112.69, 36.35], [-112.68, 36.34], [-112.67, 36.35], [-112.65, 36.37], [-112.65, 36.38], [-112.63, 36.39], [-112.63, 36.4], [-112.62, 36.41], [-112.63, 36.43], [-112.64, 36.43], [-112.64, 36.43], [-112.64, 36.44], [-112.64, 36.46], [-112.62, 36.47], [-112.63, 36.49], [-112.64, 36.48], [-112.64, 36.49], [-112.64, 36.5], [-112.64, 36.51], [-112.65, 36.51], [-112.65, 36.53], [-112.66, 36.53], [-112.66, 36.54], [-112.65, 36.55], [-112.65, 36.56], [-112.63, 36.57], [-112.63, 36.58], [-112.63, 36.59], [-112.62, 36.6], [-112.62, 36.63], [-112.64, 36.67], [-112.64, 36.68], [-112.62, 36.71], [-112.62, 36.73], [-112.61, 36.74], [-112.62, 36.75], [-112.62, 36.76], [-112.62, 36.76], [-112.62, 36.77], [-112.62, 36.78], [-112.61, 36.8], [-112.6, 36.81], [-112.6, 36.82], [-112.6, 36.82], [-112.59, 36.84], [-112.58, 36.85], [-112.59, 36.86], [-112.58, 36.87], [-112.57, 36.9], [-112.55, 36.91], [-112.55, 36.92], [-112.55, 36.94], [-112.53, 36.95], [-112.53, 36.97], [-112.54, 36.98], [-112.54, 37.0], [-112.54, 37.0], [-112.25, 37.0], [-112.13, 37.0], [-112.0, 37.0], [-111.89, 37.0], [-111.88, 37.0], [-111.75, 37.0], [-111.62, 37.0], [-111.39, 37.0], [-111.28, 37.0], [-111.24, 37.0], [-111.13, 37.0], [-111.08, 37.0], [-110.99, 37.0], [-110.76, 37.0], [-110.51, 37.0], [-110.49, 37.0], [-110.47, 37.0], [-110.25, 37.0], [-110.02, 37.0], [-109.97, 37.0], [-109.94, 37.0], [-109.75, 37.0], [-109.63, 37.0], [-109.5, 37.0], [-109.36, 37.0], [-109.19, 37.0], [-109.12, 37.0], [-109.07, 37.0], [-109.05, 37.0], [-109.05, 37.0], [-109.05, 37.0]]]}}, {"type": "Feature", "properties": {"STATE": "Arizona", "STATE_FIPS": "04", "CD_2DIG": "05", "STATE_CODE": 2, "CLIMDIV": 205, "ID": 205, "CD_NEW": 5, "FIPS_CD": "0405", "NCDC_GEO_I": 25.0, "NAME": "SOUTHWEST", "ST_ABBRV": "AZ", "SHAPE_AREA": 0.0, "SHAPE_LEN": 0.0}, "geometry": {"type": "Polygon", "coordinates": [[[-113.33, 34.32], [-113.33, 34.21], [-113.33, 34.17], [-113.33, 34.11], [-113.33, 34.0], [-113.33, 33.87], [-113.33, 33.83], [-113.33, 33.77], [-113.33, 33.75], [-113.33, 33.61], [-113.33, 33.57], [-113.33, 33.5], [-113.33, 33.29], [-113.33, 33.25], [-113.33, 33.23], [-113.33, 33.14], [-113.33, 32.96], [-113.33, 32.74], [-113.33, 32.5], [-113.33, 32.39], [-113.33, 32.19], [-113.33, 32.04], [-113.49, 32.09], [-113.63, 32.13], [-113.78, 32.18], [-113.93, 32.22], [-114.07, 32.27], [-114.25, 32.32], [-114.5, 32.4], [-114.63, 32.44], [-114.79, 32.49], [-114.81, 32.49], [-114.82, 32.51], [-114.8, 32.51], [-114.81, 32.52], [-114.8, 32.54], [-114.81, 32.55], [-114.79, 32.56], [-114.8, 32.57], [-114.81, 32.56], [-114.81, 32.57], [-114.8, 32.57], [-114.8, 32.58], [-114.8, 32.59], [-114.81, 32.6], [-114.81, 32.62], [-114.8, 32.63], [-114.79, 32.62], [-114.76, 32.64], [-114.76, 32.65], [-114.75, 32.66], [-114.74, 32.68], [-114.73, 32.7], [-114.73, 32.7], [-114.72, 32.71], [-114.72, 32.72], [-114.71, 32.73], [-114.71, 32.73], [-114.71, 32.73], [-114.71, 32.74], [-114.71, 32.74], [-114.71, 32.74], [-114.7, 32.75], [-114.7, 32.75], [-114.69, 32.74], [-114.67, 32.74], [-114.63, 32.73], [-114.63, 32.73], [-114.63, 32.73], [-114.62, 32.73], [-114.62, 32.73], [-114.62, 32.73], [-114.62, 32.73], [-114.62, 32.73], [-114.62, 32.73], [-114.61, 32.73], [-114.61, 32.73], [-114.61, 32.73], [-114.59, 32.73], [-114.58, 32.73], [-114.58, 32.73], [-114.58, 32.73], [-114.58, 32.74], [-114.58, 32.74], [-114.58, 32.74], [-114.58, 32.74], [-114.57, 32.74], [-114.56, 32.74], [-114.56, 32.75], [-114.55, 32.75], [-114.55, 32.75], [-114.54, 32.75], [-114.54, 32.75], [-114.54, 32.75], [-114.54, 32.75], [-114.54, 32.76], [-114.54, 32.76], [-114.54, 32.76], [-114.53, 32.76], [-114.53, 32.76], [-114.53, 32.76], [-114.53, 32.76], [-114.53, 32.76], [-114.53, 32.77], [-114.53, 32.77], [-114.53, 32.77], [-114.53, 32.79], [-114.53, 32.79], [-114.53, 32.79], [-114.53, 32.8], [-114.53, 32.8], [-114.52, 32.81], [-114.51, 32.81], [-114.51, 32.81], [-114.51, 32.82], [-114.51, 32.82], [-114.49, 32.82], [-114.47, 32.85], [-114.47, 32.87], [-114.47, 32.87], [-114.47, 32.88], [-114.47, 32.88], [-114.46, 32.9], [-114.46, 32.91], [-114.46, 32.91], [-114.46, 32.91], [-114.46, 32.91], [-114.47, 32.92], [-114.48, 32.93], [-114.48, 32.94], [-114.47, 32.96], [-114.47, 32.97], [-114.47, 32.97], [-114.48, 32.98], [-114.48, 32.98], [-114.48, 32.98], [-114.48, 32.97], [-114.48, 32.97], [-114.48, 32.97], [-114.48, 32.97], [-114.48, 32.97], [-114.48, 32.97], [-114.48, 32.97], [-114.48, 32.97], [-114.49, 32.97], [-114.49, 32.97], [-114.49, 32.97], [-114.49, 32.97], [-114.49, 32.97], [-114.49, 32.97], [-114.5, 32.98], [-114.5, 33.0], [-114.51, 33.02], [-114.52, 33.03], [-114.53, 33.03], [-114.56, 33.04], [-114.57, 33.04], [-114.58, 33.04], [-114.58, 33.04], [-114.58, 33.04], [-114.58, 33.03], [-114.58, 33.03], [-114.59, 33.03], [-114.59, 33.03], [-114.59, 33.03], [-114.6, 33.03], [-114.62, 33.03], [-114.63, 33.03], [-114.64, 33.05], [-114.64, 33.05], [-114.65, 33.05], [-114.65, 33.05], [-114.65, 33.05], [-114.65, 33.04], [-114.66, 33.03], [-114.66, 33.03], [-114.66, 33.03], [-114.67, 33.03], [-114.67, 33.04], [-114.68, 33.05], [-114.67, 33.06], [-114.69, 33.07], [-114.69, 33.08], [-114.71, 33.09], [-114.71, 33.1], [-114.7, 33.13], [-114.69, 33.14], [-114.68, 33.16], [-114.68, 33.17], [-114.68, 33.19], [-114.68, 33.2], [-114.67, 33.22], [-114.67, 33.23], [-114.69, 33.25], [-114.67, 33.26], [-114.68, 33.27], [-114.69, 33.28], [-114.72, 33.29], [-114.73, 33.3], [-114.72, 33.31], [-114.71, 33.32], [-114.7, 33.34], [-114.7, 33.36], [-114.71, 33.38], [-114.71, 33.38], [-114.71, 33.38], [-114.71, 33.38], [-114.71, 33.38], [-114.71, 33.38], [-114.71, 33.39], [-114.72, 33.4], [-114.72, 33.41], [-114.72, 33.41], [-114.72, 33.41], [-114.71, 33.41], [-114.71, 33.41], [-114.71, 33.41], [-114.7, 33.41], [-114.7, 33.41], [-114.7, 33.41], [-114.7, 33.41], [-114.7, 33.41], [-114.7, 33.41], [-114.7, 33.41], [-114.7, 33.41], [-114.7, 33.41], [-114.7, 33.41], [-114.7, 33.42], [-114.69, 33.42], [-114.67, 33.42], [-114.67, 33.42], [-114.67, 33.42], [-114.67, 33.42], [-114.66, 33.41], [-114.66, 33.41], [-114.66, 33.41], [-114.66, 33.41], [-114.65, 33.41], [-114.65, 33.41], [-114.65, 33.41], [-114.64, 33.42], [-114.63, 33.43], [-114.62, 33.45], [-114.62, 33.46], [-114.6, 33.48], [-114.59, 33.5], [-114.57, 33.51], [-114.56, 33.52], [-114.56, 33.53], [-114.52, 33.55], [-114.54, 33.57], [-114.54, 33.59], [-114.54, 33.6], [-114.53, 33.6], [-114.53, 33.6], [-114.53, 33.61], [-114.53, 33.61], [-114.52, 33.61], [-114.52, 33.61], [-114.52, 33.61], [-114.52, 33.61], [-114.53, 33.62], [-114.53, 33.62], [-114.52, 33.63], [-114.53, 33.65], [-114.53, 33.65], [-114.53, 33.66], [-114.52, 33.66], [-114.51, 33.66], [-114.51, 33.66], [-114.52, 33.66], [-114.53, 33.66], [-114.53, 33.67], [-114.53, 33.68], [-114.52, 33.69], [-114.5, 33.7], [-114.49, 33.71], [-114.5, 33.72], [-114.51, 33.73], [-114.5, 33.75], [-114.51, 33.77], [-114.52, 33.8], [-114.53, 33.81], [-114.52, 33.83], [-114.53, 33.85], [-114.53, 33.86], [-114.53, 33.86], [-114.53, 33.86], [-114.52, 33.86], [-114.52, 33.86], [-114.52, 33.86], [-114.52, 33.86], [-114.52, 33.86], [-114.51, 33.86], [-114.51, 33.86], [-114.51, 33.86], [-114.51, 33.86], [-114.5, 33.87], [-114.5, 33.88], [-114.52, 33.9], [-114.51, 33.9], [-114.51, 33.91], [-114.53, 33.93], [-114.54, 33.93], [-114.52, 33.96], [-114.5, 33.96], [-114.48, 33.98], [-114.47, 33.98], [-114.47, 33.99], [-114.47, 33.99], [-114.47, 33.99], [-114.47, 33.99], [-114.47, 33.99], [-114.47, 33.99], [-114.47, 33.99], [-114.46, 33.99], [-114.46, 33.99], [-114.46, 34.0], [-114.46, 34.0], [-114.46, 34.0], [-114.47, 34.0], [-114.46, 34.01], [-114.46, 34.01], [-114.45, 34.01], [-114.45, 34.01], [-114.44, 34.02], [-114.44, 34.02], [-114.44, 34.03], [-114.44, 34.03], [-114.43, 34.04], [-114.44, 34.04], [-114.44, 34.05], [-114.44, 34.05], [-114.44, 34.06], [-114.43, 34.09], [-114.43, 34.09], [-114.43, 34.1], [-114.43, 34.1], [-114.42, 34.1], [-114.42, 34.1], [-114.42, 34.1], [-114.42, 34.11], [-114.41, 34.11], [-114.41, 34.11], [-114.41, 34.11], [-114.41, 34.11], [-114.41, 34.11], [-114.4, 34.11], [-114.39, 34.11], [-114.39, 34.11], [-114.39, 34.11], [-114.38, 34.11], [-114.38, 34.12], [-114.38, 34.12], [-114.38, 34.12], [-114.37, 34.12], [-114.37, 34.12], [-114.37, 34.12], [-114.36, 34.12], [-114.36, 34.13], [-114.35, 34.13], [-114.35, 34.13], [-114.35, 34.13], [-114.35, 34.13], [-114.35, 34.13], [-114.34, 34.13], [-114.33, 34.13], [-114.33, 34.13], [-114.33, 34.14], [-114.32, 34.14], [-114.32, 34.14], [-114.31, 34.14], [-114.29, 34.17], [-114.29, 34.17], [-114.29, 34.17], [-114.29, 34.17], [-114.28, 34.17], [-114.27, 34.17], [-114.26, 34.17], [-114.26, 34.17], [-114.26, 34.17], [-114.26, 34.17], [-114.26, 34.17], [-114.25, 34.17], [-114.24, 34.18], [-114.23, 34.19], [-114.23, 34.2], [-114.22, 34.21], [-114.19, 34.23], [-114.18, 34.24], [-114.17, 34.25], [-114.16, 34.25], [-114.16, 34.26], [-114.17, 34.26], [-114.17, 34.26], [-114.16, 34.26], [-114.15, 34.26], [-114.14, 34.26], [-114.14, 34.26], [-114.14, 34.26], [-114.13, 34.26], [-114.13, 34.26], [-114.13, 34.26], [-114.14, 34.28], [-114.14, 34.3], [-114.13, 34.3], [-114.11, 34.3], [-114.1, 34.3], [-114.07, 34.29], [-114.06, 34.28], [-114.05, 34.28], [-114.05, 34.27], [-114.03, 34.26], [-114.02, 34.27], [-114.01, 34.25], [-113.97, 34.26], [-113.95, 34.26], [-113.93, 34.25], [-113.9, 34.25], [-113.87, 34.26], [-113.85, 34.25], [-113.85, 34.24], [-113.84, 34.22], [-113.83, 34.22], [-113.82, 34.24], [-113.81, 34.23], [-113.79, 34.24], [-113.78, 34.23], [-113.75, 34.24], [-113.73, 34.24], [-113.72, 34.22], [-113.7, 34.21], [-113.68, 34.21], [-113.66, 34.21], [-113.65, 34.22], [-113.63, 34.22], [-113.63, 34.23], [-113.62, 34.23], [-113.6, 34.23], [-113.59, 34.24], [-113.58, 34.26], [-113.56, 34.29], [-113.55, 34.29], [-113.54, 34.31], [-113.53, 34.31], [-113.52, 34.31], [-113.5, 34.3], [-113.49, 34.3], [-113.47, 34.3], [-113.47, 34.3], [-113.45, 34.3], [-113.43, 34.3], [-113.41, 34.29], [-113.4, 34.3], [-113.37, 34.29], [-113.35, 34.3], [-113.33, 34.32]]]}}, {"type": "Feature", "properties": {"STATE": "Arizona", "STATE_FIPS": "04", "CD_2DIG": "03", "STATE_CODE": 2, "CLIMDIV": 203, "ID": 203, "CD_NEW": 3, "FIPS_CD": "0403", "NCDC_GEO_I": 26.0, "NAME": "NORTH CENTRAL", "ST_ABBRV": "AZ", "SHAPE_AREA": 0.0, "SHAPE_LEN": 0.0}, "geometry": {"type": "Polygon", "coordinates": [[[-113.33, 35.53], [-113.3, 35.53], [-113.28, 35.53], [-113.26, 35.53], [-113.25, 35.52], [-113.22, 35.51], [-113.2, 35.51], [-113.18, 35.51], [-113.16, 35.5], [-113.15, 35.48], [-113.14, 35.47], [-113.09, 35.45], [-113.0, 35.4], [-112.98, 35.39], [-112.96, 35.38], [-112.95, 35.36], [-112.94, 35.35], [-112.89, 35.34], [-112.8, 35.32], [-112.78, 35.32], [-112.76, 35.31], [-112.75, 35.31], [-112.73, 35.3], [-112.72, 35.31], [-112.7, 35.31], [-112.68, 35.31], [-112.67, 35.3], [-112.66, 35.29], [-112.64, 35.3], [-112.63, 35.3], [-112.62, 35.3], [-112.62, 35.28], [-112.62, 35.27], [-112.6, 35.27], [-112.58, 35.24], [-112.54, 35.24], [-112.5, 35.24], [-112.47, 35.24], [-112.47, 35.24], [-112.44, 35.26], [-112.44, 35.22], [-112.44, 35.15], [-112.34, 35.15], [-112.33, 34.97], [-112.25, 34.97], [-112.23, 34.97], [-112.02, 34.97], [-111.99, 34.98], [-111.81, 34.98], [-111.81, 34.98], [-111.78, 34.98], [-111.78, 34.86], [-111.78, 34.82], [-111.78, 34.8], [-111.72, 34.8], [-111.66, 34.8], [-111.55, 34.8], [-111.55, 34.7], [-111.55, 34.64], [-111.55, 34.64], [-111.55, 34.53], [-111.56, 34.5], [-111.56, 34.47], [-111.55, 34.44], [-111.57, 34.43], [-111.58, 34.42], [-111.59, 34.42], [-111.6, 34.42], [-111.6, 34.41], [-111.63, 34.39], [-111.64, 34.39], [-111.66, 34.39], [-111.66, 34.37], [-111.67, 34.35], [-111.66, 34.32], [-111.67, 34.31], [-111.68, 34.3], [-111.67, 34.29], [-111.66, 34.3], [-111.67, 34.29], [-111.68, 34.28], [-111.68, 34.27], [-111.68, 34.26], [-111.69, 34.25], [-111.7, 34.23], [-111.7, 34.22], [-111.69, 34.21], [-111.69, 34.2], [-111.7, 34.19], [-111.69, 34.19], [-111.71, 34.18], [-111.71, 34.17], [-111.72, 34.16], [-111.71, 34.15], [-111.63, 34.15], [-111.61, 34.15], [-111.48, 34.15], [-111.49, 34.13], [-111.48, 34.13], [-111.48, 34.12], [-111.47, 34.11], [-111.48, 34.09], [-111.48, 34.08], [-111.46, 34.07], [-111.46, 34.06], [-111.47, 34.06], [-111.47, 34.05], [-111.47, 34.04], [-111.49, 34.04], [-111.5, 34.03], [-111.5, 34.02], [-111.5, 34.0], [-111.49, 34.0], [-111.73, 34.0], [-111.99, 34.03], [-112.16, 34.05], [-112.16, 34.04], [-112.16, 34.02], [-112.18, 34.01], [-112.18, 34.01], [-112.19, 33.99], [-112.19, 33.98], [-112.2, 33.97], [-112.23, 33.96], [-112.24, 33.96], [-112.24, 33.94], [-112.23, 33.94], [-112.23, 33.92], [-112.24, 33.92], [-112.24, 33.91], [-112.26, 33.91], [-112.28, 33.89], [-112.28, 33.88], [-112.49, 33.94], [-112.5, 33.94], [-112.64, 33.97], [-112.74, 34.0], [-112.94, 34.0], [-113.25, 34.0], [-113.3, 34.0], [-113.33, 34.0], [-113.33, 34.11], [-113.33, 34.17], [-113.33, 34.21], [-113.33, 34.32], [-113.33, 34.47], [-113.33, 34.57], [-113.33, 34.63], [-113.33, 34.73], [-113.33, 34.83], [-113.33, 34.95], [-113.33, 35.02], [-113.33, 35.19], [-113.33, 35.4], [-113.33, 35.53]]]}}, {"type": "Feature", "properties": {"STATE": "Arizona", "STATE_FIPS": "04", "CD_2DIG": "06", "STATE_CODE": 2, "CLIMDIV": 206, "ID": 206, "CD_NEW": 6, "FIPS_CD": "0406", "NCDC_GEO_I": 27.0, "NAME": "SOUTH CENTRAL", "ST_ABBRV": "AZ", "SHAPE_AREA": 0.0, "SHAPE_LEN": 0.0}, "geometry": {"type": "Polygon", "coordinates": [[[-111.39, 33.77], [-111.38, 33.75], [-111.36, 33.74], [-111.35, 33.73], [-111.34, 33.73], [-111.34, 33.72], [-111.34, 33.7], [-111.33, 33.69], [-111.31, 33.68], [-111.29, 33.66], [-111.26, 33.62], [-111.25, 33.62], [-111.24, 33.62], [-111.22, 33.6], [-111.22, 33.61], [-111.21, 33.62], [-111.21, 33.63], [-111.2, 33.64], [-111.18, 33.66], [-111.17, 33.66], [-111.17, 33.67], [-111.15, 33.68], [-111.06, 33.51], [-111.05, 33.48], [-110.97, 33.34], [-110.95, 33.25], [-110.89, 33.16], [-110.88, 33.14], [-110.8, 33.01], [-110.78, 32.98], [-110.77, 32.98], [-110.76, 32.99], [-110.76, 33.0], [-110.75, 33.01], [-110.74, 33.02], [-110.73, 33.03], [-110.73, 33.03], [-110.72, 33.05], [-110.73, 33.07], [-110.71, 33.08], [-110.69, 33.08], [-110.69, 33.09], [-110.68, 33.09], [-110.68, 33.11], [-110.66, 33.12], [-110.66, 33.11], [-110.64, 33.13], [-110.63, 33.14], [-110.61, 33.14], [-110.6, 33.13], [-110.59, 33.14], [-110.58, 33.15], [-110.57, 33.14], [-110.55, 33.17], [-110.54, 33.16], [-110.52, 33.18], [-110.5, 33.19], [-110.49, 33.18], [-110.46, 33.18], [-110.46, 33.19], [-110.46, 33.2], [-110.45, 33.19], [-110.45, 33.13], [-110.45, 33.0], [-110.45, 32.95], [-110.45, 32.74], [-110.45, 32.63], [-110.45, 32.51], [-110.61, 32.51], [-110.75, 32.51], [-110.84, 32.51], [-110.84, 32.51], [-110.89, 32.51], [-111.0, 32.51], [-111.13, 32.51], [-111.16, 32.51], [-111.16, 32.5], [-111.23, 32.5], [-111.34, 32.5], [-111.35, 32.5], [-111.46, 32.5], [-111.57, 32.5], [-111.57, 32.51], [-111.69, 32.51], [-111.9, 32.51], [-111.97, 32.51], [-112.01, 32.51], [-112.19, 32.51], [-112.2, 32.51], [-112.36, 32.51], [-112.5, 32.51], [-112.58, 32.51], [-112.7, 32.51], [-112.87, 32.51], [-113.02, 32.51], [-113.21, 32.51], [-113.33, 32.5], [-113.33, 32.74], [-113.33, 32.96], [-113.33, 33.14], [-113.33, 33.23], [-113.33, 33.25], [-113.33, 33.29], [-113.33, 33.5], [-113.33, 33.57], [-113.33, 33.61], [-113.33, 33.75], [-113.33, 33.77], [-113.33, 33.83], [-113.33, 33.87], [-113.33, 34.0], [-113.3, 34.0], [-113.25, 34.0], [-112.94, 34.0], [-112.74, 34.0], [-112.64, 33.97], [-112.5, 33.94], [-112.49, 33.94], [-112.28, 33.88], [-112.28, 33.89], [-112.26, 33.91], [-112.24, 33.91], [-112.24, 33.92], [-112.23, 33.92], [-112.23, 33.94], [-112.24, 33.94], [-112.24, 33.96], [-112.23, 33.96], [-112.2, 33.97], [-112.19, 33.98], [-112.19, 33.99], [-112.18, 34.01], [-112.18, 34.01], [-112.16, 34.02], [-112.16, 34.04], [-112.16, 34.05], [-111.99, 34.03], [-111.73, 34.0], [-111.49, 34.0], [-111.47, 34.01], [-111.44, 34.0], [-111.44, 33.99], [-111.43, 33.98], [-111.45, 33.97], [-111.45, 33.96], [-111.45, 33.95], [-111.45, 33.94], [-111.45, 33.92], [-111.44, 33.92], [-111.43, 33.93], [-111.41, 33.92], [-111.41, 33.91], [-111.41, 33.9], [-111.41, 33.88], [-111.4, 33.88], [-111.4, 33.87], [-111.39, 33.86], [-111.4, 33.84], [-111.39, 33.83], [-111.37, 33.82], [-111.38, 33.82], [-111.39, 33.8], [-111.38, 33.79], [-111.39, 33.77]]]}}, {"type": "Feature", "properties": {"STATE": "Arizona", "STATE_FIPS": "04", "CD_2DIG": "04", "STATE_CODE": 2, "CLIMDIV": 204, "ID": 204, "CD_NEW": 4, "FIPS_CD": "0404", "NCDC_GEO_I": 28.0, "NAME": "EAST CENTRAL", "ST_ABBRV": "AZ", "SHAPE_AREA": 0.0, "SHAPE_LEN": 0.0}, "geometry": {"type": "Polygon", "coordinates": [[[-111.56, 34.47], [-111.55, 34.46], [-111.53, 34.47], [-111.52, 34.48], [-111.52, 34.49], [-111.51, 34.5], [-111.51, 34.47], [-111.53, 34.46], [-111.51, 34.45], [-111.49, 34.46], [-111.47, 34.46], [-111.51, 34.44], [-111.52, 34.45], [-111.52, 34.43], [-111.53, 34.43], [-111.53, 34.42], [-111.54, 34.42], [-111.55, 34.42], [-111.54, 34.41], [-111.52, 34.41], [-111.51, 34.42], [-111.51, 34.42], [-111.49, 34.42], [-111.48, 34.43], [-111.48, 34.42], [-111.47, 34.41], [-111.46, 34.43], [-111.45, 34.43], [-111.44, 34.43], [-111.43, 34.45], [-111.41, 34.44], [-111.42, 34.44], [-111.43, 34.42], [-111.42, 34.41], [-111.42, 34.39], [-111.42, 34.38], [-111.41, 34.38], [-111.4, 34.38], [-111.39, 34.39], [-111.39, 34.4], [-111.4, 34.4], [-111.41, 34.4], [-111.4, 34.41], [-111.4, 34.43], [-111.39, 34.42], [-111.38, 34.43], [-111.37, 34.44], [-111.36, 34.44], [-111.35, 34.44], [-111.35, 34.43], [-111.33, 34.42], [-111.31, 34.43], [-111.31, 34.43], [-111.29, 34.44], [-111.27, 34.44], [-111.26, 34.44], [-111.25, 34.45], [-111.25, 34.45], [-111.24, 34.43], [-111.23, 34.43], [-111.22, 34.43], [-111.22, 34.42], [-111.2, 34.41], [-111.18, 34.41], [-111.16, 34.4], [-111.15, 34.39], [-111.15, 34.38], [-111.14, 34.38], [-111.14, 34.39], [-111.11, 34.39], [-111.11, 34.39], [-111.09, 34.39], [-111.08, 34.39], [-111.07, 34.38], [-111.06, 34.38], [-111.05, 34.38], [-111.04, 34.38], [-111.04, 34.37], [-111.05, 34.36], [-111.06, 34.36], [-111.05, 34.35], [-111.04, 34.34], [-111.03, 34.35], [-111.03, 34.36], [-111.0, 34.36], [-110.99, 34.34], [-110.98, 34.34], [-110.97, 34.32], [-110.95, 34.31], [-110.94, 34.31], [-110.93, 34.31], [-110.91, 34.3], [-110.9, 34.3], [-110.9, 34.3], [-110.89, 34.29], [-110.89, 34.29], [-110.88, 34.28], [-110.85, 34.27], [-110.84, 34.27], [-110.83, 34.28], [-110.82, 34.29], [-110.82, 34.3], [-110.81, 34.3], [-110.8, 34.3], [-110.79, 34.31], [-110.78, 34.3], [-110.76, 34.29], [-110.76, 34.28], [-110.77, 34.27], [-110.77, 34.26], [-110.75, 34.26], [-110.75, 34.15], [-110.75, 34.0], [-110.59, 34.0], [-110.35, 34.0], [-110.14, 34.0], [-110.0, 34.0], [-110.0, 33.78], [-110.0, 33.58], [-110.0, 33.47], [-110.09, 33.47], [-110.17, 33.47], [-110.17, 33.45], [-110.18, 33.45], [-110.19, 33.44], [-110.2, 33.44], [-110.22, 33.44], [-110.24, 33.44], [-110.25, 33.44], [-110.27, 33.44], [-110.27, 33.44], [-110.29, 33.43], [-110.32, 33.43], [-110.33, 33.43], [-110.34, 33.43], [-110.35, 33.41], [-110.36, 33.4], [-110.39, 33.4], [-110.41, 33.4], [-110.42, 33.39], [-110.43, 33.39], [-110.44, 33.38], [-110.44, 33.37], [-110.45, 33.36], [-110.44, 33.35], [-110.45, 33.35], [-110.44, 33.33], [-110.45, 33.32], [-110.45, 33.3], [-110.46, 33.3], [-110.45, 33.28], [-110.45, 33.28], [-110.45, 33.27], [-110.44, 33.25], [-110.44, 33.25], [-110.44, 33.24], [-110.42, 33.23], [-110.42, 33.22], [-110.4, 33.2], [-110.41, 33.19], [-110.45, 33.19], [-110.45, 33.19], [-110.46, 33.2], [-110.46, 33.19], [-110.46, 33.18], [-110.49, 33.18], [-110.5, 33.19], [-110.52, 33.18], [-110.54, 33.16], [-110.55, 33.17], [-110.57, 33.14], [-110.58, 33.15], [-110.59, 33.14], [-110.6, 33.13], [-110.61, 33.14], [-110.63, 33.14], [-110.64, 33.13], [-110.66, 33.11], [-110.66, 33.12], [-110.68, 33.11], [-110.68, 33.09], [-110.69, 33.09], [-110.69, 33.08], [-110.71, 33.08], [-110.73, 33.07], [-110.72, 33.05], [-110.73, 33.03], [-110.73, 33.03], [-110.74, 33.02], [-110.75, 33.01], [-110.76, 33.0], [-110.76, 32.99], [-110.77, 32.98], [-110.78, 32.98], [-110.8, 33.01], [-110.88, 33.14], [-110.89, 33.16], [-110.95, 33.25], [-110.97, 33.34], [-111.05, 33.48], [-111.06, 33.51], [-111.15, 33.68], [-111.17, 33.67], [-111.17, 33.66], [-111.18, 33.66], [-111.2, 33.64], [-111.21, 33.63], [-111.21, 33.62], [-111.22, 33.61], [-111.22, 33.6], [-111.24, 33.62], [-111.25, 33.62], [-111.26, 33.62], [-111.29, 33.66], [-111.31, 33.68], [-111.33, 33.69], [-111.34, 33.7], [-111.34, 33.72], [-111.34, 33.73], [-111.35, 33.73], [-111.36, 33.74], [-111.38, 33.75], [-111.39, 33.77], [-111.38, 33.79], [-111.39, 33.8], [-111.38, 33.82], [-111.37, 33.82], [-111.39, 33.83], [-111.4, 33.84], [-111.39, 33.86], [-111.4, 33.87], [-111.4, 33.88], [-111.41, 33.88], [-111.41, 33.9], [-111.41, 33.91], [-111.41, 33.92], [-111.43, 33.93], [-111.44, 33.92], [-111.45, 33.92], [-111.45, 33.94], [-111.45, 33.95], [-111.45, 33.96], [-111.45, 33.97], [-111.43, 33.98], [-111.44, 33.99], [-111.44, 34.0], [-111.47, 34.01], [-111.49, 34.0], [-111.5, 34.0], [-111.5, 34.02], [-111.5, 34.03], [-111.49, 34.04], [-111.47, 34.04], [-111.47, 34.05], [-111.47, 34.06], [-111.46, 34.06], [-111.46, 34.07], [-111.48, 34.08], [-111.48, 34.09], [-111.47, 34.11], [-111.48, 34.12], [-111.48, 34.13], [-111.49, 34.13], [-111.48, 34.15], [-111.61, 34.15], [-111.63, 34.15], [-111.71, 34.15], [-111.72, 34.16], [-111.71, 34.17], [-111.71, 34.18], [-111.69, 34.19], [-111.7, 34.19], [-111.69, 34.2], [-111.69, 34.21], [-111.7, 34.22], [-111.7, 34.23], [-111.69, 34.25], [-111.68, 34.26], [-111.68, 34.27], [-111.68, 34.28], [-111.67, 34.29], [-111.66, 34.3], [-111.67, 34.29], [-111.68, 34.3], [-111.67, 34.31], [-111.66, 34.32], [-111.67, 34.35], [-111.66, 34.37], [-111.66, 34.39], [-111.64, 34.39], [-111.63, 34.39], [-111.6, 34.41], [-111.6, 34.42], [-111.59, 34.42], [-111.58, 34.42], [-111.57, 34.43], [-111.55, 34.44], [-111.56, 34.47]]]}}, {"type": "Feature", "properties": {"STATE": "Arizona", "STATE_FIPS": "04", "CD_2DIG": "07", "STATE_CODE": 2, "CLIMDIV": 207, "ID": 207, "CD_NEW": 7, "FIPS_CD": "0407", "NCDC_GEO_I": 29.0, "NAME": "SOUTHEAST", "ST_ABBRV": "AZ", "SHAPE_AREA": 0.0, "SHAPE_LEN": 0.0}, "geometry": {"type": "Polygon", "coordinates": [[[-109.05, 33.78], [-109.05, 33.62], [-109.05, 33.47], [-109.05, 33.41], [-109.05, 33.39], [-109.05, 33.39], [-109.05, 33.38], [-109.05, 33.38], [-109.05, 33.38], [-109.05, 33.37], [-109.05, 33.36], [-109.05, 33.36], [-109.05, 33.32], [-109.05, 33.31], [-109.05, 33.24], [-109.05, 33.22], [-109.05, 33.21], [-109.05, 33.21], [-109.05, 33.2], [-109.05, 33.2], [-109.05, 33.2], [-109.05, 33.18], [-109.05, 33.15], [-109.05, 33.14], [-109.05, 33.13], [-109.05, 33.12], [-109.05, 33.11], [-109.05, 33.1], [-109.05, 33.09], [-109.05, 33.09], [-109.05, 33.07], [-109.05, 32.99], [-109.05, 32.78], [-109.05, 32.75], [-109.05, 32.6], [-109.05, 32.43], [-109.05, 32.21], [-109.05, 32.07], [-109.05, 31.9], [-109.05, 31.76], [-109.05, 31.55], [-109.05, 31.48], [-109.05, 31.42], [-109.05, 31.37], [-109.05, 31.33], [-109.06, 31.33], [-109.07, 31.33], [-109.13, 31.33], [-109.25, 31.33], [-109.5, 31.33], [-109.72, 31.33], [-109.88, 31.33], [-110.0, 31.33], [-110.14, 31.33], [-110.25, 31.33], [-110.38, 31.33], [-110.46, 31.33], [-110.68, 31.33], [-110.75, 31.33], [-110.88, 31.33], [-111.0, 31.33], [-111.07, 31.33], [-111.29, 31.4], [-111.48, 31.46], [-111.66, 31.52], [-111.88, 31.59], [-111.98, 31.62], [-112.11, 31.66], [-112.25, 31.7], [-112.39, 31.75], [-112.55, 31.8], [-112.75, 31.86], [-112.87, 31.9], [-113.0, 31.94], [-113.13, 31.97], [-113.33, 32.04], [-113.33, 32.19], [-113.33, 32.39], [-113.33, 32.5], [-113.21, 32.51], [-113.02, 32.51], [-112.87, 32.51], [-112.7, 32.51], [-112.58, 32.51], [-112.5, 32.51], [-112.36, 32.51], [-112.2, 32.51], [-112.19, 32.51], [-112.01, 32.51], [-111.97, 32.51], [-111.9, 32.51], [-111.69, 32.51], [-111.57, 32.51], [-111.57, 32.5], [-111.46, 32.5], [-111.35, 32.5], [-111.34, 32.5], [-111.23, 32.5], [-111.16, 32.5], [-111.16, 32.51], [-111.13, 32.51], [-111.0, 32.51], [-110.89, 32.51], [-110.84, 32.51], [-110.84, 32.51], [-110.75, 32.51], [-110.61, 32.51], [-110.45, 32.51], [-110.45, 32.63], [-110.45, 32.74], [-110.45, 32.95], [-110.45, 33.0], [-110.45, 33.13], [-110.45, 33.19], [-110.45, 33.19], [-110.41, 33.19], [-110.4, 33.2], [-110.42, 33.22], [-110.42, 33.23], [-110.44, 33.24], [-110.44, 33.25], [-110.44, 33.25], [-110.45, 33.27], [-110.45, 33.28], [-110.45, 33.28], [-110.46, 33.3], [-110.45, 33.3], [-110.45, 33.32], [-110.44, 33.33], [-110.45, 33.35], [-110.44, 33.35], [-110.45, 33.36], [-110.44, 33.37], [-110.44, 33.38], [-110.43, 33.39], [-110.42, 33.39], [-110.41, 33.4], [-110.39, 33.4], [-110.36, 33.4], [-110.35, 33.41], [-110.34, 33.43], [-110.33, 33.43], [-110.32, 33.43], [-110.29, 33.43], [-110.27, 33.44], [-110.27, 33.44], [-110.25, 33.44], [-110.24, 33.44], [-110.22, 33.44], [-110.2, 33.44], [-110.19, 33.44], [-110.18, 33.45], [-110.17, 33.45], [-110.17, 33.47], [-110.09, 33.47], [-110.0, 33.47], [-110.0, 33.58], [-110.0, 33.58], [-109.97, 33.58], [-109.96, 33.58], [-109.95, 33.57], [-109.92, 33.57], [-109.91, 33.58], [-109.9, 33.58], [-109.89, 33.57], [-109.88, 33.57], [-109.87, 33.56], [-109.84, 33.54], [-109.84, 33.53], [-109.82, 33.53], [-109.82, 33.52], [-109.82, 33.51], [-109.81, 33.5], [-109.81, 33.49], [-109.78, 33.48], [-109.78, 33.48], [-109.76, 33.48], [-109.75, 33.49], [-109.74, 33.49], [-109.74, 33.5], [-109.74, 33.51], [-109.73, 33.52], [-109.73, 33.52], [-109.71, 33.53], [-109.7, 33.54], [-109.69, 33.54], [-109.68, 33.55], [-109.67, 33.55], [-109.67, 33.57], [-109.68, 33.57], [-109.66, 33.58], [-109.64, 33.59], [-109.63, 33.58], [-109.6, 33.6], [-109.61, 33.61], [-109.58, 33.62], [-109.56, 33.63], [-109.55, 33.62], [-109.53, 33.62], [-109.52, 33.63], [-109.52, 33.64], [-109.5, 33.64], [-109.5, 33.65], [-109.48, 33.66], [-109.48, 33.66], [-109.48, 33.67], [-109.48, 33.69], [-109.47, 33.7], [-109.46, 33.7], [-109.44, 33.71], [-109.42, 33.71], [-109.4, 33.72], [-109.38, 33.72], [-109.37, 33.72], [-109.36, 33.73], [-109.36, 33.74], [-109.36, 33.75], [-109.35, 33.78], [-109.25, 33.78], [-109.13, 33.78], [-109.1, 33.78], [-109.07, 33.78], [-109.05, 33.78], [-109.05, 33.78]]]}}]}