{"type": "FeatureCollection", "features": [{"type": "Feature", "properties": {"STATE": "Arkansas", "STATE_FIPS": "05", "CD_2DIG": "01", "STATE_CODE": 3, "CLIMDIV": 301, "ID": 301, "CD_NEW": 1, "FIPS_CD": "0501", "NCDC_GEO_I": 38.0, "NAME": "NORTHWEST", "ST_ABBRV": "AR", "SHAPE_AREA": 0.0, "SHAPE_LEN": 0.0}, "geometry": {"type": "Polygon", "coordinates": [[[-92.85, 36.5], [-92.85, 36.46], [-92.86, 36.47], [-92.87, 36.48], [-92.88, 36.49], [-92.89, 36.33], [-92.89, 36.32], [-92.89, 36.25], [-92.89, 36.17], [-92.89, 36.11], [-92.94, 36.12], [-92.95, 36.07], [-92.94, 36.07], [-92.94, 36.0], [-92.94, 35.88], [-92.95, 35.81], [-92.95, 35.81], [-92.95, 35.72], [-93.11, 35.73], [-93.15, 35.73], [-93.2, 35.73], [-93.37, 35.73], [-93.47, 35.73], [-93.52, 35.73], [-93.52, 35.76], [-93.63, 35.77], [-93.67, 35.77], [-93.79, 35.77], [-93.91, 35.77], [-93.91, 35.76], [-94.12, 35.76], [-94.12, 35.75], [-94.25, 35.75], [-94.37, 35.76], [-94.49, 35.76], [-94.5, 35.79], [-94.51, 35.85], [-94.53, 36.0], [-94.55, 36.08], [-94.56, 36.16], [-94.58, 36.26], [-94.62, 36.5], [-94.56, 36.5], [-94.5, 36.5], [-94.31, 36.5], [-94.16, 36.5], [-94.0, 36.5], [-93.87, 36.5], [-93.72, 36.5], [-93.66, 36.5], [-93.43, 36.5], [-93.36, 36.5], [-93.25, 36.5], [-93.24, 36.5], [-93.07, 36.5], [-92.89, 36.5], [-92.85, 36.5]]]}}, {"type": "Feature", "properties": {"STATE": "Arkansas", "STATE_FIPS": "05", "CD_2DIG": "02", "STATE_CODE": 3, "CLIMDIV": 302, "ID": 302, "CD_NEW": 2, "FIPS_CD": "0502", "NCDC_GEO_I": 39.0, "NAME": "NORTH CENTRAL", "ST_ABBRV": "AR", "SHAPE_AREA": 0.0, "SHAPE_LEN": 0.0}, "geometry": {"type": "Polygon", "coordinates": [[[-91.41, 36.5], [-91.41, 36.49], [-91.4, 36.48], [-91.38, 36.48], [-91.38, 36.47], [-91.36, 36.47], [-91.35, 36.45], [-91.35, 36.44], [-91.35, 36.42], [-91.31, 36.42], [-91.31, 36.39], [-91.29, 36.39], [-91.29, 36.37], [-91.28, 36.37], [-91.28, 36.33], [-91.26, 36.33], [-91.26, 36.24], [-91.33, 36.24], [-91.33, 36.23], [-91.35, 36.23], [-91.35, 36.16], [-91.35, 36.16], [-91.35, 36.07], [-91.35, 36.05], [-91.36, 35.89], [-91.46, 35.89], [-91.46, 35.94], [-91.5, 35.94], [-91.54, 35.94], [-91.68, 35.94], [-91.75, 35.94], [-91.85, 35.87], [-91.85, 35.85], [-91.85, 35.83], [-91.87, 35.82], [-91.87, 35.81], [-91.87, 35.79], [-91.86, 35.78], [-91.87, 35.77], [-91.85, 35.76], [-91.84, 35.75], [-91.84, 35.7], [-91.81, 35.7], [-91.79, 35.71], [-91.79, 35.63], [-91.79, 35.5], [-91.8, 35.46], [-91.82, 35.45], [-91.83, 35.45], [-91.84, 35.44], [-91.85, 35.44], [-91.85, 35.36], [-91.94, 35.36], [-92.01, 35.36], [-92.11, 35.36], [-92.12, 35.36], [-92.22, 35.36], [-92.28, 35.36], [-92.42, 35.37], [-92.48, 35.37], [-92.48, 35.46], [-92.56, 35.46], [-92.63, 35.46], [-92.67, 35.46], [-92.85, 35.46], [-92.85, 35.55], [-92.81, 35.55], [-92.81, 35.62], [-92.81, 35.72], [-92.95, 35.72], [-92.95, 35.81], [-92.95, 35.81], [-92.94, 35.88], [-92.94, 36.0], [-92.94, 36.07], [-92.95, 36.07], [-92.94, 36.12], [-92.89, 36.11], [-92.89, 36.17], [-92.89, 36.25], [-92.89, 36.32], [-92.89, 36.33], [-92.88, 36.49], [-92.87, 36.48], [-92.86, 36.47], [-92.85, 36.46], [-92.85, 36.5], [-92.83, 36.5], [-92.64, 36.5], [-92.46, 36.5], [-92.38, 36.5], [-92.32, 36.5], [-92.12, 36.5], [-91.97, 36.5], [-91.84, 36.5], [-91.67, 36.5], [-91.53, 36.5], [-91.41, 36.5]]]}}, {"type": "Feature", "properties": {"STATE": "Arkansas", "STATE_FIPS": "05", "CD_2DIG": "03", "STATE_CODE": 3, "CLIMDIV": 303, "ID": 303, "CD_NEW": 3, "FIPS_CD": "0503", "NCDC_GEO_I": 40.0, "NAME": "NORTHEAST", "ST_ABBRV": "AR", "SHAPE_AREA": 0.0, "SHAPE_LEN": 0.0}, "geometry": {"type": "Polygon", "coordinates": [[[-90.58, 36.5], [-90.48, 36.5], [-90.22, 36.5], [-90.15, 36.5], [-90.15, 36.49], [-90.16, 36.48], [-90.14, 36.48], [-90.15, 36.47], [-90.13, 36.45], [-90.14, 36.45], [-90.13, 36.44], [-90.14, 36.43], [-90.14, 36.42], [-90.13, 36.42], [-90.13, 36.41], [-90.11, 36.41], [-90.1, 36.4], [-90.09, 36.4], [-90.08, 36.4], [-90.07, 36.39], [-90.06, 36.38], [-90.07, 36.36], [-90.08, 36.35], [-90.07, 36.34], [-90.08, 36.32], [-90.07, 36.31], [-90.06, 36.3], [-90.08, 36.29], [-90.08, 36.28], [-90.08, 36.27], [-90.11, 36.27], [-90.12, 36.25], [-90.13, 36.24], [-90.13, 36.23], [-90.14, 36.23], [-90.16, 36.21], [-90.16, 36.22], [-90.2, 36.2], [-90.2, 36.2], [-90.2, 36.19], [-90.22, 36.18], [-90.23, 36.17], [-90.24, 36.16], [-90.23, 36.15], [-90.24, 36.14], [-90.25, 36.13], [-90.26, 36.13], [-90.27, 36.12], [-90.29, 36.11], [-90.3, 36.1], [-90.31, 36.09], [-90.32, 36.09], [-90.32, 36.08], [-90.33, 36.07], [-90.34, 36.05], [-90.35, 36.04], [-90.35, 36.03], [-90.37, 36.01], [-90.38, 36.0], [-90.16, 36.0], [-90.0, 36.0], [-89.96, 36.0], [-89.77, 36.0], [-89.73, 36.0], [-89.72, 35.99], [-89.72, 35.97], [-89.71, 35.96], [-89.69, 35.95], [-89.66, 35.93], [-89.64, 35.9], [-89.65, 35.89], [-89.65, 35.89], [-89.67, 35.88], [-89.68, 35.89], [-89.69, 35.9], [-89.71, 35.91], [-89.73, 35.9], [-89.76, 35.9], [-89.77, 35.89], [-89.77, 35.88], [-89.77, 35.86], [-89.76, 35.86], [-89.73, 35.85], [-89.71, 35.84], [-89.7, 35.83], [-89.7, 35.82], [-89.72, 35.81], [-89.74, 35.81], [-89.76, 35.81], [-89.78, 35.81], [-89.8, 35.79], [-89.8, 35.78], [-89.81, 35.76], [-89.82, 35.76], [-89.85, 35.76], [-89.88, 35.74], [-89.89, 35.75], [-89.91, 35.76], [-89.95, 35.74], [-89.96, 35.72], [-89.96, 35.69], [-89.93, 35.66], [-89.92, 35.65], [-89.9, 35.65], [-89.89, 35.65], [-89.88, 35.67], [-89.87, 35.67], [-89.86, 35.67], [-89.85, 35.65], [-89.86, 35.63], [-89.88, 35.63], [-89.9, 35.61], [-89.91, 35.62], [-89.95, 35.6], [-89.96, 35.59], [-89.95, 35.57], [-89.94, 35.56], [-89.93, 35.55], [-89.91, 35.55], [-89.9, 35.53], [-89.91, 35.52], [-89.92, 35.51], [-89.95, 35.52], [-89.96, 35.53], [-89.96, 35.54], [-89.98, 35.55], [-90.0, 35.56], [-90.03, 35.56], [-90.04, 35.55], [-90.05, 35.51], [-90.05, 35.5], [-90.03, 35.48], [-90.02, 35.47], [-90.02, 35.46], [-90.03, 35.45], [-90.03, 35.43], [-90.04, 35.42], [-90.05, 35.41], [-90.06, 35.4], [-90.04, 35.4], [-90.05, 35.39], [-90.07, 35.41], [-90.06, 35.42], [-90.07, 35.42], [-90.07, 35.43], [-90.07, 35.47], [-90.08, 35.48], [-90.11, 35.48], [-90.12, 35.47], [-90.13, 35.44], [-90.14, 35.44], [-90.38, 35.44], [-90.5, 35.44], [-90.61, 35.44], [-90.61, 35.45], [-90.72, 35.45], [-90.72, 35.45], [-90.82, 35.45], [-90.93, 35.44], [-91.04, 35.44], [-91.04, 35.35], [-91.16, 35.36], [-91.25, 35.36], [-91.25, 35.45], [-91.35, 35.44], [-91.35, 35.44], [-91.36, 35.43], [-91.35, 35.42], [-91.35, 35.41], [-91.36, 35.41], [-91.37, 35.41], [-91.4, 35.39], [-91.38, 35.38], [-91.39, 35.38], [-91.4, 35.39], [-91.43, 35.37], [-91.43, 35.36], [-91.43, 35.35], [-91.44, 35.35], [-91.44, 35.34], [-91.43, 35.34], [-91.43, 35.32], [-91.43, 35.32], [-91.44, 35.3], [-91.43, 35.29], [-91.41, 35.3], [-91.41, 35.29], [-91.41, 35.26], [-91.4, 35.26], [-91.39, 35.25], [-91.39, 35.25], [-91.39, 35.23], [-91.38, 35.23], [-91.38, 35.22], [-91.39, 35.2], [-91.38, 35.2], [-91.38, 35.19], [-91.39, 35.19], [-91.4, 35.21], [-91.41, 35.21], [-91.41, 35.2], [-91.42, 35.19], [-91.43, 35.19], [-91.43, 35.19], [-91.43, 35.17], [-91.45, 35.17], [-91.46, 35.17], [-91.46, 35.16], [-91.43, 35.15], [-91.44, 35.15], [-91.43, 35.14], [-91.45, 35.14], [-91.45, 35.13], [-91.44, 35.12], [-91.45, 35.1], [-91.45, 35.09], [-91.47, 35.09], [-91.58, 35.09], [-91.59, 35.03], [-91.6, 35.03], [-91.61, 35.02], [-91.64, 35.03], [-91.65, 35.04], [-91.66, 35.05], [-91.67, 35.05], [-91.69, 35.05], [-91.69, 35.06], [-91.7, 35.06], [-91.72, 35.06], [-91.73, 35.05], [-91.75, 35.05], [-91.78, 35.05], [-91.78, 35.04], [-91.8, 35.04], [-91.8, 35.03], [-91.84, 35.03], [-91.87, 35.02], [-91.89, 35.03], [-91.9, 35.03], [-91.93, 35.05], [-91.95, 35.05], [-91.97, 35.05], [-91.98, 35.06], [-92.0, 35.06], [-92.01, 35.07], [-92.02, 35.07], [-92.04, 35.07], [-92.05, 35.07], [-92.06, 35.07], [-92.08, 35.07], [-92.08, 35.07], [-92.1, 35.06], [-92.11, 35.07], [-92.12, 35.07], [-92.12, 35.15], [-92.12, 35.18], [-92.11, 35.24], [-92.11, 35.36], [-92.01, 35.36], [-91.94, 35.36], [-91.85, 35.36], [-91.85, 35.44], [-91.84, 35.44], [-91.83, 35.45], [-91.82, 35.45], [-91.8, 35.46], [-91.79, 35.5], [-91.79, 35.63], [-91.79, 35.71], [-91.81, 35.7], [-91.84, 35.7], [-91.84, 35.75], [-91.85, 35.76], [-91.87, 35.77], [-91.86, 35.78], [-91.87, 35.79], [-91.87, 35.81], [-91.87, 35.82], [-91.85, 35.83], [-91.85, 35.85], [-91.85, 35.87], [-91.75, 35.94], [-91.68, 35.94], [-91.54, 35.94], [-91.5, 35.94], [-91.46, 35.94], [-91.46, 35.89], [-91.36, 35.89], [-91.35, 36.05], [-91.35, 36.07], [-91.35, 36.16], [-91.35, 36.16], [-91.35, 36.23], [-91.33, 36.23], [-91.33, 36.24], [-91.26, 36.24], [-91.26, 36.33], [-91.28, 36.33], [-91.28, 36.37], [-91.29, 36.37], [-91.29, 36.39], [-91.31, 36.39], [-91.31, 36.42], [-91.35, 36.42], [-91.35, 36.44], [-91.35, 36.45], [-91.36, 36.47], [-91.38, 36.47], [-91.38, 36.48], [-91.4, 36.48], [-91.41, 36.49], [-91.41, 36.5], [-91.23, 36.5], [-91.16, 36.5], [-90.85, 36.5], [-90.76, 36.5], [-90.58, 36.5]]]}}, {"type": "Feature", "properties": {"STATE": "Arkansas", "STATE_FIPS": "05", "CD_2DIG": "04", "STATE_CODE": 3, "CLIMDIV": 304, "ID": 304, "CD_NEW": 4, "FIPS_CD": "0504", "NCDC_GEO_I": 41.0, "NAME": "WEST CENTRAL", "ST_ABBRV": "AR", "SHAPE_AREA": 0.0, "SHAPE_LEN": 0.0}, "geometry": {"type": "Polygon", "coordinates": [[[-92.95, 35.72], [-92.81, 35.72], [-92.81, 35.62], [-92.81, 35.55], [-92.85, 35.55], [-92.85, 35.46], [-92.85, 35.37], [-92.85, 35.26], [-92.86, 35.17], [-92.9, 35.17], [-92.92, 35.17], [-92.95, 35.15], [-92.96, 35.14], [-92.98, 35.13], [-92.98, 35.12], [-93.01, 35.11], [-93.02, 35.12], [-93.04, 35.11], [-93.04, 35.1], [-93.03, 35.1], [-93.03, 35.09], [-93.04, 35.08], [-93.05, 35.08], [-93.05, 35.06], [-93.07, 35.06], [-93.07, 35.05], [-93.09, 35.05], [-93.09, 35.03], [-93.11, 35.03], [-93.11, 35.02], [-93.12, 35.02], [-93.12, 35.0], [-93.14, 35.0], [-93.14, 34.99], [-93.16, 34.99], [-93.16, 34.98], [-93.18, 34.98], [-93.18, 34.96], [-93.2, 34.96], [-93.2, 34.95], [-93.22, 34.95], [-93.22, 34.93], [-93.24, 34.93], [-93.24, 34.92], [-93.25, 34.92], [-93.25, 34.9], [-93.27, 34.9], [-93.27, 34.89], [-93.29, 34.89], [-93.29, 34.88], [-93.31, 34.88], [-93.31, 34.86], [-93.29, 34.86], [-93.29, 34.77], [-93.33, 34.77], [-93.39, 34.77], [-93.39, 34.74], [-93.57, 34.74], [-93.69, 34.74], [-93.75, 34.75], [-93.75, 34.73], [-93.78, 34.73], [-93.78, 34.72], [-93.82, 34.72], [-93.82, 34.71], [-93.87, 34.71], [-93.87, 34.69], [-93.88, 34.69], [-93.88, 34.67], [-93.93, 34.67], [-93.93, 34.5], [-93.93, 34.5], [-93.94, 34.35], [-94.03, 34.35], [-94.1, 34.35], [-94.15, 34.35], [-94.19, 34.35], [-94.25, 34.36], [-94.26, 34.27], [-94.24, 34.27], [-94.24, 34.23], [-94.24, 34.19], [-94.38, 34.19], [-94.47, 34.19], [-94.47, 34.25], [-94.47, 34.35], [-94.46, 34.45], [-94.46, 34.55], [-94.46, 34.67], [-94.45, 34.83], [-94.45, 34.96], [-94.44, 35.13], [-94.44, 35.22], [-94.43, 35.36], [-94.43, 35.39], [-94.43, 35.39], [-94.44, 35.42], [-94.45, 35.5], [-94.47, 35.6], [-94.48, 35.69], [-94.49, 35.74], [-94.49, 35.76], [-94.37, 35.76], [-94.25, 35.75], [-94.12, 35.75], [-94.12, 35.76], [-93.91, 35.76], [-93.91, 35.77], [-93.79, 35.77], [-93.67, 35.77], [-93.63, 35.77], [-93.52, 35.76], [-93.52, 35.73], [-93.47, 35.73], [-93.37, 35.73], [-93.2, 35.73], [-93.15, 35.73], [-93.11, 35.73], [-92.95, 35.72]]]}}, {"type": "Feature", "properties": {"STATE": "Arkansas", "STATE_FIPS": "05", "CD_2DIG": "05", "STATE_CODE": 3, "CLIMDIV": 305, "ID": 305, "CD_NEW": 5, "FIPS_CD": "0505", "NCDC_GEO_I": 42.0, "NAME": "CENTRAL", "ST_ABBRV": "AR", "SHAPE_AREA": 0.0, "SHAPE_LEN": 0.0}, "geometry": {"type": "Polygon", "coordinates": [[[-92.11, 35.36], [-92.11, 35.24], [-92.12, 35.18], [-92.12, 35.15], [-92.12, 35.07], [-92.12, 35.01], [-92.07, 35.01], [-92.07, 34.92], [-92.07, 34.91], [-92.08, 34.84], [-92.07, 34.84], [-92.08, 34.73], [-92.09, 34.71], [-92.1, 34.69], [-92.1, 34.67], [-92.1, 34.66], [-92.11, 34.62], [-92.03, 34.62], [-92.03, 34.49], [-92.21, 34.49], [-92.21, 34.48], [-92.21, 34.32], [-92.21, 34.23], [-92.23, 34.23], [-92.23, 34.12], [-92.23, 34.06], [-92.34, 34.06], [-92.35, 34.07], [-92.36, 34.07], [-92.37, 34.07], [-92.37, 34.08], [-92.39, 34.1], [-92.41, 34.11], [-92.43, 34.13], [-92.45, 34.12], [-92.46, 34.13], [-92.48, 34.13], [-92.49, 34.14], [-92.49, 34.14], [-92.54, 34.15], [-92.63, 34.15], [-92.73, 34.15], [-92.81, 34.15], [-92.83, 34.15], [-92.89, 34.16], [-92.92, 34.16], [-93.03, 34.16], [-93.04, 34.16], [-93.04, 34.16], [-93.04, 34.18], [-93.04, 34.19], [-93.03, 34.2], [-93.03, 34.21], [-93.04, 34.22], [-93.03, 34.24], [-93.05, 34.24], [-93.08, 34.24], [-93.09, 34.25], [-93.2, 34.25], [-93.2, 34.28], [-93.36, 34.28], [-93.36, 34.34], [-93.41, 34.34], [-93.41, 34.5], [-93.4, 34.53], [-93.4, 34.63], [-93.4, 34.69], [-93.39, 34.69], [-93.39, 34.74], [-93.39, 34.77], [-93.33, 34.77], [-93.29, 34.77], [-93.29, 34.86], [-93.31, 34.86], [-93.31, 34.88], [-93.29, 34.88], [-93.29, 34.89], [-93.27, 34.89], [-93.27, 34.9], [-93.25, 34.9], [-93.25, 34.92], [-93.24, 34.92], [-93.24, 34.93], [-93.22, 34.93], [-93.22, 34.95], [-93.2, 34.95], [-93.2, 34.96], [-93.18, 34.96], [-93.18, 34.98], [-93.16, 34.98], [-93.16, 34.99], [-93.14, 34.99], [-93.14, 35.0], [-93.12, 35.0], [-93.12, 35.02], [-93.11, 35.02], [-93.11, 35.03], [-93.09, 35.03], [-93.09, 35.05], [-93.07, 35.05], [-93.07, 35.06], [-93.05, 35.06], [-93.05, 35.08], [-93.04, 35.08], [-93.03, 35.09], [-93.03, 35.1], [-93.04, 35.1], [-93.04, 35.11], [-93.02, 35.12], [-93.01, 35.11], [-92.98, 35.12], [-92.98, 35.13], [-92.96, 35.14], [-92.95, 35.15], [-92.92, 35.17], [-92.9, 35.17], [-92.86, 35.17], [-92.85, 35.26], [-92.85, 35.37], [-92.85, 35.46], [-92.67, 35.46], [-92.63, 35.46], [-92.56, 35.46], [-92.48, 35.46], [-92.48, 35.37], [-92.42, 35.37], [-92.28, 35.36], [-92.22, 35.36], [-92.12, 35.36], [-92.11, 35.36]]]}}, {"type": "Feature", "properties": {"STATE": "Arkansas", "STATE_FIPS": "05", "CD_2DIG": "06", "STATE_CODE": 3, "CLIMDIV": 306, "ID": 306, "CD_NEW": 6, "FIPS_CD": "0506", "NCDC_GEO_I": 43.0, "NAME": "EAST CENTRAL", "ST_ABBRV": "AR", "SHAPE_AREA": 0.0, "SHAPE_LEN": 0.0}, "geometry": {"type": "Polygon", "coordinates": [[[-90.14, 35.44], [-90.17, 35.42], [-90.17, 35.41], [-90.18, 35.39], [-90.16, 35.37], [-90.14, 35.38], [-90.14, 35.39], [-90.15, 35.4], [-90.14, 35.41], [-90.11, 35.41], [-90.1, 35.4], [-90.07, 35.38], [-90.09, 35.36], [-90.1, 35.35], [-90.1, 35.31], [-90.14, 35.3], [-90.15, 35.3], [-90.16, 35.3], [-90.17, 35.28], [-90.16, 35.27], [-90.15, 35.26], [-90.14, 35.25], [-90.11, 35.26], [-90.1, 35.25], [-90.08, 35.23], [-90.07, 35.21], [-90.08, 35.2], [-90.09, 35.21], [-90.1, 35.19], [-90.11, 35.2], [-90.12, 35.2], [-90.12, 35.19], [-90.11, 35.18], [-90.11, 35.17], [-90.09, 35.16], [-90.07, 35.15], [-90.06, 35.14], [-90.07, 35.13], [-90.09, 35.12], [-90.1, 35.12], [-90.11, 35.12], [-90.14, 35.13], [-90.16, 35.13], [-90.17, 35.12], [-90.18, 35.09], [-90.19, 35.06], [-90.19, 35.04], [-90.2, 35.03], [-90.22, 35.03], [-90.27, 35.04], [-90.29, 35.04], [-90.3, 35.04], [-90.31, 35.01], [-90.31, 35.0], [-90.3, 34.98], [-90.3, 34.98], [-90.28, 34.97], [-90.25, 34.96], [-90.24, 34.94], [-90.24, 34.92], [-90.25, 34.91], [-90.28, 34.89], [-90.3, 34.88], [-90.31, 34.87], [-90.3, 34.86], [-90.31, 34.85], [-90.31, 34.84], [-90.32, 34.85], [-90.34, 34.86], [-90.36, 34.85], [-90.38, 34.84], [-90.4, 34.84], [-90.41, 34.83], [-90.42, 34.83], [-90.43, 34.84], [-90.43, 34.86], [-90.43, 34.87], [-90.44, 34.88], [-90.45, 34.89], [-90.47, 34.89], [-90.48, 34.88], [-90.48, 34.88], [-90.48, 34.86], [-90.46, 34.83], [-90.46, 34.82], [-90.46, 34.81], [-90.47, 34.8], [-90.47, 34.79], [-90.47, 34.78], [-90.46, 34.76], [-90.45, 34.74], [-90.46, 34.73], [-90.47, 34.73], [-90.5, 34.72], [-90.52, 34.73], [-90.52, 34.74], [-90.52, 34.75], [-90.51, 34.76], [-90.5, 34.77], [-90.51, 34.8], [-90.53, 34.8], [-90.55, 34.79], [-90.55, 34.78], [-90.54, 34.75], [-90.54, 34.74], [-90.56, 34.74], [-90.57, 34.73], [-90.57, 34.72], [-90.55, 34.7], [-90.53, 34.7], [-90.5, 34.7], [-90.47, 34.7], [-90.46, 34.69], [-90.47, 34.67], [-90.48, 34.66], [-90.5, 34.65], [-90.52, 34.63], [-90.53, 34.63], [-90.55, 34.63], [-90.56, 34.65], [-90.55, 34.66], [-90.54, 34.67], [-90.54, 34.68], [-90.55, 34.7], [-90.56, 34.7], [-90.57, 34.69], [-90.58, 34.68], [-90.59, 34.67], [-90.58, 34.64], [-90.59, 34.63], [-90.58, 34.6], [-90.57, 34.59], [-90.56, 34.58], [-90.55, 34.56], [-90.54, 34.55], [-90.55, 34.54], [-90.57, 34.52], [-90.58, 34.51], [-90.59, 34.5], [-90.59, 34.48], [-90.59, 34.47], [-90.58, 34.46], [-90.57, 34.45], [-90.57, 34.44], [-90.57, 34.42], [-90.58, 34.41], [-90.62, 34.39], [-90.64, 34.39], [-90.66, 34.38], [-90.66, 34.37], [-90.67, 34.36], [-90.67, 34.35], [-90.66, 34.33], [-90.66, 34.32], [-90.68, 34.31], [-90.69, 34.32], [-90.69, 34.34], [-90.68, 34.35], [-90.68, 34.37], [-90.71, 34.36], [-90.73, 34.36], [-90.74, 34.37], [-90.76, 34.37], [-90.77, 34.36], [-90.77, 34.34], [-90.75, 34.33], [-90.74, 34.31], [-90.74, 34.31], [-90.75, 34.29], [-90.77, 34.28], [-90.8, 34.28], [-90.82, 34.28], [-90.83, 34.26], [-90.84, 34.24], [-90.84, 34.23], [-90.85, 34.21], [-90.86, 34.21], [-90.88, 34.22], [-90.9, 34.23], [-90.91, 34.24], [-90.92, 34.25], [-90.94, 34.24], [-90.94, 34.22], [-90.92, 34.2], [-90.89, 34.18], [-90.85, 34.19], [-90.84, 34.18], [-90.82, 34.18], [-90.81, 34.18], [-90.81, 34.16], [-90.81, 34.16], [-90.82, 34.14], [-90.84, 34.14], [-90.85, 34.14], [-90.87, 34.14], [-90.89, 34.16], [-90.91, 34.17], [-90.95, 34.14], [-90.96, 34.13], [-90.96, 34.12], [-91.08, 34.12], [-91.12, 34.12], [-91.12, 34.11], [-91.13, 34.11], [-91.14, 34.11], [-91.15, 34.1], [-91.15, 34.09], [-91.15, 34.08], [-91.17, 34.09], [-91.19, 34.08], [-91.18, 34.07], [-91.19, 34.07], [-91.19, 34.06], [-91.2, 34.05], [-91.19, 34.03], [-91.19, 34.03], [-91.18, 34.02], [-91.17, 34.02], [-91.16, 34.01], [-91.16, 33.99], [-91.16, 33.98], [-91.15, 33.97], [-91.14, 33.96], [-91.13, 33.96], [-91.14, 33.95], [-91.16, 33.94], [-91.16, 33.95], [-91.18, 33.96], [-91.2, 33.95], [-91.21, 33.96], [-91.21, 33.97], [-91.23, 33.98], [-91.24, 33.97], [-91.25, 33.96], [-91.26, 33.96], [-91.27, 33.97], [-91.28, 33.97], [-91.31, 33.96], [-91.35, 33.95], [-91.36, 33.96], [-91.35, 33.97], [-91.33, 33.98], [-91.32, 33.99], [-91.32, 34.0], [-91.34, 34.01], [-91.35, 34.0], [-91.37, 33.98], [-91.39, 33.98], [-91.4, 33.99], [-91.41, 34.0], [-91.43, 34.02], [-91.44, 34.03], [-91.43, 34.05], [-91.44, 34.07], [-91.45, 34.08], [-91.44, 34.09], [-91.44, 34.11], [-91.45, 34.12], [-91.44, 34.13], [-91.46, 34.14], [-91.48, 34.13], [-91.49, 34.13], [-91.5, 34.13], [-91.5, 34.14], [-91.51, 34.14], [-91.52, 34.15], [-91.52, 34.16], [-91.52, 34.16], [-91.51, 34.17], [-91.53, 34.18], [-91.52, 34.19], [-91.53, 34.2], [-91.53, 34.22], [-91.54, 34.22], [-91.56, 34.23], [-91.58, 34.22], [-91.59, 34.21], [-91.6, 34.22], [-91.59, 34.23], [-91.61, 34.23], [-91.71, 34.23], [-91.71, 34.37], [-91.71, 34.48], [-91.82, 34.48], [-91.92, 34.49], [-92.03, 34.49], [-92.03, 34.62], [-92.11, 34.62], [-92.1, 34.66], [-92.1, 34.67], [-92.1, 34.69], [-92.09, 34.71], [-92.08, 34.73], [-92.07, 34.84], [-92.08, 34.84], [-92.07, 34.91], [-92.07, 34.92], [-92.07, 35.01], [-92.12, 35.01], [-92.12, 35.07], [-92.11, 35.07], [-92.1, 35.06], [-92.08, 35.07], [-92.08, 35.07], [-92.06, 35.07], [-92.05, 35.07], [-92.04, 35.07], [-92.02, 35.07], [-92.01, 35.07], [-92.0, 35.06], [-91.98, 35.06], [-91.97, 35.05], [-91.95, 35.05], [-91.93, 35.05], [-91.9, 35.03], [-91.89, 35.03], [-91.87, 35.02], [-91.84, 35.03], [-91.8, 35.03], [-91.8, 35.04], [-91.78, 35.04], [-91.78, 35.05], [-91.75, 35.05], [-91.73, 35.05], [-91.72, 35.06], [-91.7, 35.06], [-91.69, 35.06], [-91.69, 35.05], [-91.67, 35.05], [-91.66, 35.05], [-91.65, 35.04], [-91.64, 35.03], [-91.61, 35.02], [-91.6, 35.03], [-91.59, 35.03], [-91.58, 35.09], [-91.47, 35.09], [-91.45, 35.09], [-91.45, 35.1], [-91.44, 35.12], [-91.45, 35.13], [-91.45, 35.14], [-91.43, 35.14], [-91.44, 35.15], [-91.43, 35.15], [-91.46, 35.16], [-91.46, 35.17], [-91.45, 35.17], [-91.43, 35.17], [-91.43, 35.19], [-91.43, 35.19], [-91.42, 35.19], [-91.41, 35.2], [-91.41, 35.21], [-91.4, 35.21], [-91.39, 35.19], [-91.38, 35.19], [-91.38, 35.2], [-91.39, 35.2], [-91.38, 35.22], [-91.38, 35.23], [-91.39, 35.23], [-91.39, 35.25], [-91.39, 35.25], [-91.4, 35.26], [-91.41, 35.26], [-91.41, 35.29], [-91.41, 35.3], [-91.43, 35.29], [-91.44, 35.3], [-91.43, 35.32], [-91.43, 35.32], [-91.43, 35.34], [-91.44, 35.34], [-91.44, 35.35], [-91.43, 35.35], [-91.43, 35.36], [-91.43, 35.37], [-91.4, 35.39], [-91.39, 35.38], [-91.38, 35.38], [-91.4, 35.39], [-91.37, 35.41], [-91.36, 35.41], [-91.35, 35.41], [-91.35, 35.42], [-91.36, 35.43], [-91.35, 35.44], [-91.35, 35.44], [-91.25, 35.45], [-91.25, 35.36], [-91.16, 35.36], [-91.04, 35.35], [-91.04, 35.44], [-90.93, 35.44], [-90.82, 35.45], [-90.72, 35.45], [-90.72, 35.45], [-90.61, 35.45], [-90.61, 35.44], [-90.5, 35.44], [-90.38, 35.44], [-90.14, 35.44]]]}}, {"type": "Feature", "properties": {"STATE": "Arkansas", "STATE_FIPS": "05", "CD_2DIG": "08", "STATE_CODE": 3, "CLIMDIV": 308, "ID": 308, "CD_NEW": 8, "FIPS_CD": "0508", "NCDC_GEO_I": 44.0, "NAME": "SOUTH CENTRAL", "ST_ABBRV": "AR", "SHAPE_AREA": 0.0, "SHAPE_LEN": 0.0}, "geometry": {"type": "Polygon", "coordinates": [[[-93.41, 34.34], [-93.36, 34.34], [-93.36, 34.28], [-93.2, 34.28], [-93.2, 34.25], [-93.09, 34.25], [-93.08, 34.24], [-93.05, 34.24], [-93.03, 34.24], [-93.04, 34.22], [-93.03, 34.21], [-93.03, 34.2], [-93.04, 34.19], [-93.04, 34.18], [-93.04, 34.16], [-93.04, 34.16], [-93.03, 34.16], [-92.92, 34.16], [-92.89, 34.16], [-92.83, 34.15], [-92.81, 34.15], [-92.73, 34.15], [-92.63, 34.15], [-92.54, 34.15], [-92.49, 34.14], [-92.49, 34.14], [-92.48, 34.13], [-92.46, 34.13], [-92.45, 34.12], [-92.43, 34.13], [-92.41, 34.11], [-92.39, 34.1], [-92.37, 34.08], [-92.37, 34.07], [-92.36, 34.07], [-92.35, 34.07], [-92.34, 34.06], [-92.23, 34.06], [-92.12, 34.06], [-91.95, 34.06], [-91.95, 33.98], [-91.98, 33.98], [-91.98, 33.9], [-91.98, 33.68], [-91.98, 33.65], [-91.98, 33.53], [-92.01, 33.53], [-92.01, 33.53], [-92.0, 33.5], [-92.01, 33.49], [-92.01, 33.49], [-92.0, 33.47], [-92.01, 33.47], [-92.02, 33.46], [-92.01, 33.45], [-92.0, 33.44], [-91.99, 33.44], [-92.0, 33.43], [-92.0, 33.42], [-91.99, 33.39], [-91.99, 33.39], [-91.96, 33.38], [-91.97, 33.37], [-91.97, 33.36], [-91.97, 33.35], [-91.99, 33.34], [-91.98, 33.33], [-91.98, 33.3], [-91.99, 33.3], [-92.0, 33.3], [-92.01, 33.3], [-92.0, 33.29], [-92.02, 33.28], [-92.03, 33.28], [-92.04, 33.28], [-92.04, 33.26], [-92.05, 33.25], [-92.06, 33.26], [-92.07, 33.24], [-92.08, 33.24], [-92.09, 33.23], [-92.08, 33.23], [-92.08, 33.21], [-92.11, 33.21], [-92.11, 33.21], [-92.13, 33.2], [-92.14, 33.2], [-92.13, 33.18], [-92.14, 33.16], [-92.11, 33.16], [-92.11, 33.14], [-92.12, 33.15], [-92.11, 33.13], [-92.12, 33.12], [-92.13, 33.12], [-92.14, 33.1], [-92.13, 33.08], [-92.13, 33.07], [-92.11, 33.07], [-92.11, 33.05], [-92.11, 33.03], [-92.08, 33.03], [-92.08, 33.02], [-92.07, 33.01], [-92.22, 33.01], [-92.29, 33.01], [-92.37, 33.01], [-92.48, 33.01], [-92.56, 33.01], [-92.7, 33.01], [-92.73, 33.01], [-92.9, 33.02], [-92.96, 33.02], [-93.02, 33.02], [-93.07, 33.02], [-93.13, 33.02], [-93.24, 33.02], [-93.39, 33.02], [-93.49, 33.02], [-93.48, 33.17], [-93.48, 33.26], [-93.44, 33.26], [-93.43, 33.28], [-93.44, 33.29], [-93.42, 33.3], [-93.43, 33.32], [-93.42, 33.33], [-93.41, 33.36], [-93.41, 33.36], [-93.41, 33.37], [-93.4, 33.39], [-93.4, 33.4], [-93.39, 33.4], [-93.38, 33.43], [-93.37, 33.44], [-93.46, 33.45], [-93.48, 33.45], [-93.48, 33.58], [-93.48, 33.7], [-93.47, 33.83], [-93.46, 33.82], [-93.46, 33.96], [-93.43, 33.96], [-93.41, 33.95], [-93.4, 33.95], [-93.38, 33.96], [-93.38, 33.99], [-93.39, 34.0], [-93.4, 34.0], [-93.41, 34.01], [-93.41, 34.03], [-93.42, 34.04], [-93.43, 34.05], [-93.43, 34.06], [-93.44, 34.07], [-93.44, 34.08], [-93.44, 34.08], [-93.44, 34.11], [-93.46, 34.13], [-93.45, 34.14], [-93.45, 34.15], [-93.45, 34.15], [-93.46, 34.16], [-93.45, 34.18], [-93.45, 34.18], [-93.46, 34.19], [-93.45, 34.2], [-93.45, 34.21], [-93.46, 34.21], [-93.48, 34.21], [-93.49, 34.21], [-93.5, 34.21], [-93.5, 34.25], [-93.48, 34.25], [-93.48, 34.3], [-93.48, 34.34], [-93.41, 34.34]]]}}, {"type": "Feature", "properties": {"STATE": "Arkansas", "STATE_FIPS": "05", "CD_2DIG": "09", "STATE_CODE": 3, "CLIMDIV": 309, "ID": 309, "CD_NEW": 9, "FIPS_CD": "0509", "NCDC_GEO_I": 45.0, "NAME": "SOUTHEAST", "ST_ABBRV": "AR", "SHAPE_AREA": 0.0, "SHAPE_LEN": 0.0}, "geometry": {"type": "Polygon", "coordinates": [[[-92.03, 34.49], [-91.92, 34.49], [-91.82, 34.48], [-91.71, 34.48], [-91.71, 34.37], [-91.71, 34.23], [-91.61, 34.23], [-91.59, 34.23], [-91.6, 34.22], [-91.59, 34.21], [-91.58, 34.22], [-91.56, 34.23], [-91.54, 34.22], [-91.53, 34.22], [-91.53, 34.2], [-91.52, 34.19], [-91.53, 34.18], [-91.51, 34.17], [-91.52, 34.16], [-91.52, 34.16], [-91.52, 34.15], [-91.51, 34.14], [-91.5, 34.14], [-91.5, 34.13], [-91.49, 34.13], [-91.48, 34.13], [-91.46, 34.14], [-91.44, 34.13], [-91.45, 34.12], [-91.44, 34.11], [-91.44, 34.09], [-91.45, 34.08], [-91.44, 34.07], [-91.43, 34.05], [-91.44, 34.03], [-91.43, 34.02], [-91.41, 34.0], [-91.4, 33.99], [-91.39, 33.98], [-91.37, 33.98], [-91.35, 34.0], [-91.34, 34.01], [-91.32, 34.0], [-91.32, 33.99], [-91.33, 33.98], [-91.35, 33.97], [-91.36, 33.96], [-91.35, 33.95], [-91.31, 33.96], [-91.28, 33.97], [-91.27, 33.97], [-91.26, 33.96], [-91.25, 33.96], [-91.24, 33.97], [-91.23, 33.98], [-91.21, 33.97], [-91.21, 33.96], [-91.2, 33.95], [-91.18, 33.96], [-91.16, 33.95], [-91.16, 33.94], [-91.14, 33.95], [-91.13, 33.96], [-91.14, 33.96], [-91.15, 33.97], [-91.16, 33.98], [-91.16, 33.99], [-91.16, 34.01], [-91.17, 34.02], [-91.18, 34.02], [-91.19, 34.03], [-91.19, 34.03], [-91.2, 34.05], [-91.19, 34.06], [-91.19, 34.07], [-91.18, 34.07], [-91.19, 34.08], [-91.17, 34.09], [-91.15, 34.08], [-91.15, 34.09], [-91.15, 34.1], [-91.14, 34.11], [-91.13, 34.11], [-91.12, 34.11], [-91.12, 34.12], [-91.08, 34.12], [-90.96, 34.12], [-90.94, 34.11], [-90.92, 34.09], [-90.91, 34.09], [-90.89, 34.1], [-90.88, 34.1], [-90.87, 34.08], [-90.87, 34.07], [-90.89, 34.06], [-90.89, 34.05], [-90.89, 34.03], [-90.9, 34.02], [-90.91, 34.02], [-90.92, 34.02], [-90.93, 34.02], [-90.95, 34.02], [-90.97, 34.02], [-90.99, 34.02], [-90.98, 34.0], [-90.97, 33.99], [-90.96, 33.98], [-90.97, 33.96], [-90.98, 33.96], [-91.0, 33.97], [-91.02, 34.0], [-91.05, 33.99], [-91.07, 33.98], [-91.09, 33.98], [-91.09, 33.96], [-91.08, 33.95], [-91.05, 33.95], [-91.02, 33.94], [-91.01, 33.93], [-91.01, 33.92], [-91.03, 33.91], [-91.06, 33.88], [-91.07, 33.87], [-91.07, 33.86], [-91.07, 33.84], [-91.05, 33.82], [-91.02, 33.8], [-91.0, 33.8], [-90.99, 33.79], [-90.99, 33.78], [-90.99, 33.78], [-91.0, 33.77], [-91.01, 33.76], [-91.03, 33.76], [-91.05, 33.78], [-91.09, 33.78], [-91.11, 33.77], [-91.12, 33.78], [-91.13, 33.78], [-91.15, 33.77], [-91.14, 33.76], [-91.15, 33.73], [-91.14, 33.72], [-91.13, 33.71], [-91.12, 33.71], [-91.1, 33.71], [-91.09, 33.71], [-91.07, 33.72], [-91.06, 33.71], [-91.05, 33.71], [-91.04, 33.69], [-91.03, 33.69], [-91.03, 33.67], [-91.06, 33.67], [-91.08, 33.66], [-91.09, 33.66], [-91.1, 33.66], [-91.13, 33.68], [-91.16, 33.71], [-91.18, 33.7], [-91.21, 33.7], [-91.22, 33.69], [-91.23, 33.68], [-91.23, 33.67], [-91.22, 33.66], [-91.21, 33.66], [-91.18, 33.65], [-91.17, 33.65], [-91.14, 33.63], [-91.13, 33.61], [-91.14, 33.59], [-91.15, 33.58], [-91.18, 33.58], [-91.2, 33.57], [-91.22, 33.57], [-91.23, 33.56], [-91.23, 33.55], [-91.23, 33.54], [-91.22, 33.53], [-91.19, 33.51], [-91.18, 33.5], [-91.2, 33.49], [-91.21, 33.47], [-91.23, 33.46], [-91.24, 33.44], [-91.22, 33.43], [-91.2, 33.43], [-91.18, 33.44], [-91.17, 33.45], [-91.18, 33.47], [-91.18, 33.48], [-91.17, 33.5], [-91.16, 33.5], [-91.14, 33.48], [-91.13, 33.47], [-91.12, 33.45], [-91.12, 33.44], [-91.13, 33.43], [-91.15, 33.43], [-91.18, 33.42], [-91.2, 33.42], [-91.21, 33.4], [-91.19, 33.39], [-91.17, 33.38], [-91.14, 33.38], [-91.12, 33.39], [-91.11, 33.4], [-91.1, 33.41], [-91.09, 33.42], [-91.1, 33.43], [-91.09, 33.44], [-91.09, 33.45], [-91.08, 33.46], [-91.07, 33.46], [-91.06, 33.45], [-91.06, 33.43], [-91.08, 33.41], [-91.1, 33.39], [-91.11, 33.38], [-91.12, 33.36], [-91.14, 33.35], [-91.14, 33.34], [-91.14, 33.33], [-91.14, 33.3], [-91.13, 33.28], [-91.13, 33.27], [-91.12, 33.26], [-91.11, 33.25], [-91.1, 33.24], [-91.09, 33.26], [-91.08, 33.28], [-91.08, 33.28], [-91.06, 33.29], [-91.05, 33.28], [-91.04, 33.27], [-91.05, 33.25], [-91.07, 33.23], [-91.08, 33.22], [-91.09, 33.22], [-91.08, 33.18], [-91.09, 33.16], [-91.09, 33.15], [-91.09, 33.14], [-91.1, 33.13], [-91.13, 33.13], [-91.15, 33.13], [-91.16, 33.14], [-91.18, 33.14], [-91.2, 33.13], [-91.2, 33.13], [-91.2, 33.11], [-91.18, 33.1], [-91.17, 33.09], [-91.15, 33.08], [-91.12, 33.06], [-91.12, 33.05], [-91.13, 33.03], [-91.15, 33.03], [-91.16, 33.02], [-91.17, 33.0], [-91.27, 33.01], [-91.34, 33.01], [-91.41, 33.01], [-91.45, 33.01], [-91.5, 33.01], [-91.57, 33.01], [-91.59, 33.01], [-91.63, 33.01], [-91.68, 33.01], [-91.74, 33.01], [-91.76, 33.01], [-91.93, 33.01], [-91.95, 33.01], [-92.07, 33.01], [-92.08, 33.02], [-92.08, 33.03], [-92.11, 33.03], [-92.11, 33.05], [-92.11, 33.07], [-92.13, 33.07], [-92.13, 33.08], [-92.14, 33.1], [-92.13, 33.12], [-92.12, 33.12], [-92.11, 33.13], [-92.12, 33.15], [-92.11, 33.14], [-92.11, 33.16], [-92.14, 33.16], [-92.13, 33.18], [-92.14, 33.2], [-92.13, 33.2], [-92.11, 33.21], [-92.11, 33.21], [-92.08, 33.21], [-92.08, 33.23], [-92.09, 33.23], [-92.08, 33.24], [-92.07, 33.24], [-92.06, 33.26], [-92.05, 33.25], [-92.04, 33.26], [-92.04, 33.28], [-92.03, 33.28], [-92.02, 33.28], [-92.0, 33.29], [-92.01, 33.3], [-92.0, 33.3], [-91.99, 33.3], [-91.98, 33.3], [-91.98, 33.33], [-91.99, 33.34], [-91.97, 33.35], [-91.97, 33.36], [-91.97, 33.37], [-91.96, 33.38], [-91.99, 33.39], [-91.99, 33.39], [-92.0, 33.42], [-92.0, 33.43], [-91.99, 33.44], [-92.0, 33.44], [-92.01, 33.45], [-92.02, 33.46], [-92.01, 33.47], [-92.0, 33.47], [-92.01, 33.49], [-92.01, 33.49], [-92.0, 33.5], [-92.01, 33.53], [-92.01, 33.53], [-91.98, 33.53], [-91.98, 33.65], [-91.98, 33.68], [-91.98, 33.9], [-91.98, 33.98], [-91.95, 33.98], [-91.95, 34.06], [-92.12, 34.06], [-92.23, 34.06], [-92.23, 34.12], [-92.23, 34.23], [-92.21, 34.23], [-92.21, 34.32], [-92.21, 34.48], [-92.21, 34.49], [-92.03, 34.49]]]}}, {"type": "Feature", "properties": {"STATE": "Arkansas", "STATE_FIPS": "05", "CD_2DIG": "07", "STATE_CODE": 3, "CLIMDIV": 307, "ID": 307, "CD_NEW": 7, "FIPS_CD": "0507", "NCDC_GEO_I": 46.0, "NAME": "SOUTHWEST", "ST_ABBRV": "AR", "SHAPE_AREA": 0.0, "SHAPE_LEN": 0.0}, "geometry": {"type": "Polygon", "coordinates": [[[-93.39, 34.74], [-93.39, 34.69], [-93.4, 34.69], [-93.4, 34.63], [-93.4, 34.53], [-93.41, 34.5], [-93.41, 34.34], [-93.48, 34.34], [-93.48, 34.3], [-93.48, 34.25], [-93.5, 34.25], [-93.5, 34.21], [-93.49, 34.21], [-93.48, 34.21], [-93.46, 34.21], [-93.45, 34.21], [-93.45, 34.2], [-93.46, 34.19], [-93.45, 34.18], [-93.45, 34.18], [-93.46, 34.16], [-93.45, 34.15], [-93.45, 34.15], [-93.45, 34.14], [-93.46, 34.13], [-93.44, 34.11], [-93.44, 34.08], [-93.44, 34.08], [-93.44, 34.07], [-93.43, 34.06], [-93.43, 34.05], [-93.42, 34.04], [-93.41, 34.03], [-93.41, 34.01], [-93.4, 34.0], [-93.39, 34.0], [-93.38, 33.99], [-93.38, 33.96], [-93.4, 33.95], [-93.41, 33.95], [-93.43, 33.96], [-93.46, 33.96], [-93.46, 33.82], [-93.47, 33.83], [-93.48, 33.7], [-93.48, 33.58], [-93.48, 33.45], [-93.46, 33.45], [-93.37, 33.44], [-93.38, 33.43], [-93.39, 33.4], [-93.4, 33.4], [-93.4, 33.39], [-93.41, 33.37], [-93.41, 33.36], [-93.41, 33.36], [-93.42, 33.33], [-93.43, 33.32], [-93.42, 33.3], [-93.44, 33.29], [-93.43, 33.28], [-93.44, 33.26], [-93.48, 33.26], [-93.48, 33.17], [-93.49, 33.02], [-93.51, 33.02], [-93.63, 33.02], [-93.8, 33.02], [-93.92, 33.02], [-94.04, 33.02], [-94.04, 33.19], [-94.04, 33.38], [-94.04, 33.55], [-94.06, 33.55], [-94.07, 33.55], [-94.07, 33.56], [-94.07, 33.57], [-94.08, 33.58], [-94.1, 33.57], [-94.11, 33.57], [-94.12, 33.57], [-94.12, 33.55], [-94.13, 33.55], [-94.13, 33.57], [-94.14, 33.57], [-94.15, 33.58], [-94.16, 33.58], [-94.16, 33.59], [-94.18, 33.59], [-94.2, 33.58], [-94.19, 33.57], [-94.19, 33.56], [-94.2, 33.56], [-94.2, 33.57], [-94.21, 33.56], [-94.23, 33.55], [-94.24, 33.55], [-94.25, 33.56], [-94.25, 33.57], [-94.24, 33.58], [-94.24, 33.59], [-94.25, 33.59], [-94.26, 33.58], [-94.27, 33.57], [-94.27, 33.56], [-94.29, 33.56], [-94.29, 33.57], [-94.28, 33.57], [-94.29, 33.58], [-94.3, 33.58], [-94.31, 33.55], [-94.32, 33.55], [-94.33, 33.55], [-94.33, 33.56], [-94.35, 33.57], [-94.35, 33.56], [-94.35, 33.55], [-94.35, 33.54], [-94.37, 33.55], [-94.38, 33.54], [-94.39, 33.55], [-94.4, 33.56], [-94.38, 33.56], [-94.37, 33.58], [-94.37, 33.59], [-94.38, 33.59], [-94.39, 33.58], [-94.39, 33.57], [-94.41, 33.57], [-94.41, 33.57], [-94.43, 33.59], [-94.45, 33.59], [-94.46, 33.6], [-94.47, 33.6], [-94.47, 33.61], [-94.45, 33.62], [-94.46, 33.63], [-94.45, 33.63], [-94.45, 33.64], [-94.46, 33.65], [-94.47, 33.64], [-94.49, 33.64], [-94.48, 33.83], [-94.48, 33.88], [-94.48, 33.99], [-94.47, 34.09], [-94.47, 34.19], [-94.38, 34.19], [-94.24, 34.19], [-94.24, 34.23], [-94.24, 34.27], [-94.26, 34.27], [-94.25, 34.36], [-94.19, 34.35], [-94.15, 34.35], [-94.1, 34.35], [-94.03, 34.35], [-93.94, 34.35], [-93.93, 34.5], [-93.93, 34.5], [-93.93, 34.67], [-93.88, 34.67], [-93.88, 34.69], [-93.87, 34.69], [-93.87, 34.71], [-93.82, 34.71], [-93.82, 34.72], [-93.78, 34.72], [-93.78, 34.73], [-93.75, 34.73], [-93.75, 34.75], [-93.69, 34.74], [-93.57, 34.74], [-93.39, 34.74]]]}}]}