{"type": "FeatureCollection", "features": [{"type": "Feature", "properties": {"STATE": "Colorado", "STATE_FIPS": "08", "CD_2DIG": "04", "STATE_CODE": 5, "CLIMDIV": 504, "ID": 504, "CD_NEW": 4, "FIPS_CD": "0804", "NCDC_GEO_I": 297.0, "NAME": "PLATTE DRAINAGE BASIN", "ST_ABBRV": "CO", "SHAPE_AREA": 0.0, "SHAPE_LEN": 0.0}, "geometry": {"type": "Polygon", "coordinates": [[[-106.87, 41.0], [-106.63, 41.0], [-106.44, 41.0], [-106.39, 41.0], [-106.31, 41.0], [-106.22, 41.0], [-106.06, 41.0], [-106.0, 41.0], [-105.73, 41.0], [-105.66, 41.0], [-105.45, 41.0], [-105.16, 41.0], [-104.86, 41.0], [-104.8, 41.0], [-104.63, 41.0], [-104.36, 41.0], [-104.17, 41.0], [-104.05, 41.0], [-104.02, 41.0], [-103.97, 41.0], [-103.91, 41.0], [-103.9, 41.0], [-103.9, 41.0], [-103.78, 41.0], [-103.76, 41.0], [-103.75, 41.0], [-103.73, 41.0], [-103.65, 41.0], [-103.63, 41.0], [-103.62, 41.0], [-103.62, 41.0], [-103.62, 41.0], [-103.58, 41.0], [-103.56, 41.0], [-103.53, 41.0], [-103.49, 41.0], [-103.37, 41.0], [-103.14, 41.0], [-103.0, 41.0], [-102.87, 41.0], [-102.56, 41.0], [-102.36, 41.0], [-102.29, 41.0], [-102.29, 41.0], [-102.27, 41.0], [-102.27, 41.0], [-102.24, 41.0], [-102.23, 41.0], [-102.21, 41.0], [-102.19, 41.0], [-102.14, 41.0], [-102.12, 41.0], [-102.07, 41.0], [-102.07, 41.0], [-102.05, 41.0], [-102.05, 41.0], [-102.05, 40.97], [-102.05, 40.97], [-102.07, 40.97], [-102.07, 40.98], [-102.08, 40.98], [-102.09, 40.96], [-102.11, 40.95], [-102.12, 40.95], [-102.14, 40.96], [-102.16, 40.96], [-102.16, 40.93], [-102.16, 40.93], [-102.19, 40.92], [-102.21, 40.92], [-102.24, 40.92], [-102.27, 40.91], [-102.28, 40.91], [-102.29, 40.89], [-102.32, 40.89], [-102.35, 40.89], [-102.37, 40.89], [-102.39, 40.89], [-102.41, 40.89], [-102.43, 40.89], [-102.48, 40.88], [-102.51, 40.87], [-102.54, 40.86], [-102.56, 40.84], [-102.56, 40.84], [-102.59, 40.83], [-102.6, 40.82], [-102.62, 40.81], [-102.64, 40.81], [-102.64, 40.79], [-102.69, 40.79], [-102.7, 40.79], [-102.72, 40.77], [-102.75, 40.77], [-102.76, 40.77], [-102.76, 40.75], [-102.78, 40.75], [-102.78, 40.74], [-102.8, 40.72], [-102.81, 40.72], [-102.82, 40.72], [-102.83, 40.7], [-102.84, 40.69], [-102.85, 40.69], [-102.87, 40.69], [-102.9, 40.69], [-102.93, 40.69], [-102.94, 40.68], [-102.96, 40.66], [-102.98, 40.66], [-102.99, 40.65], [-103.0, 40.62], [-103.03, 40.6], [-103.04, 40.59], [-103.04, 40.58], [-103.05, 40.56], [-103.04, 40.54], [-103.07, 40.53], [-103.09, 40.51], [-103.1, 40.51], [-103.1, 40.48], [-103.1, 40.44], [-103.1, 40.41], [-103.1, 40.39], [-103.1, 40.35], [-103.12, 40.29], [-103.13, 40.28], [-103.14, 40.27], [-103.16, 40.25], [-103.18, 40.24], [-103.22, 40.21], [-103.23, 40.19], [-103.24, 40.19], [-103.25, 40.18], [-103.29, 40.17], [-103.3, 40.15], [-103.31, 40.13], [-103.31, 40.12], [-103.3, 40.1], [-103.29, 40.08], [-103.3, 40.06], [-103.32, 40.03], [-103.32, 40.01], [-103.32, 39.99], [-103.31, 39.97], [-103.31, 39.95], [-103.33, 39.93], [-103.32, 39.91], [-103.31, 39.89], [-103.31, 39.87], [-103.36, 39.83], [-103.35, 39.81], [-103.35, 39.78], [-103.32, 39.73], [-103.34, 39.71], [-103.35, 39.69], [-103.35, 39.69], [-103.36, 39.67], [-103.36, 39.65], [-103.38, 39.64], [-103.42, 39.64], [-103.45, 39.63], [-103.46, 39.61], [-103.49, 39.6], [-103.53, 39.58], [-103.54, 39.58], [-103.56, 39.54], [-103.57, 39.53], [-103.59, 39.5], [-103.61, 39.48], [-103.63, 39.48], [-103.67, 39.48], [-103.67, 39.47], [-103.68, 39.46], [-103.69, 39.44], [-103.7, 39.42], [-103.71, 39.41], [-103.76, 39.39], [-103.77, 39.39], [-103.79, 39.38], [-103.79, 39.37], [-103.83, 39.35], [-103.83, 39.35], [-103.85, 39.35], [-103.91, 39.32], [-103.91, 39.32], [-103.96, 39.3], [-103.97, 39.3], [-103.97, 39.28], [-103.98, 39.26], [-103.99, 39.24], [-104.0, 39.22], [-104.02, 39.21], [-104.06, 39.21], [-104.08, 39.21], [-104.08, 39.19], [-104.09, 39.19], [-104.11, 39.18], [-104.13, 39.17], [-104.16, 39.16], [-104.22, 39.15], [-104.24, 39.16], [-104.25, 39.15], [-104.3, 39.12], [-104.31, 39.12], [-104.32, 39.14], [-104.34, 39.14], [-104.35, 39.14], [-104.4, 39.11], [-104.41, 39.11], [-104.45, 39.09], [-104.47, 39.08], [-104.51, 39.08], [-104.54, 39.07], [-104.57, 39.06], [-104.61, 39.04], [-104.62, 39.04], [-104.64, 39.04], [-104.68, 39.03], [-104.69, 39.04], [-104.72, 39.04], [-104.74, 39.07], [-104.75, 39.07], [-104.77, 39.07], [-104.78, 39.07], [-104.79, 39.07], [-104.8, 39.09], [-104.83, 39.12], [-104.86, 39.13], [-104.88, 39.13], [-104.9, 39.13], [-104.92, 39.13], [-104.95, 39.14], [-104.97, 39.13], [-105.0, 39.13], [-105.02, 39.12], [-105.02, 39.1], [-105.02, 39.08], [-105.02, 39.04], [-105.02, 39.02], [-105.03, 39.0], [-105.05, 39.0], [-105.07, 38.99], [-105.09, 38.95], [-105.11, 38.92], [-105.13, 38.9], [-105.17, 38.89], [-105.21, 38.89], [-105.23, 38.88], [-105.28, 38.88], [-105.29, 38.88], [-105.31, 38.88], [-105.32, 38.88], [-105.33, 38.88], [-105.35, 38.88], [-105.37, 38.87], [-105.41, 38.86], [-105.42, 38.85], [-105.45, 38.84], [-105.47, 38.83], [-105.48, 38.83], [-105.5, 38.83], [-105.53, 38.83], [-105.55, 38.83], [-105.56, 38.83], [-105.59, 38.83], [-105.61, 38.84], [-105.63, 38.84], [-105.65, 38.83], [-105.66, 38.82], [-105.67, 38.81], [-105.68, 38.8], [-105.68, 38.78], [-105.69, 38.77], [-105.7, 38.75], [-105.72, 38.76], [-105.76, 38.78], [-105.77, 38.79], [-105.79, 38.78], [-105.8, 38.79], [-105.81, 38.8], [-105.83, 38.8], [-105.84, 38.8], [-105.85, 38.81], [-105.86, 38.81], [-105.89, 38.81], [-105.9, 38.81], [-105.92, 38.82], [-105.94, 38.84], [-105.94, 38.86], [-105.93, 38.88], [-105.95, 38.88], [-105.97, 38.88], [-105.97, 38.92], [-105.98, 38.92], [-106.0, 38.92], [-106.02, 38.93], [-106.04, 38.93], [-106.05, 38.93], [-106.1, 38.94], [-106.11, 38.95], [-106.11, 38.96], [-106.11, 38.98], [-106.11, 38.99], [-106.14, 39.0], [-106.16, 39.0], [-106.16, 39.0], [-106.18, 39.01], [-106.19, 39.03], [-106.19, 39.05], [-106.19, 39.07], [-106.17, 39.09], [-106.19, 39.1], [-106.2, 39.11], [-106.21, 39.11], [-106.18, 39.13], [-106.18, 39.15], [-106.18, 39.17], [-106.19, 39.18], [-106.18, 39.2], [-106.18, 39.22], [-106.17, 39.23], [-106.19, 39.25], [-106.18, 39.27], [-106.19, 39.28], [-106.18, 39.29], [-106.19, 39.3], [-106.18, 39.31], [-106.17, 39.32], [-106.15, 39.33], [-106.14, 39.34], [-106.16, 39.36], [-106.15, 39.38], [-106.15, 39.38], [-106.14, 39.38], [-106.12, 39.38], [-106.1, 39.38], [-106.09, 39.38], [-106.05, 39.36], [-106.04, 39.36], [-106.03, 39.36], [-106.02, 39.37], [-106.02, 39.38], [-106.01, 39.4], [-106.0, 39.4], [-105.98, 39.41], [-105.96, 39.42], [-105.96, 39.43], [-105.97, 39.44], [-105.95, 39.45], [-105.94, 39.47], [-105.9, 39.46], [-105.9, 39.47], [-105.88, 39.5], [-105.87, 39.5], [-105.87, 39.51], [-105.87, 39.53], [-105.86, 39.54], [-105.83, 39.54], [-105.82, 39.55], [-105.82, 39.56], [-105.84, 39.57], [-105.84, 39.57], [-105.82, 39.59], [-105.79, 39.61], [-105.79, 39.62], [-105.78, 39.62], [-105.78, 39.63], [-105.79, 39.64], [-105.81, 39.64], [-105.84, 39.65], [-105.86, 39.66], [-105.87, 39.67], [-105.89, 39.67], [-105.91, 39.67], [-105.92, 39.68], [-105.93, 39.69], [-105.92, 39.72], [-105.9, 39.73], [-105.89, 39.74], [-105.88, 39.74], [-105.88, 39.76], [-105.88, 39.76], [-105.89, 39.79], [-105.88, 39.8], [-105.87, 39.8], [-105.84, 39.79], [-105.83, 39.79], [-105.82, 39.79], [-105.8, 39.81], [-105.75, 39.81], [-105.73, 39.81], [-105.72, 39.84], [-105.7, 39.85], [-105.7, 39.86], [-105.7, 39.89], [-105.7, 39.91], [-105.69, 39.93], [-105.69, 39.94], [-105.7, 39.94], [-105.69, 39.96], [-105.69, 40.01], [-105.68, 40.02], [-105.66, 40.02], [-105.64, 40.04], [-105.64, 40.05], [-105.65, 40.07], [-105.63, 40.09], [-105.64, 40.1], [-105.63, 40.12], [-105.63, 40.14], [-105.63, 40.15], [-105.66, 40.16], [-105.67, 40.17], [-105.68, 40.21], [-105.68, 40.22], [-105.67, 40.25], [-105.66, 40.26], [-105.69, 40.29], [-105.7, 40.3], [-105.71, 40.32], [-105.72, 40.33], [-105.75, 40.35], [-105.78, 40.38], [-105.8, 40.39], [-105.8, 40.4], [-105.81, 40.42], [-105.81, 40.42], [-105.81, 40.46], [-105.83, 40.48], [-105.84, 40.49], [-105.87, 40.48], [-105.88, 40.48], [-105.89, 40.46], [-105.9, 40.45], [-105.9, 40.43], [-105.9, 40.4], [-105.91, 40.4], [-105.93, 40.4], [-105.94, 40.39], [-105.94, 40.38], [-105.96, 40.35], [-105.97, 40.35], [-105.99, 40.37], [-105.99, 40.36], [-106.03, 40.37], [-106.04, 40.37], [-106.07, 40.35], [-106.09, 40.36], [-106.12, 40.35], [-106.14, 40.34], [-106.16, 40.35], [-106.17, 40.35], [-106.18, 40.35], [-106.19, 40.33], [-106.22, 40.33], [-106.23, 40.33], [-106.25, 40.35], [-106.26, 40.37], [-106.3, 40.36], [-106.3, 40.34], [-106.31, 40.34], [-106.34, 40.35], [-106.36, 40.36], [-106.38, 40.36], [-106.4, 40.34], [-106.44, 40.36], [-106.45, 40.35], [-106.46, 40.37], [-106.47, 40.39], [-106.48, 40.39], [-106.48, 40.41], [-106.49, 40.41], [-106.51, 40.4], [-106.53, 40.39], [-106.53, 40.37], [-106.54, 40.37], [-106.56, 40.38], [-106.58, 40.38], [-106.6, 40.38], [-106.61, 40.38], [-106.62, 40.41], [-106.63, 40.43], [-106.65, 40.44], [-106.66, 40.47], [-106.65, 40.49], [-106.65, 40.5], [-106.66, 40.52], [-106.68, 40.53], [-106.7, 40.57], [-106.7, 40.6], [-106.7, 40.62], [-106.71, 40.63], [-106.69, 40.65], [-106.69, 40.65], [-106.69, 40.66], [-106.69, 40.68], [-106.67, 40.69], [-106.68, 40.72], [-106.67, 40.75], [-106.66, 40.77], [-106.64, 40.78], [-106.64, 40.79], [-106.64, 40.81], [-106.64, 40.82], [-106.65, 40.83], [-106.67, 40.83], [-106.66, 40.85], [-106.66, 40.86], [-106.69, 40.88], [-106.71, 40.88], [-106.73, 40.87], [-106.74, 40.87], [-106.75, 40.88], [-106.76, 40.9], [-106.77, 40.89], [-106.78, 40.9], [-106.79, 40.91], [-106.81, 40.9], [-106.83, 40.93], [-106.85, 40.93], [-106.86, 40.93], [-106.87, 40.95], [-106.87, 40.97], [-106.86, 41.0], [-106.87, 41.0]]]}}, {"type": "Feature", "properties": {"STATE": "Colorado", "STATE_FIPS": "08", "CD_2DIG": "02", "STATE_CODE": 5, "CLIMDIV": 502, "ID": 502, "CD_NEW": 2, "FIPS_CD": "0802", "NCDC_GEO_I": 298.0, "NAME": "COLORADO DRAINAGE BASIN", "ST_ABBRV": "CO", "SHAPE_AREA": 0.0, "SHAPE_LEN": 0.0}, "geometry": {"type": "Polygon", "coordinates": [[[-106.87, 41.0], [-106.86, 41.0], [-106.87, 40.97], [-106.87, 40.95], [-106.86, 40.93], [-106.85, 40.93], [-106.83, 40.93], [-106.81, 40.9], [-106.79, 40.91], [-106.78, 40.9], [-106.77, 40.89], [-106.76, 40.9], [-106.75, 40.88], [-106.74, 40.87], [-106.73, 40.87], [-106.71, 40.88], [-106.69, 40.88], [-106.66, 40.86], [-106.66, 40.85], [-106.67, 40.83], [-106.65, 40.83], [-106.64, 40.82], [-106.64, 40.81], [-106.64, 40.79], [-106.64, 40.78], [-106.66, 40.77], [-106.67, 40.75], [-106.68, 40.72], [-106.67, 40.69], [-106.69, 40.68], [-106.69, 40.66], [-106.69, 40.65], [-106.69, 40.65], [-106.71, 40.63], [-106.7, 40.62], [-106.7, 40.6], [-106.7, 40.57], [-106.68, 40.53], [-106.66, 40.52], [-106.65, 40.5], [-106.65, 40.49], [-106.66, 40.47], [-106.65, 40.44], [-106.63, 40.43], [-106.62, 40.41], [-106.61, 40.38], [-106.6, 40.38], [-106.58, 40.38], [-106.56, 40.38], [-106.54, 40.37], [-106.53, 40.37], [-106.53, 40.39], [-106.51, 40.4], [-106.49, 40.41], [-106.48, 40.41], [-106.48, 40.39], [-106.47, 40.39], [-106.46, 40.37], [-106.45, 40.35], [-106.44, 40.36], [-106.4, 40.34], [-106.38, 40.36], [-106.36, 40.36], [-106.34, 40.35], [-106.31, 40.34], [-106.3, 40.34], [-106.3, 40.36], [-106.26, 40.37], [-106.25, 40.35], [-106.23, 40.33], [-106.22, 40.33], [-106.19, 40.33], [-106.18, 40.35], [-106.17, 40.35], [-106.16, 40.35], [-106.14, 40.34], [-106.12, 40.35], [-106.09, 40.36], [-106.07, 40.35], [-106.04, 40.37], [-106.03, 40.37], [-105.99, 40.36], [-105.99, 40.37], [-105.97, 40.35], [-105.96, 40.35], [-105.94, 40.38], [-105.94, 40.39], [-105.93, 40.4], [-105.91, 40.4], [-105.9, 40.4], [-105.9, 40.43], [-105.9, 40.45], [-105.89, 40.46], [-105.88, 40.48], [-105.87, 40.48], [-105.84, 40.49], [-105.83, 40.48], [-105.81, 40.46], [-105.81, 40.42], [-105.81, 40.42], [-105.8, 40.4], [-105.8, 40.39], [-105.78, 40.38], [-105.75, 40.35], [-105.72, 40.33], [-105.71, 40.32], [-105.7, 40.3], [-105.69, 40.29], [-105.66, 40.26], [-105.67, 40.25], [-105.68, 40.22], [-105.68, 40.21], [-105.67, 40.17], [-105.66, 40.16], [-105.63, 40.15], [-105.63, 40.14], [-105.63, 40.12], [-105.64, 40.1], [-105.63, 40.09], [-105.65, 40.07], [-105.64, 40.05], [-105.64, 40.04], [-105.66, 40.02], [-105.68, 40.02], [-105.69, 40.01], [-105.69, 39.96], [-105.7, 39.94], [-105.69, 39.94], [-105.69, 39.93], [-105.7, 39.91], [-105.7, 39.89], [-105.7, 39.86], [-105.7, 39.85], [-105.72, 39.84], [-105.73, 39.81], [-105.75, 39.81], [-105.8, 39.81], [-105.82, 39.79], [-105.83, 39.79], [-105.84, 39.79], [-105.87, 39.8], [-105.88, 39.8], [-105.89, 39.79], [-105.88, 39.76], [-105.88, 39.76], [-105.88, 39.74], [-105.89, 39.74], [-105.9, 39.73], [-105.92, 39.72], [-105.93, 39.69], [-105.92, 39.68], [-105.91, 39.67], [-105.89, 39.67], [-105.87, 39.67], [-105.86, 39.66], [-105.84, 39.65], [-105.81, 39.64], [-105.79, 39.64], [-105.78, 39.63], [-105.78, 39.62], [-105.79, 39.62], [-105.79, 39.61], [-105.82, 39.59], [-105.84, 39.57], [-105.84, 39.57], [-105.82, 39.56], [-105.82, 39.55], [-105.83, 39.54], [-105.86, 39.54], [-105.87, 39.53], [-105.87, 39.51], [-105.87, 39.5], [-105.88, 39.5], [-105.9, 39.47], [-105.9, 39.46], [-105.94, 39.47], [-105.95, 39.45], [-105.97, 39.44], [-105.96, 39.43], [-105.96, 39.42], [-105.98, 39.41], [-106.0, 39.4], [-106.01, 39.4], [-106.02, 39.38], [-106.02, 39.37], [-106.03, 39.36], [-106.04, 39.36], [-106.05, 39.36], [-106.09, 39.38], [-106.1, 39.38], [-106.12, 39.38], [-106.14, 39.38], [-106.15, 39.38], [-106.17, 39.38], [-106.19, 39.39], [-106.22, 39.38], [-106.23, 39.38], [-106.26, 39.36], [-106.28, 39.35], [-106.31, 39.36], [-106.34, 39.36], [-106.35, 39.36], [-106.36, 39.36], [-106.38, 39.38], [-106.39, 39.38], [-106.41, 39.37], [-106.43, 39.36], [-106.43, 39.34], [-106.44, 39.32], [-106.45, 39.32], [-106.47, 39.32], [-106.49, 39.31], [-106.5, 39.29], [-106.49, 39.28], [-106.48, 39.27], [-106.48, 39.26], [-106.49, 39.25], [-106.49, 39.24], [-106.49, 39.22], [-106.49, 39.21], [-106.5, 39.19], [-106.5, 39.17], [-106.52, 39.17], [-106.55, 39.16], [-106.56, 39.14], [-106.56, 39.11], [-106.58, 39.1], [-106.58, 39.09], [-106.57, 39.06], [-106.57, 39.06], [-106.59, 39.04], [-106.59, 39.03], [-106.6, 39.02], [-106.6, 39.0], [-106.58, 38.99], [-106.56, 39.0], [-106.55, 38.99], [-106.53, 38.98], [-106.53, 38.96], [-106.52, 38.95], [-106.48, 38.93], [-106.47, 38.92], [-106.46, 38.91], [-106.44, 38.92], [-106.42, 38.93], [-106.41, 38.91], [-106.39, 38.92], [-106.37, 38.91], [-106.34, 38.91], [-106.33, 38.91], [-106.32, 38.9], [-106.32, 38.89], [-106.34, 38.87], [-106.35, 38.85], [-106.36, 38.84], [-106.38, 38.83], [-106.39, 38.83], [-106.42, 38.82], [-106.42, 38.81], [-106.42, 38.8], [-106.42, 38.79], [-106.42, 38.74], [-106.42, 38.73], [-106.43, 38.72], [-106.44, 38.71], [-106.44, 38.7], [-106.44, 38.68], [-106.43, 38.67], [-106.43, 38.65], [-106.41, 38.64], [-106.39, 38.64], [-106.39, 38.63], [-106.38, 38.62], [-106.36, 38.6], [-106.35, 38.57], [-106.35, 38.56], [-106.37, 38.54], [-106.35, 38.53], [-106.35, 38.5], [-106.33, 38.5], [-106.32, 38.5], [-106.3, 38.47], [-106.29, 38.45], [-106.28, 38.46], [-106.27, 38.44], [-106.27, 38.44], [-106.25, 38.43], [-106.25, 38.41], [-106.25, 38.4], [-106.24, 38.38], [-106.24, 38.37], [-106.25, 38.35], [-106.28, 38.34], [-106.29, 38.34], [-106.32, 38.33], [-106.34, 38.31], [-106.34, 38.28], [-106.37, 38.29], [-106.38, 38.29], [-106.39, 38.28], [-106.4, 38.28], [-106.45, 38.28], [-106.46, 38.29], [-106.47, 38.31], [-106.48, 38.32], [-106.49, 38.32], [-106.51, 38.3], [-106.53, 38.29], [-106.54, 38.26], [-106.56, 38.25], [-106.57, 38.22], [-106.58, 38.21], [-106.59, 38.2], [-106.61, 38.17], [-106.6, 38.15], [-106.62, 38.14], [-106.62, 38.13], [-106.66, 38.1], [-106.68, 38.08], [-106.69, 38.08], [-106.7, 38.08], [-106.72, 38.09], [-106.74, 38.09], [-106.75, 38.09], [-106.78, 38.06], [-106.8, 38.04], [-106.81, 38.02], [-106.79, 38.0], [-106.79, 37.99], [-106.8, 37.99], [-106.81, 37.98], [-106.81, 37.96], [-106.82, 37.95], [-106.85, 37.95], [-106.86, 37.94], [-106.87, 37.94], [-106.88, 37.96], [-106.89, 37.96], [-106.91, 37.97], [-106.95, 37.96], [-106.95, 37.96], [-106.97, 37.97], [-106.98, 37.96], [-107.0, 37.95], [-107.04, 37.96], [-107.05, 37.95], [-107.07, 37.96], [-107.08, 37.96], [-107.08, 37.95], [-107.11, 37.95], [-107.12, 37.95], [-107.14, 37.93], [-107.15, 37.93], [-107.15, 37.92], [-107.17, 37.93], [-107.18, 37.93], [-107.2, 37.94], [-107.22, 37.93], [-107.23, 37.93], [-107.25, 37.93], [-107.27, 37.93], [-107.28, 37.92], [-107.29, 37.9], [-107.34, 37.87], [-107.34, 37.85], [-107.35, 37.85], [-107.37, 37.86], [-107.38, 37.86], [-107.4, 37.85], [-107.42, 37.86], [-107.43, 37.86], [-107.45, 37.85], [-107.47, 37.85], [-107.48, 37.85], [-107.49, 37.84], [-107.5, 37.84], [-107.51, 37.83], [-107.51, 37.82], [-107.53, 37.81], [-107.54, 37.8], [-107.55, 37.79], [-107.56, 37.78], [-107.56, 37.76], [-107.55, 37.72], [-107.52, 37.7], [-107.51, 37.69], [-107.51, 37.68], [-107.5, 37.67], [-107.48, 37.64], [-107.47, 37.63], [-107.45, 37.63], [-107.43, 37.64], [-107.41, 37.65], [-107.39, 37.66], [-107.39, 37.68], [-107.37, 37.68], [-107.36, 37.68], [-107.35, 37.67], [-107.33, 37.68], [-107.31, 37.68], [-107.29, 37.69], [-107.28, 37.68], [-107.28, 37.67], [-107.28, 37.66], [-107.28, 37.64], [-107.28, 37.63], [-107.26, 37.63], [-107.26, 37.61], [-107.25, 37.61], [-107.24, 37.59], [-107.22, 37.6], [-107.21, 37.61], [-107.2, 37.62], [-107.19, 37.63], [-107.18, 37.63], [-107.16, 37.64], [-107.15, 37.63], [-107.15, 37.6], [-107.13, 37.59], [-107.11, 37.6], [-107.1, 37.59], [-107.1, 37.57], [-107.09, 37.57], [-107.07, 37.57], [-107.06, 37.56], [-107.05, 37.56], [-107.03, 37.56], [-107.01, 37.57], [-106.99, 37.56], [-106.98, 37.56], [-106.96, 37.56], [-106.94, 37.56], [-106.93, 37.56], [-106.9, 37.56], [-106.89, 37.56], [-106.88, 37.55], [-106.88, 37.53], [-106.88, 37.51], [-106.88, 37.5], [-106.87, 37.49], [-106.84, 37.49], [-106.82, 37.49], [-106.81, 37.49], [-106.81, 37.47], [-106.78, 37.45], [-106.75, 37.46], [-106.74, 37.46], [-106.73, 37.44], [-106.71, 37.45], [-106.68, 37.43], [-106.66, 37.42], [-106.67, 37.4], [-106.69, 37.37], [-106.69, 37.36], [-106.71, 37.35], [-106.71, 37.33], [-106.7, 37.32], [-106.68, 37.32], [-106.67, 37.32], [-106.68, 37.31], [-106.69, 37.29], [-106.7, 37.28], [-106.7, 37.27], [-106.68, 37.26], [-106.66, 37.26], [-106.64, 37.25], [-106.64, 37.24], [-106.64, 37.23], [-106.63, 37.22], [-106.61, 37.21], [-106.6, 37.21], [-106.59, 37.2], [-106.59, 37.17], [-106.6, 37.15], [-106.6, 37.15], [-106.63, 37.12], [-106.63, 37.12], [-106.63, 37.11], [-106.64, 37.08], [-106.64, 37.06], [-106.64, 37.05], [-106.64, 37.04], [-106.66, 37.04], [-106.68, 37.04], [-106.7, 37.03], [-106.69, 37.01], [-106.7, 36.99], [-106.75, 36.99], [-106.87, 36.99], [-106.88, 37.0], [-107.0, 37.0], [-107.78, 37.0], [-107.99, 37.0], [-108.25, 37.0], [-108.25, 37.0], [-108.5, 37.0], [-108.68, 37.0], [-108.88, 37.0], [-109.0, 37.0], [-109.03, 37.0], [-109.03, 37.0], [-109.05, 37.0], [-109.05, 37.0], [-109.05, 37.0], [-109.05, 37.02], [-109.05, 37.11], [-109.05, 37.18], [-109.05, 37.37], [-109.04, 37.5], [-109.04, 37.53], [-109.04, 37.61], [-109.04, 37.67], [-109.04, 37.8], [-109.04, 37.84], [-109.04, 37.84], [-109.04, 37.86], [-109.04, 37.87], [-109.04, 37.87], [-109.04, 37.87], [-109.04, 37.91], [-109.04, 37.97], [-109.04, 37.97], [-109.04, 37.98], [-109.04, 37.99], [-109.04, 38.0], [-109.04, 38.0], [-109.04, 38.02], [-109.04, 38.02], [-109.04, 38.16], [-109.04, 38.16], [-109.06, 38.28], [-109.06, 38.47], [-109.06, 38.49], [-109.06, 38.5], [-109.06, 38.6], [-109.06, 38.72], [-109.06, 38.8], [-109.05, 38.87], [-109.05, 39.0], [-109.05, 39.12], [-109.05, 39.37], [-109.05, 39.37], [-109.05, 39.39], [-109.05, 39.41], [-109.05, 39.5], [-109.05, 39.5], [-109.05, 39.52], [-109.05, 39.6], [-109.05, 39.62], [-109.05, 39.66], [-109.05, 39.75], [-109.05, 39.83], [-109.05, 39.87], [-109.05, 40.0], [-109.05, 40.12], [-109.05, 40.23], [-109.05, 40.44], [-109.05, 40.54], [-109.05, 40.58], [-109.05, 40.58], [-109.05, 40.6], [-109.05, 40.62], [-109.05, 40.71], [-109.05, 40.83], [-109.05, 40.84], [-109.05, 40.89], [-109.05, 41.0], [-109.05, 41.0], [-109.05, 41.0], [-109.02, 41.0], [-109.0, 41.0], [-108.88, 41.0], [-108.63, 41.0], [-108.53, 41.0], [-108.5, 41.0], [-108.38, 41.0], [-108.18, 41.0], [-108.05, 41.0], [-107.87, 41.0], [-107.75, 41.0], [-107.5, 41.0], [-107.37, 41.0], [-107.24, 41.0], [-107.0, 41.0], [-106.87, 41.0]]]}}, {"type": "Feature", "properties": {"STATE": "Colorado", "STATE_FIPS": "08", "CD_2DIG": "05", "STATE_CODE": 5, "CLIMDIV": 505, "ID": 505, "CD_NEW": 5, "FIPS_CD": "0805", "NCDC_GEO_I": 299.0, "NAME": "RIO GRANDE DRAINAGE BASIN", "ST_ABBRV": "CO", "SHAPE_AREA": 0.0, "SHAPE_LEN": 0.0}, "geometry": {"type": "Polygon", "coordinates": [[[-105.21, 37.0], [-105.45, 37.0], [-105.63, 37.0], [-105.66, 37.0], [-105.9, 37.0], [-105.97, 37.0], [-106.15, 36.99], [-106.2, 36.99], [-106.34, 36.99], [-106.5, 36.99], [-106.59, 36.99], [-106.7, 36.99], [-106.69, 37.01], [-106.7, 37.03], [-106.68, 37.04], [-106.66, 37.04], [-106.64, 37.04], [-106.64, 37.05], [-106.64, 37.06], [-106.64, 37.08], [-106.63, 37.11], [-106.63, 37.12], [-106.63, 37.12], [-106.6, 37.15], [-106.6, 37.15], [-106.59, 37.17], [-106.59, 37.2], [-106.6, 37.21], [-106.61, 37.21], [-106.63, 37.22], [-106.64, 37.23], [-106.64, 37.24], [-106.64, 37.25], [-106.66, 37.26], [-106.68, 37.26], [-106.7, 37.27], [-106.7, 37.28], [-106.69, 37.29], [-106.68, 37.31], [-106.67, 37.32], [-106.68, 37.32], [-106.7, 37.32], [-106.71, 37.33], [-106.71, 37.35], [-106.69, 37.36], [-106.69, 37.37], [-106.67, 37.4], [-106.66, 37.42], [-106.68, 37.43], [-106.71, 37.45], [-106.73, 37.44], [-106.74, 37.46], [-106.75, 37.46], [-106.78, 37.45], [-106.81, 37.47], [-106.81, 37.49], [-106.82, 37.49], [-106.84, 37.49], [-106.87, 37.49], [-106.88, 37.5], [-106.88, 37.51], [-106.88, 37.53], [-106.88, 37.55], [-106.89, 37.56], [-106.9, 37.56], [-106.93, 37.56], [-106.94, 37.56], [-106.96, 37.56], [-106.98, 37.56], [-106.99, 37.56], [-107.01, 37.57], [-107.03, 37.56], [-107.05, 37.56], [-107.06, 37.56], [-107.07, 37.57], [-107.09, 37.57], [-107.1, 37.57], [-107.1, 37.59], [-107.11, 37.6], [-107.13, 37.59], [-107.15, 37.6], [-107.15, 37.63], [-107.16, 37.64], [-107.18, 37.63], [-107.19, 37.63], [-107.2, 37.62], [-107.21, 37.61], [-107.22, 37.6], [-107.24, 37.59], [-107.25, 37.61], [-107.26, 37.61], [-107.26, 37.63], [-107.28, 37.63], [-107.28, 37.64], [-107.28, 37.66], [-107.28, 37.67], [-107.28, 37.68], [-107.29, 37.69], [-107.31, 37.68], [-107.33, 37.68], [-107.35, 37.67], [-107.36, 37.68], [-107.37, 37.68], [-107.39, 37.68], [-107.39, 37.66], [-107.41, 37.65], [-107.43, 37.64], [-107.45, 37.63], [-107.47, 37.63], [-107.48, 37.64], [-107.5, 37.67], [-107.51, 37.68], [-107.51, 37.69], [-107.52, 37.7], [-107.55, 37.72], [-107.56, 37.76], [-107.56, 37.78], [-107.55, 37.79], [-107.54, 37.8], [-107.53, 37.81], [-107.51, 37.82], [-107.51, 37.83], [-107.5, 37.84], [-107.49, 37.84], [-107.48, 37.85], [-107.47, 37.85], [-107.45, 37.85], [-107.43, 37.86], [-107.42, 37.86], [-107.4, 37.85], [-107.38, 37.86], [-107.37, 37.86], [-107.35, 37.85], [-107.34, 37.85], [-107.34, 37.87], [-107.29, 37.9], [-107.28, 37.92], [-107.27, 37.93], [-107.25, 37.93], [-107.23, 37.93], [-107.22, 37.93], [-107.2, 37.94], [-107.18, 37.93], [-107.17, 37.93], [-107.15, 37.92], [-107.15, 37.93], [-107.14, 37.93], [-107.12, 37.95], [-107.11, 37.95], [-107.08, 37.95], [-107.08, 37.96], [-107.07, 37.96], [-107.05, 37.95], [-107.04, 37.96], [-107.0, 37.95], [-106.98, 37.96], [-106.97, 37.97], [-106.95, 37.96], [-106.95, 37.96], [-106.91, 37.97], [-106.89, 37.96], [-106.88, 37.96], [-106.87, 37.94], [-106.86, 37.94], [-106.85, 37.95], [-106.82, 37.95], [-106.81, 37.96], [-106.81, 37.98], [-106.8, 37.99], [-106.79, 37.99], [-106.79, 38.0], [-106.81, 38.02], [-106.8, 38.04], [-106.78, 38.06], [-106.75, 38.09], [-106.74, 38.09], [-106.72, 38.09], [-106.7, 38.08], [-106.69, 38.08], [-106.68, 38.08], [-106.66, 38.1], [-106.62, 38.13], [-106.62, 38.14], [-106.6, 38.15], [-106.61, 38.17], [-106.59, 38.2], [-106.58, 38.21], [-106.57, 38.22], [-106.56, 38.25], [-106.54, 38.26], [-106.53, 38.29], [-106.51, 38.3], [-106.49, 38.32], [-106.48, 38.32], [-106.47, 38.31], [-106.46, 38.29], [-106.45, 38.28], [-106.4, 38.28], [-106.39, 38.28], [-106.38, 38.29], [-106.37, 38.29], [-106.34, 38.28], [-106.34, 38.31], [-106.32, 38.33], [-106.29, 38.34], [-106.28, 38.34], [-106.25, 38.35], [-106.24, 38.33], [-106.22, 38.33], [-106.2, 38.34], [-106.18, 38.34], [-106.16, 38.35], [-106.14, 38.36], [-106.12, 38.38], [-106.12, 38.39], [-106.11, 38.42], [-106.08, 38.43], [-106.06, 38.45], [-106.04, 38.45], [-106.02, 38.45], [-106.01, 38.43], [-106.0, 38.42], [-105.98, 38.42], [-105.95, 38.4], [-105.94, 38.37], [-105.9, 38.35], [-105.88, 38.33], [-105.86, 38.31], [-105.85, 38.3], [-105.82, 38.27], [-105.8, 38.27], [-105.8, 38.26], [-105.8, 38.25], [-105.78, 38.24], [-105.75, 38.22], [-105.73, 38.2], [-105.7, 38.17], [-105.69, 38.17], [-105.68, 38.16], [-105.67, 38.14], [-105.66, 38.11], [-105.65, 38.09], [-105.63, 38.07], [-105.62, 38.06], [-105.61, 38.04], [-105.6, 38.02], [-105.6, 37.99], [-105.59, 37.98], [-105.59, 37.97], [-105.57, 37.94], [-105.55, 37.94], [-105.53, 37.94], [-105.5, 37.93], [-105.49, 37.92], [-105.48, 37.91], [-105.48, 37.89], [-105.48, 37.89], [-105.47, 37.88], [-105.46, 37.88], [-105.44, 37.86], [-105.44, 37.85], [-105.44, 37.82], [-105.43, 37.81], [-105.44, 37.8], [-105.45, 37.78], [-105.45, 37.77], [-105.46, 37.76], [-105.46, 37.74], [-105.47, 37.72], [-105.48, 37.69], [-105.48, 37.68], [-105.49, 37.65], [-105.49, 37.64], [-105.5, 37.61], [-105.5, 37.59], [-105.49, 37.58], [-105.47, 37.58], [-105.46, 37.59], [-105.45, 37.6], [-105.43, 37.62], [-105.4, 37.62], [-105.39, 37.62], [-105.37, 37.64], [-105.36, 37.65], [-105.34, 37.64], [-105.31, 37.65], [-105.29, 37.65], [-105.22, 37.62], [-105.2, 37.62], [-105.19, 37.61], [-105.2, 37.6], [-105.21, 37.59], [-105.21, 37.58], [-105.2, 37.57], [-105.18, 37.55], [-105.17, 37.51], [-105.17, 37.49], [-105.18, 37.48], [-105.18, 37.48], [-105.17, 37.46], [-105.15, 37.45], [-105.15, 37.44], [-105.14, 37.43], [-105.13, 37.42], [-105.16, 37.39], [-105.17, 37.37], [-105.17, 37.33], [-105.16, 37.3], [-105.16, 37.27], [-105.16, 37.24], [-105.17, 37.22], [-105.16, 37.2], [-105.17, 37.19], [-105.17, 37.16], [-105.19, 37.14], [-105.19, 37.11], [-105.21, 37.09], [-105.21, 37.09], [-105.22, 37.06], [-105.23, 37.05], [-105.22, 37.04], [-105.22, 37.01], [-105.2, 37.0], [-105.21, 37.0]]]}}, {"type": "Feature", "properties": {"STATE": "Colorado", "STATE_FIPS": "08", "CD_2DIG": "01", "STATE_CODE": 5, "CLIMDIV": 501, "ID": 501, "CD_NEW": 1, "FIPS_CD": "0801", "NCDC_GEO_I": 300.0, "NAME": "ARKANSAS DRAINAGE BASIN", "ST_ABBRV": "CO", "SHAPE_AREA": 0.0, "SHAPE_LEN": 0.0}, "geometry": {"type": "Polygon", "coordinates": [[[-106.15, 39.38], [-106.15, 39.38], [-106.16, 39.36], [-106.14, 39.34], [-106.15, 39.33], [-106.17, 39.32], [-106.18, 39.31], [-106.19, 39.3], [-106.18, 39.29], [-106.19, 39.28], [-106.18, 39.27], [-106.19, 39.25], [-106.17, 39.23], [-106.18, 39.22], [-106.18, 39.2], [-106.19, 39.18], [-106.18, 39.17], [-106.18, 39.15], [-106.18, 39.13], [-106.21, 39.11], [-106.2, 39.11], [-106.19, 39.1], [-106.17, 39.09], [-106.19, 39.07], [-106.19, 39.05], [-106.19, 39.03], [-106.18, 39.01], [-106.16, 39.0], [-106.16, 39.0], [-106.14, 39.0], [-106.11, 38.99], [-106.11, 38.98], [-106.11, 38.96], [-106.11, 38.95], [-106.1, 38.94], [-106.05, 38.93], [-106.04, 38.93], [-106.02, 38.93], [-106.0, 38.92], [-105.98, 38.92], [-105.97, 38.92], [-105.97, 38.88], [-105.95, 38.88], [-105.93, 38.88], [-105.94, 38.86], [-105.94, 38.84], [-105.92, 38.82], [-105.9, 38.81], [-105.89, 38.81], [-105.86, 38.81], [-105.85, 38.81], [-105.84, 38.8], [-105.83, 38.8], [-105.81, 38.8], [-105.8, 38.79], [-105.79, 38.78], [-105.77, 38.79], [-105.76, 38.78], [-105.72, 38.76], [-105.7, 38.75], [-105.69, 38.77], [-105.68, 38.78], [-105.68, 38.8], [-105.67, 38.81], [-105.66, 38.82], [-105.65, 38.83], [-105.63, 38.84], [-105.61, 38.84], [-105.59, 38.83], [-105.56, 38.83], [-105.55, 38.83], [-105.53, 38.83], [-105.5, 38.83], [-105.48, 38.83], [-105.47, 38.83], [-105.45, 38.84], [-105.42, 38.85], [-105.41, 38.86], [-105.37, 38.87], [-105.35, 38.88], [-105.33, 38.88], [-105.32, 38.88], [-105.31, 38.88], [-105.29, 38.88], [-105.28, 38.88], [-105.23, 38.88], [-105.21, 38.89], [-105.17, 38.89], [-105.13, 38.9], [-105.11, 38.92], [-105.09, 38.95], [-105.07, 38.99], [-105.05, 39.0], [-105.03, 39.0], [-105.02, 39.02], [-105.02, 39.04], [-105.02, 39.08], [-105.02, 39.1], [-105.02, 39.12], [-105.0, 39.13], [-104.97, 39.13], [-104.95, 39.14], [-104.92, 39.13], [-104.9, 39.13], [-104.88, 39.13], [-104.86, 39.13], [-104.83, 39.12], [-104.8, 39.09], [-104.79, 39.07], [-104.78, 39.07], [-104.77, 39.07], [-104.75, 39.07], [-104.74, 39.07], [-104.72, 39.04], [-104.69, 39.04], [-104.68, 39.03], [-104.64, 39.04], [-104.62, 39.04], [-104.61, 39.04], [-104.57, 39.06], [-104.54, 39.07], [-104.51, 39.08], [-104.47, 39.08], [-104.45, 39.09], [-104.41, 39.11], [-104.4, 39.11], [-104.35, 39.14], [-104.34, 39.14], [-104.32, 39.14], [-104.31, 39.12], [-104.3, 39.12], [-104.25, 39.15], [-104.24, 39.16], [-104.22, 39.15], [-104.16, 39.16], [-104.13, 39.17], [-104.11, 39.18], [-104.09, 39.19], [-104.08, 39.19], [-104.08, 39.21], [-104.06, 39.21], [-104.02, 39.21], [-104.0, 39.22], [-103.99, 39.24], [-103.98, 39.26], [-103.97, 39.28], [-103.97, 39.3], [-103.96, 39.3], [-103.91, 39.32], [-103.91, 39.32], [-103.85, 39.35], [-103.83, 39.35], [-103.83, 39.35], [-103.79, 39.37], [-103.78, 39.36], [-103.76, 39.36], [-103.74, 39.36], [-103.71, 39.37], [-103.69, 39.37], [-103.66, 39.36], [-103.64, 39.36], [-103.63, 39.34], [-103.62, 39.33], [-103.6, 39.3], [-103.59, 39.29], [-103.57, 39.28], [-103.55, 39.28], [-103.53, 39.28], [-103.51, 39.27], [-103.5, 39.26], [-103.49, 39.25], [-103.48, 39.24], [-103.42, 39.24], [-103.42, 39.24], [-103.39, 39.23], [-103.37, 39.22], [-103.35, 39.22], [-103.34, 39.21], [-103.32, 39.19], [-103.32, 39.17], [-103.29, 39.13], [-103.27, 39.11], [-103.22, 39.08], [-103.19, 39.06], [-103.17, 39.05], [-103.13, 39.05], [-103.11, 39.05], [-103.09, 39.05], [-103.06, 39.04], [-103.03, 39.04], [-102.99, 39.04], [-102.98, 39.04], [-102.95, 39.04], [-102.92, 39.04], [-102.9, 39.04], [-102.86, 39.05], [-102.84, 39.05], [-102.82, 39.04], [-102.78, 39.02], [-102.77, 39.01], [-102.74, 39.0], [-102.72, 39.0], [-102.69, 39.0], [-102.68, 38.99], [-102.66, 38.97], [-102.65, 38.97], [-102.63, 38.97], [-102.59, 38.96], [-102.58, 38.95], [-102.55, 38.92], [-102.54, 38.9], [-102.54, 38.87], [-102.54, 38.85], [-102.55, 38.83], [-102.56, 38.8], [-102.56, 38.77], [-102.54, 38.74], [-102.52, 38.72], [-102.51, 38.72], [-102.49, 38.71], [-102.47, 38.71], [-102.45, 38.69], [-102.43, 38.67], [-102.43, 38.67], [-102.43, 38.65], [-102.41, 38.61], [-102.41, 38.6], [-102.4, 38.59], [-102.38, 38.57], [-102.36, 38.56], [-102.32, 38.53], [-102.33, 38.53], [-102.32, 38.5], [-102.31, 38.49], [-102.32, 38.47], [-102.34, 38.43], [-102.35, 38.43], [-102.34, 38.41], [-102.31, 38.39], [-102.3, 38.39], [-102.3, 38.37], [-102.29, 38.38], [-102.25, 38.38], [-102.23, 38.38], [-102.21, 38.38], [-102.2, 38.38], [-102.18, 38.4], [-102.15, 38.42], [-102.13, 38.42], [-102.09, 38.41], [-102.06, 38.4], [-102.04, 38.4], [-102.05, 38.4], [-102.04, 38.39], [-102.05, 38.38], [-102.04, 38.35], [-102.04, 38.26], [-102.04, 38.11], [-102.04, 37.98], [-102.04, 37.88], [-102.04, 37.8], [-102.04, 37.69], [-102.04, 37.54], [-102.04, 37.3], [-102.04, 37.14], [-102.04, 37.05], [-102.04, 37.04], [-102.04, 37.02], [-102.04, 37.01], [-102.04, 37.0], [-102.04, 36.99], [-102.05, 36.99], [-102.07, 36.99], [-102.08, 36.99], [-102.08, 36.99], [-102.13, 36.99], [-102.21, 36.99], [-102.37, 36.99], [-102.39, 36.99], [-102.45, 36.99], [-102.5, 36.99], [-102.52, 36.99], [-102.54, 36.99], [-102.57, 37.0], [-102.7, 37.0], [-102.74, 37.0], [-102.76, 37.0], [-102.78, 37.0], [-102.81, 37.0], [-102.82, 37.0], [-102.83, 37.0], [-102.83, 37.0], [-102.82, 37.0], [-102.83, 37.0], [-102.84, 37.0], [-102.99, 37.0], [-103.0, 37.0], [-103.0, 37.0], [-103.0, 37.0], [-103.12, 37.0], [-103.25, 37.0], [-103.41, 37.0], [-103.55, 37.0], [-103.63, 37.0], [-103.69, 37.0], [-103.72, 37.0], [-103.74, 37.0], [-103.75, 37.0], [-103.77, 37.0], [-103.78, 37.0], [-103.79, 37.0], [-103.82, 37.0], [-104.13, 37.0], [-104.25, 36.99], [-104.34, 36.99], [-104.61, 36.99], [-104.65, 36.99], [-104.88, 36.99], [-105.0, 36.99], [-105.03, 36.99], [-105.12, 37.0], [-105.21, 37.0], [-105.2, 37.0], [-105.22, 37.01], [-105.22, 37.04], [-105.23, 37.05], [-105.22, 37.06], [-105.21, 37.09], [-105.21, 37.09], [-105.19, 37.11], [-105.19, 37.14], [-105.17, 37.16], [-105.17, 37.19], [-105.16, 37.2], [-105.17, 37.22], [-105.16, 37.24], [-105.16, 37.27], [-105.16, 37.3], [-105.17, 37.33], [-105.17, 37.37], [-105.16, 37.39], [-105.13, 37.42], [-105.14, 37.43], [-105.15, 37.44], [-105.15, 37.45], [-105.17, 37.46], [-105.18, 37.48], [-105.18, 37.48], [-105.17, 37.49], [-105.17, 37.51], [-105.18, 37.55], [-105.2, 37.57], [-105.21, 37.58], [-105.21, 37.59], [-105.2, 37.6], [-105.19, 37.61], [-105.2, 37.62], [-105.22, 37.62], [-105.29, 37.65], [-105.31, 37.65], [-105.34, 37.64], [-105.36, 37.65], [-105.37, 37.64], [-105.39, 37.62], [-105.4, 37.62], [-105.43, 37.62], [-105.45, 37.6], [-105.46, 37.59], [-105.47, 37.58], [-105.49, 37.58], [-105.5, 37.59], [-105.5, 37.61], [-105.49, 37.64], [-105.49, 37.65], [-105.48, 37.68], [-105.48, 37.69], [-105.47, 37.72], [-105.46, 37.74], [-105.46, 37.76], [-105.45, 37.77], [-105.45, 37.78], [-105.44, 37.8], [-105.43, 37.81], [-105.44, 37.82], [-105.44, 37.85], [-105.44, 37.86], [-105.46, 37.88], [-105.47, 37.88], [-105.48, 37.89], [-105.48, 37.89], [-105.48, 37.91], [-105.49, 37.92], [-105.5, 37.93], [-105.53, 37.94], [-105.55, 37.94], [-105.57, 37.94], [-105.59, 37.97], [-105.59, 37.98], [-105.6, 37.99], [-105.6, 38.02], [-105.61, 38.04], [-105.62, 38.06], [-105.63, 38.07], [-105.65, 38.09], [-105.66, 38.11], [-105.67, 38.14], [-105.68, 38.16], [-105.69, 38.17], [-105.7, 38.17], [-105.73, 38.2], [-105.75, 38.22], [-105.78, 38.24], [-105.8, 38.25], [-105.8, 38.26], [-105.8, 38.27], [-105.82, 38.27], [-105.85, 38.3], [-105.86, 38.31], [-105.88, 38.33], [-105.9, 38.35], [-105.94, 38.37], [-105.95, 38.4], [-105.98, 38.42], [-106.0, 38.42], [-106.01, 38.43], [-106.02, 38.45], [-106.04, 38.45], [-106.06, 38.45], [-106.08, 38.43], [-106.11, 38.42], [-106.12, 38.39], [-106.12, 38.38], [-106.14, 38.36], [-106.16, 38.35], [-106.18, 38.34], [-106.2, 38.34], [-106.22, 38.33], [-106.24, 38.33], [-106.25, 38.35], [-106.24, 38.37], [-106.24, 38.38], [-106.25, 38.4], [-106.25, 38.41], [-106.25, 38.43], [-106.27, 38.44], [-106.27, 38.44], [-106.28, 38.46], [-106.29, 38.45], [-106.3, 38.47], [-106.32, 38.5], [-106.33, 38.5], [-106.35, 38.5], [-106.35, 38.53], [-106.37, 38.54], [-106.35, 38.56], [-106.35, 38.57], [-106.36, 38.6], [-106.38, 38.62], [-106.39, 38.63], [-106.39, 38.64], [-106.41, 38.64], [-106.43, 38.65], [-106.43, 38.67], [-106.44, 38.68], [-106.44, 38.7], [-106.44, 38.71], [-106.43, 38.72], [-106.42, 38.73], [-106.42, 38.74], [-106.42, 38.79], [-106.42, 38.8], [-106.42, 38.81], [-106.42, 38.82], [-106.39, 38.83], [-106.38, 38.83], [-106.36, 38.84], [-106.35, 38.85], [-106.34, 38.87], [-106.32, 38.89], [-106.32, 38.9], [-106.33, 38.91], [-106.34, 38.91], [-106.37, 38.91], [-106.39, 38.92], [-106.41, 38.91], [-106.42, 38.93], [-106.44, 38.92], [-106.46, 38.91], [-106.47, 38.92], [-106.48, 38.93], [-106.52, 38.95], [-106.53, 38.96], [-106.53, 38.98], [-106.55, 38.99], [-106.56, 39.0], [-106.58, 38.99], [-106.6, 39.0], [-106.6, 39.02], [-106.59, 39.03], [-106.59, 39.04], [-106.57, 39.06], [-106.57, 39.06], [-106.58, 39.09], [-106.58, 39.1], [-106.56, 39.11], [-106.56, 39.14], [-106.55, 39.16], [-106.52, 39.17], [-106.5, 39.17], [-106.5, 39.19], [-106.49, 39.21], [-106.49, 39.22], [-106.49, 39.24], [-106.49, 39.25], [-106.48, 39.26], [-106.48, 39.27], [-106.49, 39.28], [-106.5, 39.29], [-106.49, 39.31], [-106.47, 39.32], [-106.45, 39.32], [-106.44, 39.32], [-106.43, 39.34], [-106.43, 39.36], [-106.41, 39.37], [-106.39, 39.38], [-106.38, 39.38], [-106.36, 39.36], [-106.35, 39.36], [-106.34, 39.36], [-106.31, 39.36], [-106.28, 39.35], [-106.26, 39.36], [-106.23, 39.38], [-106.22, 39.38], [-106.19, 39.39], [-106.17, 39.38], [-106.15, 39.38]]]}}, {"type": "Feature", "properties": {"STATE": "Colorado", "STATE_FIPS": "08", "CD_2DIG": "03", "STATE_CODE": 5, "CLIMDIV": 503, "ID": 503, "CD_NEW": 3, "FIPS_CD": "0803", "NCDC_GEO_I": 301.0, "NAME": "KANSAS DRAINAGE BASIN", "ST_ABBRV": "CO", "SHAPE_AREA": 0.0, "SHAPE_LEN": 0.0}, "geometry": {"type": "Polygon", "coordinates": [[[-102.05, 40.97], [-102.05, 40.87], [-102.05, 40.87], [-102.05, 40.85], [-102.05, 40.83], [-102.05, 40.82], [-102.05, 40.79], [-102.05, 40.79], [-102.05, 40.76], [-102.05, 40.74], [-102.05, 40.68], [-102.05, 40.67], [-102.05, 40.65], [-102.05, 40.64], [-102.05, 40.63], [-102.05, 40.63], [-102.05, 40.5], [-102.05, 40.49], [-102.05, 40.47], [-102.05, 40.44], [-102.05, 40.43], [-102.05, 40.42], [-102.05, 40.4], [-102.05, 40.39], [-102.05, 40.36], [-102.05, 40.34], [-102.05, 40.24], [-102.05, 40.22], [-102.05, 40.22], [-102.05, 40.22], [-102.05, 40.22], [-102.05, 40.21], [-102.05, 40.21], [-102.05, 40.2], [-102.05, 40.19], [-102.05, 40.19], [-102.05, 40.18], [-102.05, 40.16], [-102.05, 40.15], [-102.05, 40.12], [-102.05, 40.09], [-102.05, 40.05], [-102.05, 39.98], [-102.05, 39.75], [-102.05, 39.61], [-102.05, 39.54], [-102.05, 39.37], [-102.05, 39.23], [-102.05, 39.15], [-102.05, 39.1], [-102.05, 39.02], [-102.05, 39.0], [-102.05, 38.98], [-102.05, 38.97], [-102.05, 38.86], [-102.05, 38.74], [-102.04, 38.62], [-102.05, 38.45], [-102.04, 38.44], [-102.04, 38.42], [-102.04, 38.42], [-102.04, 38.41], [-102.04, 38.4], [-102.04, 38.4], [-102.06, 38.4], [-102.09, 38.41], [-102.13, 38.42], [-102.15, 38.42], [-102.18, 38.4], [-102.2, 38.38], [-102.21, 38.38], [-102.23, 38.38], [-102.25, 38.38], [-102.29, 38.38], [-102.3, 38.37], [-102.3, 38.39], [-102.31, 38.39], [-102.34, 38.41], [-102.35, 38.43], [-102.34, 38.43], [-102.32, 38.47], [-102.31, 38.49], [-102.32, 38.5], [-102.33, 38.53], [-102.32, 38.53], [-102.36, 38.56], [-102.38, 38.57], [-102.4, 38.59], [-102.41, 38.6], [-102.41, 38.61], [-102.43, 38.65], [-102.43, 38.67], [-102.43, 38.67], [-102.45, 38.69], [-102.47, 38.71], [-102.49, 38.71], [-102.51, 38.72], [-102.52, 38.72], [-102.54, 38.74], [-102.56, 38.77], [-102.56, 38.8], [-102.55, 38.83], [-102.54, 38.85], [-102.54, 38.87], [-102.54, 38.9], [-102.55, 38.92], [-102.58, 38.95], [-102.59, 38.96], [-102.63, 38.97], [-102.65, 38.97], [-102.66, 38.97], [-102.68, 38.99], [-102.69, 39.0], [-102.72, 39.0], [-102.74, 39.0], [-102.77, 39.01], [-102.78, 39.02], [-102.82, 39.04], [-102.84, 39.05], [-102.86, 39.05], [-102.9, 39.04], [-102.92, 39.04], [-102.95, 39.04], [-102.98, 39.04], [-102.99, 39.04], [-103.03, 39.04], [-103.06, 39.04], [-103.09, 39.05], [-103.11, 39.05], [-103.13, 39.05], [-103.17, 39.05], [-103.19, 39.06], [-103.22, 39.08], [-103.27, 39.11], [-103.29, 39.13], [-103.32, 39.17], [-103.32, 39.19], [-103.34, 39.21], [-103.35, 39.22], [-103.37, 39.22], [-103.39, 39.23], [-103.42, 39.24], [-103.42, 39.24], [-103.48, 39.24], [-103.49, 39.25], [-103.5, 39.26], [-103.51, 39.27], [-103.53, 39.28], [-103.55, 39.28], [-103.57, 39.28], [-103.59, 39.29], [-103.6, 39.3], [-103.62, 39.33], [-103.63, 39.34], [-103.64, 39.36], [-103.66, 39.36], [-103.69, 39.37], [-103.71, 39.37], [-103.74, 39.36], [-103.76, 39.36], [-103.78, 39.36], [-103.79, 39.37], [-103.79, 39.38], [-103.77, 39.39], [-103.76, 39.39], [-103.71, 39.41], [-103.7, 39.42], [-103.69, 39.44], [-103.68, 39.46], [-103.67, 39.47], [-103.67, 39.48], [-103.63, 39.48], [-103.61, 39.48], [-103.59, 39.5], [-103.57, 39.53], [-103.56, 39.54], [-103.54, 39.58], [-103.53, 39.58], [-103.49, 39.6], [-103.46, 39.61], [-103.45, 39.63], [-103.42, 39.64], [-103.38, 39.64], [-103.36, 39.65], [-103.36, 39.67], [-103.35, 39.69], [-103.35, 39.69], [-103.34, 39.71], [-103.32, 39.73], [-103.35, 39.78], [-103.35, 39.81], [-103.36, 39.83], [-103.31, 39.87], [-103.31, 39.89], [-103.32, 39.91], [-103.33, 39.93], [-103.31, 39.95], [-103.31, 39.97], [-103.32, 39.99], [-103.32, 40.01], [-103.32, 40.03], [-103.3, 40.06], [-103.29, 40.08], [-103.3, 40.1], [-103.31, 40.12], [-103.31, 40.13], [-103.3, 40.15], [-103.29, 40.17], [-103.25, 40.18], [-103.24, 40.19], [-103.23, 40.19], [-103.22, 40.21], [-103.18, 40.24], [-103.16, 40.25], [-103.14, 40.27], [-103.13, 40.28], [-103.12, 40.29], [-103.1, 40.35], [-103.1, 40.39], [-103.1, 40.41], [-103.1, 40.44], [-103.1, 40.48], [-103.1, 40.51], [-103.09, 40.51], [-103.07, 40.53], [-103.04, 40.54], [-103.05, 40.56], [-103.04, 40.58], [-103.04, 40.59], [-103.03, 40.6], [-103.0, 40.62], [-102.99, 40.65], [-102.98, 40.66], [-102.96, 40.66], [-102.94, 40.68], [-102.93, 40.69], [-102.9, 40.69], [-102.87, 40.69], [-102.85, 40.69], [-102.84, 40.69], [-102.83, 40.7], [-102.82, 40.72], [-102.81, 40.72], [-102.8, 40.72], [-102.78, 40.74], [-102.78, 40.75], [-102.76, 40.75], [-102.76, 40.77], [-102.75, 40.77], [-102.72, 40.77], [-102.7, 40.79], [-102.69, 40.79], [-102.64, 40.79], [-102.64, 40.81], [-102.62, 40.81], [-102.6, 40.82], [-102.59, 40.83], [-102.56, 40.84], [-102.56, 40.84], [-102.54, 40.86], [-102.51, 40.87], [-102.48, 40.88], [-102.43, 40.89], [-102.41, 40.89], [-102.39, 40.89], [-102.37, 40.89], [-102.35, 40.89], [-102.32, 40.89], [-102.29, 40.89], [-102.28, 40.91], [-102.27, 40.91], [-102.24, 40.92], [-102.21, 40.92], [-102.19, 40.92], [-102.16, 40.93], [-102.16, 40.93], [-102.16, 40.96], [-102.14, 40.96], [-102.12, 40.95], [-102.11, 40.95], [-102.09, 40.96], [-102.08, 40.98], [-102.07, 40.98], [-102.07, 40.97], [-102.05, 40.97], [-102.05, 40.97]]]}}]}