{"type": "FeatureCollection", "features": [{"type": "Feature", "properties": {"STATE": "Delaware", "STATE_FIPS": "10", "CD_2DIG": "02", "STATE_CODE": 7, "CLIMDIV": 702, "ID": 702, "CD_NEW": 2, "FIPS_CD": "1002", "NCDC_GEO_I": 47.0, "NAME": "SOUTHERN", "ST_ABBRV": "DE", "SHAPE_AREA": 0.0, "SHAPE_LEN": 0.0}, "geometry": {"type": "Polygon", "coordinates": [[[-75.51, 39.37], [-75.49, 39.35], [-75.49, 39.35], [-75.48, 39.34], [-75.46, 39.33], [-75.45, 39.32], [-75.44, 39.31], [-75.44, 39.3], [-75.43, 39.29], [-75.41, 39.26], [-75.41, 39.26], [-75.41, 39.25], [-75.4, 39.23], [-75.41, 39.22], [-75.4, 39.22], [-75.4, 39.19], [-75.41, 39.18], [-75.41, 39.16], [-75.41, 39.15], [-75.41, 39.14], [-75.41, 39.12], [-75.4, 39.1], [-75.4, 39.07], [-75.39, 39.05], [-75.38, 39.05], [-75.34, 39.02], [-75.32, 38.99], [-75.31, 38.97], [-75.31, 38.94], [-75.32, 38.93], [-75.3, 38.91], [-75.27, 38.88], [-75.26, 38.87], [-75.24, 38.85], [-75.21, 38.82], [-75.19, 38.81], [-75.16, 38.79], [-75.13, 38.78], [-75.11, 38.78], [-75.1, 38.79], [-75.09, 38.79], [-75.08, 38.77], [-75.08, 38.74], [-75.07, 38.66], [-75.07, 38.63], [-75.07, 38.63], [-75.08, 38.64], [-75.08, 38.65], [-75.07, 38.66], [-75.07, 38.67], [-75.08, 38.69], [-75.09, 38.69], [-75.12, 38.69], [-75.13, 38.69], [-75.13, 38.67], [-75.14, 38.67], [-75.13, 38.65], [-75.13, 38.64], [-75.13, 38.63], [-75.11, 38.63], [-75.1, 38.62], [-75.1, 38.62], [-75.13, 38.62], [-75.13, 38.61], [-75.15, 38.61], [-75.16, 38.6], [-75.18, 38.59], [-75.21, 38.6], [-75.21, 38.59], [-75.25, 38.59], [-75.27, 38.59], [-75.26, 38.58], [-75.24, 38.59], [-75.24, 38.59], [-75.22, 38.59], [-75.21, 38.59], [-75.18, 38.58], [-75.18, 38.57], [-75.17, 38.58], [-75.16, 38.58], [-75.15, 38.59], [-75.15, 38.59], [-75.13, 38.59], [-75.12, 38.59], [-75.11, 38.58], [-75.11, 38.58], [-75.08, 38.58], [-75.08, 38.59], [-75.06, 38.58], [-75.07, 38.61], [-75.06, 38.61], [-75.06, 38.6], [-75.06, 38.56], [-75.05, 38.54], [-75.05, 38.47], [-75.05, 38.45], [-75.06, 38.45], [-75.06, 38.46], [-75.05, 38.47], [-75.06, 38.48], [-75.06, 38.5], [-75.06, 38.5], [-75.07, 38.48], [-75.08, 38.49], [-75.07, 38.47], [-75.07, 38.45], [-75.07, 38.45], [-75.09, 38.45], [-75.19, 38.45], [-75.39, 38.45], [-75.56, 38.46], [-75.69, 38.46], [-75.7, 38.56], [-75.71, 38.69], [-75.73, 38.86], [-75.74, 39.0], [-75.75, 39.14], [-75.76, 39.3], [-75.71, 39.3], [-75.68, 39.3], [-75.67, 39.29], [-75.65, 39.29], [-75.64, 39.3], [-75.63, 39.3], [-75.62, 39.31], [-75.6, 39.31], [-75.57, 39.31], [-75.57, 39.33], [-75.56, 39.34], [-75.56, 39.35], [-75.55, 39.35], [-75.53, 39.35], [-75.53, 39.36], [-75.51, 39.37]]]}}, {"type": "Feature", "properties": {"STATE": "Delaware", "STATE_FIPS": "10", "CD_2DIG": "01", "STATE_CODE": 7, "CLIMDIV": 701, "ID": 701, "CD_NEW": 1, "FIPS_CD": "1001", "NCDC_GEO_I": 48.0, "NAME": "NORTHERN", "ST_ABBRV": "DE", "SHAPE_AREA": 0.0, "SHAPE_LEN": 0.0}, "geometry": {"type": "Polygon", "coordinates": [[[-75.79, 39.72], [-75.77, 39.72], [-75.76, 39.75], [-75.75, 39.76], [-75.72, 39.79], [-75.69, 39.81], [-75.66, 39.82], [-75.63, 39.83], [-75.59, 39.84], [-75.57, 39.84], [-75.54, 39.84], [-75.5, 39.83], [-75.48, 39.83], [-75.45, 39.82], [-75.42, 39.8], [-75.41, 39.8], [-75.44, 39.78], [-75.45, 39.77], [-75.45, 39.77], [-75.46, 39.76], [-75.47, 39.75], [-75.47, 39.75], [-75.47, 39.75], [-75.47, 39.75], [-75.47, 39.75], [-75.47, 39.74], [-75.47, 39.74], [-75.47, 39.74], [-75.47, 39.74], [-75.47, 39.74], [-75.47, 39.74], [-75.47, 39.74], [-75.47, 39.74], [-75.47, 39.74], [-75.47, 39.74], [-75.48, 39.73], [-75.48, 39.73], [-75.48, 39.73], [-75.48, 39.73], [-75.48, 39.73], [-75.48, 39.73], [-75.48, 39.73], [-75.48, 39.73], [-75.48, 39.73], [-75.48, 39.73], [-75.48, 39.73], [-75.48, 39.72], [-75.48, 39.72], [-75.48, 39.72], [-75.48, 39.72], [-75.48, 39.72], [-75.48, 39.72], [-75.48, 39.72], [-75.48, 39.72], [-75.48, 39.72], [-75.48, 39.72], [-75.48, 39.72], [-75.48, 39.72], [-75.48, 39.72], [-75.48, 39.72], [-75.48, 39.71], [-75.48, 39.71], [-75.48, 39.71], [-75.48, 39.71], [-75.48, 39.72], [-75.48, 39.72], [-75.49, 39.72], [-75.49, 39.72], [-75.49, 39.72], [-75.49, 39.72], [-75.49, 39.72], [-75.49, 39.71], [-75.49, 39.71], [-75.49, 39.71], [-75.49, 39.71], [-75.49, 39.71], [-75.49, 39.71], [-75.49, 39.71], [-75.49, 39.71], [-75.49, 39.71], [-75.49, 39.71], [-75.49, 39.71], [-75.49, 39.71], [-75.49, 39.71], [-75.49, 39.71], [-75.5, 39.7], [-75.5, 39.7], [-75.5, 39.7], [-75.5, 39.7], [-75.5, 39.7], [-75.5, 39.7], [-75.5, 39.7], [-75.5, 39.7], [-75.5, 39.7], [-75.51, 39.7], [-75.51, 39.69], [-75.51, 39.69], [-75.51, 39.69], [-75.51, 39.69], [-75.51, 39.69], [-75.51, 39.67], [-75.51, 39.67], [-75.51, 39.67], [-75.52, 39.66], [-75.52, 39.66], [-75.53, 39.66], [-75.53, 39.66], [-75.53, 39.66], [-75.53, 39.66], [-75.53, 39.66], [-75.53, 39.66], [-75.53, 39.66], [-75.53, 39.66], [-75.53, 39.65], [-75.53, 39.65], [-75.53, 39.65], [-75.53, 39.65], [-75.53, 39.65], [-75.54, 39.65], [-75.54, 39.65], [-75.54, 39.65], [-75.54, 39.64], [-75.55, 39.64], [-75.55, 39.64], [-75.55, 39.64], [-75.55, 39.64], [-75.55, 39.64], [-75.55, 39.64], [-75.55, 39.64], [-75.55, 39.64], [-75.55, 39.64], [-75.55, 39.64], [-75.55, 39.64], [-75.55, 39.63], [-75.56, 39.63], [-75.56, 39.63], [-75.56, 39.63], [-75.56, 39.63], [-75.56, 39.63], [-75.56, 39.63], [-75.56, 39.63], [-75.56, 39.62], [-75.56, 39.61], [-75.56, 39.61], [-75.56, 39.61], [-75.56, 39.61], [-75.55, 39.6], [-75.55, 39.6], [-75.55, 39.6], [-75.55, 39.6], [-75.55, 39.6], [-75.55, 39.6], [-75.55, 39.6], [-75.55, 39.6], [-75.55, 39.6], [-75.55, 39.6], [-75.55, 39.6], [-75.54, 39.6], [-75.54, 39.59], [-75.54, 39.59], [-75.54, 39.59], [-75.54, 39.59], [-75.54, 39.59], [-75.53, 39.59], [-75.59, 39.58], [-75.56, 39.56], [-75.57, 39.55], [-75.57, 39.53], [-75.58, 39.51], [-75.59, 39.5], [-75.59, 39.48], [-75.59, 39.46], [-75.57, 39.44], [-75.56, 39.43], [-75.54, 39.42], [-75.54, 39.41], [-75.52, 39.39], [-75.51, 39.37], [-75.53, 39.36], [-75.53, 39.35], [-75.55, 39.35], [-75.56, 39.35], [-75.56, 39.34], [-75.57, 39.33], [-75.57, 39.31], [-75.6, 39.31], [-75.62, 39.31], [-75.63, 39.3], [-75.64, 39.3], [-75.65, 39.29], [-75.67, 39.29], [-75.68, 39.3], [-75.71, 39.3], [-75.76, 39.3], [-75.77, 39.38], [-75.78, 39.49], [-75.79, 39.65], [-75.79, 39.72]]]}}]}