{"type": "FeatureCollection", "features": [{"type": "Feature", "properties": {"STATE": "Florida", "STATE_FIPS": "12", "CD_2DIG": "01", "STATE_CODE": 8, "CLIMDIV": 801, "ID": 801, "CD_NEW": 1, "FIPS_CD": "1201", "NCDC_GEO_I": 49.0, "NAME": "NORTHWEST", "ST_ABBRV": "FL", "SHAPE_AREA": 0.0, "SHAPE_LEN": 0.0}, "geometry": {"type": "MultiPolygon", "coordinates": [[[[-85.0, 31.0], [-85.0, 30.97], [-84.99, 30.97], [-84.98, 30.96], [-84.98, 30.95], [-84.98, 30.94], [-84.97, 30.93], [-84.97, 30.92], [-84.96, 30.91], [-84.94, 30.89], [-84.94, 30.88], [-84.94, 30.87], [-84.93, 30.87], [-84.94, 30.86], [-84.93, 30.84], [-84.94, 30.83], [-84.94, 30.82], [-84.93, 30.8], [-84.93, 30.79], [-84.92, 30.78], [-84.92, 30.77], [-84.91, 30.75], [-84.9, 30.75], [-84.89, 30.74], [-84.88, 30.73], [-84.88, 30.73], [-84.86, 30.71], [-84.84, 30.71], [-84.75, 30.71], [-84.64, 30.7], [-84.54, 30.7], [-84.47, 30.69], [-84.37, 30.69], [-84.31, 30.69], [-84.25, 30.68], [-84.05, 30.67], [-83.95, 30.67], [-83.87, 30.67], [-83.74, 30.66], [-83.61, 30.65], [-83.61, 30.64], [-83.6, 30.64], [-83.6, 30.58], [-83.62, 30.58], [-83.62, 30.57], [-83.64, 30.57], [-83.64, 30.55], [-83.67, 30.55], [-83.67, 30.54], [-83.7, 30.54], [-83.7, 30.52], [-83.73, 30.52], [-83.74, 30.51], [-83.74, 30.5], [-83.73, 30.49], [-83.73, 30.47], [-83.72, 30.46], [-83.73, 30.45], [-83.72, 30.43], [-83.74, 30.42], [-83.75, 30.4], [-83.76, 30.39], [-83.78, 30.38], [-83.79, 30.39], [-83.81, 30.37], [-83.81, 30.36], [-83.8, 30.35], [-83.79, 30.34], [-83.79, 30.33], [-83.79, 30.32], [-83.8, 30.32], [-83.81, 30.32], [-83.82, 30.31], [-83.82, 30.3], [-83.83, 30.29], [-83.84, 30.28], [-83.85, 30.28], [-83.86, 30.27], [-83.88, 30.27], [-83.9, 30.26], [-83.9, 30.25], [-83.92, 30.24], [-83.92, 30.22], [-83.92, 30.21], [-83.92, 30.2], [-83.93, 30.19], [-83.94, 30.19], [-83.95, 30.19], [-83.96, 30.17], [-83.96, 30.15], [-83.97, 30.15], [-83.97, 30.14], [-83.98, 30.12], [-83.98, 30.11], [-83.99, 30.1], [-83.99, 30.09], [-84.0, 30.1], [-84.01, 30.1], [-84.02, 30.1], [-84.06, 30.1], [-84.08, 30.09], [-84.09, 30.09], [-84.13, 30.09], [-84.14, 30.08], [-84.16, 30.07], [-84.17, 30.07], [-84.18, 30.08], [-84.17, 30.09], [-84.18, 30.1], [-84.19, 30.1], [-84.2, 30.11], [-84.21, 30.11], [-84.22, 30.09], [-84.23, 30.09], [-84.24, 30.09], [-84.25, 30.1], [-84.26, 30.11], [-84.28, 30.09], [-84.27, 30.07], [-84.28, 30.06], [-84.29, 30.06], [-84.31, 30.07], [-84.34, 30.07], [-84.36, 30.06], [-84.36, 30.04], [-84.37, 30.03], [-84.38, 30.04], [-84.39, 30.03], [-84.38, 30.01], [-84.37, 30.01], [-84.36, 30.0], [-84.36, 29.99], [-84.36, 29.98], [-84.34, 29.98], [-84.34, 29.97], [-84.36, 29.97], [-84.37, 29.98], [-84.39, 29.98], [-84.39, 29.98], [-84.43, 29.99], [-84.44, 29.98], [-84.45, 29.97], [-84.44, 29.96], [-84.43, 29.96], [-84.42, 29.96], [-84.4, 29.96], [-84.38, 29.96], [-84.37, 29.95], [-84.35, 29.95], [-84.34, 29.94], [-84.33, 29.92], [-84.34, 29.9], [-84.35, 29.9], [-84.37, 29.9], [-84.36, 29.91], [-84.4, 29.92], [-84.44, 29.93], [-84.46, 29.93], [-84.47, 29.92], [-84.49, 29.91], [-84.51, 29.92], [-84.54, 29.91], [-84.57, 29.89], [-84.58, 29.89], [-84.6, 29.88], [-84.64, 29.85], [-84.66, 29.84], [-84.66, 29.84], [-84.68, 29.84], [-84.69, 29.83], [-84.7, 29.82], [-84.73, 29.81], [-84.74, 29.8], [-84.76, 29.79], [-84.76, 29.79], [-84.82, 29.76], [-84.84, 29.76], [-84.87, 29.74], [-84.88, 29.73], [-84.89, 29.72], [-84.9, 29.74], [-84.89, 29.77], [-84.88, 29.77], [-84.87, 29.78], [-84.87, 29.79], [-84.86, 29.79], [-84.86, 29.8], [-84.87, 29.8], [-84.88, 29.8], [-84.88, 29.79], [-84.9, 29.79], [-84.92, 29.78], [-84.92, 29.78], [-84.92, 29.77], [-84.94, 29.76], [-84.94, 29.76], [-84.95, 29.75], [-84.96, 29.75], [-84.97, 29.76], [-84.98, 29.76], [-84.98, 29.74], [-84.99, 29.75], [-84.98, 29.72], [-84.99, 29.71], [-85.04, 29.71], [-85.07, 29.72], [-85.1, 29.72], [-85.12, 29.72], [-85.15, 29.71], [-85.16, 29.7], [-85.18, 29.7], [-85.2, 29.7], [-85.21, 29.7], [-85.22, 29.69], [-85.25, 29.69], [-85.25, 29.68], [-85.29, 29.68], [-85.32, 29.68], [-85.34, 29.67], [-85.35, 29.66], [-85.37, 29.68], [-85.38, 29.7], [-85.4, 29.73], [-85.4, 29.75], [-85.42, 29.81], [-85.42, 29.83], [-85.42, 29.85], [-85.41, 29.87], [-85.4, 29.86], [-85.4, 29.85], [-85.41, 29.83], [-85.41, 29.82], [-85.41, 29.8], [-85.4, 29.78], [-85.4, 29.77], [-85.4, 29.76], [-85.39, 29.74], [-85.39, 29.73], [-85.38, 29.71], [-85.36, 29.69], [-85.35, 29.68], [-85.32, 29.69], [-85.31, 29.69], [-85.3, 29.72], [-85.3, 29.75], [-85.31, 29.76], [-85.3, 29.78], [-85.3, 29.8], [-85.3, 29.81], [-85.31, 29.81], [-85.31, 29.83], [-85.32, 29.84], [-85.34, 29.85], [-85.35, 29.87], [-85.36, 29.9], [-85.39, 29.93], [-85.41, 29.94], [-85.43, 29.95], [-85.46, 29.96], [-85.47, 29.96], [-85.49, 29.96], [-85.49, 29.97], [-85.5, 29.99], [-85.52, 30.0], [-85.53, 30.01], [-85.54, 30.03], [-85.57, 30.05], [-85.58, 30.05], [-85.6, 30.06], [-85.61, 30.06], [-85.62, 30.07], [-85.64, 30.08], [-85.66, 30.1], [-85.67, 30.11], [-85.68, 30.12], [-85.68, 30.13], [-85.67, 30.14], [-85.66, 30.13], [-85.66, 30.12], [-85.64, 30.12], [-85.64, 30.12], [-85.62, 30.12], [-85.62, 30.11], [-85.61, 30.09], [-85.6, 30.09], [-85.58, 30.1], [-85.56, 30.09], [-85.56, 30.08], [-85.55, 30.08], [-85.54, 30.08], [-85.53, 30.06], [-85.53, 30.06], [-85.51, 30.05], [-85.51, 30.04], [-85.48, 30.02], [-85.47, 30.02], [-85.45, 30.02], [-85.44, 30.02], [-85.44, 30.04], [-85.43, 30.04], [-85.41, 30.03], [-85.4, 30.04], [-85.39, 30.05], [-85.4, 30.05], [-85.42, 30.05], [-85.44, 30.06], [-85.44, 30.05], [-85.46, 30.03], [-85.48, 30.03], [-85.48, 30.05], [-85.49, 30.05], [-85.49, 30.06], [-85.49, 30.08], [-85.49, 30.09], [-85.51, 30.1], [-85.52, 30.09], [-85.52, 30.12], [-85.54, 30.13], [-85.57, 30.12], [-85.57, 30.12], [-85.58, 30.12], [-85.59, 30.12], [-85.61, 30.11], [-85.6, 30.12], [-85.61, 30.13], [-85.62, 30.14], [-85.64, 30.13], [-85.65, 30.14], [-85.66, 30.15], [-85.67, 30.16], [-85.68, 30.16], [-85.7, 30.17], [-85.71, 30.17], [-85.72, 30.18], [-85.73, 30.18], [-85.73, 30.19], [-85.71, 30.2], [-85.71, 30.21], [-85.68, 30.23], [-85.69, 30.24], [-85.68, 30.24], [-85.68, 30.25], [-85.66, 30.25], [-85.66, 30.26], [-85.64, 30.25], [-85.63, 30.26], [-85.61, 30.26], [-85.6, 30.27], [-85.61, 30.28], [-85.62, 30.28], [-85.63, 30.27], [-85.65, 30.26], [-85.65, 30.27], [-85.66, 30.27], [-85.66, 30.26], [-85.68, 30.26], [-85.69, 30.26], [-85.71, 30.24], [-85.72, 30.24], [-85.72, 30.24], [-85.72, 30.26], [-85.73, 30.26], [-85.73, 30.28], [-85.74, 30.28], [-85.75, 30.29], [-85.76, 30.3], [-85.76, 30.3], [-85.78, 30.29], [-85.79, 30.29], [-85.8, 30.29], [-85.81, 30.29], [-85.84, 30.29], [-85.85, 30.28], [-85.85, 30.27], [-85.85, 30.27], [-85.85, 30.24], [-85.85, 30.23], [-85.83, 30.23], [-85.82, 30.23], [-85.82, 30.24], [-85.8, 30.25], [-85.79, 30.25], [-85.77, 30.25], [-85.76, 30.24], [-85.77, 30.23], [-85.77, 30.22], [-85.76, 30.21], [-85.74, 30.22], [-85.74, 30.2], [-85.75, 30.2], [-85.75, 30.18], [-85.75, 30.17], [-85.74, 30.16], [-85.72, 30.16], [-85.71, 30.15], [-85.72, 30.14], [-85.73, 30.15], [-85.75, 30.14], [-85.73, 30.13], [-85.74, 30.13], [-85.76, 30.14], [-85.78, 30.16], [-85.84, 30.2], [-85.88, 30.22], [-85.92, 30.24], [-85.96, 30.25], [-85.99, 30.26], [-86.0, 30.27], [-86.05, 30.29], [-86.09, 30.3], [-86.17, 30.33], [-86.24, 30.35], [-86.28, 30.36], [-86.35, 30.37], [-86.38, 30.38], [-86.44, 30.38], [-86.47, 30.38], [-86.51, 30.38], [-86.52, 30.4], [-86.5, 30.41], [-86.49, 30.42], [-86.47, 30.41], [-86.45, 30.4], [-86.44, 30.41], [-86.43, 30.4], [-86.41, 30.4], [-86.37, 30.39], [-86.35, 30.39], [-86.34, 30.39], [-86.33, 30.39], [-86.32, 30.41], [-86.31, 30.42], [-86.3, 30.41], [-86.3, 30.4], [-86.29, 30.4], [-86.28, 30.4], [-86.25, 30.39], [-86.23, 30.4], [-86.25, 30.41], [-86.27, 30.41], [-86.26, 30.42], [-86.25, 30.43], [-86.23, 30.42], [-86.23, 30.42], [-86.2, 30.4], [-86.17, 30.39], [-86.16, 30.38], [-86.14, 30.38], [-86.12, 30.38], [-86.11, 30.39], [-86.11, 30.39], [-86.12, 30.4], [-86.13, 30.42], [-86.12, 30.43], [-86.14, 30.43], [-86.16, 30.43], [-86.16, 30.45], [-86.17, 30.46], [-86.19, 30.46], [-86.2, 30.48], [-86.19, 30.49], [-86.21, 30.49], [-86.21, 30.48], [-86.23, 30.47], [-86.24, 30.48], [-86.25, 30.49], [-86.28, 30.48], [-86.3, 30.47], [-86.32, 30.48], [-86.33, 30.48], [-86.35, 30.47], [-86.37, 30.46], [-86.38, 30.46], [-86.4, 30.45], [-86.41, 30.46], [-86.42, 30.45], [-86.44, 30.48], [-86.45, 30.49], [-86.44, 30.51], [-86.45, 30.51], [-86.46, 30.49], [-86.47, 30.48], [-86.48, 30.49], [-86.49, 30.49], [-86.48, 30.47], [-86.49, 30.46], [-86.51, 30.46], [-86.53, 30.46], [-86.54, 30.45], [-86.56, 30.43], [-86.58, 30.44], [-86.59, 30.46], [-86.6, 30.46], [-86.6, 30.44], [-86.6, 30.43], [-86.59, 30.42], [-86.59, 30.41], [-86.6, 30.4], [-86.64, 30.41], [-86.66, 30.41], [-86.69, 30.41], [-86.72, 30.41], [-86.75, 30.4], [-86.77, 30.41], [-86.8, 30.41], [-86.82, 30.41], [-86.83, 30.41], [-86.86, 30.4], [-86.89, 30.4], [-86.9, 30.4], [-86.92, 30.4], [-86.95, 30.4], [-86.98, 30.39], [-87.04, 30.38], [-87.06, 30.38], [-87.07, 30.38], [-87.1, 30.37], [-87.12, 30.37], [-87.15, 30.36], [-87.16, 30.35], [-87.18, 30.35], [-87.18, 30.34], [-87.19, 30.35], [-87.2, 30.36], [-87.19, 30.36], [-87.19, 30.37], [-87.18, 30.37], [-87.16, 30.37], [-87.14, 30.37], [-87.13, 30.38], [-87.09, 30.4], [-87.06, 30.4], [-87.03, 30.4], [-86.99, 30.41], [-86.98, 30.42], [-86.95, 30.44], [-86.94, 30.45], [-86.92, 30.45], [-86.91, 30.44], [-86.9, 30.44], [-86.9, 30.45], [-86.91, 30.45], [-86.93, 30.46], [-86.93, 30.46], [-86.97, 30.47], [-86.99, 30.49], [-87.01, 30.5], [-87.02, 30.5], [-87.01, 30.51], [-87.01, 30.52], [-86.99, 30.52], [-86.99, 30.53], [-87.0, 30.53], [-87.0, 30.56], [-86.98, 30.57], [-86.99, 30.58], [-87.0, 30.58], [-87.0, 30.57], [-87.01, 30.56], [-87.01, 30.55], [-87.03, 30.55], [-87.04, 30.54], [-87.04, 30.53], [-87.05, 30.51], [-87.05, 30.5], [-87.05, 30.49], [-87.07, 30.46], [-87.07, 30.45], [-87.08, 30.45], [-87.09, 30.44], [-87.1, 30.45], [-87.1, 30.46], [-87.09, 30.48], [-87.1, 30.49], [-87.1, 30.51], [-87.1, 30.52], [-87.13, 30.53], [-87.12, 30.54], [-87.12, 30.55], [-87.14, 30.55], [-87.14, 30.56], [-87.15, 30.58], [-87.16, 30.58], [-87.18, 30.58], [-87.18, 30.58], [-87.19, 30.57], [-87.19, 30.56], [-87.19, 30.55], [-87.18, 30.53], [-87.16, 30.51], [-87.16, 30.51], [-87.16, 30.49], [-87.16, 30.48], [-87.16, 30.47], [-87.17, 30.44], [-87.17, 30.43], [-87.18, 30.42], [-87.2, 30.42], [-87.21, 30.41], [-87.24, 30.4], [-87.28, 30.37], [-87.3, 30.38], [-87.31, 30.37], [-87.29, 30.37], [-87.28, 30.37], [-87.26, 30.37], [-87.27, 30.35], [-87.29, 30.34], [-87.3, 30.35], [-87.32, 30.33], [-87.34, 30.33], [-87.35, 30.33], [-87.37, 30.33], [-87.37, 30.32], [-87.39, 30.32], [-87.4, 30.31], [-87.42, 30.31], [-87.43, 30.31], [-87.45, 30.31], [-87.46, 30.31], [-87.47, 30.31], [-87.48, 30.31], [-87.5, 30.31], [-87.49, 30.32], [-87.47, 30.31], [-87.45, 30.32], [-87.43, 30.34], [-87.41, 30.35], [-87.42, 30.36], [-87.43, 30.35], [-87.44, 30.37], [-87.43, 30.37], [-87.42, 30.38], [-87.43, 30.39], [-87.42, 30.4], [-87.4, 30.4], [-87.39, 30.4], [-87.39, 30.41], [-87.37, 30.41], [-87.35, 30.42], [-87.34, 30.43], [-87.36, 30.45], [-87.37, 30.46], [-87.4, 30.45], [-87.41, 30.46], [-87.43, 30.47], [-87.44, 30.48], [-87.43, 30.48], [-87.43, 30.49], [-87.43, 30.49], [-87.43, 30.49], [-87.43, 30.5], [-87.43, 30.5], [-87.45, 30.51], [-87.45, 30.53], [-87.44, 30.53], [-87.43, 30.55], [-87.42, 30.57], [-87.41, 30.58], [-87.41, 30.6], [-87.4, 30.61], [-87.39, 30.63], [-87.4, 30.65], [-87.41, 30.68], [-87.44, 30.69], [-87.45, 30.7], [-87.47, 30.7], [-87.48, 30.71], [-87.48, 30.72], [-87.5, 30.72], [-87.51, 30.73], [-87.53, 30.74], [-87.54, 30.75], [-87.54, 30.76], [-87.55, 30.77], [-87.54, 30.78], [-87.56, 30.8], [-87.57, 30.8], [-87.58, 30.81], [-87.6, 30.82], [-87.6, 30.83], [-87.62, 30.83], [-87.63, 30.85], [-87.62, 30.85], [-87.63, 30.86], [-87.63, 30.88], [-87.62, 30.89], [-87.62, 30.9], [-87.62, 30.9], [-87.61, 30.92], [-87.59, 30.95], [-87.59, 30.96], [-87.6, 31.0], [-87.46, 31.0], [-87.41, 31.0], [-87.3, 31.0], [-87.25, 31.0], [-87.24, 31.0], [-87.15, 31.0], [-87.05, 31.0], [-86.93, 31.0], [-86.72, 31.0], [-86.7, 30.99], [-86.66, 31.0], [-86.56, 30.99], [-86.5, 30.99], [-86.38, 30.99], [-86.37, 30.99], [-86.29, 30.99], [-86.24, 30.99], [-86.12, 30.99], [-86.0, 30.99], [-85.87, 30.99], [-85.75, 30.99], [-85.75, 31.0], [-85.57, 31.0], [-85.5, 31.0], [-85.37, 31.0], [-85.24, 31.0], [-85.07, 31.0], [-85.0, 31.0]]], [[[-85.12, 29.69], [-85.1, 29.69], [-85.09, 29.68], [-85.08, 29.67], [-85.08, 29.67], [-85.09, 29.65], [-85.1, 29.63], [-85.12, 29.63], [-85.14, 29.64], [-85.17, 29.65], [-85.2, 29.67], [-85.22, 29.68], [-85.21, 29.68], [-85.17, 29.68], [-85.15, 29.68], [-85.14, 29.69], [-85.12, 29.69]]], [[[-86.66, 30.4], [-86.65, 30.4], [-86.63, 30.4], [-86.61, 30.4], [-86.6, 30.4], [-86.59, 30.4], [-86.54, 30.39], [-86.54, 30.4], [-86.53, 30.39], [-86.58, 30.39], [-86.63, 30.4], [-86.65, 30.4], [-86.71, 30.39], [-86.76, 30.39], [-86.85, 30.38], [-86.91, 30.37], [-86.99, 30.36], [-87.06, 30.35], [-87.11, 30.34], [-87.16, 30.33], [-87.22, 30.32], [-87.27, 30.32], [-87.3, 30.32], [-87.3, 30.33], [-87.26, 30.32], [-87.24, 30.32], [-87.23, 30.32], [-87.21, 30.32], [-87.19, 30.33], [-87.17, 30.33], [-87.15, 30.34], [-87.14, 30.33], [-87.08, 30.34], [-87.07, 30.35], [-87.06, 30.35], [-87.05, 30.36], [-87.04, 30.35], [-87.02, 30.36], [-86.99, 30.36], [-86.93, 30.37], [-86.9, 30.38], [-86.89, 30.38], [-86.88, 30.38], [-86.86, 30.39], [-86.84, 30.39], [-86.8, 30.39], [-86.76, 30.4], [-86.75, 30.4], [-86.74, 30.4], [-86.7, 30.4], [-86.68, 30.4], [-86.66, 30.4]]], [[[-84.71, 29.75], [-84.72, 29.74], [-84.77, 29.7], [-84.78, 29.69], [-84.8, 29.68], [-84.82, 29.67], [-84.86, 29.66], [-84.88, 29.65], [-84.94, 29.62], [-84.96, 29.61], [-85.01, 29.6], [-85.04, 29.59], [-85.05, 29.59], [-85.07, 29.61], [-85.04, 29.6], [-85.02, 29.6], [-85.02, 29.6], [-85.0, 29.6], [-84.98, 29.61], [-84.95, 29.62], [-84.94, 29.63], [-84.92, 29.64], [-84.92, 29.65], [-84.9, 29.65], [-84.9, 29.65], [-84.89, 29.66], [-84.88, 29.66], [-84.86, 29.67], [-84.83, 29.68], [-84.79, 29.69], [-84.77, 29.7], [-84.77, 29.71], [-84.77, 29.71], [-84.75, 29.72], [-84.73, 29.73], [-84.71, 29.75], [-84.7, 29.76], [-84.69, 29.76], [-84.71, 29.75]]], [[[-87.52, 30.28], [-87.52, 30.28], [-87.5, 30.29], [-87.47, 30.3], [-87.45, 30.3], [-87.44, 30.31], [-87.42, 30.31], [-87.42, 30.3], [-87.43, 30.3], [-87.46, 30.29], [-87.52, 30.28]]], [[[-84.58, 29.83], [-84.57, 29.82], [-84.58, 29.81], [-84.62, 29.79], [-84.61, 29.8], [-84.6, 29.81], [-84.59, 29.82], [-84.58, 29.83]]]]}}, {"type": "Feature", "properties": {"STATE": "Florida", "STATE_FIPS": "12", "CD_2DIG": "02", "STATE_CODE": 8, "CLIMDIV": 802, "ID": 802, "CD_NEW": 2, "FIPS_CD": "1202", "NCDC_GEO_I": 50.0, "NAME": "NORTH", "ST_ABBRV": "FL", "SHAPE_AREA": 0.0, "SHAPE_LEN": 0.0}, "geometry": {"type": "MultiPolygon", "coordinates": [[[[-81.5, 30.72], [-81.49, 30.72], [-81.48, 30.71], [-81.47, 30.69], [-81.46, 30.69], [-81.46, 30.7], [-81.45, 30.71], [-81.44, 30.7], [-81.43, 30.7], [-81.43, 30.67], [-81.44, 30.6], [-81.44, 30.56], [-81.44, 30.54], [-81.44, 30.52], [-81.44, 30.52], [-81.45, 30.52], [-81.46, 30.51], [-81.44, 30.49], [-81.43, 30.49], [-81.41, 30.48], [-81.41, 30.45], [-81.41, 30.43], [-81.41, 30.42], [-81.4, 30.4], [-81.39, 30.4], [-81.4, 30.38], [-81.4, 30.36], [-81.4, 30.33], [-81.39, 30.29], [-81.38, 30.26], [-81.36, 30.19], [-81.35, 30.13], [-81.32, 30.03], [-81.31, 29.98], [-81.3, 29.94], [-81.29, 29.92], [-81.3, 29.91], [-81.31, 29.94], [-81.31, 29.95], [-81.31, 29.96], [-81.33, 29.97], [-81.33, 29.98], [-81.33, 30.0], [-81.34, 30.01], [-81.35, 30.02], [-81.36, 30.03], [-81.36, 30.04], [-81.36, 30.05], [-81.35, 30.06], [-81.36, 30.07], [-81.37, 30.07], [-81.37, 30.05], [-81.37, 30.04], [-81.37, 30.03], [-81.35, 30.02], [-81.34, 30.0], [-81.33, 30.0], [-81.33, 29.98], [-81.33, 29.96], [-81.32, 29.95], [-81.32, 29.95], [-81.31, 29.94], [-81.3, 29.91], [-81.31, 29.91], [-81.3, 29.87], [-81.31, 29.86], [-81.31, 29.85], [-81.3, 29.84], [-81.31, 29.83], [-81.3, 29.82], [-81.28, 29.79], [-81.28, 29.78], [-81.27, 29.77], [-81.26, 29.76], [-81.26, 29.75], [-81.25, 29.74], [-81.25, 29.73], [-81.25, 29.71], [-81.23, 29.7], [-81.22, 29.7], [-81.21, 29.67], [-81.19, 29.61], [-81.17, 29.56], [-81.13, 29.48], [-81.1, 29.43], [-81.1, 29.43], [-81.1, 29.43], [-81.1, 29.43], [-81.1, 29.43], [-81.11, 29.43], [-81.11, 29.43], [-81.11, 29.43], [-81.11, 29.43], [-81.15, 29.42], [-81.16, 29.41], [-81.15, 29.38], [-81.15, 29.27], [-81.19, 29.26], [-81.39, 29.26], [-81.41, 29.26], [-81.42, 29.26], [-81.42, 29.26], [-81.42, 29.3], [-81.42, 29.4], [-81.42, 29.4], [-81.42, 29.4], [-81.42, 29.4], [-81.42, 29.4], [-81.42, 29.4], [-81.42, 29.4], [-81.42, 29.4], [-81.42, 29.4], [-81.43, 29.4], [-81.43, 29.4], [-81.43, 29.4], [-81.43, 29.4], [-81.43, 29.4], [-81.43, 29.4], [-81.43, 29.4], [-81.43, 29.4], [-81.43, 29.4], [-81.43, 29.4], [-81.43, 29.4], [-81.44, 29.4], [-81.44, 29.39], [-81.44, 29.39], [-81.45, 29.38], [-81.5, 29.37], [-81.58, 29.35], [-81.62, 29.34], [-81.66, 29.33], [-81.66, 29.33], [-81.68, 29.32], [-81.68, 29.32], [-81.68, 29.33], [-81.68, 29.33], [-81.68, 29.34], [-81.66, 29.34], [-81.66, 29.36], [-81.66, 29.37], [-81.67, 29.37], [-81.67, 29.37], [-81.67, 29.37], [-81.67, 29.37], [-81.68, 29.37], [-81.69, 29.37], [-81.7, 29.37], [-81.7, 29.37], [-81.7, 29.37], [-81.7, 29.37], [-81.7, 29.37], [-81.7, 29.37], [-81.71, 29.37], [-81.71, 29.37], [-81.71, 29.37], [-81.71, 29.37], [-81.71, 29.37], [-81.72, 29.37], [-81.72, 29.37], [-81.74, 29.37], [-81.74, 29.38], [-81.74, 29.42], [-81.74, 29.43], [-81.74, 29.43], [-81.74, 29.43], [-81.74, 29.43], [-81.75, 29.43], [-81.75, 29.43], [-81.76, 29.43], [-81.77, 29.43], [-81.77, 29.43], [-81.77, 29.43], [-81.78, 29.44], [-81.78, 29.46], [-81.78, 29.49], [-81.78, 29.49], [-81.78, 29.49], [-81.79, 29.49], [-81.79, 29.49], [-81.81, 29.49], [-81.82, 29.49], [-81.82, 29.49], [-81.83, 29.49], [-81.83, 29.49], [-81.83, 29.49], [-81.83, 29.49], [-81.84, 29.49], [-81.84, 29.52], [-81.84, 29.52], [-81.85, 29.52], [-81.85, 29.52], [-81.85, 29.52], [-81.85, 29.52], [-81.85, 29.52], [-81.85, 29.52], [-81.89, 29.51], [-81.89, 29.51], [-81.89, 29.51], [-81.89, 29.51], [-81.89, 29.51], [-81.89, 29.51], [-81.89, 29.51], [-81.89, 29.51], [-81.89, 29.51], [-81.89, 29.51], [-81.89, 29.51], [-81.9, 29.51], [-81.9, 29.51], [-81.9, 29.51], [-81.9, 29.51], [-81.9, 29.51], [-81.9, 29.51], [-81.9, 29.52], [-81.9, 29.52], [-81.9, 29.52], [-81.9, 29.52], [-81.9, 29.52], [-81.9, 29.51], [-81.9, 29.51], [-81.9, 29.51], [-81.91, 29.51], [-81.91, 29.51], [-81.91, 29.51], [-81.91, 29.51], [-81.91, 29.5], [-81.91, 29.5], [-81.91, 29.5], [-81.91, 29.5], [-81.91, 29.5], [-81.91, 29.51], [-81.92, 29.51], [-81.93, 29.51], [-81.93, 29.52], [-81.93, 29.52], [-81.93, 29.52], [-81.93, 29.52], [-81.93, 29.51], [-81.94, 29.51], [-81.94, 29.51], [-81.94, 29.51], [-81.94, 29.51], [-81.97, 29.5], [-82.0, 29.5], [-82.03, 29.49], [-82.05, 29.48], [-82.06, 29.47], [-82.06, 29.44], [-82.07, 29.44], [-82.07, 29.43], [-82.07, 29.43], [-82.07, 29.43], [-82.07, 29.43], [-82.08, 29.44], [-82.08, 29.44], [-82.08, 29.44], [-82.08, 29.44], [-82.08, 29.44], [-82.08, 29.44], [-82.08, 29.44], [-82.09, 29.44], [-82.09, 29.43], [-82.09, 29.43], [-82.09, 29.43], [-82.09, 29.43], [-82.09, 29.43], [-82.09, 29.43], [-82.09, 29.43], [-82.09, 29.43], [-82.09, 29.43], [-82.09, 29.43], [-82.1, 29.44], [-82.1, 29.44], [-82.1, 29.44], [-82.1, 29.44], [-82.1, 29.44], [-82.1, 29.44], [-82.11, 29.44], [-82.11, 29.43], [-82.12, 29.43], [-82.12, 29.43], [-82.12, 29.43], [-82.12, 29.43], [-82.12, 29.43], [-82.12, 29.43], [-82.12, 29.43], [-82.12, 29.43], [-82.13, 29.43], [-82.13, 29.43], [-82.13, 29.43], [-82.13, 29.43], [-82.13, 29.43], [-82.13, 29.43], [-82.13, 29.43], [-82.13, 29.43], [-82.14, 29.43], [-82.14, 29.43], [-82.14, 29.43], [-82.14, 29.42], [-82.14, 29.42], [-82.14, 29.42], [-82.14, 29.42], [-82.15, 29.42], [-82.15, 29.42], [-82.15, 29.42], [-82.15, 29.42], [-82.15, 29.42], [-82.15, 29.42], [-82.15, 29.42], [-82.15, 29.42], [-82.15, 29.42], [-82.15, 29.42], [-82.15, 29.42], [-82.15, 29.42], [-82.15, 29.42], [-82.15, 29.42], [-82.15, 29.43], [-82.15, 29.43], [-82.15, 29.43], [-82.15, 29.43], [-82.15, 29.42], [-82.15, 29.42], [-82.15, 29.42], [-82.15, 29.42], [-82.15, 29.42], [-82.15, 29.42], [-82.16, 29.43], [-82.16, 29.43], [-82.16, 29.43], [-82.16, 29.43], [-82.16, 29.43], [-82.16, 29.43], [-82.16, 29.42], [-82.16, 29.42], [-82.16, 29.42], [-82.16, 29.42], [-82.16, 29.42], [-82.16, 29.42], [-82.16, 29.43], [-82.17, 29.43], [-82.17, 29.43], [-82.17, 29.43], [-82.17, 29.43], [-82.17, 29.42], [-82.18, 29.42], [-82.18, 29.42], [-82.18, 29.42], [-82.19, 29.42], [-82.19, 29.42], [-82.19, 29.42], [-82.2, 29.42], [-82.2, 29.42], [-82.21, 29.43], [-82.21, 29.45], [-82.22, 29.46], [-82.22, 29.46], [-82.21, 29.46], [-82.21, 29.46], [-82.21, 29.46], [-82.21, 29.47], [-82.21, 29.47], [-82.21, 29.47], [-82.21, 29.47], [-82.21, 29.47], [-82.21, 29.47], [-82.21, 29.46], [-82.21, 29.46], [-82.21, 29.46], [-82.2, 29.46], [-82.2, 29.46], [-82.2, 29.45], [-82.19, 29.45], [-82.19, 29.45], [-82.19, 29.45], [-82.19, 29.45], [-82.19, 29.45], [-82.19, 29.45], [-82.19, 29.45], [-82.19, 29.46], [-82.19, 29.46], [-82.21, 29.47], [-82.21, 29.48], [-82.41, 29.49], [-82.41, 29.48], [-82.41, 29.47], [-82.41, 29.46], [-82.41, 29.44], [-82.41, 29.43], [-82.41, 29.32], [-82.4, 29.22], [-82.54, 29.21], [-82.54, 29.14], [-82.54, 29.05], [-82.54, 29.04], [-82.56, 29.03], [-82.56, 29.03], [-82.57, 29.03], [-82.57, 29.03], [-82.57, 29.03], [-82.57, 29.03], [-82.57, 29.03], [-82.57, 29.03], [-82.58, 29.03], [-82.58, 29.03], [-82.58, 29.03], [-82.59, 29.03], [-82.59, 29.03], [-82.59, 29.03], [-82.59, 29.03], [-82.6, 29.03], [-82.6, 29.03], [-82.6, 29.03], [-82.6, 29.02], [-82.6, 29.01], [-82.61, 29.01], [-82.61, 29.01], [-82.61, 29.01], [-82.61, 29.01], [-82.61, 29.01], [-82.62, 29.01], [-82.62, 29.01], [-82.62, 29.01], [-82.63, 29.01], [-82.64, 29.02], [-82.68, 29.03], [-82.68, 29.03], [-82.68, 29.03], [-82.69, 29.03], [-82.69, 29.03], [-82.69, 29.03], [-82.69, 29.03], [-82.69, 29.03], [-82.69, 29.03], [-82.69, 29.03], [-82.69, 29.03], [-82.69, 29.03], [-82.7, 29.03], [-82.7, 29.03], [-82.7, 29.03], [-82.7, 29.03], [-82.7, 29.03], [-82.7, 29.03], [-82.7, 29.03], [-82.7, 29.03], [-82.7, 29.03], [-82.7, 29.03], [-82.7, 29.03], [-82.71, 29.03], [-82.71, 29.03], [-82.71, 29.03], [-82.73, 29.02], [-82.74, 29.01], [-82.75, 29.01], [-82.75, 29.0], [-82.75, 29.0], [-82.76, 29.0], [-82.76, 29.0], [-82.76, 29.0], [-82.76, 29.0], [-82.76, 29.0], [-82.76, 29.0], [-82.76, 29.01], [-82.75, 29.02], [-82.74, 29.02], [-82.75, 29.03], [-82.75, 29.05], [-82.75, 29.06], [-82.76, 29.06], [-82.77, 29.06], [-82.78, 29.07], [-82.79, 29.08], [-82.8, 29.08], [-82.81, 29.09], [-82.8, 29.09], [-82.8, 29.12], [-82.81, 29.14], [-82.8, 29.15], [-82.81, 29.16], [-82.81, 29.16], [-82.82, 29.16], [-82.84, 29.16], [-82.85, 29.17], [-82.86, 29.16], [-82.88, 29.16], [-82.9, 29.17], [-82.9, 29.17], [-82.94, 29.17], [-82.95, 29.17], [-82.96, 29.17], [-82.96, 29.18], [-82.98, 29.18], [-82.99, 29.18], [-83.03, 29.17], [-83.04, 29.17], [-83.04, 29.18], [-83.06, 29.18], [-83.06, 29.19], [-83.07, 29.19], [-83.07, 29.2], [-83.06, 29.22], [-83.07, 29.22], [-83.07, 29.23], [-83.06, 29.23], [-83.07, 29.24], [-83.08, 29.27], [-83.09, 29.27], [-83.1, 29.27], [-83.11, 29.27], [-83.11, 29.28], [-83.11, 29.29], [-83.11, 29.3], [-83.11, 29.3], [-83.12, 29.31], [-83.12, 29.31], [-83.12, 29.32], [-83.12, 29.32], [-83.14, 29.32], [-83.16, 29.33], [-83.16, 29.34], [-83.17, 29.34], [-83.18, 29.36], [-83.18, 29.36], [-83.19, 29.38], [-83.2, 29.39], [-83.2, 29.39], [-83.21, 29.4], [-83.21, 29.42], [-83.22, 29.43], [-83.24, 29.43], [-83.27, 29.43], [-83.28, 29.44], [-83.3, 29.45], [-83.31, 29.46], [-83.31, 29.47], [-83.34, 29.48], [-83.34, 29.48], [-83.35, 29.49], [-83.36, 29.5], [-83.37, 29.5], [-83.38, 29.5], [-83.38, 29.51], [-83.4, 29.52], [-83.39, 29.52], [-83.4, 29.54], [-83.4, 29.55], [-83.4, 29.58], [-83.41, 29.59], [-83.4, 29.6], [-83.4, 29.61], [-83.4, 29.62], [-83.4, 29.63], [-83.4, 29.64], [-83.4, 29.66], [-83.42, 29.67], [-83.42, 29.67], [-83.43, 29.68], [-83.45, 29.68], [-83.48, 29.69], [-83.49, 29.7], [-83.49, 29.71], [-83.5, 29.71], [-83.53, 29.72], [-83.54, 29.72], [-83.56, 29.74], [-83.57, 29.76], [-83.58, 29.77], [-83.58, 29.78], [-83.58, 29.79], [-83.59, 29.8], [-83.59, 29.82], [-83.59, 29.82], [-83.6, 29.83], [-83.62, 29.84], [-83.62, 29.85], [-83.63, 29.86], [-83.63, 29.87], [-83.64, 29.89], [-83.65, 29.89], [-83.68, 29.91], [-83.68, 29.92], [-83.69, 29.92], [-83.71, 29.93], [-83.71, 29.94], [-83.73, 29.94], [-83.74, 29.96], [-83.75, 29.96], [-83.77, 29.97], [-83.78, 29.98], [-83.8, 29.98], [-83.81, 29.98], [-83.82, 29.99], [-83.83, 29.99], [-83.84, 29.99], [-83.86, 30.01], [-83.86, 30.01], [-83.88, 30.01], [-83.9, 30.02], [-83.91, 30.03], [-83.93, 30.03], [-83.93, 30.04], [-83.94, 30.05], [-83.95, 30.05], [-83.95, 30.06], [-83.99, 30.08], [-83.99, 30.09], [-83.99, 30.1], [-83.98, 30.11], [-83.98, 30.12], [-83.97, 30.14], [-83.97, 30.15], [-83.96, 30.15], [-83.96, 30.17], [-83.95, 30.19], [-83.94, 30.19], [-83.93, 30.19], [-83.92, 30.2], [-83.92, 30.21], [-83.92, 30.22], [-83.92, 30.24], [-83.9, 30.25], [-83.9, 30.26], [-83.88, 30.27], [-83.86, 30.27], [-83.85, 30.28], [-83.84, 30.28], [-83.83, 30.29], [-83.82, 30.3], [-83.82, 30.31], [-83.81, 30.32], [-83.8, 30.32], [-83.79, 30.32], [-83.79, 30.33], [-83.79, 30.34], [-83.8, 30.35], [-83.81, 30.36], [-83.81, 30.37], [-83.79, 30.39], [-83.78, 30.38], [-83.76, 30.39], [-83.75, 30.4], [-83.74, 30.42], [-83.72, 30.43], [-83.73, 30.45], [-83.72, 30.46], [-83.73, 30.47], [-83.73, 30.49], [-83.74, 30.5], [-83.74, 30.51], [-83.73, 30.52], [-83.7, 30.52], [-83.7, 30.54], [-83.67, 30.54], [-83.67, 30.55], [-83.64, 30.55], [-83.64, 30.57], [-83.62, 30.57], [-83.62, 30.58], [-83.6, 30.58], [-83.6, 30.64], [-83.61, 30.64], [-83.61, 30.65], [-83.5, 30.65], [-83.25, 30.63], [-83.07, 30.62], [-82.88, 30.61], [-82.75, 30.6], [-82.6, 30.59], [-82.42, 30.58], [-82.21, 30.57], [-82.23, 30.56], [-82.24, 30.55], [-82.24, 30.53], [-82.23, 30.53], [-82.23, 30.52], [-82.23, 30.51], [-82.22, 30.5], [-82.2, 30.48], [-82.2, 30.47], [-82.21, 30.47], [-82.2, 30.44], [-82.21, 30.43], [-82.21, 30.42], [-82.21, 30.41], [-82.19, 30.38], [-82.18, 30.37], [-82.17, 30.36], [-82.14, 30.36], [-82.13, 30.36], [-82.13, 30.37], [-82.12, 30.37], [-82.1, 30.37], [-82.09, 30.36], [-82.06, 30.36], [-82.05, 30.36], [-82.04, 30.37], [-82.04, 30.38], [-82.04, 30.4], [-82.04, 30.42], [-82.03, 30.42], [-82.04, 30.44], [-82.03, 30.45], [-82.02, 30.48], [-82.02, 30.48], [-82.01, 30.51], [-82.02, 30.54], [-82.01, 30.56], [-82.01, 30.58], [-82.01, 30.58], [-82.02, 30.6], [-82.03, 30.61], [-82.03, 30.63], [-82.04, 30.63], [-82.04, 30.64], [-82.05, 30.65], [-82.05, 30.66], [-82.05, 30.68], [-82.04, 30.68], [-82.04, 30.7], [-82.04, 30.71], [-82.04, 30.72], [-82.05, 30.73], [-82.04, 30.74], [-82.03, 30.75], [-82.02, 30.75], [-82.01, 30.76], [-82.02, 30.78], [-82.02, 30.79], [-82.0, 30.79], [-81.99, 30.78], [-81.98, 30.78], [-81.97, 30.78], [-81.97, 30.79], [-81.96, 30.8], [-81.96, 30.82], [-81.95, 30.83], [-81.93, 30.82], [-81.91, 30.82], [-81.9, 30.83], [-81.89, 30.82], [-81.88, 30.81], [-81.88, 30.8], [-81.87, 30.8], [-81.87, 30.79], [-81.85, 30.79], [-81.84, 30.79], [-81.83, 30.79], [-81.81, 30.79], [-81.8, 30.78], [-81.79, 30.78], [-81.78, 30.77], [-81.78, 30.76], [-81.77, 30.76], [-81.77, 30.78], [-81.76, 30.77], [-81.74, 30.77], [-81.74, 30.76], [-81.73, 30.75], [-81.72, 30.74], [-81.7, 30.75], [-81.69, 30.74], [-81.67, 30.74], [-81.67, 30.75], [-81.66, 30.75], [-81.66, 30.74], [-81.65, 30.74], [-81.65, 30.73], [-81.64, 30.73], [-81.64, 30.73], [-81.63, 30.73], [-81.62, 30.72], [-81.61, 30.72], [-81.61, 30.73], [-81.59, 30.72], [-81.57, 30.72], [-81.56, 30.71], [-81.55, 30.72], [-81.54, 30.71], [-81.53, 30.71], [-81.53, 30.72], [-81.51, 30.72], [-81.5, 30.72]]], [[[-81.27, 29.9], [-81.27, 29.89], [-81.27, 29.86], [-81.27, 29.84], [-81.26, 29.82], [-81.25, 29.77], [-81.24, 29.74], [-81.23, 29.71], [-81.24, 29.72], [-81.25, 29.73], [-81.24, 29.74], [-81.25, 29.76], [-81.27, 29.78], [-81.28, 29.81], [-81.28, 29.81], [-81.29, 29.81], [-81.29, 29.82], [-81.3, 29.83], [-81.3, 29.85], [-81.31, 29.86], [-81.3, 29.88], [-81.29, 29.88], [-81.3, 29.89], [-81.28, 29.89], [-81.29, 29.91], [-81.28, 29.91], [-81.27, 29.9]]], [[[-83.13, 29.32], [-83.12, 29.32], [-83.12, 29.32], [-83.12, 29.31], [-83.12, 29.3], [-83.11, 29.3], [-83.11, 29.3], [-83.11, 29.28], [-83.12, 29.28], [-83.13, 29.29], [-83.13, 29.3], [-83.14, 29.29], [-83.15, 29.3], [-83.16, 29.3], [-83.14, 29.31], [-83.14, 29.32], [-83.13, 29.32]]]]}}, {"type": "Feature", "properties": {"STATE": "Florida", "STATE_FIPS": "12", "CD_2DIG": "03", "STATE_CODE": 8, "CLIMDIV": 803, "ID": 803, "CD_NEW": 3, "FIPS_CD": "1203", "NCDC_GEO_I": 51.0, "NAME": "NORTH CENTRAL", "ST_ABBRV": "FL", "SHAPE_AREA": 0.0, "SHAPE_LEN": 0.0}, "geometry": {"type": "MultiPolygon", "coordinates": [[[[-80.86, 28.35], [-80.87, 28.35], [-80.95, 28.35], [-80.98, 28.35], [-80.99, 28.35], [-81.0, 28.35], [-81.01, 28.35], [-81.02, 28.35], [-81.09, 28.35], [-81.09, 28.35], [-81.11, 28.35], [-81.13, 28.35], [-81.27, 28.35], [-81.45, 28.35], [-81.46, 28.35], [-81.47, 28.35], [-81.49, 28.35], [-81.49, 28.35], [-81.49, 28.35], [-81.51, 28.35], [-81.53, 28.35], [-81.54, 28.35], [-81.54, 28.35], [-81.54, 28.35], [-81.54, 28.35], [-81.54, 28.35], [-81.54, 28.35], [-81.54, 28.35], [-81.55, 28.35], [-81.55, 28.35], [-81.55, 28.35], [-81.55, 28.35], [-81.55, 28.35], [-81.55, 28.35], [-81.55, 28.35], [-81.56, 28.35], [-81.56, 28.35], [-81.56, 28.35], [-81.56, 28.35], [-81.57, 28.35], [-81.57, 28.35], [-81.57, 28.35], [-81.57, 28.35], [-81.57, 28.35], [-81.57, 28.35], [-81.58, 28.35], [-81.58, 28.35], [-81.58, 28.35], [-81.58, 28.35], [-81.59, 28.35], [-81.59, 28.35], [-81.59, 28.35], [-81.6, 28.35], [-81.62, 28.35], [-81.63, 28.35], [-81.64, 28.35], [-81.65, 28.35], [-81.65, 28.35], [-81.65, 28.35], [-81.65, 28.35], [-81.65, 28.35], [-81.65, 28.35], [-81.65, 28.35], [-81.66, 28.35], [-81.66, 28.35], [-81.66, 28.35], [-81.66, 28.35], [-81.66, 28.35], [-81.66, 28.35], [-81.67, 28.35], [-81.72, 28.35], [-81.75, 28.35], [-81.77, 28.35], [-81.78, 28.35], [-81.79, 28.35], [-81.79, 28.36], [-81.8, 28.36], [-81.82, 28.36], [-81.82, 28.36], [-81.82, 28.36], [-81.82, 28.36], [-81.84, 28.36], [-81.85, 28.36], [-81.86, 28.36], [-81.86, 28.35], [-81.88, 28.35], [-81.96, 28.35], [-81.96, 28.31], [-81.96, 28.31], [-81.96, 28.31], [-81.97, 28.31], [-81.97, 28.31], [-81.97, 28.31], [-81.97, 28.31], [-81.97, 28.31], [-81.97, 28.31], [-81.98, 28.31], [-81.98, 28.31], [-81.98, 28.31], [-81.98, 28.31], [-81.98, 28.31], [-81.98, 28.31], [-81.98, 28.31], [-81.98, 28.31], [-81.98, 28.3], [-81.98, 28.3], [-81.99, 28.3], [-81.99, 28.3], [-81.99, 28.3], [-81.99, 28.3], [-81.99, 28.31], [-81.99, 28.31], [-82.0, 28.32], [-82.0, 28.32], [-82.01, 28.32], [-82.02, 28.32], [-82.02, 28.32], [-82.02, 28.32], [-82.02, 28.32], [-82.02, 28.32], [-82.02, 28.32], [-82.02, 28.32], [-82.02, 28.32], [-82.03, 28.32], [-82.04, 28.32], [-82.06, 28.31], [-82.06, 28.29], [-82.06, 28.27], [-82.06, 28.26], [-82.06, 28.26], [-82.06, 28.26], [-82.08, 28.26], [-82.08, 28.26], [-82.08, 28.26], [-82.11, 28.26], [-82.11, 28.22], [-82.11, 28.22], [-82.11, 28.17], [-82.11, 28.17], [-82.11, 28.17], [-82.12, 28.17], [-82.14, 28.17], [-82.15, 28.17], [-82.15, 28.17], [-82.16, 28.17], [-82.16, 28.17], [-82.17, 28.17], [-82.17, 28.17], [-82.17, 28.17], [-82.17, 28.17], [-82.17, 28.17], [-82.17, 28.17], [-82.18, 28.17], [-82.18, 28.17], [-82.19, 28.17], [-82.19, 28.17], [-82.19, 28.17], [-82.19, 28.17], [-82.2, 28.17], [-82.21, 28.17], [-82.21, 28.17], [-82.21, 28.17], [-82.22, 28.17], [-82.22, 28.17], [-82.26, 28.17], [-82.36, 28.17], [-82.37, 28.17], [-82.37, 28.17], [-82.37, 28.17], [-82.37, 28.17], [-82.37, 28.17], [-82.37, 28.17], [-82.38, 28.17], [-82.38, 28.17], [-82.44, 28.17], [-82.5, 28.17], [-82.53, 28.17], [-82.57, 28.17], [-82.57, 28.17], [-82.58, 28.17], [-82.58, 28.17], [-82.58, 28.17], [-82.58, 28.17], [-82.59, 28.17], [-82.59, 28.17], [-82.59, 28.17], [-82.59, 28.17], [-82.59, 28.17], [-82.59, 28.17], [-82.6, 28.17], [-82.6, 28.17], [-82.61, 28.17], [-82.62, 28.17], [-82.62, 28.17], [-82.65, 28.17], [-82.67, 28.17], [-82.67, 28.17], [-82.68, 28.17], [-82.69, 28.17], [-82.69, 28.17], [-82.7, 28.17], [-82.7, 28.17], [-82.71, 28.17], [-82.71, 28.17], [-82.71, 28.17], [-82.72, 28.17], [-82.72, 28.17], [-82.73, 28.17], [-82.73, 28.17], [-82.73, 28.17], [-82.74, 28.17], [-82.74, 28.17], [-82.74, 28.17], [-82.74, 28.17], [-82.75, 28.17], [-82.75, 28.17], [-82.75, 28.17], [-82.75, 28.17], [-82.75, 28.17], [-82.75, 28.17], [-82.75, 28.17], [-82.75, 28.17], [-82.75, 28.17], [-82.76, 28.17], [-82.76, 28.17], [-82.76, 28.17], [-82.76, 28.17], [-82.77, 28.17], [-82.78, 28.17], [-82.79, 28.17], [-82.8, 28.18], [-82.8, 28.19], [-82.79, 28.19], [-82.78, 28.21], [-82.77, 28.21], [-82.76, 28.22], [-82.76, 28.23], [-82.76, 28.24], [-82.75, 28.24], [-82.74, 28.26], [-82.74, 28.27], [-82.73, 28.29], [-82.74, 28.3], [-82.73, 28.33], [-82.72, 28.34], [-82.71, 28.35], [-82.72, 28.35], [-82.7, 28.38], [-82.71, 28.39], [-82.7, 28.4], [-82.69, 28.41], [-82.69, 28.41], [-82.68, 28.42], [-82.67, 28.44], [-82.67, 28.46], [-82.68, 28.46], [-82.68, 28.47], [-82.67, 28.47], [-82.66, 28.48], [-82.67, 28.49], [-82.66, 28.5], [-82.65, 28.52], [-82.66, 28.52], [-82.66, 28.53], [-82.65, 28.53], [-82.65, 28.54], [-82.65, 28.56], [-82.65, 28.57], [-82.66, 28.57], [-82.64, 28.58], [-82.64, 28.59], [-82.65, 28.59], [-82.66, 28.61], [-82.65, 28.62], [-82.65, 28.64], [-82.65, 28.65], [-82.65, 28.67], [-82.65, 28.68], [-82.64, 28.69], [-82.63, 28.7], [-82.65, 28.71], [-82.65, 28.72], [-82.65, 28.73], [-82.66, 28.74], [-82.65, 28.74], [-82.64, 28.76], [-82.64, 28.76], [-82.65, 28.78], [-82.63, 28.79], [-82.63, 28.8], [-82.64, 28.8], [-82.64, 28.81], [-82.65, 28.83], [-82.65, 28.83], [-82.64, 28.84], [-82.64, 28.86], [-82.64, 28.87], [-82.64, 28.88], [-82.64, 28.89], [-82.65, 28.9], [-82.65, 28.9], [-82.66, 28.91], [-82.67, 28.9], [-82.68, 28.91], [-82.68, 28.91], [-82.68, 28.92], [-82.69, 28.93], [-82.71, 28.93], [-82.71, 28.95], [-82.72, 28.95], [-82.75, 28.95], [-82.74, 28.96], [-82.72, 28.96], [-82.73, 28.97], [-82.73, 28.98], [-82.73, 28.99], [-82.74, 29.0], [-82.75, 29.0], [-82.76, 29.0], [-82.76, 29.0], [-82.76, 29.0], [-82.76, 29.0], [-82.76, 29.0], [-82.75, 29.01], [-82.74, 29.01], [-82.73, 29.02], [-82.71, 29.03], [-82.7, 29.03], [-82.7, 29.03], [-82.7, 29.03], [-82.7, 29.03], [-82.7, 29.03], [-82.7, 29.03], [-82.7, 29.03], [-82.7, 29.03], [-82.7, 29.03], [-82.7, 29.03], [-82.7, 29.03], [-82.7, 29.03], [-82.69, 29.03], [-82.69, 29.03], [-82.69, 29.03], [-82.69, 29.03], [-82.69, 29.03], [-82.69, 29.03], [-82.69, 29.03], [-82.69, 29.03], [-82.68, 29.03], [-82.68, 29.03], [-82.68, 29.03], [-82.64, 29.02], [-82.63, 29.01], [-82.62, 29.01], [-82.62, 29.01], [-82.62, 29.01], [-82.61, 29.01], [-82.61, 29.01], [-82.61, 29.01], [-82.61, 29.01], [-82.61, 29.01], [-82.6, 29.01], [-82.6, 29.02], [-82.6, 29.03], [-82.6, 29.03], [-82.6, 29.03], [-82.59, 29.03], [-82.59, 29.03], [-82.59, 29.03], [-82.59, 29.03], [-82.58, 29.03], [-82.58, 29.03], [-82.58, 29.03], [-82.58, 29.03], [-82.57, 29.03], [-82.57, 29.03], [-82.57, 29.03], [-82.57, 29.03], [-82.56, 29.03], [-82.56, 29.03], [-82.56, 29.03], [-82.55, 29.04], [-82.55, 29.04], [-82.54, 29.04], [-82.54, 29.05], [-82.54, 29.14], [-82.54, 29.21], [-82.4, 29.22], [-82.41, 29.32], [-82.41, 29.43], [-82.41, 29.44], [-82.41, 29.49], [-82.39, 29.48], [-82.39, 29.48], [-82.37, 29.48], [-82.28, 29.48], [-82.21, 29.48], [-82.21, 29.47], [-82.19, 29.46], [-82.19, 29.46], [-82.19, 29.45], [-82.19, 29.45], [-82.19, 29.45], [-82.19, 29.45], [-82.19, 29.45], [-82.19, 29.45], [-82.2, 29.45], [-82.2, 29.46], [-82.2, 29.46], [-82.21, 29.46], [-82.21, 29.46], [-82.21, 29.46], [-82.21, 29.47], [-82.21, 29.47], [-82.21, 29.47], [-82.21, 29.47], [-82.21, 29.47], [-82.21, 29.47], [-82.21, 29.46], [-82.21, 29.46], [-82.21, 29.46], [-82.22, 29.46], [-82.22, 29.46], [-82.21, 29.45], [-82.21, 29.43], [-82.2, 29.42], [-82.19, 29.42], [-82.19, 29.42], [-82.18, 29.42], [-82.17, 29.43], [-82.17, 29.43], [-82.17, 29.43], [-82.17, 29.43], [-82.16, 29.43], [-82.16, 29.42], [-82.16, 29.42], [-82.16, 29.42], [-82.16, 29.42], [-82.16, 29.42], [-82.16, 29.42], [-82.16, 29.43], [-82.16, 29.43], [-82.16, 29.43], [-82.16, 29.43], [-82.16, 29.43], [-82.16, 29.43], [-82.15, 29.42], [-82.15, 29.42], [-82.15, 29.42], [-82.15, 29.42], [-82.15, 29.42], [-82.15, 29.43], [-82.15, 29.43], [-82.15, 29.43], [-82.15, 29.43], [-82.15, 29.42], [-82.15, 29.42], [-82.15, 29.42], [-82.15, 29.42], [-82.15, 29.42], [-82.15, 29.42], [-82.15, 29.42], [-82.15, 29.42], [-82.15, 29.42], [-82.15, 29.42], [-82.15, 29.42], [-82.15, 29.42], [-82.15, 29.42], [-82.15, 29.42], [-82.15, 29.42], [-82.14, 29.42], [-82.14, 29.42], [-82.14, 29.42], [-82.14, 29.42], [-82.14, 29.43], [-82.13, 29.43], [-82.13, 29.43], [-82.13, 29.43], [-82.13, 29.43], [-82.13, 29.43], [-82.13, 29.43], [-82.12, 29.43], [-82.12, 29.43], [-82.12, 29.43], [-82.12, 29.43], [-82.12, 29.43], [-82.12, 29.43], [-82.12, 29.43], [-82.12, 29.43], [-82.11, 29.43], [-82.11, 29.44], [-82.1, 29.44], [-82.1, 29.44], [-82.1, 29.44], [-82.1, 29.44], [-82.1, 29.44], [-82.1, 29.44], [-82.1, 29.44], [-82.1, 29.44], [-82.09, 29.43], [-82.09, 29.43], [-82.09, 29.43], [-82.09, 29.43], [-82.09, 29.43], [-82.09, 29.43], [-82.09, 29.43], [-82.09, 29.43], [-82.09, 29.43], [-82.09, 29.43], [-82.09, 29.44], [-82.08, 29.44], [-82.08, 29.44], [-82.08, 29.44], [-82.08, 29.44], [-82.08, 29.44], [-82.08, 29.44], [-82.07, 29.43], [-82.07, 29.43], [-82.07, 29.43], [-82.07, 29.43], [-82.07, 29.43], [-82.07, 29.44], [-82.07, 29.44], [-82.07, 29.44], [-82.06, 29.44], [-82.06, 29.44], [-82.06, 29.47], [-82.05, 29.48], [-82.03, 29.49], [-82.0, 29.5], [-81.97, 29.5], [-81.94, 29.51], [-81.94, 29.51], [-81.94, 29.51], [-81.94, 29.51], [-81.93, 29.51], [-81.93, 29.52], [-81.93, 29.52], [-81.93, 29.52], [-81.93, 29.52], [-81.93, 29.51], [-81.92, 29.51], [-81.91, 29.51], [-81.91, 29.5], [-81.91, 29.5], [-81.91, 29.5], [-81.91, 29.5], [-81.91, 29.5], [-81.91, 29.51], [-81.91, 29.51], [-81.91, 29.51], [-81.91, 29.51], [-81.91, 29.51], [-81.9, 29.51], [-81.9, 29.51], [-81.9, 29.51], [-81.9, 29.52], [-81.9, 29.52], [-81.9, 29.52], [-81.9, 29.52], [-81.9, 29.52], [-81.9, 29.52], [-81.9, 29.51], [-81.9, 29.51], [-81.9, 29.51], [-81.9, 29.51], [-81.9, 29.51], [-81.9, 29.51], [-81.89, 29.51], [-81.89, 29.51], [-81.89, 29.51], [-81.89, 29.51], [-81.89, 29.51], [-81.89, 29.51], [-81.89, 29.51], [-81.89, 29.51], [-81.89, 29.51], [-81.89, 29.51], [-81.89, 29.51], [-81.89, 29.51], [-81.89, 29.51], [-81.85, 29.52], [-81.85, 29.52], [-81.84, 29.52], [-81.84, 29.52], [-81.84, 29.52], [-81.84, 29.52], [-81.84, 29.49], [-81.83, 29.49], [-81.83, 29.49], [-81.83, 29.49], [-81.83, 29.49], [-81.82, 29.49], [-81.82, 29.49], [-81.81, 29.49], [-81.79, 29.49], [-81.79, 29.49], [-81.78, 29.49], [-81.78, 29.49], [-81.78, 29.49], [-81.78, 29.48], [-81.78, 29.48], [-81.78, 29.47], [-81.78, 29.46], [-81.78, 29.44], [-81.77, 29.43], [-81.76, 29.43], [-81.75, 29.43], [-81.75, 29.43], [-81.74, 29.43], [-81.74, 29.43], [-81.74, 29.43], [-81.74, 29.43], [-81.74, 29.43], [-81.74, 29.42], [-81.74, 29.42], [-81.74, 29.38], [-81.74, 29.37], [-81.72, 29.37], [-81.72, 29.37], [-81.71, 29.37], [-81.71, 29.37], [-81.71, 29.37], [-81.71, 29.37], [-81.71, 29.37], [-81.7, 29.37], [-81.7, 29.37], [-81.7, 29.37], [-81.7, 29.37], [-81.7, 29.37], [-81.69, 29.37], [-81.67, 29.37], [-81.67, 29.37], [-81.67, 29.37], [-81.67, 29.37], [-81.67, 29.37], [-81.67, 29.37], [-81.66, 29.37], [-81.66, 29.36], [-81.66, 29.34], [-81.68, 29.34], [-81.68, 29.33], [-81.68, 29.33], [-81.68, 29.32], [-81.68, 29.32], [-81.66, 29.33], [-81.66, 29.33], [-81.62, 29.34], [-81.59, 29.35], [-81.5, 29.37], [-81.45, 29.38], [-81.44, 29.39], [-81.44, 29.39], [-81.44, 29.4], [-81.43, 29.4], [-81.43, 29.4], [-81.43, 29.4], [-81.43, 29.4], [-81.43, 29.4], [-81.43, 29.4], [-81.43, 29.4], [-81.43, 29.4], [-81.43, 29.4], [-81.43, 29.4], [-81.43, 29.4], [-81.43, 29.4], [-81.42, 29.4], [-81.42, 29.4], [-81.42, 29.4], [-81.42, 29.4], [-81.42, 29.4], [-81.42, 29.4], [-81.42, 29.4], [-81.42, 29.4], [-81.42, 29.4], [-81.42, 29.37], [-81.42, 29.3], [-81.42, 29.26], [-81.42, 29.26], [-81.41, 29.26], [-81.4, 29.26], [-81.39, 29.26], [-81.19, 29.26], [-81.15, 29.27], [-81.15, 29.38], [-81.16, 29.41], [-81.15, 29.42], [-81.11, 29.43], [-81.11, 29.43], [-81.11, 29.43], [-81.1, 29.43], [-81.1, 29.43], [-81.1, 29.43], [-81.1, 29.43], [-81.1, 29.43], [-81.1, 29.42], [-81.1, 29.42], [-81.1, 29.42], [-81.08, 29.38], [-81.05, 29.31], [-81.0, 29.21], [-80.97, 29.16], [-80.94, 29.11], [-80.92, 29.08], [-80.93, 29.08], [-80.94, 29.09], [-80.95, 29.1], [-80.95, 29.11], [-80.95, 29.12], [-80.97, 29.14], [-80.99, 29.18], [-81.01, 29.21], [-81.02, 29.24], [-81.03, 29.25], [-81.05, 29.29], [-81.06, 29.32], [-81.09, 29.38], [-81.09, 29.38], [-81.1, 29.36], [-81.1, 29.35], [-81.09, 29.35], [-81.06, 29.31], [-81.03, 29.24], [-81.02, 29.22], [-81.02, 29.21], [-81.01, 29.2], [-81.0, 29.18], [-80.99, 29.16], [-80.97, 29.12], [-80.97, 29.11], [-80.97, 29.09], [-80.96, 29.08], [-80.95, 29.07], [-80.94, 29.07], [-80.93, 29.06], [-80.91, 29.06], [-80.91, 29.05], [-80.91, 29.03], [-80.92, 29.03], [-80.92, 29.02], [-80.91, 29.01], [-80.91, 29.01], [-80.9, 28.99], [-80.89, 28.98], [-80.88, 28.96], [-80.87, 28.94], [-80.86, 28.92], [-80.84, 28.87], [-80.82, 28.83], [-80.8, 28.8], [-80.77, 28.76], [-80.75, 28.74], [-80.76, 28.74], [-80.77, 28.74], [-80.77, 28.75], [-80.79, 28.75], [-80.79, 28.76], [-80.81, 28.78], [-80.84, 28.79], [-80.84, 28.8], [-80.85, 28.8], [-80.84, 28.77], [-80.84, 28.76], [-80.84, 28.72], [-80.83, 28.69], [-80.83, 28.68], [-80.82, 28.65], [-80.78, 28.65], [-80.78, 28.67], [-80.79, 28.68], [-80.78, 28.69], [-80.77, 28.69], [-80.76, 28.71], [-80.75, 28.71], [-80.74, 28.72], [-80.74, 28.72], [-80.76, 28.73], [-80.75, 28.74], [-80.72, 28.71], [-80.71, 28.69], [-80.69, 28.68], [-80.69, 28.67], [-80.68, 28.67], [-80.67, 28.66], [-80.66, 28.67], [-80.65, 28.66], [-80.64, 28.66], [-80.65, 28.67], [-80.66, 28.69], [-80.68, 28.71], [-80.69, 28.72], [-80.69, 28.71], [-80.69, 28.73], [-80.71, 28.75], [-80.71, 28.75], [-80.73, 28.76], [-80.74, 28.76], [-80.73, 28.77], [-80.74, 28.79], [-80.74, 28.8], [-80.75, 28.81], [-80.76, 28.82], [-80.78, 28.83], [-80.77, 28.83], [-80.77, 28.84], [-80.78, 28.85], [-80.78, 28.86], [-80.79, 28.87], [-80.8, 28.89], [-80.82, 28.9], [-80.82, 28.91], [-80.82, 28.92], [-80.83, 28.94], [-80.86, 28.97], [-80.86, 28.97], [-80.87, 28.98], [-80.88, 28.99], [-80.89, 28.99], [-80.9, 28.99], [-80.89, 29.01], [-80.9, 29.02], [-80.9, 29.05], [-80.92, 29.07], [-80.91, 29.07], [-80.89, 29.03], [-80.87, 28.99], [-80.79, 28.87], [-80.75, 28.81], [-80.72, 28.77], [-80.7, 28.75], [-80.67, 28.71], [-80.64, 28.67], [-80.62, 28.63], [-80.58, 28.6], [-80.57, 28.59], [-80.57, 28.56], [-80.56, 28.53], [-80.55, 28.51], [-80.54, 28.48], [-80.53, 28.46], [-80.53, 28.45], [-80.56, 28.44], [-80.57, 28.43], [-80.58, 28.41], [-80.6, 28.41], [-80.62, 28.41], [-80.63, 28.42], [-80.6, 28.42], [-80.6, 28.43], [-80.6, 28.45], [-80.6, 28.46], [-80.59, 28.47], [-80.59, 28.49], [-80.59, 28.5], [-80.59, 28.52], [-80.59, 28.52], [-80.59, 28.56], [-80.59, 28.57], [-80.59, 28.58], [-80.6, 28.57], [-80.6, 28.56], [-80.62, 28.53], [-80.64, 28.5], [-80.65, 28.46], [-80.66, 28.43], [-80.66, 28.41], [-80.69, 28.41], [-80.72, 28.41], [-80.72, 28.42], [-80.72, 28.44], [-80.72, 28.46], [-80.72, 28.47], [-80.73, 28.49], [-80.73, 28.5], [-80.73, 28.51], [-80.73, 28.53], [-80.73, 28.55], [-80.72, 28.56], [-80.72, 28.58], [-80.72, 28.59], [-80.73, 28.61], [-80.74, 28.61], [-80.74, 28.6], [-80.76, 28.6], [-80.77, 28.61], [-80.79, 28.63], [-80.79, 28.64], [-80.79, 28.65], [-80.82, 28.65], [-80.82, 28.63], [-80.8, 28.62], [-80.81, 28.61], [-80.8, 28.6], [-80.8, 28.58], [-80.8, 28.56], [-80.79, 28.55], [-80.78, 28.53], [-80.78, 28.51], [-80.76, 28.47], [-80.76, 28.45], [-80.75, 28.41], [-80.74, 28.4], [-80.73, 28.37], [-80.73, 28.36], [-80.72, 28.36], [-80.72, 28.35], [-80.72, 28.35], [-80.72, 28.35], [-80.72, 28.35], [-80.72, 28.35], [-80.72, 28.35], [-80.86, 28.35], [-80.86, 28.35]]], [[[-80.66, 28.41], [-80.67, 28.39], [-80.67, 28.37], [-80.66, 28.37], [-80.66, 28.35], [-80.67, 28.35], [-80.67, 28.36], [-80.68, 28.37], [-80.68, 28.37], [-80.68, 28.36], [-80.68, 28.35], [-80.68, 28.35], [-80.68, 28.35], [-80.7, 28.35], [-80.72, 28.39], [-80.72, 28.41], [-80.7, 28.41], [-80.66, 28.41]]], [[[-82.67, 28.86], [-82.67, 28.86], [-82.67, 28.85], [-82.66, 28.85], [-82.67, 28.84], [-82.66, 28.83], [-82.69, 28.82], [-82.7, 28.83], [-82.72, 28.83], [-82.72, 28.84], [-82.71, 28.85], [-82.7, 28.86], [-82.69, 28.86], [-82.68, 28.87], [-82.67, 28.86]]], [[[-80.64, 28.41], [-80.59, 28.41], [-80.59, 28.41], [-80.6, 28.38], [-80.6, 28.36], [-80.6, 28.36], [-80.6, 28.35], [-80.61, 28.35], [-80.61, 28.35], [-80.61, 28.35], [-80.61, 28.35], [-80.61, 28.35], [-80.61, 28.37], [-80.61, 28.38], [-80.61, 28.39], [-80.62, 28.39], [-80.62, 28.4], [-80.63, 28.4], [-80.64, 28.41]]], [[[-82.66, 28.82], [-82.66, 28.82], [-82.65, 28.81], [-82.65, 28.8], [-82.67, 28.8], [-82.67, 28.8], [-82.68, 28.8], [-82.69, 28.8], [-82.69, 28.81], [-82.68, 28.82], [-82.66, 28.82]]], [[[-82.65, 28.79], [-82.64, 28.79], [-82.65, 28.78], [-82.67, 28.77], [-82.67, 28.78], [-82.69, 28.77], [-82.7, 28.77], [-82.69, 28.78], [-82.67, 28.79], [-82.67, 28.79], [-82.65, 28.79]]], [[[-82.65, 28.78], [-82.64, 28.77], [-82.65, 28.76], [-82.66, 28.76], [-82.67, 28.77], [-82.68, 28.76], [-82.69, 28.76], [-82.68, 28.77], [-82.67, 28.77], [-82.66, 28.78], [-82.65, 28.78]]], [[[-82.64, 28.85], [-82.65, 28.84], [-82.65, 28.83], [-82.67, 28.84], [-82.66, 28.84], [-82.64, 28.85]]], [[[-82.66, 28.89], [-82.64, 28.88], [-82.64, 28.87], [-82.65, 28.86], [-82.66, 28.89]]], [[[-82.66, 28.74], [-82.65, 28.73], [-82.66, 28.72], [-82.67, 28.73], [-82.67, 28.73], [-82.66, 28.74]]], [[[-82.67, 28.8], [-82.67, 28.79], [-82.68, 28.79], [-82.69, 28.79], [-82.67, 28.8]]]]}}, {"type": "Feature", "properties": {"STATE": "Florida", "STATE_FIPS": "12", "CD_2DIG": "04", "STATE_CODE": 8, "CLIMDIV": 804, "ID": 804, "CD_NEW": 4, "FIPS_CD": "1204", "NCDC_GEO_I": 61.0, "NAME": "SOUTH CENTRAL", "ST_ABBRV": "FL", "SHAPE_AREA": 0.0, "SHAPE_LEN": 0.0}, "geometry": {"type": "MultiPolygon", "coordinates": [[[[-80.86, 28.35], [-80.86, 28.35], [-80.72, 28.35], [-80.69, 28.29], [-80.69, 28.27], [-80.68, 28.25], [-80.67, 28.23], [-80.67, 28.22], [-80.66, 28.19], [-80.65, 28.19], [-80.62, 28.13], [-80.62, 28.12], [-80.61, 28.09], [-80.6, 28.08], [-80.6, 28.07], [-80.59, 28.06], [-80.58, 28.04], [-80.58, 28.03], [-80.57, 28.02], [-80.54, 27.97], [-80.52, 27.93], [-80.49, 27.86], [-80.49, 27.85], [-80.48, 27.84], [-80.46, 27.81], [-80.44, 27.77], [-80.43, 27.76], [-80.42, 27.73], [-80.4, 27.71], [-80.39, 27.68], [-80.39, 27.67], [-80.37, 27.65], [-80.38, 27.62], [-80.36, 27.6], [-80.36, 27.58], [-80.35, 27.54], [-80.35, 27.53], [-80.33, 27.48], [-80.32, 27.47], [-80.32, 27.44], [-80.31, 27.42], [-80.3, 27.38], [-80.25, 27.29], [-80.24, 27.27], [-80.23, 27.26], [-80.28, 27.26], [-80.29, 27.23], [-80.29, 27.24], [-80.3, 27.24], [-80.32, 27.24], [-80.3, 27.23], [-80.29, 27.22], [-80.29, 27.21], [-80.29, 27.21], [-80.42, 27.21], [-80.43, 27.21], [-80.5, 27.21], [-80.58, 27.21], [-80.68, 27.21], [-80.68, 27.2], [-80.68, 27.12], [-80.79, 27.21], [-80.87, 27.15], [-80.87, 27.15], [-80.88, 27.17], [-80.9, 27.17], [-80.91, 27.17], [-80.91, 27.19], [-80.92, 27.19], [-80.93, 27.2], [-80.94, 27.2], [-80.94, 27.21], [-81.11, 27.21], [-81.17, 27.21], [-81.17, 27.12], [-81.27, 27.12], [-81.27, 27.03], [-81.34, 27.03], [-81.44, 27.03], [-81.6, 27.03], [-81.78, 27.03], [-81.89, 27.03], [-81.99, 27.04], [-82.0, 27.03], [-82.04, 27.03], [-82.16, 27.03], [-82.26, 27.03], [-82.26, 26.95], [-82.35, 26.95], [-82.36, 26.95], [-82.39, 26.99], [-82.4, 26.99], [-82.38, 26.96], [-82.37, 26.95], [-82.37, 26.95], [-82.4, 26.98], [-82.41, 27.0], [-82.43, 27.03], [-82.45, 27.06], [-82.46, 27.1], [-82.46, 27.11], [-82.47, 27.12], [-82.47, 27.14], [-82.47, 27.15], [-82.48, 27.16], [-82.49, 27.18], [-82.49, 27.19], [-82.5, 27.21], [-82.5, 27.23], [-82.51, 27.24], [-82.54, 27.26], [-82.54, 27.27], [-82.54, 27.28], [-82.54, 27.3], [-82.54, 27.33], [-82.55, 27.34], [-82.55, 27.35], [-82.56, 27.38], [-82.57, 27.4], [-82.58, 27.42], [-82.59, 27.42], [-82.6, 27.43], [-82.62, 27.43], [-82.64, 27.44], [-82.66, 27.44], [-82.66, 27.45], [-82.67, 27.46], [-82.69, 27.47], [-82.69, 27.48], [-82.68, 27.48], [-82.66, 27.47], [-82.65, 27.47], [-82.64, 27.47], [-82.65, 27.49], [-82.64, 27.5], [-82.66, 27.5], [-82.67, 27.49], [-82.69, 27.49], [-82.69, 27.49], [-82.68, 27.51], [-82.68, 27.51], [-82.67, 27.52], [-82.66, 27.52], [-82.66, 27.52], [-82.64, 27.52], [-82.62, 27.51], [-82.61, 27.52], [-82.61, 27.53], [-82.6, 27.53], [-82.58, 27.55], [-82.57, 27.55], [-82.57, 27.57], [-82.57, 27.57], [-82.59, 27.57], [-82.61, 27.58], [-82.6, 27.58], [-82.59, 27.59], [-82.57, 27.6], [-82.57, 27.61], [-82.56, 27.64], [-82.56, 27.64], [-82.54, 27.67], [-82.52, 27.67], [-82.52, 27.68], [-82.52, 27.69], [-82.51, 27.7], [-82.49, 27.71], [-82.48, 27.72], [-82.48, 27.73], [-82.48, 27.74], [-82.48, 27.75], [-82.45, 27.75], [-82.44, 27.76], [-82.43, 27.77], [-82.44, 27.78], [-82.42, 27.79], [-82.41, 27.79], [-82.41, 27.81], [-82.39, 27.81], [-82.39, 27.82], [-82.39, 27.83], [-82.4, 27.84], [-82.4, 27.87], [-82.4, 27.88], [-82.41, 27.9], [-82.43, 27.9], [-82.43, 27.91], [-82.41, 27.93], [-82.42, 27.94], [-82.43, 27.95], [-82.43, 27.94], [-82.43, 27.93], [-82.43, 27.91], [-82.44, 27.9], [-82.44, 27.92], [-82.46, 27.91], [-82.46, 27.92], [-82.46, 27.94], [-82.47, 27.93], [-82.49, 27.92], [-82.49, 27.9], [-82.48, 27.89], [-82.48, 27.88], [-82.49, 27.87], [-82.49, 27.86], [-82.47, 27.85], [-82.47, 27.84], [-82.47, 27.82], [-82.48, 27.82], [-82.52, 27.83], [-82.54, 27.84], [-82.55, 27.86], [-82.54, 27.86], [-82.53, 27.87], [-82.53, 27.88], [-82.54, 27.89], [-82.53, 27.9], [-82.53, 27.92], [-82.53, 27.93], [-82.53, 27.94], [-82.54, 27.95], [-82.55, 27.96], [-82.55, 27.97], [-82.57, 27.97], [-82.57, 27.98], [-82.6, 27.98], [-82.61, 27.99], [-82.63, 28.0], [-82.64, 28.02], [-82.65, 28.02], [-82.66, 28.0], [-82.66, 28.0], [-82.67, 28.02], [-82.66, 28.03], [-82.67, 28.03], [-82.69, 28.03], [-82.68, 28.01], [-82.68, 28.01], [-82.69, 27.98], [-82.69, 27.97], [-82.7, 27.96], [-82.72, 27.96], [-82.72, 27.95], [-82.72, 27.94], [-82.71, 27.93], [-82.67, 27.91], [-82.65, 27.91], [-82.65, 27.9], [-82.64, 27.89], [-82.63, 27.89], [-82.62, 27.88], [-82.61, 27.87], [-82.6, 27.86], [-82.6, 27.86], [-82.6, 27.85], [-82.61, 27.84], [-82.61, 27.86], [-82.62, 27.86], [-82.62, 27.85], [-82.61, 27.84], [-82.61, 27.83], [-82.59, 27.82], [-82.6, 27.81], [-82.61, 27.79], [-82.62, 27.79], [-82.63, 27.78], [-82.63, 27.77], [-82.63, 27.76], [-82.63, 27.75], [-82.64, 27.74], [-82.64, 27.73], [-82.63, 27.72], [-82.64, 27.7], [-82.65, 27.7], [-82.68, 27.71], [-82.69, 27.71], [-82.7, 27.72], [-82.69, 27.73], [-82.69, 27.74], [-82.72, 27.74], [-82.73, 27.75], [-82.74, 27.75], [-82.74, 27.76], [-82.74, 27.77], [-82.75, 27.79], [-82.76, 27.81], [-82.76, 27.81], [-82.75, 27.83], [-82.77, 27.82], [-82.77, 27.81], [-82.77, 27.8], [-82.78, 27.81], [-82.79, 27.81], [-82.81, 27.83], [-82.83, 27.84], [-82.83, 27.84], [-82.84, 27.85], [-82.84, 27.86], [-82.85, 27.87], [-82.83, 27.9], [-82.83, 27.92], [-82.82, 27.93], [-82.81, 27.94], [-82.8, 27.96], [-82.8, 27.99], [-82.79, 28.02], [-82.79, 28.03], [-82.78, 28.06], [-82.79, 28.07], [-82.78, 28.08], [-82.78, 28.08], [-82.78, 28.09], [-82.78, 28.11], [-82.79, 28.15], [-82.8, 28.17], [-82.79, 28.17], [-82.78, 28.17], [-82.77, 28.17], [-82.76, 28.17], [-82.76, 28.17], [-82.76, 28.17], [-82.76, 28.17], [-82.76, 28.17], [-82.75, 28.17], [-82.75, 28.17], [-82.75, 28.17], [-82.75, 28.17], [-82.75, 28.17], [-82.75, 28.17], [-82.75, 28.17], [-82.74, 28.17], [-82.74, 28.17], [-82.74, 28.17], [-82.74, 28.17], [-82.73, 28.17], [-82.73, 28.17], [-82.73, 28.17], [-82.72, 28.17], [-82.72, 28.17], [-82.71, 28.17], [-82.71, 28.17], [-82.71, 28.17], [-82.7, 28.17], [-82.69, 28.17], [-82.69, 28.17], [-82.68, 28.17], [-82.67, 28.17], [-82.67, 28.17], [-82.67, 28.17], [-82.65, 28.17], [-82.62, 28.17], [-82.62, 28.17], [-82.6, 28.17], [-82.59, 28.17], [-82.59, 28.17], [-82.59, 28.17], [-82.59, 28.17], [-82.59, 28.17], [-82.59, 28.17], [-82.59, 28.17], [-82.58, 28.17], [-82.58, 28.17], [-82.58, 28.17], [-82.58, 28.17], [-82.58, 28.17], [-82.57, 28.17], [-82.53, 28.17], [-82.5, 28.17], [-82.44, 28.17], [-82.38, 28.17], [-82.38, 28.17], [-82.37, 28.17], [-82.37, 28.17], [-82.37, 28.17], [-82.37, 28.17], [-82.37, 28.17], [-82.37, 28.17], [-82.36, 28.17], [-82.26, 28.17], [-82.23, 28.17], [-82.22, 28.17], [-82.22, 28.17], [-82.21, 28.17], [-82.2, 28.17], [-82.19, 28.17], [-82.19, 28.17], [-82.19, 28.17], [-82.19, 28.17], [-82.18, 28.17], [-82.18, 28.17], [-82.18, 28.17], [-82.18, 28.17], [-82.17, 28.17], [-82.17, 28.17], [-82.17, 28.17], [-82.17, 28.17], [-82.17, 28.17], [-82.17, 28.17], [-82.16, 28.17], [-82.16, 28.17], [-82.15, 28.17], [-82.15, 28.17], [-82.14, 28.17], [-82.12, 28.17], [-82.11, 28.17], [-82.11, 28.17], [-82.11, 28.22], [-82.11, 28.22], [-82.11, 28.26], [-82.1, 28.26], [-82.08, 28.26], [-82.08, 28.26], [-82.08, 28.26], [-82.06, 28.26], [-82.06, 28.26], [-82.06, 28.26], [-82.06, 28.27], [-82.06, 28.29], [-82.06, 28.31], [-82.04, 28.32], [-82.03, 28.32], [-82.02, 28.32], [-82.02, 28.32], [-82.02, 28.32], [-82.02, 28.32], [-82.02, 28.32], [-82.02, 28.32], [-82.0, 28.32], [-82.0, 28.32], [-81.99, 28.31], [-81.99, 28.31], [-81.99, 28.3], [-81.99, 28.3], [-81.99, 28.3], [-81.99, 28.3], [-81.98, 28.3], [-81.98, 28.3], [-81.98, 28.31], [-81.98, 28.31], [-81.98, 28.31], [-81.98, 28.31], [-81.98, 28.31], [-81.98, 28.31], [-81.98, 28.31], [-81.98, 28.31], [-81.97, 28.31], [-81.97, 28.31], [-81.97, 28.31], [-81.97, 28.31], [-81.97, 28.31], [-81.97, 28.31], [-81.96, 28.31], [-81.96, 28.35], [-81.88, 28.35], [-81.86, 28.35], [-81.86, 28.35], [-81.86, 28.36], [-81.82, 28.36], [-81.82, 28.36], [-81.82, 28.36], [-81.8, 28.36], [-81.79, 28.36], [-81.79, 28.35], [-81.79, 28.35], [-81.77, 28.35], [-81.75, 28.35], [-81.72, 28.35], [-81.67, 28.35], [-81.66, 28.35], [-81.66, 28.35], [-81.66, 28.35], [-81.66, 28.35], [-81.66, 28.35], [-81.66, 28.35], [-81.66, 28.35], [-81.66, 28.35], [-81.65, 28.35], [-81.65, 28.35], [-81.65, 28.35], [-81.65, 28.35], [-81.65, 28.35], [-81.65, 28.35], [-81.6, 28.35], [-81.6, 28.35], [-81.59, 28.35], [-81.59, 28.35], [-81.58, 28.35], [-81.58, 28.35], [-81.58, 28.35], [-81.57, 28.35], [-81.57, 28.35], [-81.57, 28.35], [-81.57, 28.35], [-81.57, 28.35], [-81.57, 28.35], [-81.57, 28.35], [-81.56, 28.35], [-81.56, 28.35], [-81.55, 28.35], [-81.55, 28.35], [-81.55, 28.35], [-81.55, 28.35], [-81.55, 28.35], [-81.55, 28.35], [-81.55, 28.35], [-81.54, 28.35], [-81.54, 28.35], [-81.54, 28.35], [-81.54, 28.35], [-81.54, 28.35], [-81.54, 28.35], [-81.53, 28.35], [-81.51, 28.35], [-81.49, 28.35], [-81.49, 28.35], [-81.49, 28.35], [-81.47, 28.35], [-81.46, 28.35], [-81.45, 28.35], [-81.27, 28.35], [-81.16, 28.35], [-81.13, 28.35], [-81.13, 28.35], [-81.11, 28.35], [-81.09, 28.35], [-81.09, 28.35], [-81.04, 28.35], [-81.02, 28.35], [-81.01, 28.35], [-81.0, 28.35], [-80.99, 28.35], [-80.98, 28.35], [-80.95, 28.35], [-80.87, 28.35], [-80.86, 28.35]]], [[[-80.61, 28.35], [-80.61, 28.33], [-80.61, 28.31], [-80.6, 28.26], [-80.59, 28.19], [-80.57, 28.12], [-80.56, 28.08], [-80.55, 28.06], [-80.53, 28.02], [-80.51, 27.97], [-80.47, 27.91], [-80.45, 27.86], [-80.45, 27.86], [-80.46, 27.87], [-80.47, 27.88], [-80.47, 27.89], [-80.48, 27.91], [-80.49, 27.92], [-80.5, 27.93], [-80.51, 27.94], [-80.51, 27.95], [-80.51, 27.95], [-80.52, 27.97], [-80.53, 27.98], [-80.52, 27.99], [-80.54, 28.03], [-80.55, 28.04], [-80.55, 28.05], [-80.57, 28.06], [-80.56, 28.06], [-80.57, 28.08], [-80.58, 28.1], [-80.59, 28.1], [-80.59, 28.12], [-80.59, 28.12], [-80.59, 28.13], [-80.6, 28.13], [-80.61, 28.16], [-80.61, 28.18], [-80.62, 28.24], [-80.61, 28.26], [-80.61, 28.28], [-80.62, 28.29], [-80.61, 28.3], [-80.62, 28.32], [-80.63, 28.31], [-80.64, 28.31], [-80.64, 28.32], [-80.63, 28.32], [-80.63, 28.32], [-80.62, 28.32], [-80.62, 28.34], [-80.62, 28.35], [-80.61, 28.35], [-80.61, 28.35], [-80.61, 28.35], [-80.61, 28.35], [-80.61, 28.35], [-80.61, 28.35], [-80.61, 28.35]]], [[[-80.45, 27.86], [-80.4, 27.76], [-80.39, 27.75], [-80.36, 27.69], [-80.35, 27.62], [-80.33, 27.6], [-80.33, 27.59], [-80.32, 27.57], [-80.31, 27.53], [-80.3, 27.51], [-80.29, 27.47], [-80.31, 27.48], [-80.3, 27.5], [-80.31, 27.5], [-80.31, 27.49], [-80.32, 27.49], [-80.32, 27.5], [-80.32, 27.51], [-80.33, 27.51], [-80.33, 27.53], [-80.32, 27.53], [-80.34, 27.54], [-80.33, 27.55], [-80.33, 27.55], [-80.33, 27.56], [-80.34, 27.57], [-80.33, 27.58], [-80.34, 27.59], [-80.34, 27.59], [-80.34, 27.6], [-80.36, 27.62], [-80.36, 27.63], [-80.36, 27.64], [-80.37, 27.65], [-80.37, 27.68], [-80.38, 27.68], [-80.38, 27.69], [-80.38, 27.69], [-80.39, 27.71], [-80.39, 27.72], [-80.39, 27.73], [-80.39, 27.74], [-80.4, 27.74], [-80.4, 27.76], [-80.41, 27.76], [-80.42, 27.77], [-80.42, 27.78], [-80.42, 27.8], [-80.44, 27.8], [-80.44, 27.81], [-80.43, 27.82], [-80.44, 27.85], [-80.45, 27.85], [-80.45, 27.86]]], [[[-80.2, 27.26], [-80.21, 27.26], [-80.21, 27.27], [-80.22, 27.28], [-80.23, 27.29], [-80.22, 27.31], [-80.23, 27.32], [-80.24, 27.33], [-80.24, 27.34], [-80.25, 27.34], [-80.26, 27.35], [-80.26, 27.36], [-80.26, 27.37], [-80.26, 27.39], [-80.27, 27.4], [-80.27, 27.4], [-80.28, 27.42], [-80.29, 27.43], [-80.29, 27.43], [-80.3, 27.44], [-80.29, 27.45], [-80.29, 27.46], [-80.31, 27.46], [-80.31, 27.46], [-80.3, 27.47], [-80.29, 27.47], [-80.27, 27.41], [-80.26, 27.39], [-80.24, 27.34], [-80.23, 27.32], [-80.2, 27.26]]], [[[-80.68, 28.34], [-80.68, 28.32], [-80.67, 28.3], [-80.67, 28.29], [-80.66, 28.26], [-80.66, 28.25], [-80.68, 28.3], [-80.68, 28.31], [-80.69, 28.33], [-80.7, 28.33], [-80.7, 28.34], [-80.7, 28.35], [-80.7, 28.35], [-80.7, 28.35], [-80.68, 28.35], [-80.68, 28.34]]], [[[-82.83, 27.97], [-82.82, 27.96], [-82.84, 27.94], [-82.83, 27.93], [-82.84, 27.93], [-82.84, 27.9], [-82.84, 27.9], [-82.85, 27.88], [-82.85, 27.87], [-82.84, 27.84], [-82.83, 27.83], [-82.82, 27.83], [-82.81, 27.82], [-82.81, 27.81], [-82.8, 27.81], [-82.79, 27.8], [-82.78, 27.8], [-82.78, 27.79], [-82.78, 27.78], [-82.79, 27.79], [-82.82, 27.81], [-82.83, 27.82], [-82.85, 27.85], [-82.85, 27.87], [-82.85, 27.89], [-82.85, 27.91], [-82.84, 27.94], [-82.83, 27.96], [-82.83, 27.97]]], [[[-82.69, 27.44], [-82.68, 27.44], [-82.67, 27.42], [-82.65, 27.42], [-82.65, 27.41], [-82.64, 27.39], [-82.63, 27.38], [-82.63, 27.38], [-82.62, 27.38], [-82.62, 27.37], [-82.6, 27.35], [-82.59, 27.34], [-82.59, 27.33], [-82.62, 27.36], [-82.64, 27.39], [-82.66, 27.41], [-82.69, 27.43], [-82.69, 27.44]]], [[[-82.55, 27.3], [-82.55, 27.28], [-82.54, 27.28], [-82.54, 27.27], [-82.53, 27.25], [-82.52, 27.24], [-82.53, 27.23], [-82.54, 27.26], [-82.56, 27.27], [-82.57, 27.28], [-82.55, 27.3]]], [[[-82.73, 27.53], [-82.71, 27.52], [-82.71, 27.51], [-82.7, 27.49], [-82.7, 27.49], [-82.69, 27.44], [-82.71, 27.49], [-82.72, 27.51], [-82.74, 27.52], [-82.75, 27.54], [-82.73, 27.53]]], [[[-82.75, 27.75], [-82.75, 27.74], [-82.73, 27.73], [-82.74, 27.73], [-82.73, 27.71], [-82.73, 27.7], [-82.74, 27.71], [-82.75, 27.73], [-82.75, 27.74], [-82.75, 27.75]]], [[[-82.82, 28.05], [-82.82, 28.04], [-82.81, 28.03], [-82.82, 28.02], [-82.83, 28.02], [-82.82, 28.04], [-82.82, 28.05]]], [[[-82.71, 27.65], [-82.72, 27.64], [-82.71, 27.63], [-82.73, 27.61], [-82.74, 27.64], [-82.74, 27.65], [-82.73, 27.62], [-82.72, 27.63], [-82.72, 27.64], [-82.71, 27.65]]], [[[-82.77, 27.79], [-82.76, 27.78], [-82.77, 27.77], [-82.76, 27.76], [-82.78, 27.77], [-82.78, 27.78], [-82.77, 27.79]]], [[[-82.61, 27.57], [-82.6, 27.56], [-82.61, 27.55], [-82.63, 27.55], [-82.63, 27.56], [-82.61, 27.57]]], [[[-82.57, 27.33], [-82.59, 27.32], [-82.57, 27.32], [-82.57, 27.31], [-82.56, 27.31], [-82.57, 27.3], [-82.58, 27.31], [-82.59, 27.32], [-82.59, 27.33], [-82.57, 27.33]]], [[[-82.61, 27.54], [-82.61, 27.52], [-82.62, 27.52], [-82.63, 27.54], [-82.61, 27.54]]], [[[-80.41, 27.75], [-80.4, 27.74], [-80.4, 27.72], [-80.41, 27.73], [-80.41, 27.75]]], [[[-82.72, 27.69], [-82.72, 27.66], [-82.73, 27.67], [-82.72, 27.69], [-82.72, 27.69]]], [[[-82.83, 28.08], [-82.83, 28.07], [-82.83, 28.06], [-82.83, 28.08], [-82.83, 28.08]]], [[[-82.63, 27.74], [-82.63, 27.73], [-82.64, 27.73], [-82.64, 27.74], [-82.63, 27.74]]], [[[-82.82, 27.99], [-82.81, 27.98], [-82.81, 27.97], [-82.82, 27.98], [-82.82, 27.99]]], [[[-82.71, 27.7], [-82.72, 27.7], [-82.72, 27.71], [-82.71, 27.72], [-82.71, 27.7]]]]}}, {"type": "Feature", "properties": {"STATE": "Florida", "STATE_FIPS": "12", "CD_2DIG": "05", "STATE_CODE": 8, "CLIMDIV": 805, "ID": 805, "CD_NEW": 5, "FIPS_CD": "1205", "NCDC_GEO_I": 62.0, "NAME": "EVERGLADES", "ST_ABBRV": "FL", "SHAPE_AREA": 0.0, "SHAPE_LEN": 0.0}, "geometry": {"type": "MultiPolygon", "coordinates": [[[[-80.43, 27.21], [-80.43, 27.21], [-80.26, 26.86], [-80.26, 26.47], [-80.4, 25.7], [-80.58, 25.29], [-80.78, 25.16], [-80.8, 25.17], [-80.8, 25.18], [-80.81, 25.18], [-80.81, 25.17], [-80.83, 25.16], [-80.83, 25.17], [-80.85, 25.18], [-80.88, 25.17], [-80.88, 25.17], [-80.89, 25.17], [-80.9, 25.16], [-80.9, 25.15], [-80.9, 25.14], [-80.92, 25.14], [-80.93, 25.14], [-80.95, 25.13], [-80.96, 25.14], [-80.98, 25.13], [-81.0, 25.12], [-81.02, 25.13], [-81.05, 25.13], [-81.09, 25.12], [-81.1, 25.13], [-81.12, 25.15], [-81.12, 25.15], [-81.14, 25.16], [-81.14, 25.18], [-81.15, 25.21], [-81.17, 25.22], [-81.17, 25.24], [-81.17, 25.26], [-81.17, 25.27], [-81.16, 25.28], [-81.16, 25.29], [-81.16, 25.3], [-81.15, 25.31], [-81.14, 25.33], [-81.13, 25.33], [-81.12, 25.33], [-81.12, 25.32], [-81.11, 25.32], [-81.1, 25.31], [-81.09, 25.31], [-81.09, 25.3], [-81.08, 25.29], [-81.09, 25.28], [-81.09, 25.27], [-81.08, 25.28], [-81.07, 25.28], [-81.07, 25.26], [-81.05, 25.24], [-81.03, 25.23], [-81.02, 25.23], [-81.02, 25.22], [-81.01, 25.22], [-81.0, 25.21], [-80.99, 25.21], [-80.98, 25.21], [-80.97, 25.21], [-80.96, 25.2], [-80.95, 25.21], [-80.94, 25.21], [-80.93, 25.21], [-80.92, 25.22], [-80.92, 25.23], [-80.91, 25.24], [-80.91, 25.25], [-80.91, 25.27], [-80.92, 25.27], [-80.93, 25.27], [-80.94, 25.27], [-80.95, 25.3], [-80.96, 25.3], [-80.96, 25.3], [-80.97, 25.32], [-80.96, 25.32], [-80.96, 25.33], [-80.97, 25.33], [-80.99, 25.35], [-81.0, 25.34], [-81.02, 25.33], [-81.03, 25.34], [-81.04, 25.33], [-81.06, 25.35], [-81.07, 25.35], [-81.07, 25.36], [-81.09, 25.35], [-81.09, 25.37], [-81.13, 25.38], [-81.14, 25.38], [-81.15, 25.39], [-81.15, 25.4], [-81.14, 25.41], [-81.13, 25.42], [-81.12, 25.42], [-81.12, 25.43], [-81.14, 25.43], [-81.16, 25.43], [-81.17, 25.45], [-81.17, 25.46], [-81.16, 25.47], [-81.16, 25.48], [-81.18, 25.48], [-81.19, 25.49], [-81.21, 25.51], [-81.21, 25.52], [-81.2, 25.53], [-81.19, 25.54], [-81.18, 25.56], [-81.2, 25.56], [-81.21, 25.55], [-81.22, 25.55], [-81.23, 25.57], [-81.22, 25.58], [-81.23, 25.58], [-81.23, 25.6], [-81.23, 25.61], [-81.25, 25.62], [-81.25, 25.63], [-81.26, 25.65], [-81.27, 25.65], [-81.27, 25.67], [-81.27, 25.67], [-81.28, 25.68], [-81.28, 25.69], [-81.26, 25.7], [-81.25, 25.71], [-81.24, 25.71], [-81.22, 25.72], [-81.22, 25.72], [-81.21, 25.71], [-81.2, 25.69], [-81.2, 25.69], [-81.18, 25.69], [-81.19, 25.7], [-81.19, 25.73], [-81.21, 25.73], [-81.22, 25.74], [-81.22, 25.75], [-81.23, 25.75], [-81.23, 25.76], [-81.25, 25.76], [-81.26, 25.77], [-81.27, 25.78], [-81.26, 25.79], [-81.27, 25.8], [-81.28, 25.8], [-81.29, 25.8], [-81.3, 25.81], [-81.31, 25.79], [-81.31, 25.79], [-81.33, 25.78], [-81.34, 25.79], [-81.35, 25.81], [-81.35, 25.82], [-81.36, 25.82], [-81.38, 25.84], [-81.39, 25.85], [-81.41, 25.86], [-81.42, 25.87], [-81.43, 25.87], [-81.44, 25.86], [-81.45, 25.87], [-81.46, 25.87], [-81.47, 25.89], [-81.48, 25.89], [-81.49, 25.89], [-81.51, 25.89], [-81.51, 25.88], [-81.52, 25.87], [-81.53, 25.87], [-81.53, 25.88], [-81.53, 25.89], [-81.52, 25.88], [-81.51, 25.89], [-81.51, 25.9], [-81.52, 25.9], [-81.54, 25.9], [-81.54, 25.91], [-81.54, 25.92], [-81.56, 25.92], [-81.56, 25.91], [-81.55, 25.9], [-81.57, 25.89], [-81.58, 25.9], [-81.59, 25.9], [-81.61, 25.9], [-81.63, 25.9], [-81.63, 25.91], [-81.64, 25.92], [-81.64, 25.94], [-81.65, 25.93], [-81.65, 25.94], [-81.67, 25.95], [-81.7, 25.96], [-81.71, 25.97], [-81.71, 25.98], [-81.72, 25.98], [-81.73, 25.99], [-81.73, 26.0], [-81.74, 26.01], [-81.74, 26.01], [-81.73, 26.02], [-81.74, 26.03], [-81.76, 26.04], [-81.78, 26.04], [-81.79, 26.06], [-81.8, 26.09], [-81.81, 26.13], [-81.81, 26.17], [-81.82, 26.17], [-81.82, 26.21], [-81.82, 26.24], [-81.83, 26.29], [-81.84, 26.31], [-81.85, 26.35], [-81.84, 26.35], [-81.84, 26.39], [-81.84, 26.4], [-81.85, 26.42], [-81.85, 26.42], [-81.86, 26.43], [-81.85, 26.44], [-81.87, 26.45], [-81.88, 26.46], [-81.88, 26.44], [-81.91, 26.44], [-81.91, 26.47], [-81.92, 26.46], [-81.92, 26.44], [-81.94, 26.46], [-81.94, 26.47], [-81.95, 26.47], [-81.96, 26.47], [-81.97, 26.48], [-82.0, 26.49], [-82.0, 26.49], [-82.0, 26.5], [-82.01, 26.51], [-82.01, 26.52], [-82.0, 26.53], [-81.99, 26.52], [-81.98, 26.51], [-81.97, 26.52], [-81.95, 26.53], [-81.94, 26.53], [-81.94, 26.54], [-81.93, 26.54], [-81.92, 26.56], [-81.91, 26.57], [-81.9, 26.58], [-81.9, 26.59], [-81.89, 26.62], [-81.88, 26.64], [-81.87, 26.65], [-81.86, 26.65], [-81.85, 26.66], [-81.82, 26.68], [-81.82, 26.68], [-81.81, 26.69], [-81.78, 26.7], [-81.78, 26.71], [-81.8, 26.7], [-81.81, 26.7], [-81.82, 26.7], [-81.84, 26.69], [-81.85, 26.68], [-81.86, 26.68], [-81.87, 26.67], [-81.88, 26.66], [-81.89, 26.66], [-81.9, 26.65], [-81.91, 26.64], [-81.92, 26.63], [-81.91, 26.61], [-81.93, 26.6], [-81.93, 26.57], [-81.94, 26.56], [-81.94, 26.56], [-81.95, 26.54], [-81.97, 26.55], [-81.98, 26.53], [-82.0, 26.53], [-82.0, 26.54], [-82.02, 26.53], [-82.04, 26.53], [-82.04, 26.55], [-82.05, 26.54], [-82.06, 26.57], [-82.05, 26.57], [-82.05, 26.58], [-82.04, 26.6], [-82.05, 26.62], [-82.07, 26.64], [-82.06, 26.64], [-82.08, 26.66], [-82.08, 26.68], [-82.08, 26.68], [-82.08, 26.7], [-82.07, 26.71], [-82.08, 26.72], [-82.07, 26.73], [-82.06, 26.75], [-82.06, 26.77], [-82.06, 26.78], [-82.05, 26.79], [-82.05, 26.81], [-82.05, 26.82], [-82.05, 26.83], [-82.05, 26.86], [-82.06, 26.87], [-82.05, 26.87], [-82.06, 26.88], [-82.07, 26.88], [-82.09, 26.89], [-82.1, 26.91], [-82.09, 26.93], [-82.07, 26.93], [-82.06, 26.93], [-82.05, 26.94], [-82.06, 26.95], [-82.08, 26.96], [-82.1, 26.95], [-82.11, 26.96], [-82.11, 26.96], [-82.12, 26.95], [-82.14, 26.92], [-82.15, 26.93], [-82.18, 26.95], [-82.19, 26.97], [-82.2, 26.96], [-82.21, 26.95], [-82.2, 26.95], [-82.18, 26.94], [-82.18, 26.92], [-82.18, 26.91], [-82.16, 26.86], [-82.15, 26.82], [-82.15, 26.8], [-82.15, 26.78], [-82.17, 26.78], [-82.17, 26.8], [-82.16, 26.82], [-82.17, 26.83], [-82.18, 26.81], [-82.19, 26.8], [-82.2, 26.8], [-82.22, 26.81], [-82.23, 26.81], [-82.24, 26.81], [-82.25, 26.82], [-82.25, 26.82], [-82.26, 26.83], [-82.27, 26.83], [-82.28, 26.84], [-82.29, 26.85], [-82.3, 26.85], [-82.28, 26.83], [-82.28, 26.82], [-82.3, 26.84], [-82.33, 26.88], [-82.31, 26.88], [-82.32, 26.89], [-82.33, 26.9], [-82.34, 26.93], [-82.35, 26.95], [-82.26, 26.95], [-82.26, 27.03], [-82.16, 27.03], [-82.04, 27.03], [-82.0, 27.03], [-81.99, 27.04], [-81.89, 27.03], [-81.78, 27.03], [-81.6, 27.03], [-81.44, 27.03], [-81.34, 27.03], [-81.27, 27.03], [-81.27, 27.12], [-81.17, 27.12], [-81.17, 27.21], [-81.11, 27.21], [-80.94, 27.21], [-80.94, 27.2], [-80.93, 27.2], [-80.92, 27.19], [-80.91, 27.19], [-80.91, 27.17], [-80.9, 27.17], [-80.88, 27.17], [-80.87, 27.15], [-80.87, 27.15], [-80.79, 27.21], [-80.68, 27.12], [-80.68, 27.2], [-80.68, 27.21], [-80.58, 27.21], [-80.5, 27.21], [-80.43, 27.21]]], [[[-82.15, 26.7], [-82.14, 26.7], [-82.12, 26.7], [-82.11, 26.67], [-82.11, 26.67], [-82.11, 26.65], [-82.11, 26.64], [-82.1, 26.64], [-82.09, 26.63], [-82.08, 26.63], [-82.07, 26.61], [-82.07, 26.59], [-82.07, 26.58], [-82.09, 26.58], [-82.08, 26.56], [-82.08, 26.55], [-82.07, 26.54], [-82.08, 26.52], [-82.08, 26.51], [-82.06, 26.49], [-82.08, 26.49], [-82.09, 26.49], [-82.1, 26.52], [-82.1, 26.52], [-82.11, 26.53], [-82.11, 26.53], [-82.12, 26.56], [-82.12, 26.56], [-82.12, 26.57], [-82.12, 26.58], [-82.12, 26.59], [-82.13, 26.6], [-82.13, 26.61], [-82.13, 26.63], [-82.13, 26.64], [-82.16, 26.66], [-82.17, 26.67], [-82.17, 26.68], [-82.18, 26.68], [-82.17, 26.69], [-82.15, 26.7]]], [[[-81.3, 25.8], [-81.28, 25.8], [-81.27, 25.78], [-81.28, 25.77], [-81.29, 25.77], [-81.29, 25.75], [-81.28, 25.76], [-81.27, 25.75], [-81.29, 25.73], [-81.29, 25.72], [-81.29, 25.71], [-81.3, 25.7], [-81.32, 25.7], [-81.32, 25.72], [-81.33, 25.72], [-81.34, 25.73], [-81.34, 25.76], [-81.36, 25.77], [-81.34, 25.78], [-81.33, 25.78], [-81.32, 25.79], [-81.31, 25.78], [-81.3, 25.79], [-81.3, 25.8]]], [[[-82.17, 26.49], [-82.16, 26.48], [-82.15, 26.48], [-82.13, 26.47], [-82.12, 26.47], [-82.1, 26.46], [-82.09, 26.45], [-82.09, 26.44], [-82.08, 26.44], [-82.07, 26.45], [-82.07, 26.46], [-82.06, 26.47], [-82.05, 26.46], [-82.03, 26.45], [-82.02, 26.45], [-82.02, 26.45], [-82.06, 26.43], [-82.08, 26.42], [-82.1, 26.43], [-82.13, 26.44], [-82.14, 26.45], [-82.17, 26.46], [-82.17, 26.47], [-82.18, 26.48], [-82.17, 26.49]]], [[[-81.73, 25.97], [-81.73, 25.97], [-81.71, 25.96], [-81.71, 25.95], [-81.7, 25.95], [-81.68, 25.95], [-81.67, 25.95], [-81.65, 25.94], [-81.65, 25.91], [-81.67, 25.9], [-81.69, 25.9], [-81.69, 25.91], [-81.7, 25.91], [-81.72, 25.91], [-81.73, 25.91], [-81.73, 25.93], [-81.74, 25.94], [-81.75, 25.95], [-81.75, 25.96], [-81.73, 25.97], [-81.73, 25.97]]], [[[-80.99, 25.28], [-81.0, 25.27], [-81.01, 25.27], [-81.01, 25.25], [-81.0, 25.25], [-80.99, 25.23], [-80.98, 25.23], [-80.97, 25.23], [-80.96, 25.22], [-80.97, 25.22], [-81.0, 25.22], [-81.01, 25.23], [-81.02, 25.23], [-81.04, 25.23], [-81.05, 25.24], [-81.01, 25.27], [-81.0, 25.27], [-80.99, 25.28]]], [[[-81.26, 25.75], [-81.25, 25.74], [-81.25, 25.73], [-81.24, 25.72], [-81.24, 25.71], [-81.25, 25.71], [-81.26, 25.7], [-81.28, 25.7], [-81.29, 25.73], [-81.27, 25.75], [-81.26, 25.75]]], [[[-82.24, 26.7], [-82.25, 26.69], [-82.24, 26.67], [-82.24, 26.66], [-82.23, 26.64], [-82.24, 26.64], [-82.25, 26.67], [-82.26, 26.67], [-82.26, 26.68], [-82.26, 26.7], [-82.25, 26.71], [-82.24, 26.7]]], [[[-81.96, 26.46], [-81.93, 26.45], [-81.92, 26.44], [-81.9, 26.43], [-81.89, 26.41], [-81.88, 26.41], [-81.88, 26.4], [-81.9, 26.4], [-81.9, 26.41], [-81.91, 26.42], [-81.92, 26.44], [-81.93, 26.44], [-81.96, 26.45], [-81.96, 26.46]]], [[[-82.28, 26.81], [-82.26, 26.79], [-82.26, 26.77], [-82.26, 26.76], [-82.25, 26.74], [-82.26, 26.73], [-82.26, 26.73], [-82.26, 26.76], [-82.27, 26.78], [-82.27, 26.79], [-82.28, 26.8], [-82.28, 26.81]]], [[[-81.13, 25.34], [-81.12, 25.34], [-81.1, 25.33], [-81.11, 25.32], [-81.12, 25.33], [-81.12, 25.33], [-81.13, 25.33], [-81.14, 25.33], [-81.15, 25.33], [-81.13, 25.34]]], [[[-81.24, 25.74], [-81.24, 25.74], [-81.23, 25.73], [-81.23, 25.72], [-81.24, 25.72], [-81.25, 25.73], [-81.24, 25.74]]], [[[-81.03, 25.27], [-81.04, 25.26], [-81.03, 25.25], [-81.05, 25.24], [-81.06, 25.25], [-81.06, 25.26], [-81.05, 25.26], [-81.05, 25.25], [-81.03, 25.27]]], [[[-81.27, 25.78], [-81.27, 25.77], [-81.26, 25.76], [-81.26, 25.75], [-81.27, 25.75], [-81.28, 25.77], [-81.27, 25.78]]], [[[-82.18, 26.49], [-82.19, 26.49], [-82.2, 26.54], [-82.19, 26.54], [-82.19, 26.52], [-82.19, 26.52], [-82.18, 26.5], [-82.18, 26.49]]], [[[-82.22, 26.61], [-82.21, 26.6], [-82.21, 26.58], [-82.22, 26.58], [-82.22, 26.59], [-82.22, 26.61]]], [[[-81.87, 26.41], [-81.87, 26.4], [-81.86, 26.38], [-81.88, 26.39], [-81.87, 26.41]]]]}}, {"type": "Feature", "properties": {"STATE": "Florida", "STATE_FIPS": "12", "CD_2DIG": "06", "STATE_CODE": 8, "CLIMDIV": 806, "ID": 806, "CD_NEW": 6, "FIPS_CD": "1206", "NCDC_GEO_I": 63.0, "NAME": "LOWER EAST COAST", "ST_ABBRV": "FL", "SHAPE_AREA": 0.0, "SHAPE_LEN": 0.0}, "geometry": {"type": "MultiPolygon", "coordinates": [[[[-80.42, 25.21], [-80.43, 25.22], [-80.43, 25.22], [-80.43, 25.22], [-80.43, 25.22], [-80.43, 25.22], [-80.43, 25.23], [-80.45, 25.23], [-80.45, 25.23], [-80.44, 25.23], [-80.44, 25.24], [-80.45, 25.24], [-80.47, 25.23], [-80.58, 25.29], [-80.4, 25.7], [-80.26, 26.47], [-80.26, 26.86], [-80.43, 27.21], [-80.42, 27.21], [-80.29, 27.21], [-80.29, 27.21], [-80.28, 27.2], [-80.27, 27.21], [-80.27, 27.2], [-80.27, 27.19], [-80.26, 27.18], [-80.26, 27.2], [-80.25, 27.2], [-80.23, 27.2], [-80.22, 27.21], [-80.21, 27.2], [-80.21, 27.19], [-80.2, 27.18], [-80.2, 27.17], [-80.19, 27.16], [-80.18, 27.16], [-80.16, 27.14], [-80.16, 27.15], [-80.17, 27.16], [-80.16, 27.16], [-80.15, 27.14], [-80.14, 27.12], [-80.13, 27.1], [-80.12, 27.09], [-80.11, 27.05], [-80.1, 27.02], [-80.09, 26.99], [-80.07, 26.94], [-80.07, 26.93], [-80.05, 26.86], [-80.04, 26.84], [-80.03, 26.8], [-80.03, 26.77], [-80.04, 26.77], [-80.04, 26.8], [-80.03, 26.8], [-80.04, 26.81], [-80.04, 26.82], [-80.05, 26.84], [-80.06, 26.84], [-80.05, 26.8], [-80.05, 26.78], [-80.05, 26.77], [-80.05, 26.75], [-80.05, 26.74], [-80.05, 26.73], [-80.05, 26.68], [-80.05, 26.62], [-80.05, 26.61], [-80.05, 26.58], [-80.05, 26.56], [-80.05, 26.55], [-80.04, 26.55], [-80.04, 26.57], [-80.05, 26.57], [-80.04, 26.59], [-80.04, 26.6], [-80.04, 26.64], [-80.04, 26.66], [-80.04, 26.68], [-80.04, 26.69], [-80.04, 26.69], [-80.04, 26.71], [-80.04, 26.72], [-80.04, 26.76], [-80.04, 26.75], [-80.03, 26.7], [-80.04, 26.67], [-80.04, 26.65], [-80.04, 26.6], [-80.04, 26.57], [-80.05, 26.5], [-80.06, 26.43], [-80.07, 26.39], [-80.07, 26.34], [-80.08, 26.32], [-80.08, 26.26], [-80.09, 26.24], [-80.09, 26.19], [-80.1, 26.16], [-80.11, 26.1], [-80.12, 26.09], [-80.12, 26.09], [-80.11, 26.09], [-80.12, 25.97], [-80.12, 25.94], [-80.12, 25.92], [-80.14, 25.91], [-80.16, 25.88], [-80.16, 25.88], [-80.17, 25.87], [-80.17, 25.84], [-80.18, 25.83], [-80.18, 25.82], [-80.19, 25.81], [-80.18, 25.77], [-80.19, 25.76], [-80.21, 25.74], [-80.22, 25.74], [-80.24, 25.73], [-80.25, 25.71], [-80.25, 25.7], [-80.25, 25.69], [-80.26, 25.69], [-80.26, 25.68], [-80.27, 25.65], [-80.27, 25.64], [-80.28, 25.64], [-80.3, 25.63], [-80.31, 25.61], [-80.31, 25.58], [-80.3, 25.57], [-80.31, 25.56], [-80.31, 25.54], [-80.33, 25.53], [-80.33, 25.52], [-80.34, 25.5], [-80.34, 25.47], [-80.33, 25.46], [-80.34, 25.46], [-80.33, 25.45], [-80.33, 25.44], [-80.32, 25.44], [-80.33, 25.43], [-80.33, 25.42], [-80.33, 25.41], [-80.33, 25.39], [-80.31, 25.38], [-80.31, 25.37], [-80.33, 25.36], [-80.34, 25.34], [-80.35, 25.33], [-80.37, 25.33], [-80.38, 25.31], [-80.38, 25.3], [-80.39, 25.3], [-80.39, 25.29], [-80.4, 25.29], [-80.41, 25.27], [-80.43, 25.26], [-80.43, 25.23], [-80.42, 25.21]]], [[[-80.35, 25.18], [-80.39, 25.2], [-80.38, 25.2], [-80.37, 25.21], [-80.35, 25.21], [-80.34, 25.22], [-80.33, 25.24], [-80.33, 25.26], [-80.34, 25.26], [-80.35, 25.28], [-80.36, 25.28], [-80.34, 25.29], [-80.33, 25.29], [-80.31, 25.3], [-80.3, 25.31], [-80.29, 25.32], [-80.29, 25.32], [-80.27, 25.33], [-80.26, 25.33], [-80.26, 25.32], [-80.27, 25.32], [-80.28, 25.3], [-80.29, 25.28], [-80.31, 25.26], [-80.32, 25.24], [-80.32, 25.23], [-80.33, 25.22], [-80.33, 25.22], [-80.34, 25.2], [-80.35, 25.19], [-80.35, 25.18]]], [[[-80.23, 27.26], [-80.22, 27.24], [-80.21, 27.23], [-80.21, 27.21], [-80.19, 27.19], [-80.2, 27.19], [-80.21, 27.22], [-80.22, 27.22], [-80.26, 27.21], [-80.26, 27.21], [-80.28, 27.22], [-80.28, 27.23], [-80.29, 27.23], [-80.28, 27.26], [-80.23, 27.26]]], [[[-80.12, 25.9], [-80.12, 25.85], [-80.12, 25.82], [-80.13, 25.8], [-80.13, 25.76], [-80.14, 25.77], [-80.15, 25.79], [-80.14, 25.8], [-80.14, 25.81], [-80.13, 25.83], [-80.13, 25.84], [-80.12, 25.85], [-80.13, 25.86], [-80.13, 25.87], [-80.13, 25.88], [-80.13, 25.9], [-80.12, 25.9]]], [[[-80.15, 25.72], [-80.16, 25.7], [-80.16, 25.69], [-80.15, 25.67], [-80.16, 25.66], [-80.16, 25.68], [-80.18, 25.69], [-80.17, 25.7], [-80.17, 25.71], [-80.16, 25.72], [-80.15, 25.72]]], [[[-80.2, 27.26], [-80.18, 27.22], [-80.16, 27.19], [-80.15, 27.17], [-80.17, 27.17], [-80.17, 27.18], [-80.16, 27.19], [-80.17, 27.2], [-80.18, 27.21], [-80.18, 27.21], [-80.19, 27.23], [-80.19, 27.24], [-80.2, 27.25], [-80.21, 27.25], [-80.21, 27.26], [-80.2, 27.26]]], [[[-80.18, 25.49], [-80.18, 25.48], [-80.19, 25.46], [-80.19, 25.45], [-80.21, 25.42], [-80.21, 25.43], [-80.2, 25.43], [-80.2, 25.45], [-80.19, 25.48], [-80.18, 25.49]]], [[[-80.15, 25.75], [-80.15, 25.74], [-80.16, 25.73], [-80.17, 25.74], [-80.16, 25.75], [-80.15, 25.76], [-80.15, 25.75]]], [[[-80.23, 25.39], [-80.23, 25.38], [-80.24, 25.35], [-80.26, 25.36], [-80.25, 25.37], [-80.25, 25.36], [-80.24, 25.38], [-80.24, 25.39], [-80.23, 25.39]]], [[[-80.18, 25.78], [-80.15, 25.77], [-80.16, 25.77], [-80.18, 25.77], [-80.18, 25.78]]], [[[-80.13, 25.86], [-80.14, 25.85], [-80.15, 25.86], [-80.13, 25.86], [-80.13, 25.86]]], [[[-80.18, 25.51], [-80.18, 25.5], [-80.19, 25.5], [-80.19, 25.5], [-80.18, 25.51]]], [[[-80.25, 25.39], [-80.24, 25.39], [-80.25, 25.37], [-80.26, 25.38], [-80.25, 25.39]]], [[[-80.14, 25.88], [-80.13, 25.88], [-80.14, 25.87], [-80.14, 25.88]]]]}}, {"type": "Feature", "properties": {"STATE": "Florida", "STATE_FIPS": "12", "CD_2DIG": "07", "STATE_CODE": 8, "CLIMDIV": 807, "ID": 807, "CD_NEW": 7, "FIPS_CD": "1207", "NCDC_GEO_I": 64.0, "NAME": "KEYS", "ST_ABBRV": "FL", "SHAPE_AREA": 0.0, "SHAPE_LEN": 0.0}, "geometry": {"type": "MultiPolygon", "coordinates": [[[[-80.78, 25.16], [-80.58, 25.29], [-80.47, 25.23], [-80.48, 25.22], [-80.49, 25.23], [-80.49, 25.22], [-80.49, 25.21], [-80.48, 25.22], [-80.46, 25.22], [-80.46, 25.21], [-80.44, 25.19], [-80.44, 25.18], [-80.45, 25.17], [-80.46, 25.16], [-80.45, 25.15], [-80.44, 25.15], [-80.44, 25.14], [-80.43, 25.15], [-80.42, 25.13], [-80.44, 25.13], [-80.45, 25.15], [-80.46, 25.15], [-80.46, 25.16], [-80.45, 25.18], [-80.44, 25.18], [-80.45, 25.19], [-80.47, 25.21], [-80.48, 25.21], [-80.49, 25.21], [-80.51, 25.21], [-80.51, 25.22], [-80.52, 25.22], [-80.53, 25.21], [-80.58, 25.21], [-80.58, 25.2], [-80.59, 25.2], [-80.6, 25.19], [-80.6, 25.19], [-80.61, 25.2], [-80.63, 25.2], [-80.63, 25.19], [-80.66, 25.18], [-80.66, 25.18], [-80.65, 25.17], [-80.66, 25.15], [-80.65, 25.15], [-80.66, 25.14], [-80.67, 25.14], [-80.65, 25.16], [-80.66, 25.17], [-80.67, 25.17], [-80.67, 25.17], [-80.68, 25.17], [-80.7, 25.16], [-80.7, 25.15], [-80.71, 25.15], [-80.72, 25.16], [-80.75, 25.16], [-80.74, 25.15], [-80.73, 25.15], [-80.73, 25.14], [-80.74, 25.14], [-80.75, 25.15], [-80.76, 25.16], [-80.78, 25.16]]], [[[-80.39, 25.2], [-80.39, 25.2], [-80.39, 25.2], [-80.35, 25.18], [-80.37, 25.17], [-80.36, 25.15], [-80.37, 25.15], [-80.37, 25.14], [-80.4, 25.11], [-80.4, 25.11], [-80.41, 25.1], [-80.42, 25.11], [-80.43, 25.1], [-80.43, 25.09], [-80.44, 25.08], [-80.45, 25.08], [-80.48, 25.06], [-80.49, 25.04], [-80.49, 25.03], [-80.5, 25.02], [-80.53, 25.0], [-80.55, 24.97], [-80.56, 24.96], [-80.57, 24.96], [-80.58, 24.95], [-80.59, 24.96], [-80.58, 24.96], [-80.57, 24.96], [-80.56, 24.97], [-80.55, 25.0], [-80.54, 25.0], [-80.54, 25.01], [-80.53, 25.02], [-80.51, 25.02], [-80.51, 25.03], [-80.5, 25.04], [-80.5, 25.05], [-80.49, 25.05], [-80.46, 25.08], [-80.44, 25.1], [-80.43, 25.12], [-80.42, 25.12], [-80.41, 25.14], [-80.4, 25.14], [-80.4, 25.14], [-80.38, 25.17], [-80.39, 25.17], [-80.39, 25.18], [-80.41, 25.19], [-80.42, 25.2], [-80.43, 25.22], [-80.42, 25.21], [-80.42, 25.2], [-80.4, 25.19], [-80.39, 25.19], [-80.39, 25.2]]], [[[-81.38, 24.72], [-81.37, 24.72], [-81.37, 24.71], [-81.36, 24.7], [-81.35, 24.69], [-81.34, 24.67], [-81.34, 24.66], [-81.37, 24.66], [-81.37, 24.67], [-81.38, 24.69], [-81.38, 24.69], [-81.39, 24.71], [-81.39, 24.71], [-81.4, 24.72], [-81.4, 24.73], [-81.4, 24.74], [-81.38, 24.72]]], [[[-81.55, 24.69], [-81.54, 24.68], [-81.53, 24.67], [-81.52, 24.66], [-81.51, 24.64], [-81.51, 24.63], [-81.53, 24.62], [-81.55, 24.62], [-81.56, 24.61], [-81.57, 24.61], [-81.57, 24.63], [-81.56, 24.62], [-81.55, 24.63], [-81.53, 24.63], [-81.52, 24.62], [-81.52, 24.63], [-81.52, 24.65], [-81.53, 24.65], [-81.54, 24.66], [-81.54, 24.67], [-81.56, 24.67], [-81.57, 24.69], [-81.55, 24.69]]], [[[-81.64, 24.6], [-81.67, 24.59], [-81.67, 24.57], [-81.68, 24.56], [-81.71, 24.56], [-81.72, 24.56], [-81.71, 24.58], [-81.71, 24.59], [-81.7, 24.6], [-81.69, 24.59], [-81.68, 24.59], [-81.67, 24.61], [-81.66, 24.6], [-81.64, 24.6]]], [[[-81.51, 24.7], [-81.5, 24.7], [-81.48, 24.69], [-81.48, 24.68], [-81.47, 24.67], [-81.48, 24.66], [-81.5, 24.66], [-81.51, 24.66], [-81.52, 24.67], [-81.52, 24.68], [-81.52, 24.69], [-81.51, 24.7]]], [[[-81.77, 24.59], [-81.77, 24.57], [-81.75, 24.57], [-81.75, 24.56], [-81.76, 24.55], [-81.77, 24.55], [-81.78, 24.55], [-81.8, 24.54], [-81.81, 24.56], [-81.8, 24.57], [-81.78, 24.56], [-81.77, 24.57], [-81.78, 24.58], [-81.77, 24.59]]], [[[-81.04, 24.74], [-81.04, 24.73], [-81.03, 24.74], [-81.03, 24.73], [-81.05, 24.72], [-81.07, 24.71], [-81.08, 24.69], [-81.1, 24.71], [-81.09, 24.72], [-81.07, 24.72], [-81.06, 24.73], [-81.05, 24.73], [-81.04, 24.74]]], [[[-81.58, 24.65], [-81.59, 24.64], [-81.6, 24.63], [-81.62, 24.62], [-81.62, 24.63], [-81.62, 24.64], [-81.61, 24.63], [-81.6, 24.64], [-81.6, 24.64], [-81.61, 24.65], [-81.6, 24.65], [-81.58, 24.65]]], [[[-81.45, 24.74], [-81.44, 24.74], [-81.43, 24.72], [-81.42, 24.7], [-81.44, 24.72], [-81.45, 24.72], [-81.45, 24.73], [-81.45, 24.74]]], [[[-80.79, 24.84], [-80.79, 24.84], [-80.79, 24.84], [-80.79, 24.84], [-80.8, 24.84], [-80.81, 24.83], [-80.81, 24.82], [-80.8, 24.82], [-80.79, 24.81], [-80.82, 24.81], [-80.82, 24.82], [-80.81, 24.83], [-80.8, 24.84], [-80.8, 24.84], [-80.79, 24.84], [-80.79, 24.84]]], [[[-81.34, 24.7], [-81.32, 24.7], [-81.31, 24.69], [-81.33, 24.68], [-81.34, 24.7], [-81.34, 24.7]]], [[[-81.74, 24.59], [-81.73, 24.58], [-81.73, 24.57], [-81.75, 24.56], [-81.75, 24.58], [-81.74, 24.59], [-81.74, 24.59]]], [[[-80.69, 24.89], [-80.7, 24.87], [-80.73, 24.86], [-80.73, 24.85], [-80.74, 24.86], [-80.73, 24.87], [-80.72, 24.86], [-80.7, 24.87], [-80.7, 24.88], [-80.69, 24.89]]], [[[-81.42, 24.7], [-81.41, 24.7], [-81.4, 24.68], [-81.41, 24.67], [-81.42, 24.69], [-81.41, 24.69], [-81.42, 24.7]]], [[[-81.41, 24.66], [-81.4, 24.65], [-81.42, 24.65], [-81.42, 24.65], [-81.42, 24.66], [-81.42, 24.67], [-81.41, 24.66]]], [[[-80.93, 24.77], [-80.94, 24.77], [-80.96, 24.76], [-80.98, 24.74], [-80.98, 24.75], [-80.98, 24.76], [-80.97, 24.76], [-80.95, 24.77], [-80.95, 24.77], [-80.94, 24.78], [-80.93, 24.77]]], [[[-81.59, 24.61], [-81.57, 24.6], [-81.6, 24.59], [-81.6, 24.59], [-81.61, 24.59], [-81.6, 24.6], [-81.6, 24.6], [-81.59, 24.61]]], [[[-80.61, 24.94], [-80.61, 24.94], [-80.63, 24.91], [-80.64, 24.91], [-80.61, 24.94]]], [[[-81.44, 24.68], [-81.44, 24.65], [-81.45, 24.66], [-81.45, 24.68], [-81.44, 24.68]]], [[[-81.39, 24.69], [-81.39, 24.68], [-81.38, 24.65], [-81.4, 24.66], [-81.39, 24.67], [-81.4, 24.68], [-81.39, 24.69]]], [[[-81.09, 24.7], [-81.09, 24.7], [-81.09, 24.69], [-81.11, 24.69], [-81.12, 24.7], [-81.09, 24.7]]], [[[-81.25, 24.67], [-81.26, 24.66], [-81.27, 24.66], [-81.26, 24.68], [-81.25, 24.67], [-81.25, 24.67]]], [[[-80.59, 24.96], [-80.59, 24.95], [-80.61, 24.94], [-80.61, 24.95], [-80.6, 24.95], [-80.59, 24.96]]], [[[-81.02, 24.73], [-81.01, 24.72], [-81.02, 24.72], [-81.03, 24.72], [-81.02, 24.73]]], [[[-81.8, 24.59], [-81.79, 24.57], [-81.8, 24.57], [-81.8, 24.59]]], [[[-81.0, 24.73], [-81.01, 24.72], [-81.02, 24.73], [-81.0, 24.73]]]]}}]}