{"type": "FeatureCollection", "features": [{"type": "Feature", "properties": {"STATE": "Georgia", "STATE_FIPS": "13", "CD_2DIG": "08", "STATE_CODE": 9, "CLIMDIV": 908, "ID": 908, "CD_NEW": 8, "FIPS_CD": "1308", "NCDC_GEO_I": 52.0, "NAME": "SOUTH CENTRAL", "ST_ABBRV": "GA", "SHAPE_AREA": 0.0, "SHAPE_LEN": 0.0}, "geometry": {"type": "Polygon", "coordinates": [[[-83.85, 32.29], [-83.72, 32.29], [-83.72, 32.28], [-83.7, 32.28], [-83.7, 32.29], [-83.61, 32.29], [-83.61, 32.25], [-83.62, 32.25], [-83.62, 32.24], [-83.61, 32.24], [-83.61, 32.12], [-83.55, 32.12], [-83.55, 32.13], [-83.54, 32.13], [-83.54, 32.12], [-83.45, 32.12], [-83.44, 32.12], [-83.44, 32.13], [-83.42, 32.13], [-83.42, 32.13], [-83.36, 32.13], [-83.35, 32.1], [-83.34, 32.11], [-83.33, 32.1], [-83.32, 32.09], [-83.31, 32.09], [-83.3, 32.07], [-83.3, 32.06], [-83.31, 32.05], [-83.3, 32.04], [-83.29, 32.02], [-83.3, 32.01], [-83.29, 32.0], [-83.28, 32.0], [-83.28, 31.99], [-83.29, 31.99], [-83.29, 31.98], [-83.28, 31.97], [-83.27, 31.96], [-83.26, 31.95], [-83.25, 31.95], [-83.22, 31.93], [-83.22, 31.91], [-83.21, 31.9], [-83.12, 31.98], [-83.01, 32.06], [-82.94, 32.12], [-82.96, 32.14], [-82.93, 32.15], [-82.93, 32.15], [-82.93, 32.14], [-82.93, 32.14], [-82.93, 32.13], [-82.92, 32.12], [-82.9, 32.11], [-82.9, 32.1], [-82.9, 32.09], [-82.87, 32.07], [-82.87, 32.07], [-82.85, 32.06], [-82.84, 32.06], [-82.83, 32.05], [-82.81, 32.05], [-82.8, 32.04], [-82.79, 32.02], [-82.77, 32.02], [-82.75, 32.01], [-82.73, 32.01], [-82.71, 31.97], [-82.7, 31.97], [-82.7, 31.96], [-82.67, 31.93], [-82.65, 31.93], [-82.65, 31.92], [-82.64, 31.92], [-82.63, 31.93], [-82.61, 31.93], [-82.6, 31.94], [-82.6, 31.93], [-82.59, 31.94], [-82.58, 31.95], [-82.56, 31.96], [-82.56, 31.96], [-82.55, 31.96], [-82.53, 31.96], [-82.52, 31.96], [-82.5, 31.95], [-82.48, 31.95], [-82.5, 31.96], [-82.48, 31.97], [-82.46, 31.96], [-82.44, 31.97], [-82.43, 31.97], [-82.43, 31.84], [-82.52, 31.84], [-82.52, 31.8], [-82.52, 31.76], [-82.52, 31.75], [-82.55, 31.75], [-82.55, 31.74], [-82.52, 31.74], [-82.52, 31.72], [-82.52, 31.67], [-82.63, 31.67], [-82.63, 31.56], [-82.6, 31.56], [-82.6, 31.47], [-82.63, 31.47], [-82.63, 31.27], [-82.65, 31.28], [-82.65, 31.28], [-82.66, 31.29], [-82.68, 31.29], [-82.7, 31.28], [-82.7, 31.22], [-82.69, 31.22], [-82.6, 31.03], [-82.59, 31.02], [-82.58, 31.01], [-82.57, 31.01], [-82.55, 31.0], [-82.54, 30.99], [-82.54, 30.99], [-82.53, 30.97], [-82.52, 30.96], [-82.49, 30.96], [-82.49, 30.83], [-82.5, 30.82], [-82.44, 30.82], [-82.44, 30.73], [-82.42, 30.73], [-82.42, 30.72], [-82.44, 30.72], [-82.44, 30.7], [-82.43, 30.69], [-82.43, 30.66], [-82.43, 30.65], [-82.43, 30.61], [-82.42, 30.61], [-82.42, 30.58], [-82.6, 30.59], [-82.75, 30.6], [-82.88, 30.61], [-83.07, 30.62], [-83.25, 30.63], [-83.5, 30.65], [-83.61, 30.65], [-83.74, 30.66], [-83.74, 30.74], [-83.74, 30.74], [-83.74, 30.79], [-83.74, 30.82], [-83.74, 30.83], [-83.74, 30.93], [-83.74, 31.04], [-83.78, 31.04], [-83.78, 31.03], [-83.8, 31.03], [-83.8, 31.04], [-84.0, 31.04], [-84.0, 31.1], [-84.01, 31.1], [-84.01, 31.11], [-84.0, 31.11], [-84.0, 31.25], [-84.0, 31.3], [-84.0, 31.33], [-84.0, 31.46], [-83.98, 31.46], [-83.98, 31.48], [-84.0, 31.48], [-84.0, 31.55], [-83.98, 31.55], [-83.98, 31.56], [-84.0, 31.56], [-84.0, 31.63], [-84.01, 31.62], [-84.01, 31.63], [-84.0, 31.63], [-84.0, 31.64], [-83.99, 31.64], [-83.99, 31.65], [-84.02, 31.65], [-84.01, 31.66], [-84.02, 31.69], [-84.02, 31.69], [-84.03, 31.71], [-84.03, 31.72], [-84.02, 31.72], [-84.02, 31.73], [-84.01, 31.73], [-84.0, 31.75], [-83.99, 31.76], [-83.99, 31.77], [-83.99, 31.78], [-83.99, 31.78], [-84.01, 31.79], [-84.01, 31.8], [-83.99, 31.8], [-83.98, 31.81], [-83.98, 31.81], [-83.97, 31.83], [-83.96, 31.84], [-83.94, 31.86], [-83.93, 31.86], [-83.93, 31.87], [-83.93, 31.88], [-83.93, 31.89], [-83.93, 31.9], [-83.92, 31.91], [-83.92, 31.92], [-83.93, 31.94], [-83.92, 31.95], [-83.93, 31.96], [-83.93, 31.96], [-83.94, 31.98], [-83.95, 32.0], [-83.95, 32.02], [-83.96, 32.02], [-83.96, 32.04], [-83.98, 32.05], [-83.98, 32.06], [-83.99, 32.07], [-83.97, 32.09], [-83.98, 32.09], [-84.0, 32.11], [-84.0, 32.11], [-84.01, 32.12], [-84.01, 32.13], [-84.02, 32.14], [-84.03, 32.15], [-84.03, 32.16], [-84.03, 32.17], [-84.03, 32.18], [-84.02, 32.18], [-84.01, 32.2], [-84.0, 32.21], [-83.98, 32.23], [-83.96, 32.25], [-83.95, 32.25], [-83.94, 32.26], [-83.92, 32.27], [-83.91, 32.28], [-83.9, 32.28], [-83.9, 32.29], [-83.85, 32.29]]]}}, {"type": "Feature", "properties": {"STATE": "Georgia", "STATE_FIPS": "13", "CD_2DIG": "07", "STATE_CODE": 9, "CLIMDIV": 907, "ID": 907, "CD_NEW": 7, "FIPS_CD": "1307", "NCDC_GEO_I": 53.0, "NAME": "SOUTHWEST", "ST_ABBRV": "GA", "SHAPE_AREA": 0.0, "SHAPE_LEN": 0.0}, "geometry": {"type": "Polygon", "coordinates": [[[-84.03, 32.17], [-84.03, 32.16], [-84.03, 32.15], [-84.02, 32.14], [-84.01, 32.13], [-84.01, 32.12], [-84.0, 32.11], [-84.0, 32.11], [-83.98, 32.09], [-83.97, 32.09], [-83.99, 32.07], [-83.98, 32.06], [-83.98, 32.05], [-83.96, 32.04], [-83.96, 32.02], [-83.95, 32.02], [-83.95, 32.0], [-83.94, 31.98], [-83.93, 31.96], [-83.93, 31.96], [-83.92, 31.95], [-83.93, 31.94], [-83.92, 31.92], [-83.92, 31.91], [-83.93, 31.9], [-83.93, 31.89], [-83.93, 31.88], [-83.93, 31.87], [-83.93, 31.86], [-83.94, 31.86], [-83.96, 31.84], [-83.97, 31.83], [-83.98, 31.81], [-83.98, 31.81], [-83.99, 31.8], [-84.01, 31.8], [-84.01, 31.79], [-83.99, 31.78], [-83.99, 31.78], [-83.99, 31.77], [-83.99, 31.76], [-84.0, 31.75], [-84.01, 31.73], [-84.02, 31.73], [-84.02, 31.72], [-84.03, 31.72], [-84.03, 31.71], [-84.02, 31.69], [-84.02, 31.69], [-84.01, 31.66], [-84.02, 31.65], [-83.99, 31.65], [-83.99, 31.64], [-84.0, 31.64], [-84.0, 31.63], [-84.01, 31.63], [-84.01, 31.62], [-84.0, 31.63], [-84.0, 31.56], [-83.98, 31.56], [-83.98, 31.55], [-84.0, 31.55], [-84.0, 31.48], [-83.98, 31.48], [-83.98, 31.46], [-84.0, 31.46], [-84.0, 31.33], [-84.0, 31.3], [-84.0, 31.25], [-84.0, 31.11], [-84.01, 31.11], [-84.01, 31.1], [-84.0, 31.1], [-84.0, 31.04], [-83.8, 31.04], [-83.8, 31.03], [-83.78, 31.03], [-83.78, 31.04], [-83.74, 31.04], [-83.74, 30.93], [-83.74, 30.83], [-83.74, 30.82], [-83.74, 30.79], [-83.74, 30.74], [-83.74, 30.74], [-83.74, 30.66], [-83.87, 30.67], [-83.95, 30.67], [-84.05, 30.67], [-84.25, 30.68], [-84.31, 30.69], [-84.37, 30.69], [-84.47, 30.69], [-84.54, 30.7], [-84.64, 30.7], [-84.75, 30.71], [-84.84, 30.71], [-84.86, 30.71], [-84.88, 30.73], [-84.88, 30.73], [-84.89, 30.74], [-84.9, 30.75], [-84.91, 30.75], [-84.92, 30.77], [-84.92, 30.78], [-84.93, 30.79], [-84.93, 30.8], [-84.94, 30.82], [-84.94, 30.83], [-84.93, 30.84], [-84.94, 30.86], [-84.93, 30.87], [-84.94, 30.87], [-84.94, 30.88], [-84.94, 30.89], [-84.96, 30.91], [-84.97, 30.92], [-84.97, 30.93], [-84.98, 30.94], [-84.98, 30.95], [-84.98, 30.96], [-84.99, 30.97], [-85.0, 30.97], [-85.0, 31.0], [-85.0, 31.01], [-85.0, 31.02], [-85.01, 31.03], [-85.01, 31.05], [-85.02, 31.06], [-85.03, 31.07], [-85.03, 31.08], [-85.03, 31.1], [-85.04, 31.11], [-85.05, 31.12], [-85.06, 31.14], [-85.08, 31.16], [-85.09, 31.16], [-85.1, 31.16], [-85.1, 31.18], [-85.11, 31.19], [-85.11, 31.2], [-85.1, 31.21], [-85.1, 31.23], [-85.1, 31.23], [-85.11, 31.26], [-85.11, 31.26], [-85.11, 31.28], [-85.1, 31.28], [-85.09, 31.29], [-85.08, 31.33], [-85.09, 31.34], [-85.09, 31.35], [-85.09, 31.36], [-85.09, 31.36], [-85.08, 31.38], [-85.08, 31.4], [-85.08, 31.41], [-85.07, 31.43], [-85.07, 31.43], [-85.07, 31.45], [-85.07, 31.47], [-85.07, 31.48], [-85.04, 31.52], [-85.05, 31.53], [-85.04, 31.54], [-85.04, 31.55], [-85.05, 31.56], [-85.06, 31.57], [-85.06, 31.58], [-85.06, 31.6], [-85.06, 31.61], [-85.06, 31.62], [-85.07, 31.63], [-85.09, 31.64], [-85.08, 31.66], [-85.09, 31.66], [-85.11, 31.68], [-85.11, 31.69], [-85.13, 31.7], [-85.13, 31.72], [-85.12, 31.73], [-85.12, 31.74], [-85.13, 31.76], [-85.13, 31.77], [-85.14, 31.78], [-85.13, 31.79], [-85.13, 31.82], [-85.14, 31.84], [-85.14, 31.85], [-85.14, 31.86], [-85.13, 31.88], [-85.13, 31.89], [-85.12, 31.89], [-85.11, 31.9], [-85.11, 31.91], [-85.1, 31.92], [-85.09, 31.93], [-85.08, 31.94], [-85.09, 31.96], [-85.07, 31.97], [-85.07, 31.98], [-85.06, 32.0], [-85.06, 32.01], [-85.06, 32.03], [-85.05, 32.04], [-85.06, 32.05], [-85.05, 32.08], [-85.05, 32.09], [-85.05, 32.1], [-85.06, 32.13], [-85.05, 32.14], [-85.03, 32.17], [-85.01, 32.18], [-84.97, 32.19], [-84.96, 32.2], [-84.97, 32.2], [-84.97, 32.2], [-84.98, 32.21], [-84.97, 32.22], [-84.93, 32.22], [-84.92, 32.22], [-84.92, 32.23], [-84.81, 32.23], [-84.81, 32.22], [-84.8, 32.22], [-84.8, 32.23], [-84.78, 32.23], [-84.66, 32.23], [-84.62, 32.23], [-84.62, 32.23], [-84.61, 32.23], [-84.6, 32.21], [-84.6, 32.2], [-84.6, 32.19], [-84.56, 32.19], [-84.56, 32.18], [-84.55, 32.18], [-84.55, 32.16], [-84.54, 32.16], [-84.54, 32.15], [-84.53, 32.15], [-84.53, 32.13], [-84.43, 32.13], [-84.43, 32.17], [-84.32, 32.16], [-84.28, 32.16], [-84.26, 32.17], [-84.25, 32.16], [-84.18, 32.16], [-84.18, 32.23], [-84.13, 32.23], [-84.13, 32.19], [-84.13, 32.19], [-84.08, 32.19], [-84.07, 32.18], [-84.06, 32.18], [-84.05, 32.19], [-84.04, 32.18], [-84.03, 32.17]]]}}, {"type": "Feature", "properties": {"STATE": "Georgia", "STATE_FIPS": "13", "CD_2DIG": "09", "STATE_CODE": 9, "CLIMDIV": 909, "ID": 909, "CD_NEW": 9, "FIPS_CD": "1309", "NCDC_GEO_I": 54.0, "NAME": "SOUTHEAST", "ST_ABBRV": "GA", "SHAPE_AREA": 0.0, "SHAPE_LEN": 0.0}, "geometry": {"type": "MultiPolygon", "coordinates": [[[[-81.14, 32.23], [-81.14, 32.21], [-81.13, 32.21], [-81.12, 32.19], [-81.12, 32.17], [-81.13, 32.17], [-81.12, 32.16], [-81.12, 32.14], [-81.12, 32.13], [-81.12, 32.13], [-81.12, 32.12], [-81.11, 32.11], [-81.09, 32.11], [-81.09, 32.1], [-81.07, 32.09], [-81.05, 32.09], [-81.04, 32.08], [-81.03, 32.09], [-81.01, 32.1], [-81.01, 32.1], [-80.99, 32.09], [-80.99, 32.08], [-80.98, 32.08], [-80.95, 32.07], [-80.94, 32.06], [-80.91, 32.05], [-80.9, 32.04], [-80.9, 32.03], [-80.89, 32.03], [-80.88, 32.02], [-80.87, 32.02], [-80.85, 32.03], [-80.84, 32.02], [-80.84, 32.0], [-80.85, 31.99], [-80.86, 31.99], [-80.86, 31.98], [-80.86, 31.97], [-80.88, 31.96], [-80.89, 31.96], [-80.92, 31.95], [-80.93, 31.94], [-80.93, 31.96], [-80.94, 31.97], [-80.95, 31.96], [-80.95, 31.95], [-80.98, 31.94], [-80.99, 31.93], [-80.98, 31.93], [-80.97, 31.92], [-80.95, 31.91], [-80.94, 31.91], [-80.93, 31.91], [-80.97, 31.88], [-80.99, 31.86], [-81.0, 31.86], [-81.0, 31.87], [-81.02, 31.87], [-81.05, 31.88], [-81.06, 31.88], [-81.07, 31.88], [-81.09, 31.9], [-81.1, 31.89], [-81.09, 31.88], [-81.09, 31.86], [-81.1, 31.86], [-81.11, 31.87], [-81.12, 31.86], [-81.14, 31.86], [-81.15, 31.85], [-81.16, 31.84], [-81.16, 31.82], [-81.18, 31.82], [-81.18, 31.81], [-81.18, 31.8], [-81.18, 31.79], [-81.16, 31.79], [-81.17, 31.78], [-81.18, 31.76], [-81.17, 31.75], [-81.16, 31.74], [-81.16, 31.73], [-81.18, 31.73], [-81.2, 31.74], [-81.22, 31.75], [-81.26, 31.76], [-81.27, 31.77], [-81.27, 31.78], [-81.27, 31.78], [-81.28, 31.77], [-81.28, 31.76], [-81.26, 31.75], [-81.24, 31.74], [-81.22, 31.73], [-81.2, 31.71], [-81.19, 31.7], [-81.16, 31.69], [-81.15, 31.7], [-81.14, 31.7], [-81.13, 31.69], [-81.14, 31.67], [-81.13, 31.65], [-81.13, 31.62], [-81.15, 31.59], [-81.16, 31.57], [-81.17, 31.56], [-81.18, 31.56], [-81.19, 31.57], [-81.2, 31.58], [-81.21, 31.56], [-81.22, 31.56], [-81.24, 31.55], [-81.25, 31.55], [-81.26, 31.55], [-81.27, 31.55], [-81.28, 31.55], [-81.3, 31.54], [-81.3, 31.53], [-81.28, 31.52], [-81.28, 31.52], [-81.27, 31.53], [-81.26, 31.53], [-81.26, 31.52], [-81.28, 31.51], [-81.29, 31.5], [-81.31, 31.48], [-81.32, 31.49], [-81.33, 31.48], [-81.33, 31.46], [-81.34, 31.45], [-81.34, 31.44], [-81.33, 31.43], [-81.32, 31.42], [-81.32, 31.4], [-81.31, 31.39], [-81.31, 31.38], [-81.29, 31.37], [-81.3, 31.37], [-81.32, 31.37], [-81.34, 31.36], [-81.34, 31.36], [-81.33, 31.35], [-81.33, 31.34], [-81.34, 31.33], [-81.37, 31.34], [-81.39, 31.34], [-81.4, 31.34], [-81.44, 31.34], [-81.42, 31.33], [-81.39, 31.33], [-81.37, 31.33], [-81.4, 31.3], [-81.4, 31.29], [-81.39, 31.28], [-81.41, 31.26], [-81.4, 31.25], [-81.4, 31.25], [-81.42, 31.25], [-81.43, 31.24], [-81.43, 31.23], [-81.44, 31.22], [-81.45, 31.21], [-81.44, 31.2], [-81.42, 31.18], [-81.43, 31.17], [-81.43, 31.15], [-81.44, 31.14], [-81.43, 31.13], [-81.44, 31.12], [-81.45, 31.11], [-81.46, 31.11], [-81.48, 31.12], [-81.48, 31.11], [-81.46, 31.09], [-81.45, 31.09], [-81.44, 31.09], [-81.43, 31.08], [-81.43, 31.06], [-81.43, 31.04], [-81.44, 31.04], [-81.45, 31.04], [-81.46, 31.03], [-81.45, 31.02], [-81.46, 31.01], [-81.46, 31.0], [-81.47, 30.99], [-81.49, 30.99], [-81.5, 30.97], [-81.51, 30.98], [-81.52, 30.97], [-81.51, 30.96], [-81.51, 30.96], [-81.5, 30.94], [-81.51, 30.93], [-81.5, 30.93], [-81.5, 30.92], [-81.49, 30.93], [-81.48, 30.93], [-81.47, 30.92], [-81.48, 30.91], [-81.5, 30.91], [-81.51, 30.89], [-81.51, 30.89], [-81.51, 30.88], [-81.5, 30.86], [-81.49, 30.86], [-81.49, 30.84], [-81.5, 30.85], [-81.52, 30.85], [-81.53, 30.83], [-81.52, 30.82], [-81.53, 30.81], [-81.52, 30.8], [-81.5, 30.79], [-81.5, 30.78], [-81.49, 30.77], [-81.5, 30.74], [-81.5, 30.72], [-81.51, 30.72], [-81.53, 30.72], [-81.53, 30.71], [-81.54, 30.71], [-81.55, 30.72], [-81.56, 30.71], [-81.57, 30.72], [-81.59, 30.72], [-81.61, 30.73], [-81.61, 30.72], [-81.62, 30.72], [-81.63, 30.73], [-81.64, 30.73], [-81.64, 30.73], [-81.65, 30.73], [-81.65, 30.74], [-81.66, 30.74], [-81.66, 30.75], [-81.67, 30.75], [-81.67, 30.74], [-81.69, 30.74], [-81.7, 30.75], [-81.72, 30.74], [-81.73, 30.75], [-81.74, 30.76], [-81.74, 30.77], [-81.76, 30.77], [-81.77, 30.78], [-81.77, 30.76], [-81.78, 30.76], [-81.78, 30.77], [-81.79, 30.78], [-81.8, 30.78], [-81.81, 30.79], [-81.83, 30.79], [-81.84, 30.79], [-81.85, 30.79], [-81.87, 30.79], [-81.87, 30.8], [-81.88, 30.8], [-81.88, 30.81], [-81.89, 30.82], [-81.9, 30.83], [-81.91, 30.82], [-81.93, 30.82], [-81.95, 30.83], [-81.96, 30.82], [-81.96, 30.8], [-81.97, 30.79], [-81.97, 30.78], [-81.98, 30.78], [-81.99, 30.78], [-82.0, 30.79], [-82.02, 30.79], [-82.02, 30.78], [-82.01, 30.76], [-82.02, 30.75], [-82.03, 30.75], [-82.04, 30.74], [-82.05, 30.73], [-82.04, 30.72], [-82.04, 30.71], [-82.04, 30.7], [-82.04, 30.68], [-82.05, 30.68], [-82.05, 30.66], [-82.05, 30.65], [-82.04, 30.64], [-82.04, 30.63], [-82.03, 30.63], [-82.03, 30.61], [-82.02, 30.6], [-82.01, 30.58], [-82.01, 30.58], [-82.01, 30.56], [-82.02, 30.54], [-82.01, 30.51], [-82.02, 30.48], [-82.02, 30.48], [-82.03, 30.45], [-82.04, 30.44], [-82.03, 30.42], [-82.04, 30.42], [-82.04, 30.4], [-82.04, 30.38], [-82.04, 30.37], [-82.05, 30.36], [-82.06, 30.36], [-82.09, 30.36], [-82.1, 30.37], [-82.12, 30.37], [-82.13, 30.37], [-82.13, 30.36], [-82.14, 30.36], [-82.17, 30.36], [-82.18, 30.37], [-82.19, 30.38], [-82.21, 30.41], [-82.21, 30.42], [-82.21, 30.43], [-82.2, 30.44], [-82.21, 30.47], [-82.2, 30.47], [-82.2, 30.48], [-82.22, 30.5], [-82.23, 30.51], [-82.23, 30.52], [-82.23, 30.53], [-82.24, 30.53], [-82.24, 30.55], [-82.23, 30.56], [-82.21, 30.57], [-82.42, 30.58], [-82.42, 30.61], [-82.43, 30.61], [-82.43, 30.65], [-82.43, 30.66], [-82.43, 30.69], [-82.44, 30.7], [-82.44, 30.72], [-82.42, 30.72], [-82.42, 30.73], [-82.44, 30.73], [-82.44, 30.82], [-82.5, 30.82], [-82.49, 30.83], [-82.49, 30.96], [-82.52, 30.96], [-82.53, 30.97], [-82.54, 30.99], [-82.54, 30.99], [-82.55, 31.0], [-82.57, 31.01], [-82.58, 31.01], [-82.59, 31.02], [-82.6, 31.03], [-82.69, 31.22], [-82.7, 31.22], [-82.7, 31.28], [-82.68, 31.29], [-82.66, 31.29], [-82.65, 31.28], [-82.65, 31.28], [-82.63, 31.27], [-82.63, 31.47], [-82.6, 31.47], [-82.6, 31.56], [-82.63, 31.56], [-82.63, 31.67], [-82.52, 31.67], [-82.52, 31.72], [-82.52, 31.74], [-82.55, 31.74], [-82.55, 31.75], [-82.52, 31.75], [-82.52, 31.76], [-82.52, 31.8], [-82.52, 31.84], [-82.43, 31.84], [-82.43, 31.97], [-82.44, 31.97], [-82.46, 31.96], [-82.48, 31.97], [-82.48, 31.99], [-82.47, 32.03], [-82.46, 32.12], [-82.44, 32.24], [-82.43, 32.27], [-82.43, 32.28], [-82.43, 32.3], [-82.41, 32.35], [-82.4, 32.35], [-82.39, 32.34], [-82.38, 32.34], [-82.36, 32.31], [-82.35, 32.29], [-82.33, 32.29], [-82.31, 32.29], [-82.28, 32.29], [-82.23, 32.32], [-82.03, 32.28], [-82.0, 32.28], [-81.97, 32.27], [-81.96, 32.27], [-81.95, 32.27], [-81.94, 32.27], [-81.92, 32.27], [-81.89, 32.27], [-81.87, 32.26], [-81.86, 32.26], [-81.85, 32.25], [-81.84, 32.24], [-81.82, 32.24], [-81.8, 32.22], [-81.81, 32.2], [-81.8, 32.2], [-81.79, 32.19], [-81.79, 32.18], [-81.78, 32.18], [-81.78, 32.15], [-81.62, 32.19], [-81.57, 32.21], [-81.44, 32.24], [-81.43, 32.23], [-81.43, 32.22], [-81.42, 32.21], [-81.41, 32.17], [-81.41, 32.16], [-81.4, 32.15], [-81.41, 32.14], [-81.41, 32.12], [-81.4, 32.1], [-81.39, 32.11], [-81.39, 32.1], [-81.33, 32.14], [-81.2, 32.24], [-81.14, 32.23]]], [[[-81.35, 31.31], [-81.34, 31.31], [-81.33, 31.31], [-81.32, 31.31], [-81.31, 31.3], [-81.3, 31.29], [-81.27, 31.29], [-81.28, 31.28], [-81.27, 31.25], [-81.28, 31.25], [-81.29, 31.23], [-81.29, 31.22], [-81.31, 31.21], [-81.3, 31.21], [-81.32, 31.21], [-81.34, 31.19], [-81.36, 31.17], [-81.36, 31.16], [-81.36, 31.15], [-81.37, 31.14], [-81.37, 31.13], [-81.39, 31.13], [-81.41, 31.14], [-81.42, 31.15], [-81.42, 31.16], [-81.41, 31.17], [-81.41, 31.18], [-81.42, 31.19], [-81.41, 31.2], [-81.4, 31.2], [-81.4, 31.21], [-81.39, 31.22], [-81.4, 31.23], [-81.38, 31.25], [-81.39, 31.26], [-81.39, 31.26], [-81.38, 31.27], [-81.38, 31.29], [-81.4, 31.3], [-81.39, 31.31], [-81.38, 31.31], [-81.35, 31.31]]], [[[-81.13, 31.85], [-81.11, 31.85], [-81.09, 31.85], [-81.08, 31.83], [-81.06, 31.82], [-81.04, 31.82], [-81.04, 31.82], [-81.04, 31.81], [-81.05, 31.8], [-81.07, 31.77], [-81.1, 31.75], [-81.12, 31.73], [-81.13, 31.72], [-81.14, 31.72], [-81.15, 31.75], [-81.17, 31.76], [-81.17, 31.77], [-81.16, 31.78], [-81.16, 31.79], [-81.18, 31.79], [-81.17, 31.82], [-81.16, 31.82], [-81.16, 31.84], [-81.14, 31.85], [-81.13, 31.85]]], [[[-81.4, 30.96], [-81.4, 30.93], [-81.41, 30.91], [-81.41, 30.89], [-81.42, 30.85], [-81.43, 30.83], [-81.44, 30.82], [-81.45, 30.8], [-81.46, 30.77], [-81.46, 30.74], [-81.45, 30.73], [-81.45, 30.72], [-81.46, 30.71], [-81.47, 30.72], [-81.48, 30.74], [-81.47, 30.75], [-81.47, 30.77], [-81.47, 30.78], [-81.48, 30.79], [-81.47, 30.82], [-81.48, 30.82], [-81.47, 30.84], [-81.48, 30.85], [-81.49, 30.86], [-81.51, 30.88], [-81.51, 30.89], [-81.5, 30.89], [-81.49, 30.9], [-81.48, 30.91], [-81.46, 30.91], [-81.46, 30.92], [-81.44, 30.93], [-81.43, 30.95], [-81.43, 30.96], [-81.42, 30.97], [-81.41, 30.98], [-81.4, 30.96]]], [[[-81.19, 31.53], [-81.18, 31.53], [-81.18, 31.52], [-81.19, 31.5], [-81.2, 31.47], [-81.23, 31.45], [-81.23, 31.43], [-81.24, 31.43], [-81.26, 31.4], [-81.27, 31.39], [-81.28, 31.38], [-81.29, 31.4], [-81.31, 31.43], [-81.3, 31.44], [-81.3, 31.46], [-81.3, 31.46], [-81.3, 31.47], [-81.29, 31.48], [-81.29, 31.48], [-81.3, 31.49], [-81.27, 31.5], [-81.26, 31.5], [-81.25, 31.51], [-81.24, 31.53], [-81.21, 31.53], [-81.2, 31.53], [-81.19, 31.53]]], [[[-81.4, 31.06], [-81.42, 31.03], [-81.42, 31.02], [-81.43, 31.01], [-81.43, 31.03], [-81.43, 31.04], [-81.42, 31.05], [-81.43, 31.06], [-81.43, 31.09], [-81.44, 31.09], [-81.42, 31.1], [-81.42, 31.12], [-81.41, 31.12], [-81.4, 31.1], [-81.4, 31.08], [-81.4, 31.06]]], [[[-81.31, 31.37], [-81.29, 31.37], [-81.28, 31.35], [-81.28, 31.33], [-81.27, 31.32], [-81.28, 31.32], [-81.3, 31.32], [-81.32, 31.33], [-81.33, 31.35], [-81.34, 31.36], [-81.32, 31.37], [-81.31, 31.37]]], [[[-81.46, 30.97], [-81.45, 30.96], [-81.44, 30.95], [-81.47, 30.93], [-81.48, 30.93], [-81.5, 30.92], [-81.51, 30.93], [-81.5, 30.94], [-81.51, 30.96], [-81.49, 30.96], [-81.48, 30.96], [-81.47, 30.97], [-81.46, 30.97]]], [[[-81.39, 31.25], [-81.4, 31.24], [-81.4, 31.22], [-81.4, 31.21], [-81.4, 31.21], [-81.41, 31.2], [-81.42, 31.19], [-81.43, 31.2], [-81.42, 31.21], [-81.43, 31.22], [-81.43, 31.23], [-81.42, 31.24], [-81.42, 31.24], [-81.4, 31.25], [-81.39, 31.25], [-81.39, 31.25]]], [[[-81.29, 31.48], [-81.29, 31.48], [-81.3, 31.47], [-81.3, 31.47], [-81.3, 31.46], [-81.31, 31.45], [-81.32, 31.46], [-81.33, 31.48], [-81.32, 31.48], [-81.3, 31.48], [-81.3, 31.48], [-81.29, 31.48]]], [[[-81.32, 31.45], [-81.31, 31.44], [-81.32, 31.43], [-81.33, 31.44], [-81.34, 31.45], [-81.33, 31.45], [-81.32, 31.45]]], [[[-81.5, 30.82], [-81.5, 30.82], [-81.5, 30.8], [-81.51, 30.8], [-81.52, 30.8], [-81.52, 30.81], [-81.51, 30.82], [-81.5, 30.82]]], [[[-81.41, 31.17], [-81.43, 31.16], [-81.43, 31.16], [-81.42, 31.17], [-81.41, 31.17]]], [[[-81.51, 30.83], [-81.52, 30.82], [-81.53, 30.84], [-81.52, 30.84], [-81.51, 30.83]]]]}}, {"type": "Feature", "properties": {"STATE": "Georgia", "STATE_FIPS": "13", "CD_2DIG": "04", "STATE_CODE": 9, "CLIMDIV": 904, "ID": 904, "CD_NEW": 4, "FIPS_CD": "1304", "NCDC_GEO_I": 55.0, "NAME": "WEST CENTRAL", "ST_ABBRV": "GA", "SHAPE_AREA": 0.0, "SHAPE_LEN": 0.0}, "geometry": {"type": "Polygon", "coordinates": [[[-84.73, 33.81], [-84.62, 33.8], [-84.62, 33.8], [-84.58, 33.75], [-84.58, 33.73], [-84.6, 33.72], [-84.61, 33.71], [-84.63, 33.7], [-84.63, 33.69], [-84.64, 33.68], [-84.65, 33.68], [-84.65, 33.67], [-84.66, 33.66], [-84.68, 33.66], [-84.69, 33.65], [-84.71, 33.65], [-84.73, 33.64], [-84.74, 33.62], [-84.75, 33.63], [-84.75, 33.63], [-84.76, 33.61], [-84.77, 33.61], [-84.8, 33.6], [-84.81, 33.59], [-84.81, 33.57], [-84.82, 33.56], [-84.83, 33.55], [-84.82, 33.52], [-84.82, 33.52], [-84.83, 33.51], [-84.84, 33.51], [-84.85, 33.51], [-84.74, 33.51], [-84.67, 33.51], [-84.62, 33.51], [-84.62, 33.5], [-84.61, 33.5], [-84.6, 33.51], [-84.59, 33.52], [-84.51, 33.54], [-84.46, 33.55], [-84.46, 33.65], [-84.45, 33.64], [-84.44, 33.65], [-84.32, 33.65], [-84.24, 33.65], [-84.24, 33.63], [-84.22, 33.63], [-84.22, 33.65], [-84.18, 33.65], [-84.18, 33.63], [-84.15, 33.6], [-84.15, 33.59], [-84.13, 33.56], [-84.11, 33.57], [-84.09, 33.56], [-84.08, 33.56], [-84.06, 33.54], [-84.05, 33.54], [-84.05, 33.53], [-84.03, 33.5], [-84.02, 33.5], [-84.01, 33.49], [-83.99, 33.49], [-83.95, 33.48], [-83.94, 33.47], [-83.94, 33.47], [-83.93, 33.45], [-83.92, 33.45], [-83.98, 33.4], [-83.97, 33.4], [-83.97, 33.39], [-83.98, 33.39], [-84.01, 33.36], [-84.03, 33.36], [-84.03, 33.33], [-84.04, 33.33], [-84.04, 33.33], [-84.05, 33.33], [-84.05, 33.32], [-84.07, 33.32], [-84.07, 33.3], [-84.1, 33.3], [-84.1, 33.3], [-84.09, 33.29], [-84.12, 33.25], [-84.12, 33.2], [-84.04, 33.2], [-84.04, 33.14], [-84.04, 33.11], [-84.04, 32.98], [-84.04, 32.95], [-84.05, 32.95], [-84.05, 32.93], [-84.12, 32.93], [-84.12, 32.86], [-84.12, 32.8], [-84.15, 32.8], [-84.17, 32.75], [-84.2, 32.69], [-84.2, 32.68], [-84.17, 32.68], [-84.15, 32.68], [-84.15, 32.69], [-84.14, 32.68], [-84.13, 32.67], [-84.11, 32.68], [-84.1, 32.67], [-84.09, 32.66], [-84.08, 32.65], [-84.07, 32.64], [-84.07, 32.64], [-84.06, 32.63], [-84.07, 32.63], [-84.07, 32.62], [-84.07, 32.61], [-84.07, 32.6], [-84.07, 32.59], [-84.06, 32.58], [-84.05, 32.57], [-84.05, 32.56], [-84.03, 32.56], [-84.03, 32.55], [-84.02, 32.55], [-84.01, 32.54], [-84.01, 32.54], [-84.01, 32.52], [-84.02, 32.51], [-83.99, 32.51], [-83.99, 32.51], [-83.97, 32.51], [-83.97, 32.51], [-83.92, 32.5], [-83.93, 32.48], [-83.92, 32.48], [-83.92, 32.5], [-83.9, 32.5], [-83.88, 32.49], [-83.87, 32.48], [-83.85, 32.47], [-83.85, 32.47], [-83.85, 32.44], [-83.84, 32.44], [-83.84, 32.38], [-83.86, 32.38], [-83.86, 32.36], [-83.85, 32.36], [-83.85, 32.29], [-83.9, 32.29], [-83.9, 32.28], [-83.91, 32.28], [-83.92, 32.27], [-83.94, 32.26], [-83.95, 32.25], [-83.96, 32.25], [-83.98, 32.23], [-84.0, 32.21], [-84.01, 32.2], [-84.02, 32.18], [-84.03, 32.18], [-84.03, 32.17], [-84.04, 32.18], [-84.05, 32.19], [-84.06, 32.18], [-84.07, 32.18], [-84.08, 32.19], [-84.13, 32.19], [-84.13, 32.19], [-84.13, 32.23], [-84.18, 32.23], [-84.18, 32.16], [-84.25, 32.16], [-84.26, 32.17], [-84.28, 32.16], [-84.32, 32.16], [-84.43, 32.17], [-84.43, 32.13], [-84.53, 32.13], [-84.53, 32.15], [-84.54, 32.15], [-84.54, 32.16], [-84.55, 32.16], [-84.55, 32.18], [-84.56, 32.18], [-84.56, 32.19], [-84.6, 32.19], [-84.6, 32.2], [-84.6, 32.21], [-84.61, 32.23], [-84.62, 32.23], [-84.62, 32.23], [-84.66, 32.23], [-84.78, 32.23], [-84.8, 32.23], [-84.8, 32.22], [-84.81, 32.22], [-84.81, 32.23], [-84.92, 32.23], [-84.9, 32.26], [-84.89, 32.26], [-84.9, 32.27], [-84.92, 32.29], [-84.93, 32.3], [-85.01, 32.33], [-85.01, 32.34], [-85.0, 32.35], [-84.98, 32.36], [-84.99, 32.37], [-84.97, 32.38], [-84.99, 32.39], [-84.98, 32.39], [-84.98, 32.41], [-84.96, 32.42], [-84.97, 32.44], [-84.99, 32.45], [-85.0, 32.47], [-85.0, 32.49], [-85.0, 32.51], [-85.01, 32.52], [-85.01, 32.53], [-85.02, 32.54], [-85.03, 32.54], [-85.03, 32.55], [-85.07, 32.58], [-85.08, 32.6], [-85.08, 32.62], [-85.09, 32.62], [-85.08, 32.63], [-85.1, 32.64], [-85.09, 32.66], [-85.1, 32.67], [-85.1, 32.68], [-85.11, 32.68], [-85.12, 32.69], [-85.12, 32.72], [-85.11, 32.73], [-85.12, 32.74], [-85.13, 32.74], [-85.14, 32.76], [-85.14, 32.77], [-85.12, 32.77], [-85.13, 32.78], [-85.14, 32.79], [-85.14, 32.79], [-85.15, 32.79], [-85.17, 32.81], [-85.17, 32.83], [-85.17, 32.83], [-85.15, 32.84], [-85.16, 32.86], [-85.18, 32.85], [-85.18, 32.86], [-85.19, 32.87], [-85.2, 32.95], [-85.23, 33.11], [-85.28, 33.35], [-85.3, 33.48], [-85.33, 33.62], [-85.36, 33.75], [-85.37, 33.84], [-85.39, 33.9], [-85.21, 33.9], [-85.21, 33.91], [-85.08, 33.9], [-85.06, 33.9], [-85.04, 33.9], [-85.04, 33.81], [-84.97, 33.8], [-84.92, 33.79], [-84.88, 33.77], [-84.86, 33.77], [-84.83, 33.78], [-84.75, 33.79], [-84.73, 33.79], [-84.73, 33.81]]]}}, {"type": "Feature", "properties": {"STATE": "Georgia", "STATE_FIPS": "13", "CD_2DIG": "05", "STATE_CODE": 9, "CLIMDIV": 905, "ID": 905, "CD_NEW": 5, "FIPS_CD": "1305", "NCDC_GEO_I": 56.0, "NAME": "CENTRAL", "ST_ABBRV": "GA", "SHAPE_AREA": 0.0, "SHAPE_LEN": 0.0}, "geometry": {"type": "Polygon", "coordinates": [[[-83.28, 33.76], [-83.13, 33.71], [-83.12, 33.7], [-83.05, 33.72], [-83.03, 33.7], [-83.02, 33.69], [-83.01, 33.69], [-83.0, 33.69], [-82.99, 33.71], [-82.97, 33.72], [-82.95, 33.73], [-82.89, 33.63], [-82.89, 33.63], [-82.87, 33.63], [-82.87, 33.64], [-82.85, 33.64], [-82.83, 33.65], [-82.81, 33.66], [-82.81, 33.65], [-82.76, 33.62], [-82.75, 33.62], [-82.74, 33.61], [-82.73, 33.61], [-82.72, 33.61], [-82.71, 33.61], [-82.7, 33.62], [-82.69, 33.62], [-82.69, 33.6], [-82.68, 33.6], [-82.69, 33.59], [-82.69, 33.59], [-82.7, 33.59], [-82.7, 33.58], [-82.72, 33.56], [-82.72, 33.55], [-82.72, 33.54], [-82.74, 33.53], [-82.75, 33.51], [-82.77, 33.51], [-82.79, 33.51], [-82.82, 33.52], [-82.82, 33.51], [-82.82, 33.5], [-82.84, 33.5], [-82.84, 33.49], [-82.86, 33.47], [-82.86, 33.47], [-82.86, 33.46], [-82.84, 33.43], [-82.84, 33.43], [-82.82, 33.43], [-82.83, 33.41], [-82.82, 33.41], [-82.83, 33.4], [-82.82, 33.38], [-82.82, 33.38], [-82.81, 33.37], [-82.8, 33.37], [-82.8, 33.36], [-82.8, 33.33], [-82.79, 33.31], [-82.78, 33.31], [-82.78, 33.3], [-82.79, 33.27], [-82.77, 33.26], [-82.75, 33.25], [-82.75, 33.24], [-82.74, 33.23], [-82.74, 33.22], [-82.73, 33.21], [-82.74, 33.19], [-82.74, 33.19], [-82.74, 33.17], [-82.72, 33.17], [-82.71, 33.16], [-82.71, 33.15], [-82.7, 33.14], [-82.69, 33.14], [-82.68, 33.13], [-82.67, 33.13], [-82.65, 33.11], [-82.65, 33.1], [-82.64, 33.1], [-82.64, 33.08], [-82.63, 33.07], [-82.63, 33.06], [-82.62, 33.06], [-82.61, 33.05], [-82.6, 33.05], [-82.6, 33.03], [-82.58, 33.03], [-82.58, 33.02], [-82.56, 33.01], [-82.55, 33.02], [-82.54, 32.98], [-82.54, 32.95], [-82.51, 32.92], [-82.52, 32.87], [-82.52, 32.86], [-82.52, 32.85], [-82.53, 32.83], [-82.52, 32.82], [-82.5, 32.8], [-82.48, 32.79], [-82.47, 32.78], [-82.45, 32.76], [-82.43, 32.76], [-82.45, 32.73], [-82.45, 32.72], [-82.47, 32.71], [-82.5, 32.69], [-82.49, 32.67], [-82.49, 32.66], [-82.47, 32.65], [-82.47, 32.64], [-82.49, 32.63], [-82.5, 32.64], [-82.52, 32.63], [-82.51, 32.63], [-82.59, 32.58], [-82.59, 32.57], [-82.59, 32.56], [-82.56, 32.53], [-82.59, 32.53], [-82.59, 32.54], [-82.6, 32.52], [-82.62, 32.52], [-82.64, 32.52], [-82.64, 32.51], [-82.62, 32.5], [-82.59, 32.51], [-82.56, 32.51], [-82.55, 32.5], [-82.53, 32.5], [-82.52, 32.5], [-82.5, 32.5], [-82.49, 32.49], [-82.47, 32.49], [-82.47, 32.48], [-82.46, 32.48], [-82.43, 32.47], [-82.42, 32.46], [-82.4, 32.45], [-82.39, 32.44], [-82.38, 32.44], [-82.39, 32.41], [-82.39, 32.4], [-82.4, 32.39], [-82.41, 32.38], [-82.41, 32.37], [-82.41, 32.35], [-82.43, 32.3], [-82.43, 32.28], [-82.43, 32.27], [-82.44, 32.24], [-82.46, 32.12], [-82.47, 32.03], [-82.48, 31.99], [-82.48, 31.97], [-82.5, 31.96], [-82.48, 31.95], [-82.5, 31.95], [-82.52, 31.96], [-82.53, 31.96], [-82.55, 31.96], [-82.56, 31.96], [-82.56, 31.96], [-82.58, 31.95], [-82.59, 31.94], [-82.6, 31.93], [-82.6, 31.94], [-82.61, 31.93], [-82.63, 31.93], [-82.64, 31.92], [-82.65, 31.92], [-82.65, 31.93], [-82.67, 31.93], [-82.7, 31.96], [-82.7, 31.97], [-82.71, 31.97], [-82.73, 32.01], [-82.75, 32.01], [-82.77, 32.02], [-82.79, 32.02], [-82.8, 32.04], [-82.81, 32.05], [-82.83, 32.05], [-82.84, 32.06], [-82.85, 32.06], [-82.87, 32.07], [-82.87, 32.07], [-82.9, 32.09], [-82.9, 32.1], [-82.9, 32.11], [-82.92, 32.12], [-82.93, 32.13], [-82.93, 32.14], [-82.93, 32.14], [-82.93, 32.15], [-82.93, 32.15], [-82.96, 32.14], [-82.94, 32.12], [-83.01, 32.06], [-83.12, 31.98], [-83.21, 31.9], [-83.22, 31.91], [-83.22, 31.93], [-83.25, 31.95], [-83.26, 31.95], [-83.27, 31.96], [-83.28, 31.97], [-83.29, 31.98], [-83.29, 31.99], [-83.28, 31.99], [-83.28, 32.0], [-83.29, 32.0], [-83.3, 32.01], [-83.29, 32.02], [-83.3, 32.04], [-83.31, 32.05], [-83.3, 32.06], [-83.3, 32.07], [-83.31, 32.09], [-83.32, 32.09], [-83.33, 32.1], [-83.34, 32.11], [-83.35, 32.1], [-83.36, 32.13], [-83.42, 32.13], [-83.42, 32.13], [-83.44, 32.13], [-83.44, 32.12], [-83.45, 32.12], [-83.54, 32.12], [-83.54, 32.13], [-83.55, 32.13], [-83.55, 32.12], [-83.61, 32.12], [-83.61, 32.24], [-83.62, 32.24], [-83.62, 32.25], [-83.61, 32.25], [-83.61, 32.29], [-83.7, 32.29], [-83.7, 32.28], [-83.72, 32.28], [-83.72, 32.29], [-83.85, 32.29], [-83.85, 32.36], [-83.86, 32.36], [-83.86, 32.38], [-83.84, 32.38], [-83.84, 32.44], [-83.85, 32.44], [-83.85, 32.47], [-83.85, 32.47], [-83.87, 32.48], [-83.88, 32.49], [-83.9, 32.5], [-83.92, 32.5], [-83.92, 32.48], [-83.93, 32.48], [-83.92, 32.5], [-83.97, 32.51], [-83.97, 32.51], [-83.99, 32.51], [-83.99, 32.51], [-84.02, 32.51], [-84.01, 32.52], [-84.01, 32.54], [-84.01, 32.54], [-84.02, 32.55], [-84.03, 32.55], [-84.03, 32.56], [-84.05, 32.56], [-84.05, 32.57], [-84.06, 32.58], [-84.07, 32.59], [-84.07, 32.6], [-84.07, 32.61], [-84.07, 32.62], [-84.07, 32.63], [-84.06, 32.63], [-84.07, 32.64], [-84.07, 32.64], [-84.08, 32.65], [-84.09, 32.66], [-84.1, 32.67], [-84.11, 32.68], [-84.13, 32.67], [-84.14, 32.68], [-84.15, 32.69], [-84.15, 32.68], [-84.17, 32.68], [-84.2, 32.68], [-84.2, 32.69], [-84.17, 32.75], [-84.15, 32.8], [-84.12, 32.8], [-84.12, 32.86], [-84.12, 32.93], [-84.05, 32.93], [-84.05, 32.95], [-84.04, 32.95], [-84.04, 32.98], [-84.04, 33.11], [-84.04, 33.14], [-84.04, 33.2], [-84.12, 33.2], [-84.12, 33.25], [-84.09, 33.29], [-84.1, 33.3], [-84.1, 33.3], [-84.07, 33.3], [-84.07, 33.32], [-84.05, 33.32], [-84.05, 33.33], [-84.04, 33.33], [-84.04, 33.33], [-84.03, 33.33], [-84.03, 33.36], [-84.01, 33.36], [-83.98, 33.39], [-83.97, 33.39], [-83.97, 33.4], [-83.98, 33.4], [-83.92, 33.45], [-83.93, 33.45], [-83.94, 33.47], [-83.94, 33.47], [-83.95, 33.48], [-83.99, 33.49], [-84.01, 33.49], [-84.02, 33.5], [-84.03, 33.5], [-84.05, 33.53], [-84.05, 33.54], [-84.06, 33.54], [-84.08, 33.56], [-84.09, 33.56], [-84.11, 33.57], [-84.13, 33.56], [-84.15, 33.59], [-84.15, 33.6], [-84.18, 33.63], [-84.18, 33.65], [-84.16, 33.64], [-84.14, 33.64], [-84.14, 33.63], [-84.12, 33.62], [-84.12, 33.61], [-84.1, 33.64], [-84.09, 33.67], [-84.08, 33.67], [-84.06, 33.72], [-84.05, 33.73], [-84.02, 33.76], [-83.98, 33.79], [-83.92, 33.74], [-83.76, 33.65], [-83.73, 33.65], [-83.69, 33.62], [-83.7, 33.61], [-83.68, 33.6], [-83.63, 33.66], [-83.53, 33.78], [-83.53, 33.8], [-83.51, 33.81], [-83.51, 33.82], [-83.5, 33.82], [-83.47, 33.79], [-83.47, 33.78], [-83.46, 33.77], [-83.46, 33.76], [-83.45, 33.74], [-83.45, 33.73], [-83.45, 33.72], [-83.43, 33.72], [-83.42, 33.72], [-83.42, 33.7], [-83.41, 33.7], [-83.3, 33.73], [-83.29, 33.75], [-83.28, 33.76]]]}}, {"type": "Feature", "properties": {"STATE": "Georgia", "STATE_FIPS": "13", "CD_2DIG": "06", "STATE_CODE": 9, "CLIMDIV": 906, "ID": 906, "CD_NEW": 6, "FIPS_CD": "1306", "NCDC_GEO_I": 57.0, "NAME": "EAST CENTRAL", "ST_ABBRV": "GA", "SHAPE_AREA": 0.0, "SHAPE_LEN": 0.0}, "geometry": {"type": "Polygon", "coordinates": [[[-82.22, 33.69], [-82.21, 33.67], [-82.2, 33.66], [-82.2, 33.65], [-82.2, 33.63], [-82.17, 33.61], [-82.16, 33.61], [-82.15, 33.6], [-82.14, 33.59], [-82.13, 33.59], [-82.12, 33.6], [-82.11, 33.6], [-82.09, 33.58], [-82.07, 33.58], [-82.06, 33.57], [-82.05, 33.56], [-82.02, 33.54], [-82.01, 33.53], [-82.0, 33.52], [-81.99, 33.5], [-81.99, 33.49], [-81.93, 33.47], [-81.93, 33.46], [-81.91, 33.44], [-81.92, 33.43], [-81.93, 33.43], [-81.93, 33.42], [-81.91, 33.42], [-81.92, 33.41], [-81.93, 33.41], [-81.94, 33.4], [-81.94, 33.4], [-81.93, 33.38], [-81.92, 33.38], [-81.93, 33.37], [-81.94, 33.37], [-81.95, 33.37], [-81.94, 33.36], [-81.94, 33.35], [-81.92, 33.35], [-81.92, 33.33], [-81.91, 33.33], [-81.89, 33.32], [-81.88, 33.31], [-81.85, 33.31], [-81.85, 33.31], [-81.85, 33.3], [-81.86, 33.3], [-81.86, 33.29], [-81.85, 33.28], [-81.84, 33.27], [-81.84, 33.26], [-81.85, 33.25], [-81.84, 33.24], [-81.83, 33.23], [-81.81, 33.22], [-81.81, 33.21], [-81.79, 33.21], [-81.78, 33.21], [-81.77, 33.22], [-81.76, 33.2], [-81.76, 33.2], [-81.76, 33.19], [-81.77, 33.18], [-81.77, 33.17], [-81.76, 33.16], [-81.74, 33.14], [-81.73, 33.13], [-81.72, 33.13], [-81.7, 33.12], [-81.68, 33.11], [-81.66, 33.1], [-81.65, 33.09], [-81.64, 33.09], [-81.61, 33.1], [-81.6, 33.09], [-81.59, 33.07], [-81.58, 33.07], [-81.57, 33.05], [-81.57, 33.05], [-81.54, 33.04], [-81.51, 33.03], [-81.5, 33.02], [-81.49, 33.01], [-81.49, 33.0], [-81.5, 32.99], [-81.49, 32.98], [-81.5, 32.96], [-81.51, 32.97], [-81.51, 32.95], [-81.5, 32.94], [-81.5, 32.94], [-81.48, 32.92], [-81.48, 32.91], [-81.48, 32.9], [-81.47, 32.89], [-81.48, 32.88], [-81.47, 32.88], [-81.45, 32.87], [-81.46, 32.85], [-81.44, 32.85], [-81.44, 32.84], [-81.43, 32.84], [-81.42, 32.82], [-81.43, 32.81], [-81.42, 32.78], [-81.43, 32.77], [-81.42, 32.77], [-81.41, 32.76], [-81.42, 32.75], [-81.41, 32.75], [-81.41, 32.74], [-81.42, 32.73], [-81.42, 32.71], [-81.43, 32.7], [-81.41, 32.69], [-81.4, 32.68], [-81.4, 32.67], [-81.4, 32.66], [-81.39, 32.65], [-81.41, 32.64], [-81.41, 32.63], [-81.42, 32.63], [-81.41, 32.61], [-81.38, 32.59], [-81.36, 32.58], [-81.36, 32.57], [-81.32, 32.56], [-81.3, 32.56], [-81.3, 32.55], [-81.28, 32.55], [-81.27, 32.54], [-81.27, 32.53], [-81.25, 32.52], [-81.23, 32.52], [-81.24, 32.51], [-81.23, 32.5], [-81.2, 32.47], [-81.19, 32.47], [-81.2, 32.45], [-81.21, 32.45], [-81.2, 32.44], [-81.21, 32.44], [-81.2, 32.42], [-81.18, 32.39], [-81.18, 32.38], [-81.17, 32.37], [-81.17, 32.36], [-81.16, 32.35], [-81.14, 32.35], [-81.14, 32.34], [-81.13, 32.34], [-81.14, 32.33], [-81.13, 32.32], [-81.12, 32.31], [-81.12, 32.29], [-81.12, 32.29], [-81.13, 32.28], [-81.13, 32.27], [-81.15, 32.26], [-81.15, 32.25], [-81.16, 32.24], [-81.14, 32.23], [-81.2, 32.24], [-81.33, 32.14], [-81.39, 32.1], [-81.39, 32.11], [-81.4, 32.1], [-81.41, 32.12], [-81.41, 32.14], [-81.4, 32.15], [-81.41, 32.16], [-81.41, 32.17], [-81.42, 32.21], [-81.43, 32.22], [-81.43, 32.23], [-81.44, 32.24], [-81.57, 32.21], [-81.62, 32.19], [-81.78, 32.15], [-81.78, 32.18], [-81.79, 32.18], [-81.79, 32.19], [-81.8, 32.2], [-81.81, 32.2], [-81.8, 32.22], [-81.82, 32.24], [-81.84, 32.24], [-81.85, 32.25], [-81.86, 32.26], [-81.87, 32.26], [-81.89, 32.27], [-81.92, 32.27], [-81.94, 32.27], [-81.95, 32.27], [-81.96, 32.27], [-81.97, 32.27], [-82.0, 32.28], [-82.03, 32.28], [-82.23, 32.32], [-82.28, 32.29], [-82.31, 32.29], [-82.33, 32.29], [-82.35, 32.29], [-82.36, 32.31], [-82.38, 32.34], [-82.39, 32.34], [-82.4, 32.35], [-82.41, 32.35], [-82.41, 32.37], [-82.41, 32.38], [-82.4, 32.39], [-82.39, 32.4], [-82.39, 32.41], [-82.38, 32.44], [-82.39, 32.44], [-82.4, 32.45], [-82.42, 32.46], [-82.43, 32.47], [-82.46, 32.48], [-82.47, 32.48], [-82.47, 32.49], [-82.49, 32.49], [-82.5, 32.5], [-82.52, 32.5], [-82.53, 32.5], [-82.55, 32.5], [-82.56, 32.51], [-82.59, 32.51], [-82.62, 32.5], [-82.64, 32.51], [-82.64, 32.52], [-82.62, 32.52], [-82.6, 32.52], [-82.59, 32.54], [-82.59, 32.53], [-82.56, 32.53], [-82.59, 32.56], [-82.59, 32.57], [-82.59, 32.58], [-82.51, 32.63], [-82.52, 32.63], [-82.5, 32.64], [-82.49, 32.63], [-82.47, 32.64], [-82.47, 32.65], [-82.49, 32.66], [-82.49, 32.67], [-82.5, 32.69], [-82.47, 32.71], [-82.45, 32.72], [-82.45, 32.73], [-82.43, 32.76], [-82.45, 32.76], [-82.47, 32.78], [-82.48, 32.79], [-82.5, 32.8], [-82.52, 32.82], [-82.53, 32.83], [-82.52, 32.85], [-82.52, 32.86], [-82.52, 32.87], [-82.51, 32.92], [-82.54, 32.95], [-82.54, 32.98], [-82.55, 33.02], [-82.56, 33.01], [-82.58, 33.02], [-82.58, 33.03], [-82.6, 33.03], [-82.6, 33.05], [-82.61, 33.05], [-82.62, 33.06], [-82.63, 33.06], [-82.63, 33.07], [-82.64, 33.08], [-82.64, 33.1], [-82.65, 33.1], [-82.65, 33.11], [-82.67, 33.13], [-82.68, 33.13], [-82.69, 33.14], [-82.7, 33.14], [-82.71, 33.15], [-82.71, 33.16], [-82.72, 33.17], [-82.74, 33.17], [-82.74, 33.19], [-82.74, 33.19], [-82.73, 33.21], [-82.74, 33.22], [-82.74, 33.23], [-82.75, 33.24], [-82.75, 33.25], [-82.77, 33.26], [-82.79, 33.27], [-82.78, 33.3], [-82.78, 33.31], [-82.79, 33.31], [-82.8, 33.33], [-82.8, 33.36], [-82.8, 33.37], [-82.81, 33.37], [-82.82, 33.38], [-82.82, 33.38], [-82.83, 33.4], [-82.82, 33.41], [-82.83, 33.41], [-82.82, 33.43], [-82.84, 33.43], [-82.84, 33.43], [-82.86, 33.46], [-82.86, 33.47], [-82.86, 33.47], [-82.84, 33.49], [-82.84, 33.5], [-82.82, 33.5], [-82.82, 33.51], [-82.82, 33.52], [-82.79, 33.51], [-82.77, 33.51], [-82.75, 33.51], [-82.74, 33.53], [-82.72, 33.54], [-82.72, 33.55], [-82.72, 33.56], [-82.7, 33.58], [-82.7, 33.59], [-82.69, 33.59], [-82.69, 33.59], [-82.68, 33.6], [-82.67, 33.6], [-82.66, 33.6], [-82.65, 33.61], [-82.64, 33.61], [-82.63, 33.61], [-82.62, 33.61], [-82.62, 33.62], [-82.62, 33.63], [-82.62, 33.63], [-82.6, 33.64], [-82.58, 33.63], [-82.57, 33.65], [-82.54, 33.64], [-82.54, 33.65], [-82.53, 33.64], [-82.51, 33.66], [-82.49, 33.65], [-82.48, 33.64], [-82.46, 33.64], [-82.43, 33.66], [-82.41, 33.65], [-82.41, 33.67], [-82.4, 33.67], [-82.38, 33.67], [-82.36, 33.68], [-82.35, 33.68], [-82.35, 33.7], [-82.34, 33.69], [-82.33, 33.7], [-82.31, 33.7], [-82.29, 33.69], [-82.28, 33.68], [-82.25, 33.69], [-82.24, 33.69], [-82.23, 33.69], [-82.22, 33.69]]]}}, {"type": "Feature", "properties": {"STATE": "Georgia", "STATE_FIPS": "13", "CD_2DIG": "01", "STATE_CODE": 9, "CLIMDIV": 901, "ID": 901, "CD_NEW": 1, "FIPS_CD": "1301", "NCDC_GEO_I": 58.0, "NAME": "NORTHWEST", "ST_ABBRV": "GA", "SHAPE_AREA": 0.0, "SHAPE_LEN": 0.0}, "geometry": {"type": "Polygon", "coordinates": [[[-84.62, 34.99], [-84.62, 34.97], [-84.62, 34.96], [-84.62, 34.86], [-84.61, 34.85], [-84.61, 34.84], [-84.59, 34.84], [-84.59, 34.83], [-84.58, 34.82], [-84.59, 34.81], [-84.6, 34.81], [-84.61, 34.79], [-84.64, 34.78], [-84.64, 34.77], [-84.64, 34.75], [-84.65, 34.75], [-84.66, 34.73], [-84.66, 34.69], [-84.65, 34.63], [-84.65, 34.58], [-84.65, 34.5], [-84.65, 34.41], [-84.65, 34.36], [-84.64, 34.36], [-84.64, 34.35], [-84.65, 34.35], [-84.65, 34.26], [-84.65, 34.23], [-84.66, 34.2], [-84.66, 34.13], [-84.66, 34.08], [-84.74, 34.08], [-84.74, 34.01], [-84.74, 33.95], [-84.72, 33.95], [-84.72, 33.89], [-84.73, 33.81], [-84.73, 33.79], [-84.75, 33.79], [-84.83, 33.78], [-84.86, 33.77], [-84.88, 33.77], [-84.92, 33.79], [-84.97, 33.8], [-85.04, 33.81], [-85.04, 33.9], [-85.06, 33.9], [-85.08, 33.9], [-85.21, 33.91], [-85.21, 33.9], [-85.39, 33.9], [-85.4, 33.96], [-85.41, 34.02], [-85.42, 34.09], [-85.43, 34.13], [-85.47, 34.31], [-85.48, 34.38], [-85.51, 34.52], [-85.53, 34.63], [-85.56, 34.75], [-85.58, 34.82], [-85.6, 34.93], [-85.61, 34.98], [-85.47, 34.98], [-85.39, 34.98], [-85.24, 34.99], [-85.05, 34.99], [-84.95, 34.99], [-84.81, 34.99], [-84.75, 34.99], [-84.62, 34.99], [-84.62, 34.99]]]}}, {"type": "Feature", "properties": {"STATE": "Georgia", "STATE_FIPS": "13", "CD_2DIG": "02", "STATE_CODE": 9, "CLIMDIV": 902, "ID": 902, "CD_NEW": 2, "FIPS_CD": "1302", "NCDC_GEO_I": 59.0, "NAME": "NORTH CENTRAL", "ST_ABBRV": "GA", "SHAPE_AREA": 0.0, "SHAPE_LEN": 0.0}, "geometry": {"type": "Polygon", "coordinates": [[[-83.55, 34.99], [-83.55, 34.97], [-83.55, 34.95], [-83.58, 34.94], [-83.6, 34.94], [-83.6, 34.91], [-83.61, 34.91], [-83.63, 34.91], [-83.63, 34.89], [-83.65, 34.89], [-83.65, 34.88], [-83.66, 34.85], [-83.66, 34.83], [-83.65, 34.82], [-83.67, 34.81], [-83.68, 34.8], [-83.68, 34.79], [-83.67, 34.79], [-83.65, 34.77], [-83.64, 34.77], [-83.63, 34.76], [-83.63, 34.75], [-83.62, 34.73], [-83.63, 34.73], [-83.64, 34.71], [-83.64, 34.7], [-83.64, 34.68], [-83.65, 34.67], [-83.66, 34.66], [-83.66, 34.65], [-83.64, 34.62], [-83.65, 34.61], [-83.64, 34.6], [-83.64, 34.59], [-83.64, 34.58], [-83.62, 34.55], [-83.62, 34.54], [-83.63, 34.53], [-83.65, 34.52], [-83.66, 34.52], [-83.67, 34.5], [-83.62, 34.43], [-83.62, 34.42], [-83.64, 34.42], [-83.65, 34.41], [-83.66, 34.4], [-83.66, 34.39], [-83.66, 34.38], [-83.67, 34.37], [-83.66, 34.36], [-83.65, 34.35], [-83.65, 34.33], [-83.65, 34.32], [-83.64, 34.31], [-83.62, 34.3], [-83.62, 34.29], [-83.6, 34.28], [-83.59, 34.27], [-83.57, 34.26], [-83.56, 34.25], [-83.53, 34.26], [-83.49, 34.26], [-83.48, 34.26], [-83.44, 34.23], [-83.43, 34.22], [-83.42, 34.21], [-83.4, 34.19], [-83.39, 34.19], [-83.39, 34.18], [-83.38, 34.17], [-83.36, 34.16], [-83.36, 34.14], [-83.36, 34.12], [-83.36, 34.11], [-83.37, 34.09], [-83.38, 34.07], [-83.38, 34.07], [-83.38, 34.06], [-83.39, 34.05], [-83.35, 34.04], [-83.34, 34.04], [-83.32, 34.03], [-83.3, 34.01], [-83.28, 34.0], [-83.26, 34.01], [-83.27, 33.98], [-83.28, 33.98], [-83.27, 33.97], [-83.27, 33.96], [-83.28, 33.95], [-83.28, 33.94], [-83.24, 33.9], [-83.28, 33.85], [-83.31, 33.81], [-83.29, 33.81], [-83.29, 33.8], [-83.28, 33.78], [-83.29, 33.77], [-83.28, 33.76], [-83.29, 33.75], [-83.3, 33.73], [-83.41, 33.7], [-83.42, 33.7], [-83.42, 33.72], [-83.43, 33.72], [-83.45, 33.72], [-83.45, 33.73], [-83.45, 33.74], [-83.46, 33.76], [-83.46, 33.77], [-83.47, 33.78], [-83.47, 33.79], [-83.5, 33.82], [-83.51, 33.82], [-83.51, 33.81], [-83.53, 33.8], [-83.53, 33.78], [-83.63, 33.66], [-83.68, 33.6], [-83.7, 33.61], [-83.69, 33.62], [-83.73, 33.65], [-83.76, 33.65], [-83.92, 33.74], [-83.98, 33.79], [-84.02, 33.76], [-84.05, 33.73], [-84.06, 33.72], [-84.08, 33.67], [-84.09, 33.67], [-84.1, 33.64], [-84.12, 33.61], [-84.12, 33.62], [-84.14, 33.63], [-84.14, 33.64], [-84.16, 33.64], [-84.18, 33.65], [-84.22, 33.65], [-84.22, 33.63], [-84.24, 33.63], [-84.24, 33.65], [-84.32, 33.65], [-84.44, 33.65], [-84.45, 33.64], [-84.46, 33.65], [-84.46, 33.55], [-84.51, 33.54], [-84.59, 33.52], [-84.6, 33.51], [-84.61, 33.5], [-84.62, 33.5], [-84.62, 33.51], [-84.67, 33.51], [-84.74, 33.51], [-84.85, 33.51], [-84.84, 33.51], [-84.83, 33.51], [-84.82, 33.52], [-84.82, 33.52], [-84.83, 33.55], [-84.82, 33.56], [-84.81, 33.57], [-84.81, 33.59], [-84.8, 33.6], [-84.77, 33.61], [-84.76, 33.61], [-84.75, 33.63], [-84.75, 33.63], [-84.74, 33.62], [-84.73, 33.64], [-84.71, 33.65], [-84.69, 33.65], [-84.68, 33.66], [-84.66, 33.66], [-84.65, 33.67], [-84.65, 33.68], [-84.64, 33.68], [-84.63, 33.69], [-84.63, 33.7], [-84.61, 33.71], [-84.6, 33.72], [-84.58, 33.73], [-84.58, 33.75], [-84.62, 33.8], [-84.62, 33.8], [-84.73, 33.81], [-84.72, 33.89], [-84.72, 33.95], [-84.74, 33.95], [-84.74, 34.01], [-84.74, 34.08], [-84.66, 34.08], [-84.66, 34.13], [-84.66, 34.2], [-84.65, 34.23], [-84.65, 34.26], [-84.65, 34.35], [-84.64, 34.35], [-84.64, 34.36], [-84.65, 34.36], [-84.65, 34.41], [-84.65, 34.5], [-84.65, 34.58], [-84.65, 34.63], [-84.66, 34.69], [-84.66, 34.73], [-84.65, 34.75], [-84.64, 34.75], [-84.64, 34.77], [-84.64, 34.78], [-84.61, 34.79], [-84.6, 34.81], [-84.59, 34.81], [-84.58, 34.82], [-84.59, 34.83], [-84.59, 34.84], [-84.61, 34.84], [-84.61, 34.85], [-84.62, 34.86], [-84.62, 34.96], [-84.62, 34.97], [-84.62, 34.99], [-84.5, 34.99], [-84.38, 34.99], [-84.32, 34.99], [-84.12, 34.99], [-84.0, 34.99], [-83.83, 34.99], [-83.75, 34.99], [-83.62, 34.99], [-83.62, 34.99], [-83.55, 34.99]]]}}, {"type": "Feature", "properties": {"STATE": "Georgia", "STATE_FIPS": "13", "CD_2DIG": "03", "STATE_CODE": 9, "CLIMDIV": 903, "ID": 903, "CD_NEW": 3, "FIPS_CD": "1303", "NCDC_GEO_I": 60.0, "NAME": "NORTHEAST", "ST_ABBRV": "GA", "SHAPE_AREA": 0.0, "SHAPE_LEN": 0.0}, "geometry": {"type": "Polygon", "coordinates": [[[-83.11, 35.0], [-83.1, 34.99], [-83.11, 34.98], [-83.12, 34.97], [-83.12, 34.95], [-83.13, 34.95], [-83.13, 34.93], [-83.14, 34.92], [-83.16, 34.93], [-83.16, 34.92], [-83.17, 34.92], [-83.17, 34.91], [-83.19, 34.9], [-83.2, 34.89], [-83.2, 34.88], [-83.21, 34.88], [-83.23, 34.88], [-83.24, 34.87], [-83.25, 34.86], [-83.25, 34.85], [-83.27, 34.85], [-83.27, 34.84], [-83.27, 34.83], [-83.28, 34.82], [-83.29, 34.82], [-83.3, 34.8], [-83.31, 34.8], [-83.32, 34.79], [-83.32, 34.77], [-83.33, 34.75], [-83.35, 34.74], [-83.35, 34.73], [-83.35, 34.72], [-83.35, 34.7], [-83.35, 34.7], [-83.34, 34.69], [-83.34, 34.68], [-83.32, 34.68], [-83.32, 34.67], [-83.3, 34.67], [-83.29, 34.65], [-83.28, 34.64], [-83.28, 34.64], [-83.26, 34.64], [-83.24, 34.62], [-83.24, 34.62], [-83.23, 34.61], [-83.21, 34.61], [-83.2, 34.6], [-83.17, 34.61], [-83.17, 34.59], [-83.15, 34.59], [-83.16, 34.58], [-83.14, 34.57], [-83.14, 34.56], [-83.12, 34.56], [-83.1, 34.54], [-83.1, 34.53], [-83.08, 34.53], [-83.08, 34.52], [-83.08, 34.51], [-83.07, 34.5], [-83.06, 34.5], [-83.05, 34.5], [-83.03, 34.48], [-83.03, 34.48], [-83.0, 34.47], [-82.99, 34.48], [-82.98, 34.48], [-82.96, 34.48], [-82.95, 34.48], [-82.94, 34.49], [-82.92, 34.48], [-82.9, 34.49], [-82.88, 34.48], [-82.87, 34.47], [-82.87, 34.46], [-82.86, 34.46], [-82.86, 34.44], [-82.85, 34.43], [-82.85, 34.42], [-82.85, 34.41], [-82.84, 34.38], [-82.84, 34.37], [-82.82, 34.36], [-82.8, 34.34], [-82.79, 34.33], [-82.79, 34.31], [-82.78, 34.3], [-82.77, 34.29], [-82.76, 34.28], [-82.74, 34.25], [-82.74, 34.25], [-82.74, 34.22], [-82.74, 34.21], [-82.73, 34.2], [-82.73, 34.18], [-82.73, 34.17], [-82.72, 34.15], [-82.7, 34.14], [-82.69, 34.14], [-82.68, 34.13], [-82.67, 34.11], [-82.66, 34.1], [-82.65, 34.1], [-82.64, 34.09], [-82.65, 34.08], [-82.64, 34.07], [-82.63, 34.06], [-82.61, 34.04], [-82.59, 34.03], [-82.6, 34.02], [-82.59, 34.0], [-82.58, 33.99], [-82.58, 33.98], [-82.57, 33.97], [-82.56, 33.96], [-82.56, 33.95], [-82.54, 33.94], [-82.52, 33.94], [-82.51, 33.94], [-82.49, 33.91], [-82.48, 33.9], [-82.46, 33.88], [-82.44, 33.87], [-82.42, 33.86], [-82.41, 33.87], [-82.38, 33.85], [-82.37, 33.84], [-82.35, 33.83], [-82.33, 33.82], [-82.31, 33.81], [-82.3, 33.8], [-82.3, 33.79], [-82.29, 33.78], [-82.28, 33.77], [-82.26, 33.76], [-82.25, 33.75], [-82.24, 33.73], [-82.23, 33.7], [-82.22, 33.69], [-82.23, 33.69], [-82.24, 33.69], [-82.25, 33.69], [-82.28, 33.68], [-82.29, 33.69], [-82.31, 33.7], [-82.33, 33.7], [-82.34, 33.69], [-82.35, 33.7], [-82.35, 33.68], [-82.36, 33.68], [-82.38, 33.67], [-82.4, 33.67], [-82.41, 33.67], [-82.41, 33.65], [-82.43, 33.66], [-82.46, 33.64], [-82.48, 33.64], [-82.49, 33.65], [-82.51, 33.66], [-82.53, 33.64], [-82.54, 33.65], [-82.54, 33.64], [-82.57, 33.65], [-82.58, 33.63], [-82.6, 33.64], [-82.62, 33.63], [-82.62, 33.63], [-82.62, 33.62], [-82.62, 33.61], [-82.63, 33.61], [-82.64, 33.61], [-82.65, 33.61], [-82.66, 33.6], [-82.67, 33.6], [-82.68, 33.6], [-82.69, 33.6], [-82.69, 33.62], [-82.7, 33.62], [-82.71, 33.61], [-82.72, 33.61], [-82.73, 33.61], [-82.74, 33.61], [-82.75, 33.62], [-82.76, 33.62], [-82.81, 33.65], [-82.81, 33.66], [-82.83, 33.65], [-82.85, 33.64], [-82.87, 33.64], [-82.87, 33.63], [-82.89, 33.63], [-82.89, 33.63], [-82.95, 33.73], [-82.97, 33.72], [-82.99, 33.71], [-83.0, 33.69], [-83.01, 33.69], [-83.02, 33.69], [-83.03, 33.7], [-83.05, 33.72], [-83.12, 33.7], [-83.13, 33.71], [-83.28, 33.76], [-83.29, 33.77], [-83.28, 33.78], [-83.29, 33.8], [-83.29, 33.81], [-83.31, 33.81], [-83.28, 33.85], [-83.24, 33.9], [-83.28, 33.94], [-83.28, 33.95], [-83.27, 33.96], [-83.27, 33.97], [-83.28, 33.98], [-83.27, 33.98], [-83.26, 34.01], [-83.28, 34.0], [-83.3, 34.01], [-83.32, 34.03], [-83.34, 34.04], [-83.35, 34.04], [-83.39, 34.05], [-83.38, 34.06], [-83.38, 34.07], [-83.38, 34.07], [-83.37, 34.09], [-83.36, 34.11], [-83.36, 34.12], [-83.36, 34.14], [-83.36, 34.16], [-83.38, 34.17], [-83.39, 34.18], [-83.39, 34.19], [-83.4, 34.19], [-83.42, 34.21], [-83.43, 34.22], [-83.44, 34.23], [-83.48, 34.26], [-83.49, 34.26], [-83.53, 34.26], [-83.56, 34.25], [-83.57, 34.26], [-83.59, 34.27], [-83.6, 34.28], [-83.62, 34.29], [-83.62, 34.3], [-83.64, 34.31], [-83.65, 34.32], [-83.65, 34.33], [-83.65, 34.35], [-83.66, 34.36], [-83.67, 34.37], [-83.66, 34.38], [-83.66, 34.39], [-83.66, 34.4], [-83.65, 34.41], [-83.64, 34.42], [-83.62, 34.42], [-83.62, 34.43], [-83.67, 34.5], [-83.66, 34.52], [-83.65, 34.52], [-83.63, 34.53], [-83.62, 34.54], [-83.62, 34.55], [-83.64, 34.58], [-83.64, 34.59], [-83.64, 34.6], [-83.65, 34.61], [-83.64, 34.62], [-83.66, 34.65], [-83.66, 34.66], [-83.65, 34.67], [-83.64, 34.68], [-83.64, 34.7], [-83.64, 34.71], [-83.63, 34.73], [-83.62, 34.73], [-83.63, 34.75], [-83.63, 34.76], [-83.64, 34.77], [-83.65, 34.77], [-83.67, 34.79], [-83.68, 34.79], [-83.68, 34.8], [-83.67, 34.81], [-83.65, 34.82], [-83.66, 34.83], [-83.66, 34.85], [-83.65, 34.88], [-83.65, 34.89], [-83.63, 34.89], [-83.63, 34.91], [-83.61, 34.91], [-83.6, 34.91], [-83.6, 34.94], [-83.58, 34.94], [-83.55, 34.95], [-83.55, 34.97], [-83.55, 34.99], [-83.48, 34.99], [-83.32, 35.0], [-83.19, 35.0], [-83.11, 35.0]]]}}]}