{"type": "FeatureCollection", "features": [{"type": "Feature", "properties": {"STATE": "Idaho", "STATE_FIPS": "16", "CD_2DIG": "01", "STATE_CODE": 10, "CLIMDIV": 1001, "ID": 1001, "CD_NEW": 1, "FIPS_CD": "1601", "NCDC_GEO_I": 3.0, "NAME": "PANHANDLE", "ST_ABBRV": "ID", "SHAPE_AREA": 0.0, "SHAPE_LEN": 0.0}, "geometry": {"type": "Polygon", "coordinates": [[[-116.05, 47.98], [-116.12, 48.03], [-116.22, 48.13], [-116.34, 48.15], [-116.51, 48.09], [-116.57, 48.0], [-116.62, 47.85], [-116.61, 47.69], [-116.58, 47.57], [-116.51, 47.4], [-116.54, 47.26], [-116.82, 47.12], [-117.04, 47.01], [-117.04, 47.01], [-117.04, 47.01], [-117.04, 47.02], [-117.04, 47.04], [-117.04, 47.05], [-117.04, 47.07], [-117.04, 47.09], [-117.04, 47.09], [-117.04, 47.1], [-117.04, 47.12], [-117.04, 47.13], [-117.04, 47.14], [-117.04, 47.15], [-117.04, 47.15], [-117.04, 47.17], [-117.04, 47.17], [-117.04, 47.19], [-117.04, 47.2], [-117.04, 47.2], [-117.04, 47.2], [-117.04, 47.22], [-117.04, 47.24], [-117.04, 47.24], [-117.04, 47.24], [-117.04, 47.27], [-117.04, 47.29], [-117.04, 47.32], [-117.04, 47.32], [-117.04, 47.32], [-117.04, 47.32], [-117.04, 47.32], [-117.04, 47.35], [-117.04, 47.39], [-117.04, 47.4], [-117.04, 47.41], [-117.04, 47.42], [-117.04, 47.47], [-117.04, 47.49], [-117.04, 47.49], [-117.04, 47.52], [-117.04, 47.53], [-117.04, 47.55], [-117.04, 47.56], [-117.04, 47.56], [-117.04, 47.57], [-117.04, 47.59], [-117.04, 47.65], [-117.04, 47.66], [-117.04, 47.66], [-117.04, 47.67], [-117.04, 47.68], [-117.04, 47.68], [-117.04, 47.69], [-117.04, 47.7], [-117.04, 47.71], [-117.04, 47.71], [-117.04, 47.74], [-117.04, 47.76], [-117.04, 47.77], [-117.04, 47.78], [-117.04, 47.79], [-117.04, 47.81], [-117.04, 47.83], [-117.04, 47.83], [-117.04, 47.84], [-117.04, 47.86], [-117.04, 47.86], [-117.04, 47.87], [-117.04, 47.87], [-117.04, 47.88], [-117.04, 47.88], [-117.04, 47.88], [-117.04, 47.89], [-117.04, 47.9], [-117.04, 47.91], [-117.04, 47.92], [-117.04, 47.93], [-117.04, 47.94], [-117.04, 47.94], [-117.04, 47.98], [-117.04, 47.99], [-117.04, 48.0], [-117.04, 48.0], [-117.04, 48.02], [-117.04, 48.07], [-117.04, 48.07], [-117.04, 48.07], [-117.04, 48.1], [-117.04, 48.11], [-117.04, 48.12], [-117.04, 48.13], [-117.04, 48.15], [-117.04, 48.16], [-117.04, 48.17], [-117.04, 48.18], [-117.04, 48.18], [-117.04, 48.18], [-117.04, 48.18], [-117.04, 48.18], [-117.04, 48.19], [-117.04, 48.19], [-117.04, 48.19], [-117.04, 48.2], [-117.04, 48.2], [-117.04, 48.2], [-117.04, 48.21], [-117.04, 48.22], [-117.04, 48.28], [-117.04, 48.29], [-117.04, 48.29], [-117.04, 48.31], [-117.04, 48.31], [-117.04, 48.34], [-117.04, 48.34], [-117.04, 48.35], [-117.04, 48.37], [-117.04, 48.37], [-117.04, 48.41], [-117.04, 48.42], [-117.04, 48.42], [-117.04, 48.42], [-117.04, 48.43], [-117.04, 48.44], [-117.04, 48.47], [-117.04, 48.47], [-117.04, 48.49], [-117.04, 48.49], [-117.04, 48.51], [-117.04, 48.53], [-117.04, 48.55], [-117.03, 48.57], [-117.03, 48.59], [-117.03, 48.61], [-117.03, 48.62], [-117.03, 48.62], [-117.03, 48.66], [-117.03, 48.69], [-117.03, 48.69], [-117.03, 48.69], [-117.03, 48.7], [-117.03, 48.7], [-117.03, 48.73], [-117.03, 48.78], [-117.03, 48.79], [-117.03, 48.81], [-117.03, 48.85], [-117.03, 48.87], [-117.03, 48.9], [-117.03, 48.91], [-117.03, 48.94], [-117.03, 48.98], [-117.03, 49.0], [-116.76, 49.0], [-116.47, 49.0], [-116.4, 49.0], [-116.36, 49.0], [-116.16, 49.0], [-116.05, 49.0], [-116.05, 48.85], [-116.05, 48.71], [-116.05, 48.48], [-116.05, 48.41], [-116.05, 48.31], [-116.05, 48.24], [-116.05, 48.12], [-116.05, 47.98]]]}}, {"type": "Feature", "properties": {"STATE": "Idaho", "STATE_FIPS": "16", "CD_2DIG": "02", "STATE_CODE": 10, "CLIMDIV": 1002, "ID": 1002, "CD_NEW": 2, "FIPS_CD": "1602", "NCDC_GEO_I": 4.0, "NAME": "NORTH CENTRAL PRAIRIES", "ST_ABBRV": "ID", "SHAPE_AREA": 0.0, "SHAPE_LEN": 0.0}, "geometry": {"type": "Polygon", "coordinates": [[[-116.16, 45.72], [-116.26, 45.82], [-116.36, 45.89], [-116.54, 45.95], [-116.71, 46.03], [-116.86, 46.13], [-116.8, 46.26], [-116.64, 46.33], [-116.44, 46.35], [-116.29, 46.29], [-116.2, 46.17], [-116.08, 46.07], [-115.94, 46.02], [-115.79, 45.97], [-115.68, 46.0], [-115.73, 46.08], [-115.82, 46.18], [-115.93, 46.29], [-116.06, 46.4], [-116.16, 46.49], [-116.29, 46.54], [-116.39, 46.58], [-116.5, 46.59], [-116.62, 46.61], [-116.7, 46.59], [-116.72, 46.54], [-117.04, 46.54], [-117.04, 46.54], [-117.04, 46.55], [-117.04, 46.55], [-117.04, 46.57], [-117.04, 46.6], [-117.04, 46.62], [-117.04, 46.67], [-117.04, 46.68], [-117.04, 46.69], [-117.04, 46.7], [-117.04, 46.71], [-117.04, 46.74], [-117.04, 46.75], [-117.04, 46.76], [-117.04, 46.77], [-117.04, 46.78], [-117.04, 46.79], [-117.04, 46.82], [-117.04, 46.82], [-117.04, 46.83], [-117.04, 46.83], [-117.04, 46.84], [-117.04, 46.86], [-117.04, 46.88], [-117.04, 46.89], [-117.04, 46.9], [-117.04, 46.91], [-117.04, 46.93], [-117.04, 46.97], [-117.04, 46.97], [-117.04, 46.97], [-117.04, 46.98], [-117.04, 47.0], [-117.04, 47.0], [-117.04, 47.01], [-117.04, 47.01], [-116.82, 47.12], [-116.83, 46.99], [-116.77, 46.9], [-116.71, 46.88], [-116.6, 46.81], [-116.39, 46.77], [-116.29, 46.76], [-116.14, 46.78], [-116.02, 46.83], [-115.94, 46.86], [-115.78, 46.89], [-115.61, 46.9], [-115.54, 46.81], [-115.66, 46.73], [-115.74, 46.73], [-115.85, 46.69], [-115.95, 46.65], [-115.93, 46.58], [-115.89, 46.47], [-115.78, 46.35], [-115.62, 46.2], [-115.51, 46.1], [-115.46, 45.99], [-115.48, 45.91], [-115.6, 45.86], [-115.72, 45.82], [-115.84, 45.81], [-116.02, 45.78], [-116.16, 45.72]]]}}, {"type": "Feature", "properties": {"STATE": "Idaho", "STATE_FIPS": "16", "CD_2DIG": "04", "STATE_CODE": 10, "CLIMDIV": 1004, "ID": 1004, "CD_NEW": 4, "FIPS_CD": "1604", "NCDC_GEO_I": 6.0, "NAME": "CENTRAL MOUNTAINS", "ST_ABBRV": "ID", "SHAPE_AREA": 0.0, "SHAPE_LEN": 0.0}, "geometry": {"type": "Polygon", "coordinates": [[[-113.83, 45.52], [-113.89, 45.51], [-113.95, 45.48], [-114.02, 45.45], [-114.03, 45.39], [-114.04, 45.34], [-113.98, 45.26], [-113.91, 45.14], [-113.92, 44.98], [-113.99, 44.93], [-114.12, 44.81], [-114.27, 44.65], [-114.3, 44.53], [-114.27, 44.36], [-114.17, 44.19], [-114.02, 44.04], [-113.82, 43.96], [-113.7, 43.93], [-113.62, 43.88], [-113.53, 43.83], [-113.49, 43.74], [-113.76, 43.62], [-113.8, 43.57], [-113.98, 43.44], [-114.2, 43.34], [-114.51, 43.22], [-114.91, 43.16], [-115.18, 43.15], [-115.32, 43.15], [-115.46, 43.17], [-115.63, 43.25], [-115.74, 43.31], [-115.84, 43.39], [-115.94, 43.48], [-115.99, 43.53], [-116.04, 43.59], [-116.09, 43.63], [-116.16, 43.69], [-116.25, 43.76], [-116.28, 43.81], [-116.31, 43.89], [-116.3, 43.98], [-116.29, 44.07], [-116.27, 44.15], [-116.26, 44.23], [-116.23, 44.33], [-116.22, 44.4], [-116.19, 44.5], [-116.18, 44.59], [-116.16, 44.7], [-116.21, 44.78], [-116.31, 44.82], [-116.42, 44.83], [-116.65, 44.8], [-116.77, 44.71], [-116.93, 44.57], [-117.05, 44.45], [-117.19, 44.34], [-117.2, 44.35], [-117.24, 44.37], [-117.24, 44.39], [-117.24, 44.4], [-117.23, 44.41], [-117.22, 44.43], [-117.22, 44.46], [-117.23, 44.48], [-117.22, 44.48], [-117.21, 44.49], [-117.2, 44.49], [-117.19, 44.51], [-117.18, 44.52], [-117.16, 44.53], [-117.15, 44.53], [-117.14, 44.55], [-117.14, 44.56], [-117.15, 44.57], [-117.12, 44.58], [-117.13, 44.59], [-117.12, 44.61], [-117.1, 44.64], [-117.09, 44.65], [-117.1, 44.66], [-117.08, 44.67], [-117.08, 44.69], [-117.06, 44.7], [-117.06, 44.72], [-117.06, 44.73], [-117.05, 44.73], [-117.04, 44.75], [-117.01, 44.76], [-117.0, 44.76], [-116.99, 44.76], [-116.97, 44.78], [-116.95, 44.78], [-116.94, 44.78], [-116.93, 44.79], [-116.93, 44.8], [-116.92, 44.81], [-116.9, 44.85], [-116.9, 44.85], [-116.88, 44.86], [-116.88, 44.87], [-116.87, 44.87], [-116.85, 44.89], [-116.85, 44.9], [-116.84, 44.91], [-116.84, 44.92], [-116.83, 44.93], [-116.85, 44.95], [-116.85, 44.96], [-116.84, 44.97], [-116.83, 44.98], [-116.84, 44.98], [-116.85, 44.97], [-116.86, 44.98], [-116.86, 44.98], [-116.84, 45.0], [-116.85, 45.02], [-116.84, 45.03], [-116.83, 45.04], [-116.81, 45.05], [-116.8, 45.06], [-116.78, 45.08], [-116.78, 45.09], [-116.77, 45.11], [-116.75, 45.11], [-116.75, 45.12], [-116.75, 45.13], [-116.73, 45.14], [-116.72, 45.17], [-116.71, 45.2], [-116.71, 45.22], [-116.7, 45.23], [-116.7, 45.24], [-116.7, 45.25], [-116.69, 45.26], [-116.67, 45.28], [-116.67, 45.29], [-116.67, 45.32], [-116.66, 45.35], [-116.63, 45.38], [-116.62, 45.39], [-116.6, 45.41], [-116.59, 45.44], [-116.58, 45.45], [-116.55, 45.46], [-116.56, 45.48], [-116.55, 45.5], [-116.56, 45.5], [-116.54, 45.52], [-116.52, 45.55], [-116.51, 45.56], [-116.5, 45.57], [-116.48, 45.58], [-116.48, 45.58], [-116.47, 45.6], [-116.47, 45.6], [-116.47, 45.6], [-116.43, 45.4], [-116.36, 45.38], [-116.26, 45.37], [-116.2, 45.44], [-116.23, 45.53], [-116.22, 45.65], [-116.16, 45.72], [-116.02, 45.78], [-115.84, 45.81], [-115.72, 45.82], [-115.6, 45.86], [-115.48, 45.91], [-115.46, 45.99], [-115.51, 46.1], [-115.62, 46.2], [-115.78, 46.35], [-115.89, 46.47], [-115.93, 46.58], [-115.95, 46.65], [-115.85, 46.69], [-115.74, 46.73], [-115.66, 46.73], [-115.54, 46.81], [-115.61, 46.9], [-115.78, 46.89], [-115.94, 46.86], [-116.02, 46.83], [-116.14, 46.78], [-116.29, 46.76], [-116.39, 46.77], [-116.6, 46.81], [-116.71, 46.88], [-116.77, 46.9], [-116.83, 46.99], [-116.82, 47.12], [-116.54, 47.26], [-116.51, 47.4], [-116.58, 47.57], [-116.61, 47.69], [-116.62, 47.85], [-116.57, 48.0], [-116.51, 48.09], [-116.34, 48.15], [-116.22, 48.13], [-116.12, 48.03], [-116.05, 47.98], [-116.03, 47.97], [-116.01, 47.95], [-116.0, 47.94], [-115.99, 47.93], [-115.98, 47.92], [-115.97, 47.91], [-115.97, 47.9], [-115.95, 47.89], [-115.93, 47.87], [-115.92, 47.85], [-115.91, 47.85], [-115.9, 47.84], [-115.88, 47.85], [-115.87, 47.83], [-115.85, 47.83], [-115.85, 47.81], [-115.85, 47.81], [-115.85, 47.78], [-115.84, 47.77], [-115.84, 47.76], [-115.82, 47.75], [-115.8, 47.76], [-115.78, 47.74], [-115.78, 47.73], [-115.77, 47.72], [-115.76, 47.72], [-115.73, 47.71], [-115.72, 47.7], [-115.73, 47.68], [-115.73, 47.67], [-115.74, 47.65], [-115.73, 47.64], [-115.71, 47.64], [-115.69, 47.62], [-115.7, 47.61], [-115.69, 47.6], [-115.71, 47.58], [-115.71, 47.58], [-115.72, 47.58], [-115.76, 47.55], [-115.75, 47.54], [-115.71, 47.53], [-115.7, 47.53], [-115.71, 47.52], [-115.71, 47.52], [-115.7, 47.5], [-115.69, 47.5], [-115.69, 47.49], [-115.67, 47.49], [-115.65, 47.48], [-115.63, 47.48], [-115.64, 47.46], [-115.65, 47.46], [-115.68, 47.45], [-115.69, 47.46], [-115.71, 47.45], [-115.72, 47.45], [-115.74, 47.44], [-115.75, 47.44], [-115.76, 47.42], [-115.74, 47.43], [-115.72, 47.43], [-115.71, 47.42], [-115.69, 47.42], [-115.68, 47.41], [-115.68, 47.4], [-115.66, 47.4], [-115.65, 47.39], [-115.64, 47.38], [-115.62, 47.38], [-115.6, 47.38], [-115.6, 47.37], [-115.58, 47.37], [-115.58, 47.36], [-115.55, 47.35], [-115.55, 47.33], [-115.53, 47.31], [-115.53, 47.3], [-115.51, 47.29], [-115.49, 47.29], [-115.48, 47.28], [-115.47, 47.29], [-115.46, 47.28], [-115.43, 47.28], [-115.42, 47.27], [-115.41, 47.26], [-115.37, 47.27], [-115.36, 47.26], [-115.34, 47.26], [-115.32, 47.26], [-115.32, 47.25], [-115.32, 47.23], [-115.3, 47.23], [-115.29, 47.21], [-115.3, 47.19], [-115.3, 47.19], [-115.29, 47.18], [-115.26, 47.18], [-115.26, 47.17], [-115.26, 47.16], [-115.25, 47.15], [-115.22, 47.15], [-115.19, 47.13], [-115.17, 47.11], [-115.17, 47.11], [-115.16, 47.1], [-115.14, 47.1], [-115.14, 47.1], [-115.14, 47.08], [-115.12, 47.06], [-115.11, 47.05], [-115.09, 47.05], [-115.08, 47.03], [-115.07, 47.02], [-115.07, 47.01], [-115.06, 46.98], [-115.05, 46.98], [-115.05, 46.97], [-115.03, 46.97], [-115.03, 46.98], [-115.0, 46.97], [-115.0, 46.97], [-114.97, 46.94], [-114.96, 46.93], [-114.96, 46.93], [-114.93, 46.92], [-114.94, 46.9], [-114.93, 46.88], [-114.94, 46.87], [-114.95, 46.86], [-114.93, 46.85], [-114.92, 46.85], [-114.93, 46.84], [-114.92, 46.83], [-114.89, 46.82], [-114.9, 46.81], [-114.9, 46.8], [-114.88, 46.81], [-114.87, 46.81], [-114.86, 46.8], [-114.84, 46.79], [-114.83, 46.78], [-114.81, 46.78], [-114.8, 46.78], [-114.79, 46.78], [-114.78, 46.77], [-114.77, 46.76], [-114.77, 46.74], [-114.78, 46.73], [-114.79, 46.71], [-114.77, 46.7], [-114.77, 46.7], [-114.75, 46.7], [-114.74, 46.71], [-114.72, 46.71], [-114.71, 46.72], [-114.71, 46.73], [-114.7, 46.74], [-114.66, 46.73], [-114.65, 46.73], [-114.64, 46.72], [-114.62, 46.71], [-114.62, 46.69], [-114.64, 46.68], [-114.64, 46.66], [-114.61, 46.65], [-114.62, 46.64], [-114.59, 46.63], [-114.58, 46.63], [-114.57, 46.64], [-114.55, 46.64], [-114.54, 46.65], [-114.53, 46.64], [-114.51, 46.64], [-114.5, 46.64], [-114.49, 46.63], [-114.47, 46.63], [-114.45, 46.64], [-114.45, 46.65], [-114.42, 46.66], [-114.41, 46.66], [-114.39, 46.66], [-114.36, 46.67], [-114.35, 46.66], [-114.34, 46.66], [-114.32, 46.65], [-114.32, 46.63], [-114.33, 46.62], [-114.32, 46.61], [-114.34, 46.59], [-114.33, 46.58], [-114.35, 46.55], [-114.34, 46.54], [-114.35, 46.53], [-114.34, 46.52], [-114.35, 46.51], [-114.37, 46.5], [-114.38, 46.51], [-114.4, 46.5], [-114.4, 46.48], [-114.39, 46.47], [-114.38, 46.47], [-114.38, 46.46], [-114.38, 46.45], [-114.37, 46.44], [-114.38, 46.43], [-114.38, 46.41], [-114.42, 46.39], [-114.41, 46.37], [-114.41, 46.34], [-114.42, 46.33], [-114.43, 46.31], [-114.43, 46.28], [-114.44, 46.28], [-114.45, 46.27], [-114.47, 46.27], [-114.47, 46.26], [-114.47, 46.25], [-114.45, 46.24], [-114.45, 46.22], [-114.45, 46.21], [-114.44, 46.2], [-114.45, 46.17], [-114.46, 46.17], [-114.48, 46.16], [-114.49, 46.17], [-114.52, 46.17], [-114.51, 46.15], [-114.53, 46.15], [-114.52, 46.13], [-114.52, 46.13], [-114.49, 46.11], [-114.47, 46.11], [-114.46, 46.09], [-114.46, 46.08], [-114.47, 46.07], [-114.47, 46.07], [-114.48, 46.06], [-114.49, 46.05], [-114.49, 46.05], [-114.51, 46.04], [-114.5, 46.03], [-114.49, 46.03], [-114.48, 46.03], [-114.47, 46.01], [-114.49, 46.0], [-114.48, 46.0], [-114.48, 45.99], [-114.46, 46.0], [-114.45, 45.99], [-114.44, 45.99], [-114.41, 45.98], [-114.4, 45.96], [-114.4, 45.96], [-114.42, 45.94], [-114.43, 45.94], [-114.41, 45.92], [-114.41, 45.91], [-114.4, 45.9], [-114.4, 45.9], [-114.39, 45.88], [-114.4, 45.87], [-114.41, 45.87], [-114.41, 45.85], [-114.44, 45.86], [-114.47, 45.85], [-114.48, 45.85], [-114.49, 45.85], [-114.51, 45.85], [-114.52, 45.84], [-114.51, 45.83], [-114.53, 45.82], [-114.53, 45.81], [-114.55, 45.8], [-114.54, 45.79], [-114.56, 45.79], [-114.57, 45.77], [-114.56, 45.76], [-114.55, 45.76], [-114.55, 45.74], [-114.54, 45.74], [-114.53, 45.73], [-114.52, 45.73], [-114.5, 45.72], [-114.5, 45.7], [-114.5, 45.69], [-114.52, 45.68], [-114.5, 45.68], [-114.5, 45.67], [-114.51, 45.66], [-114.52, 45.65], [-114.53, 45.65], [-114.54, 45.65], [-114.54, 45.64], [-114.56, 45.64], [-114.56, 45.63], [-114.55, 45.62], [-114.54, 45.62], [-114.54, 45.61], [-114.55, 45.6], [-114.56, 45.59], [-114.55, 45.58], [-114.56, 45.57], [-114.55, 45.56], [-114.52, 45.57], [-114.5, 45.56], [-114.47, 45.57], [-114.47, 45.56], [-114.46, 45.55], [-114.45, 45.54], [-114.43, 45.53], [-114.43, 45.52], [-114.42, 45.51], [-114.41, 45.51], [-114.39, 45.5], [-114.37, 45.49], [-114.36, 45.47], [-114.35, 45.47], [-114.35, 45.46], [-114.33, 45.46], [-114.32, 45.47], [-114.3, 45.47], [-114.29, 45.48], [-114.28, 45.48], [-114.26, 45.5], [-114.26, 45.51], [-114.25, 45.52], [-114.25, 45.55], [-114.23, 45.55], [-114.21, 45.54], [-114.19, 45.54], [-114.18, 45.55], [-114.15, 45.55], [-114.15, 45.56], [-114.14, 45.56], [-114.13, 45.57], [-114.13, 45.57], [-114.12, 45.58], [-114.11, 45.59], [-114.09, 45.59], [-114.08, 45.6], [-114.08, 45.61], [-114.07, 45.61], [-114.07, 45.63], [-114.05, 45.64], [-114.03, 45.65], [-114.02, 45.65], [-114.01, 45.66], [-114.02, 45.67], [-114.03, 45.68], [-114.01, 45.68], [-114.02, 45.69], [-114.0, 45.7], [-113.99, 45.71], [-113.97, 45.7], [-113.97, 45.69], [-113.96, 45.69], [-113.94, 45.7], [-113.93, 45.69], [-113.93, 45.67], [-113.92, 45.66], [-113.92, 45.66], [-113.91, 45.65], [-113.9, 45.64], [-113.9, 45.64], [-113.9, 45.62], [-113.89, 45.62], [-113.86, 45.62], [-113.85, 45.62], [-113.84, 45.61], [-113.82, 45.61], [-113.81, 45.6], [-113.8, 45.58], [-113.81, 45.58], [-113.82, 45.57], [-113.82, 45.56], [-113.82, 45.55], [-113.83, 45.52]]]}}, {"type": "Feature", "properties": {"STATE": "Idaho", "STATE_FIPS": "16", "CD_2DIG": "05", "STATE_CODE": 10, "CLIMDIV": 1005, "ID": 1005, "CD_NEW": 5, "FIPS_CD": "1605", "NCDC_GEO_I": 7.0, "NAME": "SOUTHWESTERN VALLEYS", "ST_ABBRV": "ID", "SHAPE_AREA": 0.0, "SHAPE_LEN": 0.0}, "geometry": {"type": "Polygon", "coordinates": [[[-115.18, 43.15], [-115.15, 42.72], [-115.44, 42.71], [-115.65, 42.71], [-115.8, 42.74], [-115.96, 42.77], [-116.17, 42.85], [-116.32, 42.96], [-116.39, 43.07], [-116.5, 43.19], [-116.62, 43.3], [-116.78, 43.4], [-116.94, 43.48], [-117.03, 43.52], [-117.03, 43.52], [-117.03, 43.64], [-117.03, 43.81], [-117.02, 43.82], [-117.03, 43.83], [-117.03, 43.84], [-117.01, 43.84], [-117.01, 43.85], [-117.02, 43.86], [-116.98, 43.87], [-116.98, 43.88], [-116.98, 43.89], [-116.98, 43.91], [-116.96, 43.92], [-116.96, 43.93], [-116.97, 43.94], [-116.96, 43.96], [-116.98, 43.96], [-116.97, 43.97], [-116.96, 43.97], [-116.95, 43.98], [-116.94, 43.99], [-116.94, 44.0], [-116.94, 44.01], [-116.93, 44.02], [-116.94, 44.03], [-116.96, 44.05], [-116.97, 44.05], [-116.98, 44.09], [-116.97, 44.09], [-116.94, 44.09], [-116.93, 44.1], [-116.93, 44.12], [-116.91, 44.13], [-116.91, 44.14], [-116.9, 44.15], [-116.9, 44.17], [-116.9, 44.18], [-116.91, 44.18], [-116.92, 44.19], [-116.94, 44.19], [-116.95, 44.19], [-116.97, 44.19], [-116.97, 44.21], [-116.97, 44.22], [-116.98, 44.24], [-116.99, 44.25], [-117.02, 44.25], [-117.03, 44.25], [-117.04, 44.24], [-117.05, 44.23], [-117.06, 44.23], [-117.07, 44.24], [-117.09, 44.26], [-117.09, 44.27], [-117.1, 44.28], [-117.12, 44.28], [-117.14, 44.26], [-117.16, 44.26], [-117.17, 44.26], [-117.2, 44.28], [-117.22, 44.29], [-117.22, 44.3], [-117.22, 44.31], [-117.21, 44.31], [-117.19, 44.34], [-117.05, 44.45], [-116.93, 44.57], [-116.77, 44.71], [-116.65, 44.8], [-116.42, 44.83], [-116.31, 44.82], [-116.21, 44.78], [-116.16, 44.7], [-116.18, 44.59], [-116.19, 44.5], [-116.22, 44.4], [-116.23, 44.33], [-116.26, 44.23], [-116.27, 44.15], [-116.29, 44.07], [-116.3, 43.98], [-116.31, 43.89], [-116.28, 43.81], [-116.25, 43.76], [-116.16, 43.69], [-116.09, 43.63], [-116.04, 43.59], [-115.99, 43.53], [-115.94, 43.48], [-115.84, 43.39], [-115.74, 43.31], [-115.63, 43.25], [-115.46, 43.17], [-115.32, 43.15], [-115.18, 43.15]]]}}, {"type": "Feature", "properties": {"STATE": "Idaho", "STATE_FIPS": "16", "CD_2DIG": "07", "STATE_CODE": 10, "CLIMDIV": 1007, "ID": 1007, "CD_NEW": 7, "FIPS_CD": "1607", "NCDC_GEO_I": 8.0, "NAME": "CENTRAL PLAINS", "ST_ABBRV": "ID", "SHAPE_AREA": 0.0, "SHAPE_LEN": 0.0}, "geometry": {"type": "Polygon", "coordinates": [[[-113.75, 42.47], [-113.89, 42.39], [-114.05, 42.4], [-114.28, 42.39], [-114.4, 42.43], [-114.61, 42.47], [-114.82, 42.56], [-115.03, 42.65], [-115.15, 42.72], [-115.18, 43.15], [-114.91, 43.16], [-114.51, 43.22], [-114.2, 43.34], [-113.98, 43.44], [-113.8, 43.57], [-113.81, 43.49], [-113.69, 43.34], [-113.63, 43.18], [-113.49, 42.95], [-113.33, 42.75], [-113.47, 42.65], [-113.64, 42.56], [-113.75, 42.47]]]}}, {"type": "Feature", "properties": {"STATE": "Idaho", "STATE_FIPS": "16", "CD_2DIG": "06", "STATE_CODE": 10, "CLIMDIV": 1006, "ID": 1006, "CD_NEW": 6, "FIPS_CD": "1606", "NCDC_GEO_I": 9.0, "NAME": "SOUTHWESTERN HIGHLANDS", "ST_ABBRV": "ID", "SHAPE_AREA": 0.0, "SHAPE_LEN": 0.0}, "geometry": {"type": "Polygon", "coordinates": [[[-114.04, 41.99], [-114.28, 41.99], [-114.47, 42.0], [-114.5, 41.99], [-114.6, 41.99], [-114.72, 42.0], [-114.81, 42.0], [-114.88, 42.0], [-115.03, 42.0], [-115.31, 42.0], [-115.59, 42.0], [-115.63, 42.0], [-115.75, 42.0], [-115.87, 42.0], [-115.88, 42.0], [-115.99, 42.0], [-116.03, 42.0], [-116.24, 42.0], [-116.33, 42.0], [-116.37, 42.0], [-116.46, 42.0], [-116.53, 42.0], [-116.61, 42.0], [-116.75, 42.0], [-116.97, 42.0], [-117.01, 42.0], [-117.02, 42.0], [-117.03, 42.0], [-117.03, 42.2], [-117.03, 42.37], [-117.03, 42.58], [-117.03, 42.73], [-117.03, 42.97], [-117.03, 43.03], [-117.03, 43.2], [-117.03, 43.37], [-117.03, 43.51], [-117.03, 43.52], [-116.94, 43.48], [-116.78, 43.4], [-116.62, 43.3], [-116.5, 43.19], [-116.39, 43.07], [-116.32, 42.96], [-116.17, 42.85], [-115.96, 42.77], [-115.8, 42.74], [-115.65, 42.71], [-115.44, 42.71], [-115.15, 42.72], [-115.03, 42.65], [-114.82, 42.56], [-114.61, 42.47], [-114.4, 42.43], [-114.28, 42.39], [-114.05, 42.4], [-114.04, 41.99]]]}}, {"type": "Feature", "properties": {"STATE": "Idaho", "STATE_FIPS": "16", "CD_2DIG": "10", "STATE_CODE": 10, "CLIMDIV": 1010, "ID": 1010, "CD_NEW": 10, "FIPS_CD": "1610", "NCDC_GEO_I": 11.0, "NAME": "EASTERN HIGHLANDS", "ST_ABBRV": "ID", "SHAPE_AREA": 0.0, "SHAPE_LEN": 0.0}, "geometry": {"type": "Polygon", "coordinates": [[[-114.05, 42.4], [-113.89, 42.39], [-113.75, 42.47], [-113.37, 42.3], [-113.23, 42.39], [-113.06, 42.51], [-112.87, 42.64], [-112.66, 42.81], [-112.51, 42.95], [-112.27, 43.19], [-112.02, 43.53], [-111.88, 43.64], [-111.82, 43.71], [-111.67, 43.84], [-111.57, 43.96], [-111.44, 44.13], [-111.42, 44.17], [-111.46, 44.21], [-111.6, 44.26], [-111.82, 44.29], [-112.2, 44.34], [-112.62, 44.39], [-112.73, 44.4], [-112.84, 44.43], [-112.83, 44.43], [-112.83, 44.44], [-112.82, 44.45], [-112.8, 44.46], [-112.78, 44.48], [-112.74, 44.49], [-112.73, 44.5], [-112.72, 44.5], [-112.69, 44.5], [-112.69, 44.49], [-112.67, 44.49], [-112.66, 44.49], [-112.63, 44.49], [-112.63, 44.48], [-112.6, 44.49], [-112.59, 44.48], [-112.57, 44.48], [-112.55, 44.48], [-112.54, 44.48], [-112.52, 44.48], [-112.51, 44.47], [-112.5, 44.46], [-112.49, 44.47], [-112.47, 44.48], [-112.44, 44.46], [-112.43, 44.45], [-112.42, 44.45], [-112.41, 44.46], [-112.39, 44.45], [-112.38, 44.46], [-112.37, 44.47], [-112.36, 44.48], [-112.36, 44.49], [-112.36, 44.53], [-112.35, 44.54], [-112.32, 44.54], [-112.31, 44.55], [-112.3, 44.56], [-112.29, 44.57], [-112.28, 44.57], [-112.26, 44.57], [-112.24, 44.57], [-112.23, 44.56], [-112.23, 44.55], [-112.22, 44.54], [-112.2, 44.54], [-112.18, 44.53], [-112.16, 44.54], [-112.15, 44.54], [-112.14, 44.54], [-112.13, 44.53], [-112.1, 44.52], [-112.09, 44.53], [-112.07, 44.54], [-112.04, 44.53], [-112.03, 44.55], [-112.0, 44.54], [-111.98, 44.54], [-111.97, 44.54], [-111.96, 44.55], [-111.95, 44.56], [-111.92, 44.56], [-111.91, 44.56], [-111.87, 44.56], [-111.86, 44.55], [-111.85, 44.54], [-111.84, 44.53], [-111.83, 44.52], [-111.82, 44.51], [-111.81, 44.51], [-111.8, 44.53], [-111.78, 44.52], [-111.74, 44.54], [-111.72, 44.54], [-111.7, 44.56], [-111.69, 44.56], [-111.68, 44.56], [-111.66, 44.55], [-111.62, 44.55], [-111.6, 44.55], [-111.59, 44.56], [-111.56, 44.55], [-111.55, 44.56], [-111.54, 44.55], [-111.52, 44.55], [-111.52, 44.54], [-111.5, 44.54], [-111.47, 44.54], [-111.47, 44.56], [-111.48, 44.56], [-111.49, 44.56], [-111.51, 44.56], [-111.5, 44.57], [-111.52, 44.58], [-111.53, 44.61], [-111.52, 44.62], [-111.5, 44.63], [-111.52, 44.64], [-111.49, 44.65], [-111.47, 44.66], [-111.48, 44.68], [-111.48, 44.69], [-111.49, 44.7], [-111.47, 44.71], [-111.43, 44.72], [-111.41, 44.71], [-111.4, 44.72], [-111.4, 44.74], [-111.39, 44.75], [-111.39, 44.76], [-111.37, 44.75], [-111.36, 44.73], [-111.35, 44.73], [-111.34, 44.73], [-111.32, 44.73], [-111.32, 44.72], [-111.29, 44.7], [-111.3, 44.69], [-111.28, 44.68], [-111.27, 44.67], [-111.28, 44.66], [-111.27, 44.65], [-111.26, 44.65], [-111.22, 44.62], [-111.24, 44.61], [-111.23, 44.6], [-111.23, 44.58], [-111.22, 44.58], [-111.2, 44.58], [-111.18, 44.57], [-111.18, 44.55], [-111.17, 44.55], [-111.16, 44.55], [-111.15, 44.53], [-111.13, 44.53], [-111.14, 44.52], [-111.13, 44.5], [-111.1, 44.49], [-111.06, 44.48], [-111.06, 44.48], [-111.05, 44.48], [-111.05, 44.47], [-111.05, 44.47], [-111.05, 44.46], [-111.05, 44.44], [-111.05, 44.44], [-111.05, 44.44], [-111.05, 44.43], [-111.05, 44.42], [-111.05, 44.42], [-111.05, 44.41], [-111.05, 44.37], [-111.05, 44.35], [-111.05, 44.22], [-111.05, 44.17], [-111.05, 44.16], [-111.05, 44.15], [-111.05, 44.13], [-111.05, 44.13], [-111.05, 44.13], [-111.05, 44.13], [-111.05, 44.13], [-111.05, 44.12], [-111.05, 44.11], [-111.05, 44.02], [-111.05, 44.0], [-111.05, 43.91], [-111.05, 43.8], [-111.05, 43.62], [-111.05, 43.55], [-111.05, 43.53], [-111.05, 43.5], [-111.05, 43.48], [-111.05, 43.42], [-111.05, 43.37], [-111.04, 43.25], [-111.04, 43.11], [-111.04, 43.0], [-111.04, 42.83], [-111.04, 42.72], [-111.05, 42.58], [-111.05, 42.55], [-111.05, 42.53], [-111.05, 42.52], [-111.05, 42.51], [-111.05, 42.51], [-111.05, 42.5], [-111.05, 42.49], [-111.05, 42.47], [-111.05, 42.42], [-111.05, 42.28], [-111.05, 42.21], [-111.05, 42.1], [-111.05, 42.0], [-111.05, 42.0], [-111.05, 42.0], [-111.09, 42.0], [-111.1, 42.0], [-111.17, 42.0], [-111.31, 42.0], [-111.43, 42.0], [-111.49, 42.0], [-111.65, 42.0], [-111.66, 42.0], [-111.75, 42.0], [-111.86, 42.0], [-112.01, 42.0], [-112.11, 42.0], [-112.17, 42.0], [-112.19, 42.0], [-112.36, 42.0], [-112.36, 42.0], [-112.62, 42.0], [-112.75, 42.0], [-112.88, 42.0], [-113.08, 42.0], [-113.25, 42.0], [-113.25, 42.0], [-113.5, 41.99], [-113.5, 41.99], [-113.62, 41.99], [-113.65, 41.99], [-113.82, 41.99], [-113.89, 41.99], [-113.99, 41.99], [-114.04, 41.99], [-114.05, 42.4]]]}}, {"type": "Feature", "properties": {"STATE": "Idaho", "STATE_FIPS": "16", "CD_2DIG": "08", "STATE_CODE": 10, "CLIMDIV": 1008, "ID": 1008, "CD_NEW": 8, "FIPS_CD": "1608", "NCDC_GEO_I": 12.0, "NAME": "NORTHEASTERN VALLEYS", "ST_ABBRV": "ID", "SHAPE_AREA": 0.0, "SHAPE_LEN": 0.0}, "geometry": {"type": "Polygon", "coordinates": [[[-112.81, 44.38], [-112.83, 44.23], [-112.83, 44.18], [-113.0, 43.94], [-113.15, 43.86], [-113.49, 43.74], [-113.53, 43.83], [-113.62, 43.88], [-113.7, 43.93], [-113.82, 43.96], [-114.02, 44.04], [-114.17, 44.19], [-114.27, 44.36], [-114.3, 44.53], [-114.27, 44.65], [-114.12, 44.81], [-113.99, 44.93], [-113.92, 44.98], [-113.91, 45.14], [-113.98, 45.26], [-114.04, 45.34], [-114.03, 45.39], [-114.02, 45.45], [-113.95, 45.48], [-113.89, 45.51], [-113.83, 45.52], [-113.8, 45.52], [-113.77, 45.52], [-113.77, 45.51], [-113.76, 45.5], [-113.76, 45.48], [-113.78, 45.47], [-113.78, 45.46], [-113.78, 45.45], [-113.78, 45.45], [-113.78, 45.44], [-113.76, 45.43], [-113.76, 45.42], [-113.78, 45.42], [-113.77, 45.41], [-113.75, 45.4], [-113.73, 45.39], [-113.73, 45.37], [-113.74, 45.37], [-113.73, 45.36], [-113.74, 45.35], [-113.74, 45.33], [-113.73, 45.32], [-113.72, 45.32], [-113.71, 45.3], [-113.7, 45.29], [-113.69, 45.29], [-113.68, 45.28], [-113.69, 45.27], [-113.69, 45.26], [-113.68, 45.25], [-113.67, 45.25], [-113.65, 45.23], [-113.65, 45.23], [-113.64, 45.21], [-113.62, 45.21], [-113.61, 45.19], [-113.59, 45.18], [-113.59, 45.18], [-113.59, 45.17], [-113.59, 45.16], [-113.57, 45.14], [-113.58, 45.13], [-113.56, 45.12], [-113.51, 45.12], [-113.51, 45.11], [-113.52, 45.09], [-113.49, 45.07], [-113.49, 45.07], [-113.47, 45.06], [-113.46, 45.06], [-113.45, 45.06], [-113.45, 45.05], [-113.45, 45.04], [-113.45, 45.03], [-113.45, 45.02], [-113.44, 45.01], [-113.45, 45.0], [-113.44, 44.96], [-113.45, 44.95], [-113.47, 44.95], [-113.48, 44.95], [-113.49, 44.95], [-113.5, 44.94], [-113.49, 44.92], [-113.48, 44.92], [-113.47, 44.9], [-113.48, 44.89], [-113.46, 44.89], [-113.45, 44.87], [-113.44, 44.86], [-113.43, 44.85], [-113.42, 44.84], [-113.39, 44.84], [-113.38, 44.84], [-113.38, 44.83], [-113.36, 44.82], [-113.35, 44.8], [-113.35, 44.79], [-113.34, 44.78], [-113.28, 44.81], [-113.25, 44.82], [-113.24, 44.81], [-113.21, 44.81], [-113.19, 44.8], [-113.18, 44.79], [-113.13, 44.77], [-113.14, 44.76], [-113.13, 44.75], [-113.12, 44.75], [-113.11, 44.73], [-113.1, 44.73], [-113.1, 44.7], [-113.08, 44.69], [-113.08, 44.68], [-113.07, 44.68], [-113.07, 44.67], [-113.07, 44.65], [-113.05, 44.64], [-113.05, 44.63], [-113.06, 44.62], [-113.07, 44.61], [-113.09, 44.6], [-113.06, 44.59], [-113.07, 44.58], [-113.04, 44.57], [-113.04, 44.56], [-113.05, 44.56], [-113.05, 44.54], [-113.03, 44.54], [-113.02, 44.54], [-113.01, 44.53], [-113.01, 44.52], [-113.02, 44.52], [-113.01, 44.51], [-113.03, 44.5], [-113.02, 44.48], [-113.01, 44.47], [-113.01, 44.47], [-113.0, 44.45], [-112.99, 44.44], [-112.98, 44.44], [-112.95, 44.42], [-112.92, 44.41], [-112.92, 44.4], [-112.9, 44.4], [-112.89, 44.41], [-112.88, 44.38], [-112.86, 44.37], [-112.86, 44.36], [-112.84, 44.36], [-112.83, 44.37], [-112.81, 44.38]]]}}, {"type": "Feature", "properties": {"STATE": "Idaho", "STATE_FIPS": "16", "CD_2DIG": "03", "STATE_CODE": 10, "CLIMDIV": 1003, "ID": 1003, "CD_NEW": 3, "FIPS_CD": "1603", "NCDC_GEO_I": 5.0, "NAME": "NORTH CENTRAL CANYONS", "ST_ABBRV": "ID", "SHAPE_AREA": 0.0, "SHAPE_LEN": 0.0}, "geometry": {"type": "Polygon", "coordinates": [[[-116.16, 45.72], [-116.22, 45.65], [-116.23, 45.53], [-116.2, 45.44], [-116.26, 45.37], [-116.36, 45.38], [-116.43, 45.4], [-116.47, 45.6], [-116.47, 45.6], [-116.47, 45.6], [-116.46, 45.62], [-116.48, 45.63], [-116.49, 45.65], [-116.51, 45.66], [-116.52, 45.68], [-116.53, 45.68], [-116.54, 45.69], [-116.54, 45.72], [-116.54, 45.73], [-116.55, 45.75], [-116.56, 45.76], [-116.59, 45.78], [-116.63, 45.78], [-116.65, 45.78], [-116.67, 45.78], [-116.68, 45.79], [-116.7, 45.82], [-116.71, 45.83], [-116.73, 45.83], [-116.75, 45.82], [-116.76, 45.82], [-116.78, 45.83], [-116.79, 45.83], [-116.79, 45.84], [-116.8, 45.86], [-116.81, 45.87], [-116.81, 45.88], [-116.84, 45.89], [-116.86, 45.9], [-116.87, 45.92], [-116.88, 45.94], [-116.88, 45.95], [-116.89, 45.96], [-116.89, 45.98], [-116.91, 45.99], [-116.92, 46.0], [-116.92, 46.0], [-116.92, 46.0], [-116.92, 46.0], [-116.92, 46.0], [-116.92, 46.0], [-116.92, 46.0], [-116.92, 46.01], [-116.92, 46.01], [-116.92, 46.02], [-116.93, 46.02], [-116.93, 46.04], [-116.93, 46.04], [-116.93, 46.04], [-116.93, 46.04], [-116.93, 46.04], [-116.94, 46.04], [-116.94, 46.06], [-116.95, 46.07], [-116.95, 46.07], [-116.96, 46.07], [-116.96, 46.08], [-116.96, 46.08], [-116.98, 46.08], [-116.98, 46.09], [-116.98, 46.09], [-116.98, 46.1], [-116.98, 46.1], [-116.97, 46.1], [-116.97, 46.1], [-116.96, 46.1], [-116.96, 46.1], [-116.96, 46.1], [-116.95, 46.1], [-116.95, 46.11], [-116.95, 46.11], [-116.95, 46.11], [-116.95, 46.12], [-116.95, 46.12], [-116.95, 46.12], [-116.95, 46.12], [-116.95, 46.13], [-116.95, 46.13], [-116.95, 46.13], [-116.94, 46.13], [-116.94, 46.13], [-116.94, 46.13], [-116.93, 46.14], [-116.93, 46.14], [-116.94, 46.14], [-116.94, 46.14], [-116.94, 46.15], [-116.93, 46.16], [-116.93, 46.16], [-116.93, 46.16], [-116.92, 46.16], [-116.92, 46.16], [-116.92, 46.16], [-116.92, 46.17], [-116.92, 46.17], [-116.93, 46.17], [-116.94, 46.18], [-116.94, 46.18], [-116.94, 46.18], [-116.94, 46.19], [-116.94, 46.19], [-116.95, 46.19], [-116.96, 46.2], [-116.96, 46.2], [-116.97, 46.2], [-116.97, 46.21], [-116.97, 46.21], [-116.96, 46.22], [-116.96, 46.23], [-116.96, 46.23], [-116.96, 46.23], [-116.96, 46.24], [-116.96, 46.25], [-116.96, 46.25], [-116.97, 46.25], [-116.97, 46.26], [-116.98, 46.27], [-116.98, 46.27], [-116.99, 46.28], [-116.99, 46.28], [-116.99, 46.28], [-116.99, 46.29], [-116.98, 46.29], [-116.99, 46.3], [-117.0, 46.3], [-117.0, 46.3], [-117.0, 46.3], [-117.01, 46.31], [-117.01, 46.31], [-117.02, 46.31], [-117.02, 46.31], [-117.02, 46.31], [-117.02, 46.32], [-117.02, 46.32], [-117.02, 46.32], [-117.02, 46.33], [-117.02, 46.33], [-117.02, 46.33], [-117.02, 46.34], [-117.03, 46.34], [-117.03, 46.34], [-117.03, 46.34], [-117.05, 46.34], [-117.05, 46.34], [-117.06, 46.35], [-117.06, 46.35], [-117.06, 46.35], [-117.06, 46.36], [-117.06, 46.36], [-117.06, 46.37], [-117.06, 46.37], [-117.06, 46.37], [-117.06, 46.37], [-117.05, 46.37], [-117.05, 46.38], [-117.05, 46.38], [-117.05, 46.38], [-117.04, 46.4], [-117.04, 46.4], [-117.04, 46.4], [-117.04, 46.4], [-117.04, 46.41], [-117.04, 46.41], [-117.04, 46.41], [-117.03, 46.42], [-117.04, 46.42], [-117.04, 46.42], [-117.04, 46.42], [-117.04, 46.43], [-117.04, 46.43], [-117.04, 46.43], [-117.04, 46.43], [-117.04, 46.43], [-117.04, 46.43], [-117.04, 46.44], [-117.04, 46.46], [-117.04, 46.47], [-117.04, 46.5], [-117.04, 46.52], [-117.04, 46.54], [-117.04, 46.54], [-117.04, 46.54], [-116.72, 46.54], [-116.7, 46.59], [-116.62, 46.61], [-116.5, 46.59], [-116.39, 46.58], [-116.29, 46.54], [-116.16, 46.49], [-116.06, 46.4], [-115.93, 46.29], [-115.82, 46.18], [-115.73, 46.08], [-115.68, 46.0], [-115.79, 45.97], [-115.94, 46.02], [-116.08, 46.07], [-116.2, 46.17], [-116.29, 46.29], [-116.44, 46.35], [-116.64, 46.33], [-116.8, 46.26], [-116.86, 46.13], [-116.71, 46.03], [-116.54, 45.95], [-116.36, 45.89], [-116.26, 45.82], [-116.16, 45.72]]]}}, {"type": "Feature", "properties": {"STATE": "Idaho", "STATE_FIPS": "16", "CD_2DIG": "09", "STATE_CODE": 10, "CLIMDIV": 1009, "ID": 1009, "CD_NEW": 9, "FIPS_CD": "1609", "NCDC_GEO_I": 10.0, "NAME": "UPPER SNAKE RIVER PLAINS", "ST_ABBRV": "ID", "SHAPE_AREA": 0.0, "SHAPE_LEN": 0.0}, "geometry": {"type": "Polygon", "coordinates": [[[-113.75, 42.47], [-113.64, 42.56], [-113.47, 42.65], [-113.33, 42.75], [-113.49, 42.95], [-113.63, 43.18], [-113.69, 43.34], [-113.81, 43.49], [-113.8, 43.57], [-113.76, 43.62], [-113.49, 43.74], [-113.15, 43.86], [-113.0, 43.94], [-112.83, 44.18], [-112.83, 44.23], [-112.81, 44.38], [-112.81, 44.4], [-112.84, 44.43], [-112.73, 44.4], [-112.62, 44.39], [-112.2, 44.34], [-111.82, 44.29], [-111.6, 44.26], [-111.46, 44.21], [-111.42, 44.17], [-111.44, 44.13], [-111.57, 43.96], [-111.67, 43.84], [-111.82, 43.71], [-111.88, 43.64], [-112.02, 43.53], [-112.27, 43.19], [-112.51, 42.95], [-112.66, 42.81], [-112.87, 42.64], [-113.06, 42.51], [-113.23, 42.39], [-113.37, 42.3], [-113.75, 42.47]]]}}]}