{"type": "FeatureCollection", "features": [{"type": "Feature", "properties": {"STATE": "Indiana", "STATE_FIPS": "18", "CD_2DIG": "01", "STATE_CODE": 12, "CLIMDIV": 1201, "ID": 1201, "CD_NEW": 1, "FIPS_CD": "1801", "NCDC_GEO_I": 74.0, "NAME": "NORTHWEST", "ST_ABBRV": "IN", "SHAPE_AREA": 0.0, "SHAPE_LEN": 0.0}, "geometry": {"type": "Polygon", "coordinates": [[[-86.52, 41.76], [-86.52, 41.72], [-86.53, 41.65], [-86.49, 41.65], [-86.49, 41.57], [-86.5, 41.56], [-86.5, 41.53], [-86.5, 41.52], [-86.52, 41.52], [-86.52, 41.43], [-86.47, 41.43], [-86.47, 41.41], [-86.47, 41.27], [-86.47, 41.07], [-86.47, 40.91], [-86.58, 40.91], [-86.58, 40.82], [-86.58, 40.74], [-86.75, 40.74], [-86.76, 40.73], [-86.75, 40.72], [-86.76, 40.71], [-86.76, 40.7], [-86.75, 40.69], [-86.76, 40.68], [-86.76, 40.67], [-86.76, 40.66], [-86.77, 40.66], [-86.77, 40.65], [-86.77, 40.56], [-86.91, 40.56], [-87.03, 40.56], [-87.1, 40.56], [-87.09, 40.48], [-87.21, 40.48], [-87.38, 40.48], [-87.53, 40.48], [-87.53, 40.61], [-87.53, 40.68], [-87.53, 40.84], [-87.53, 41.02], [-87.53, 41.19], [-87.53, 41.3], [-87.53, 41.43], [-87.52, 41.54], [-87.53, 41.65], [-87.52, 41.71], [-87.51, 41.7], [-87.5, 41.69], [-87.48, 41.68], [-87.47, 41.67], [-87.46, 41.68], [-87.44, 41.67], [-87.43, 41.67], [-87.44, 41.68], [-87.42, 41.69], [-87.41, 41.68], [-87.41, 41.67], [-87.42, 41.66], [-87.44, 41.66], [-87.42, 41.64], [-87.41, 41.64], [-87.4, 41.64], [-87.37, 41.63], [-87.35, 41.63], [-87.32, 41.62], [-87.3, 41.62], [-87.27, 41.62], [-87.22, 41.62], [-87.18, 41.63], [-87.16, 41.64], [-87.15, 41.65], [-87.12, 41.65], [-87.08, 41.66], [-87.02, 41.68], [-86.96, 41.7], [-86.92, 41.72], [-86.91, 41.73], [-86.89, 41.73], [-86.86, 41.74], [-86.82, 41.76], [-86.7, 41.76], [-86.52, 41.76]]]}}, {"type": "Feature", "properties": {"STATE": "Indiana", "STATE_FIPS": "18", "CD_2DIG": "02", "STATE_CODE": 12, "CLIMDIV": 1202, "ID": 1202, "CD_NEW": 2, "FIPS_CD": "1802", "NCDC_GEO_I": 75.0, "NAME": "NORTH CENTRAL", "ST_ABBRV": "IN", "SHAPE_AREA": 0.0, "SHAPE_LEN": 0.0}, "geometry": {"type": "Polygon", "coordinates": [[[-85.79, 41.76], [-85.66, 41.76], [-85.66, 41.61], [-85.65, 41.47], [-85.65, 41.35], [-85.65, 41.26], [-85.65, 41.18], [-85.69, 41.18], [-85.69, 41.1], [-85.68, 41.0], [-85.64, 41.0], [-85.64, 40.85], [-85.64, 40.85], [-85.64, 40.65], [-85.86, 40.65], [-85.86, 40.57], [-85.96, 40.56], [-86.24, 40.56], [-86.37, 40.56], [-86.38, 40.5], [-86.38, 40.43], [-86.47, 40.43], [-86.61, 40.43], [-86.69, 40.43], [-86.7, 40.56], [-86.77, 40.56], [-86.77, 40.65], [-86.77, 40.66], [-86.76, 40.66], [-86.76, 40.67], [-86.76, 40.68], [-86.75, 40.69], [-86.76, 40.7], [-86.76, 40.71], [-86.75, 40.72], [-86.76, 40.73], [-86.75, 40.74], [-86.58, 40.74], [-86.58, 40.82], [-86.58, 40.91], [-86.47, 40.91], [-86.47, 41.07], [-86.47, 41.27], [-86.47, 41.41], [-86.47, 41.43], [-86.52, 41.43], [-86.52, 41.52], [-86.5, 41.52], [-86.5, 41.53], [-86.5, 41.56], [-86.49, 41.57], [-86.49, 41.65], [-86.53, 41.65], [-86.52, 41.72], [-86.52, 41.76], [-86.33, 41.76], [-86.3, 41.76], [-86.17, 41.76], [-86.11, 41.76], [-86.0, 41.76], [-85.88, 41.76], [-85.79, 41.76]]]}}, {"type": "Feature", "properties": {"STATE": "Indiana", "STATE_FIPS": "18", "CD_2DIG": "03", "STATE_CODE": 12, "CLIMDIV": 1203, "ID": 1203, "CD_NEW": 3, "FIPS_CD": "1803", "NCDC_GEO_I": 76.0, "NAME": "NORTHEAST", "ST_ABBRV": "IN", "SHAPE_AREA": 0.0, "SHAPE_LEN": 0.0}, "geometry": {"type": "Polygon", "coordinates": [[[-84.81, 41.7], [-84.81, 41.61], [-84.8, 41.51], [-84.8, 41.41], [-84.8, 41.27], [-84.8, 41.17], [-84.8, 40.95], [-84.8, 40.84], [-84.8, 40.73], [-84.8, 40.57], [-84.96, 40.57], [-85.05, 40.57], [-85.16, 40.57], [-85.33, 40.57], [-85.45, 40.57], [-85.45, 40.65], [-85.64, 40.65], [-85.64, 40.85], [-85.64, 40.85], [-85.64, 41.0], [-85.68, 41.0], [-85.69, 41.1], [-85.69, 41.18], [-85.65, 41.18], [-85.65, 41.26], [-85.65, 41.35], [-85.65, 41.47], [-85.66, 41.61], [-85.66, 41.76], [-85.6, 41.76], [-85.34, 41.76], [-85.23, 41.76], [-84.97, 41.76], [-84.81, 41.76], [-84.81, 41.7]]]}}, {"type": "Feature", "properties": {"STATE": "Indiana", "STATE_FIPS": "18", "CD_2DIG": "04", "STATE_CODE": 12, "CLIMDIV": 1204, "ID": 1204, "CD_NEW": 4, "FIPS_CD": "1804", "NCDC_GEO_I": 77.0, "NAME": "WEST CENTRAL", "ST_ABBRV": "IN", "SHAPE_AREA": 0.0, "SHAPE_LEN": 0.0}, "geometry": {"type": "Polygon", "coordinates": [[[-86.77, 40.56], [-86.7, 40.56], [-86.69, 40.43], [-86.7, 40.26], [-86.7, 40.21], [-86.7, 40.01], [-86.7, 39.97], [-86.7, 39.86], [-86.69, 39.86], [-86.69, 39.79], [-86.69, 39.63], [-86.64, 39.63], [-86.64, 39.62], [-86.65, 39.61], [-86.65, 39.6], [-86.66, 39.58], [-86.65, 39.55], [-86.66, 39.55], [-86.66, 39.54], [-86.68, 39.53], [-86.69, 39.52], [-86.69, 39.47], [-86.63, 39.47], [-86.63, 39.42], [-86.63, 39.35], [-86.64, 39.35], [-86.65, 39.36], [-86.66, 39.35], [-86.66, 39.33], [-86.67, 39.33], [-86.69, 39.34], [-86.68, 39.17], [-86.86, 39.17], [-86.94, 39.17], [-87.06, 39.17], [-87.13, 39.17], [-87.24, 39.17], [-87.24, 39.26], [-87.4, 39.26], [-87.6, 39.26], [-87.6, 39.27], [-87.61, 39.28], [-87.61, 39.29], [-87.6, 39.3], [-87.61, 39.3], [-87.62, 39.3], [-87.62, 39.31], [-87.61, 39.31], [-87.59, 39.33], [-87.58, 39.34], [-87.56, 39.34], [-87.55, 39.34], [-87.55, 39.35], [-87.53, 39.35], [-87.53, 39.43], [-87.53, 39.63], [-87.53, 39.67], [-87.53, 39.88], [-87.53, 40.0], [-87.53, 40.14], [-87.53, 40.28], [-87.53, 40.48], [-87.38, 40.48], [-87.21, 40.48], [-87.09, 40.48], [-87.1, 40.56], [-87.03, 40.56], [-86.91, 40.56], [-86.77, 40.56]]]}}, {"type": "Feature", "properties": {"STATE": "Indiana", "STATE_FIPS": "18", "CD_2DIG": "05", "STATE_CODE": 12, "CLIMDIV": 1205, "ID": 1205, "CD_NEW": 5, "FIPS_CD": "1805", "NCDC_GEO_I": 78.0, "NAME": "CENTRAL", "ST_ABBRV": "IN", "SHAPE_AREA": 0.0, "SHAPE_LEN": 0.0}, "geometry": {"type": "Polygon", "coordinates": [[[-85.45, 40.57], [-85.44, 40.38], [-85.56, 40.38], [-85.58, 40.38], [-85.58, 40.25], [-85.58, 40.21], [-85.58, 40.05], [-85.58, 40.01], [-85.58, 39.87], [-85.6, 39.87], [-85.6, 39.79], [-85.45, 39.79], [-85.36, 39.79], [-85.3, 39.79], [-85.3, 39.7], [-85.3, 39.53], [-85.3, 39.5], [-85.3, 39.4], [-85.3, 39.35], [-85.3, 39.34], [-85.3, 39.27], [-85.43, 39.2], [-85.57, 39.13], [-85.68, 39.13], [-85.72, 39.13], [-85.8, 39.13], [-85.8, 39.07], [-85.81, 39.07], [-85.82, 39.07], [-85.85, 39.06], [-85.86, 39.05], [-85.86, 39.04], [-85.91, 39.04], [-86.0, 39.04], [-86.08, 39.04], [-86.08, 39.08], [-86.08, 39.08], [-86.08, 39.23], [-86.08, 39.26], [-86.08, 39.33], [-86.09, 39.34], [-86.2, 39.34], [-86.29, 39.34], [-86.46, 39.34], [-86.52, 39.34], [-86.63, 39.34], [-86.63, 39.35], [-86.63, 39.42], [-86.63, 39.47], [-86.69, 39.47], [-86.69, 39.52], [-86.68, 39.53], [-86.66, 39.54], [-86.66, 39.55], [-86.65, 39.55], [-86.66, 39.58], [-86.65, 39.6], [-86.65, 39.61], [-86.64, 39.62], [-86.64, 39.63], [-86.69, 39.63], [-86.69, 39.79], [-86.69, 39.86], [-86.7, 39.86], [-86.7, 39.97], [-86.7, 40.01], [-86.7, 40.21], [-86.7, 40.26], [-86.69, 40.43], [-86.61, 40.43], [-86.47, 40.43], [-86.38, 40.43], [-86.38, 40.5], [-86.37, 40.56], [-86.24, 40.56], [-85.96, 40.56], [-85.86, 40.57], [-85.86, 40.65], [-85.64, 40.65], [-85.45, 40.65], [-85.45, 40.57]]]}}, {"type": "Feature", "properties": {"STATE": "Indiana", "STATE_FIPS": "18", "CD_2DIG": "06", "STATE_CODE": 12, "CLIMDIV": 1206, "ID": 1206, "CD_NEW": 6, "FIPS_CD": "1806", "NCDC_GEO_I": 79.0, "NAME": "EAST CENTRAL", "ST_ABBRV": "IN", "SHAPE_AREA": 0.0, "SHAPE_LEN": 0.0}, "geometry": {"type": "Polygon", "coordinates": [[[-84.8, 40.57], [-84.8, 40.5], [-84.8, 40.4], [-84.8, 40.32], [-84.8, 40.24], [-84.81, 40.1], [-84.81, 40.05], [-84.81, 39.92], [-84.81, 39.83], [-84.81, 39.71], [-84.82, 39.52], [-84.92, 39.52], [-84.99, 39.52], [-85.02, 39.53], [-85.12, 39.53], [-85.25, 39.53], [-85.3, 39.53], [-85.3, 39.7], [-85.3, 39.79], [-85.36, 39.79], [-85.45, 39.79], [-85.6, 39.79], [-85.6, 39.87], [-85.58, 39.87], [-85.58, 40.01], [-85.58, 40.05], [-85.58, 40.21], [-85.58, 40.25], [-85.58, 40.38], [-85.56, 40.38], [-85.44, 40.38], [-85.45, 40.57], [-85.33, 40.57], [-85.16, 40.57], [-85.05, 40.57], [-84.96, 40.57], [-84.8, 40.57]]]}}, {"type": "Feature", "properties": {"STATE": "Indiana", "STATE_FIPS": "18", "CD_2DIG": "07", "STATE_CODE": 12, "CLIMDIV": 1207, "ID": 1207, "CD_NEW": 7, "FIPS_CD": "1807", "NCDC_GEO_I": 80.0, "NAME": "SOUTHWEST", "ST_ABBRV": "IN", "SHAPE_AREA": 0.0, "SHAPE_LEN": 0.0}, "geometry": {"type": "Polygon", "coordinates": [[[-86.68, 39.17], [-86.68, 39.05], [-86.68, 38.86], [-86.68, 38.76], [-86.68, 38.69], [-86.68, 38.53], [-86.68, 38.4], [-86.68, 38.3], [-86.68, 38.25], [-86.77, 38.25], [-86.79, 38.25], [-86.79, 38.18], [-86.8, 38.18], [-86.8, 38.17], [-86.8, 38.16], [-86.81, 38.14], [-86.8, 38.14], [-86.79, 38.12], [-86.8, 38.11], [-86.78, 38.11], [-86.78, 38.1], [-86.77, 38.1], [-86.77, 38.09], [-86.78, 38.08], [-86.77, 38.06], [-86.78, 38.05], [-86.78, 38.04], [-86.78, 38.03], [-86.78, 38.01], [-86.77, 38.0], [-86.79, 38.0], [-86.8, 38.01], [-86.8, 38.0], [-86.81, 38.0], [-86.82, 38.0], [-86.86, 37.99], [-86.89, 37.96], [-86.9, 37.95], [-86.92, 37.94], [-86.93, 37.93], [-86.96, 37.93], [-86.98, 37.93], [-87.01, 37.92], [-87.03, 37.91], [-87.05, 37.89], [-87.04, 37.88], [-87.05, 37.86], [-87.06, 37.83], [-87.07, 37.8], [-87.09, 37.79], [-87.11, 37.78], [-87.13, 37.79], [-87.13, 37.79], [-87.14, 37.81], [-87.15, 37.83], [-87.16, 37.84], [-87.2, 37.84], [-87.22, 37.85], [-87.26, 37.87], [-87.27, 37.88], [-87.3, 37.9], [-87.32, 37.91], [-87.34, 37.91], [-87.36, 37.92], [-87.38, 37.94], [-87.41, 37.94], [-87.43, 37.94], [-87.45, 37.94], [-87.46, 37.94], [-87.5, 37.91], [-87.51, 37.91], [-87.52, 37.91], [-87.55, 37.92], [-87.57, 37.94], [-87.57, 37.95], [-87.57, 37.96], [-87.58, 37.97], [-87.59, 37.98], [-87.6, 37.97], [-87.6, 37.97], [-87.61, 37.95], [-87.63, 37.93], [-87.63, 37.92], [-87.62, 37.91], [-87.6, 37.89], [-87.59, 37.89], [-87.59, 37.86], [-87.6, 37.85], [-87.62, 37.83], [-87.64, 37.83], [-87.65, 37.83], [-87.67, 37.83], [-87.68, 37.84], [-87.68, 37.86], [-87.66, 37.88], [-87.66, 37.89], [-87.67, 37.9], [-87.69, 37.9], [-87.71, 37.89], [-87.72, 37.89], [-87.74, 37.9], [-87.76, 37.89], [-87.78, 37.88], [-87.8, 37.88], [-87.83, 37.88], [-87.84, 37.88], [-87.85, 37.89], [-87.86, 37.9], [-87.87, 37.92], [-87.88, 37.93], [-87.89, 37.93], [-87.9, 37.93], [-87.94, 37.89], [-87.94, 37.88], [-87.94, 37.87], [-87.91, 37.85], [-87.91, 37.84], [-87.9, 37.82], [-87.91, 37.81], [-87.93, 37.8], [-87.94, 37.78], [-87.96, 37.77], [-87.98, 37.79], [-88.0, 37.8], [-88.01, 37.8], [-88.03, 37.8], [-88.03, 37.81], [-88.05, 37.81], [-88.06, 37.8], [-88.07, 37.8], [-88.08, 37.8], [-88.09, 37.82], [-88.09, 37.83], [-88.08, 37.83], [-88.06, 37.82], [-88.04, 37.82], [-88.03, 37.83], [-88.03, 37.84], [-88.04, 37.84], [-88.06, 37.85], [-88.07, 37.86], [-88.08, 37.88], [-88.09, 37.89], [-88.1, 37.91], [-88.09, 37.91], [-88.07, 37.9], [-88.06, 37.89], [-88.03, 37.89], [-88.02, 37.89], [-88.01, 37.89], [-88.01, 37.89], [-88.02, 37.91], [-88.05, 37.92], [-88.06, 37.92], [-88.07, 37.93], [-88.06, 37.93], [-88.04, 37.92], [-88.03, 37.93], [-88.04, 37.94], [-88.04, 37.96], [-88.02, 37.96], [-88.01, 37.97], [-88.01, 37.98], [-88.03, 38.01], [-88.02, 38.02], [-88.01, 38.03], [-88.02, 38.03], [-88.03, 38.03], [-88.04, 38.04], [-88.04, 38.05], [-88.03, 38.05], [-88.0, 38.05], [-87.98, 38.06], [-87.97, 38.07], [-87.96, 38.09], [-87.96, 38.1], [-87.97, 38.1], [-88.0, 38.08], [-88.01, 38.09], [-88.02, 38.1], [-88.01, 38.1], [-88.0, 38.11], [-87.98, 38.11], [-87.97, 38.11], [-87.97, 38.12], [-87.97, 38.13], [-87.96, 38.13], [-87.94, 38.13], [-87.94, 38.14], [-87.93, 38.15], [-87.91, 38.16], [-87.92, 38.17], [-87.92, 38.17], [-87.92, 38.16], [-87.93, 38.16], [-87.94, 38.17], [-87.97, 38.19], [-87.98, 38.21], [-87.98, 38.23], [-87.98, 38.24], [-87.98, 38.25], [-87.97, 38.25], [-87.97, 38.24], [-87.96, 38.24], [-87.96, 38.25], [-87.94, 38.26], [-87.94, 38.26], [-87.95, 38.27], [-87.94, 38.28], [-87.94, 38.29], [-87.93, 38.3], [-87.92, 38.3], [-87.91, 38.29], [-87.92, 38.28], [-87.91, 38.27], [-87.9, 38.28], [-87.89, 38.28], [-87.88, 38.31], [-87.86, 38.31], [-87.86, 38.3], [-87.87, 38.29], [-87.86, 38.28], [-87.85, 38.28], [-87.84, 38.29], [-87.83, 38.3], [-87.83, 38.32], [-87.82, 38.35], [-87.81, 38.36], [-87.78, 38.37], [-87.77, 38.38], [-87.75, 38.4], [-87.74, 38.41], [-87.74, 38.43], [-87.74, 38.44], [-87.73, 38.45], [-87.74, 38.45], [-87.76, 38.46], [-87.76, 38.46], [-87.74, 38.48], [-87.73, 38.48], [-87.71, 38.48], [-87.69, 38.49], [-87.67, 38.51], [-87.66, 38.5], [-87.65, 38.5], [-87.65, 38.51], [-87.66, 38.52], [-87.67, 38.55], [-87.65, 38.56], [-87.65, 38.57], [-87.64, 38.58], [-87.64, 38.59], [-87.63, 38.59], [-87.62, 38.59], [-87.63, 38.61], [-87.62, 38.62], [-87.62, 38.62], [-87.62, 38.64], [-87.61, 38.65], [-87.6, 38.67], [-87.57, 38.67], [-87.55, 38.68], [-87.53, 38.68], [-87.52, 38.69], [-87.52, 38.71], [-87.51, 38.73], [-87.51, 38.73], [-87.5, 38.74], [-87.5, 38.75], [-87.5, 38.77], [-87.51, 38.77], [-87.5, 38.78], [-87.5, 38.79], [-87.51, 38.8], [-87.53, 38.82], [-87.52, 38.83], [-87.53, 38.84], [-87.53, 38.85], [-87.55, 38.86], [-87.54, 38.87], [-87.55, 38.88], [-87.53, 38.88], [-87.54, 38.89], [-87.53, 38.91], [-87.53, 38.92], [-87.52, 38.92], [-87.52, 38.93], [-87.52, 38.94], [-87.51, 38.95], [-87.51, 38.96], [-87.52, 38.96], [-87.53, 38.97], [-87.57, 38.99], [-87.57, 38.99], [-87.58, 39.0], [-87.57, 39.02], [-87.57, 39.03], [-87.58, 39.04], [-87.57, 39.05], [-87.57, 39.06], [-87.6, 39.08], [-87.61, 39.08], [-87.62, 39.09], [-87.61, 39.1], [-87.61, 39.1], [-87.64, 39.11], [-87.65, 39.1], [-87.65, 39.12], [-87.64, 39.11], [-87.63, 39.12], [-87.66, 39.14], [-87.65, 39.15], [-87.64, 39.16], [-87.64, 39.17], [-87.62, 39.17], [-87.62, 39.18], [-87.61, 39.19], [-87.6, 39.19], [-87.59, 39.2], [-87.58, 39.21], [-87.57, 39.22], [-87.58, 39.24], [-87.57, 39.25], [-87.58, 39.26], [-87.59, 39.25], [-87.6, 39.26], [-87.4, 39.26], [-87.24, 39.26], [-87.24, 39.17], [-87.13, 39.17], [-87.06, 39.17], [-86.94, 39.17], [-86.86, 39.17], [-86.68, 39.17]]]}}, {"type": "Feature", "properties": {"STATE": "Indiana", "STATE_FIPS": "18", "CD_2DIG": "08", "STATE_CODE": 12, "CLIMDIV": 1208, "ID": 1208, "CD_NEW": 8, "FIPS_CD": "1808", "NCDC_GEO_I": 81.0, "NAME": "SOUTH CENTRAL", "ST_ABBRV": "IN", "SHAPE_AREA": 0.0, "SHAPE_LEN": 0.0}, "geometry": {"type": "Polygon", "coordinates": [[[-86.63, 39.35], [-86.63, 39.34], [-86.52, 39.34], [-86.46, 39.34], [-86.29, 39.34], [-86.2, 39.34], [-86.09, 39.34], [-86.08, 39.33], [-86.08, 39.26], [-86.08, 39.23], [-86.08, 39.08], [-86.08, 39.08], [-86.08, 39.04], [-86.0, 39.04], [-85.91, 39.04], [-85.86, 39.04], [-85.86, 39.05], [-85.85, 39.06], [-85.82, 39.07], [-85.81, 39.07], [-85.8, 39.07], [-85.8, 38.95], [-85.8, 38.81], [-85.81, 38.79], [-85.8, 38.78], [-85.82, 38.78], [-85.83, 38.76], [-85.83, 38.75], [-85.84, 38.74], [-85.84, 38.74], [-85.86, 38.73], [-85.88, 38.73], [-85.89, 38.73], [-85.89, 38.72], [-85.89, 38.58], [-85.85, 38.58], [-85.85, 38.55], [-85.87, 38.55], [-85.87, 38.52], [-85.88, 38.52], [-85.88, 38.5], [-85.96, 38.5], [-85.96, 38.49], [-85.99, 38.49], [-85.99, 38.41], [-85.97, 38.41], [-85.97, 38.4], [-85.91, 38.4], [-85.81, 38.4], [-85.81, 38.4], [-85.76, 38.35], [-85.77, 38.34], [-85.78, 38.34], [-85.79, 38.33], [-85.79, 38.31], [-85.79, 38.29], [-85.82, 38.28], [-85.83, 38.28], [-85.84, 38.26], [-85.84, 38.24], [-85.85, 38.22], [-85.87, 38.21], [-85.9, 38.18], [-85.91, 38.17], [-85.91, 38.14], [-85.9, 38.11], [-85.91, 38.09], [-85.92, 38.06], [-85.92, 38.04], [-85.92, 38.02], [-85.93, 38.01], [-85.95, 38.01], [-85.98, 38.0], [-86.02, 38.0], [-86.03, 37.99], [-86.04, 37.98], [-86.03, 37.97], [-86.04, 37.96], [-86.05, 37.96], [-86.06, 37.97], [-86.08, 38.0], [-86.11, 38.01], [-86.13, 38.02], [-86.15, 38.01], [-86.17, 38.01], [-86.18, 38.01], [-86.22, 38.03], [-86.23, 38.04], [-86.25, 38.05], [-86.27, 38.06], [-86.28, 38.08], [-86.28, 38.1], [-86.27, 38.13], [-86.27, 38.14], [-86.29, 38.16], [-86.32, 38.17], [-86.35, 38.19], [-86.36, 38.2], [-86.38, 38.19], [-86.38, 38.17], [-86.36, 38.16], [-86.34, 38.16], [-86.33, 38.16], [-86.32, 38.15], [-86.32, 38.14], [-86.33, 38.13], [-86.34, 38.13], [-86.38, 38.13], [-86.39, 38.12], [-86.39, 38.11], [-86.41, 38.11], [-86.43, 38.12], [-86.43, 38.13], [-86.45, 38.13], [-86.46, 38.12], [-86.47, 38.11], [-86.46, 38.1], [-86.45, 38.09], [-86.43, 38.09], [-86.43, 38.08], [-86.43, 38.07], [-86.45, 38.05], [-86.47, 38.05], [-86.51, 38.04], [-86.52, 38.04], [-86.53, 38.03], [-86.53, 37.97], [-86.52, 37.95], [-86.51, 37.94], [-86.51, 37.93], [-86.51, 37.93], [-86.53, 37.92], [-86.55, 37.92], [-86.57, 37.92], [-86.59, 37.92], [-86.6, 37.91], [-86.6, 37.9], [-86.6, 37.87], [-86.6, 37.86], [-86.64, 37.84], [-86.66, 37.84], [-86.66, 37.86], [-86.66, 37.87], [-86.64, 37.89], [-86.64, 37.9], [-86.65, 37.91], [-86.68, 37.92], [-86.71, 37.9], [-86.72, 37.89], [-86.73, 37.89], [-86.75, 37.91], [-86.77, 37.93], [-86.78, 37.96], [-86.79, 37.97], [-86.8, 37.99], [-86.81, 38.0], [-86.8, 38.0], [-86.8, 38.01], [-86.79, 38.0], [-86.77, 38.0], [-86.78, 38.01], [-86.78, 38.03], [-86.78, 38.04], [-86.78, 38.05], [-86.77, 38.06], [-86.78, 38.08], [-86.77, 38.09], [-86.77, 38.1], [-86.78, 38.1], [-86.78, 38.11], [-86.8, 38.11], [-86.79, 38.12], [-86.8, 38.14], [-86.81, 38.14], [-86.8, 38.16], [-86.8, 38.17], [-86.8, 38.18], [-86.79, 38.18], [-86.79, 38.25], [-86.77, 38.25], [-86.68, 38.25], [-86.68, 38.3], [-86.68, 38.4], [-86.68, 38.53], [-86.68, 38.69], [-86.68, 38.76], [-86.68, 38.86], [-86.68, 39.05], [-86.68, 39.17], [-86.69, 39.34], [-86.67, 39.33], [-86.66, 39.33], [-86.66, 39.35], [-86.65, 39.36], [-86.64, 39.35], [-86.63, 39.35]]]}}, {"type": "Feature", "properties": {"STATE": "Indiana", "STATE_FIPS": "18", "CD_2DIG": "09", "STATE_CODE": 12, "CLIMDIV": 1209, "ID": 1209, "CD_NEW": 9, "FIPS_CD": "1809", "NCDC_GEO_I": 82.0, "NAME": "SOUTHEAST", "ST_ABBRV": "IN", "SHAPE_AREA": 0.0, "SHAPE_LEN": 0.0}, "geometry": {"type": "Polygon", "coordinates": [[[-84.82, 39.52], [-84.82, 39.39], [-84.82, 39.37], [-84.82, 39.25], [-84.82, 39.16], [-84.82, 39.11], [-84.83, 39.1], [-84.86, 39.08], [-84.89, 39.07], [-84.9, 39.05], [-84.88, 39.03], [-84.87, 39.03], [-84.86, 39.01], [-84.83, 38.98], [-84.83, 38.97], [-84.84, 38.96], [-84.86, 38.93], [-84.88, 38.92], [-84.88, 38.91], [-84.86, 38.9], [-84.83, 38.9], [-84.81, 38.89], [-84.79, 38.89], [-84.78, 38.88], [-84.79, 38.86], [-84.82, 38.84], [-84.83, 38.83], [-84.83, 38.82], [-84.81, 38.8], [-84.81, 38.79], [-84.84, 38.78], [-84.85, 38.79], [-84.89, 38.79], [-84.93, 38.78], [-84.95, 38.78], [-84.98, 38.78], [-85.0, 38.77], [-85.01, 38.77], [-85.04, 38.76], [-85.05, 38.75], [-85.07, 38.74], [-85.1, 38.73], [-85.13, 38.7], [-85.15, 38.7], [-85.17, 38.69], [-85.19, 38.69], [-85.21, 38.69], [-85.23, 38.71], [-85.25, 38.73], [-85.26, 38.74], [-85.29, 38.74], [-85.31, 38.74], [-85.35, 38.73], [-85.37, 38.73], [-85.41, 38.74], [-85.43, 38.73], [-85.45, 38.71], [-85.46, 38.69], [-85.45, 38.68], [-85.44, 38.66], [-85.44, 38.61], [-85.44, 38.6], [-85.42, 38.57], [-85.42, 38.56], [-85.42, 38.55], [-85.42, 38.53], [-85.44, 38.52], [-85.46, 38.51], [-85.47, 38.5], [-85.48, 38.49], [-85.5, 38.47], [-85.52, 38.46], [-85.54, 38.46], [-85.57, 38.45], [-85.59, 38.45], [-85.61, 38.44], [-85.62, 38.42], [-85.63, 38.39], [-85.64, 38.38], [-85.64, 38.36], [-85.64, 38.35], [-85.65, 38.33], [-85.68, 38.3], [-85.74, 38.27], [-85.75, 38.27], [-85.77, 38.28], [-85.77, 38.29], [-85.79, 38.29], [-85.79, 38.31], [-85.79, 38.33], [-85.78, 38.34], [-85.77, 38.34], [-85.76, 38.35], [-85.81, 38.4], [-85.81, 38.4], [-85.91, 38.4], [-85.97, 38.4], [-85.97, 38.41], [-85.99, 38.41], [-85.99, 38.49], [-85.96, 38.49], [-85.96, 38.5], [-85.88, 38.5], [-85.88, 38.52], [-85.87, 38.52], [-85.87, 38.55], [-85.85, 38.55], [-85.85, 38.58], [-85.89, 38.58], [-85.89, 38.72], [-85.89, 38.73], [-85.88, 38.73], [-85.86, 38.73], [-85.84, 38.74], [-85.84, 38.74], [-85.83, 38.75], [-85.83, 38.76], [-85.82, 38.78], [-85.8, 38.78], [-85.81, 38.79], [-85.8, 38.81], [-85.8, 38.95], [-85.8, 39.07], [-85.8, 39.13], [-85.72, 39.13], [-85.68, 39.13], [-85.57, 39.13], [-85.43, 39.2], [-85.3, 39.27], [-85.3, 39.34], [-85.3, 39.35], [-85.3, 39.4], [-85.3, 39.5], [-85.3, 39.53], [-85.25, 39.53], [-85.12, 39.53], [-85.02, 39.53], [-84.99, 39.52], [-84.92, 39.52], [-84.82, 39.52]]]}}]}