{"type": "FeatureCollection", "features": [{"type": "Feature", "properties": {"STATE": "Iowa", "STATE_FIPS": "19", "CD_2DIG": "02", "STATE_CODE": 13, "CLIMDIV": 1302, "ID": 1302, "CD_NEW": 2, "FIPS_CD": "1902", "NCDC_GEO_I": 84.0, "NAME": "NORTH CENTRAL", "ST_ABBRV": "IA", "SHAPE_AREA": 0.0, "SHAPE_LEN": 0.0}, "geometry": {"type": "Polygon", "coordinates": [[[-93.05, 43.5], [-92.78, 43.5], [-92.55, 43.5], [-92.55, 43.41], [-92.55, 43.28], [-92.55, 43.08], [-92.55, 42.94], [-92.55, 42.76], [-92.55, 42.73], [-92.55, 42.56], [-92.78, 42.56], [-92.89, 42.56], [-92.95, 42.56], [-93.14, 42.56], [-93.41, 42.56], [-93.64, 42.56], [-93.77, 42.56], [-93.97, 42.56], [-93.97, 42.64], [-94.08, 42.64], [-94.23, 42.64], [-94.44, 42.65], [-94.44, 42.73], [-94.44, 42.86], [-94.44, 42.91], [-94.44, 43.03], [-94.44, 43.2], [-94.44, 43.23], [-94.44, 43.28], [-94.44, 43.41], [-94.44, 43.5], [-94.19, 43.5], [-93.93, 43.5], [-93.79, 43.5], [-93.51, 43.5], [-93.34, 43.5], [-93.05, 43.5]]]}}, {"type": "Feature", "properties": {"STATE": "Iowa", "STATE_FIPS": "19", "CD_2DIG": "03", "STATE_CODE": 13, "CLIMDIV": 1303, "ID": 1303, "CD_NEW": 3, "FIPS_CD": "1903", "NCDC_GEO_I": 85.0, "NAME": "NORTHEAST", "ST_ABBRV": "IA", "SHAPE_AREA": 0.0, "SHAPE_LEN": 0.0}, "geometry": {"type": "Polygon", "coordinates": [[[-91.22, 43.5], [-91.22, 43.48], [-91.22, 43.47], [-91.23, 43.46], [-91.23, 43.45], [-91.2, 43.42], [-91.2, 43.4], [-91.21, 43.37], [-91.21, 43.37], [-91.2, 43.35], [-91.18, 43.35], [-91.15, 43.33], [-91.13, 43.33], [-91.11, 43.31], [-91.09, 43.29], [-91.07, 43.27], [-91.07, 43.26], [-91.06, 43.25], [-91.06, 43.24], [-91.08, 43.23], [-91.11, 43.21], [-91.12, 43.2], [-91.12, 43.19], [-91.14, 43.17], [-91.14, 43.16], [-91.16, 43.14], [-91.18, 43.13], [-91.18, 43.13], [-91.18, 43.1], [-91.18, 43.07], [-91.18, 43.07], [-91.17, 43.04], [-91.16, 42.99], [-91.16, 42.98], [-91.15, 42.96], [-91.15, 42.94], [-91.14, 42.93], [-91.15, 42.91], [-91.14, 42.9], [-91.12, 42.9], [-91.1, 42.88], [-91.1, 42.86], [-91.09, 42.85], [-91.1, 42.83], [-91.09, 42.83], [-91.08, 42.83], [-91.08, 42.81], [-91.07, 42.78], [-91.07, 42.77], [-91.06, 42.76], [-91.07, 42.76], [-91.05, 42.74], [-91.03, 42.74], [-91.03, 42.73], [-91.02, 42.72], [-91.01, 42.72], [-91.0, 42.71], [-90.98, 42.7], [-90.95, 42.69], [-90.94, 42.68], [-90.92, 42.69], [-90.89, 42.67], [-90.84, 42.66], [-90.77, 42.65], [-90.72, 42.64], [-90.7, 42.63], [-90.69, 42.61], [-90.69, 42.59], [-90.68, 42.58], [-90.66, 42.57], [-90.65, 42.55], [-90.65, 42.54], [-90.64, 42.52], [-90.64, 42.51], [-90.66, 42.49], [-90.65, 42.48], [-90.65, 42.47], [-90.62, 42.46], [-90.61, 42.45], [-90.57, 42.44], [-90.56, 42.43], [-90.56, 42.42], [-90.52, 42.4], [-90.5, 42.4], [-90.49, 42.39], [-90.47, 42.38], [-90.5, 42.38], [-90.67, 42.38], [-90.67, 42.29], [-90.74, 42.29], [-90.93, 42.3], [-91.01, 42.3], [-91.16, 42.3], [-91.31, 42.3], [-91.5, 42.3], [-91.7, 42.3], [-91.83, 42.3], [-91.95, 42.3], [-92.06, 42.3], [-92.3, 42.3], [-92.53, 42.3], [-92.53, 42.47], [-92.55, 42.47], [-92.55, 42.56], [-92.55, 42.73], [-92.55, 42.76], [-92.55, 42.94], [-92.55, 43.08], [-92.55, 43.28], [-92.55, 43.41], [-92.55, 43.5], [-92.21, 43.5], [-92.03, 43.5], [-91.76, 43.5], [-91.63, 43.5], [-91.38, 43.5], [-91.27, 43.5], [-91.22, 43.5]]]}}, {"type": "Feature", "properties": {"STATE": "Iowa", "STATE_FIPS": "19", "CD_2DIG": "04", "STATE_CODE": 13, "CLIMDIV": 1304, "ID": 1304, "CD_NEW": 4, "FIPS_CD": "1904", "NCDC_GEO_I": 86.0, "NAME": "WEST CENTRAL", "ST_ABBRV": "IA", "SHAPE_AREA": 0.0, "SHAPE_LEN": 0.0}, "geometry": {"type": "Polygon", "coordinates": [[[-94.44, 42.56], [-94.44, 42.47], [-94.4, 42.47], [-94.4, 42.4], [-94.4, 42.24], [-94.4, 42.21], [-94.25, 42.21], [-94.16, 42.21], [-94.17, 42.09], [-94.16, 42.04], [-94.16, 41.86], [-94.28, 41.86], [-94.28, 41.77], [-94.28, 41.6], [-94.24, 41.6], [-94.24, 41.5], [-94.36, 41.5], [-94.53, 41.5], [-94.84, 41.5], [-95.04, 41.5], [-95.26, 41.51], [-95.46, 41.51], [-95.71, 41.51], [-95.93, 41.51], [-96.0, 41.51], [-95.99, 41.52], [-96.0, 41.54], [-96.02, 41.55], [-96.03, 41.54], [-96.03, 41.51], [-96.04, 41.51], [-96.06, 41.51], [-96.07, 41.53], [-96.09, 41.53], [-96.1, 41.55], [-96.09, 41.56], [-96.08, 41.57], [-96.08, 41.58], [-96.11, 41.6], [-96.12, 41.61], [-96.12, 41.62], [-96.1, 41.64], [-96.1, 41.65], [-96.1, 41.66], [-96.11, 41.67], [-96.12, 41.68], [-96.12, 41.69], [-96.11, 41.7], [-96.09, 41.7], [-96.08, 41.7], [-96.07, 41.71], [-96.08, 41.72], [-96.1, 41.73], [-96.11, 41.74], [-96.1, 41.75], [-96.08, 41.75], [-96.08, 41.76], [-96.08, 41.78], [-96.07, 41.79], [-96.07, 41.8], [-96.08, 41.81], [-96.09, 41.81], [-96.11, 41.82], [-96.11, 41.83], [-96.11, 41.84], [-96.12, 41.85], [-96.14, 41.86], [-96.14, 41.87], [-96.15, 41.89], [-96.16, 41.9], [-96.16, 41.91], [-96.14, 41.92], [-96.14, 41.93], [-96.14, 41.94], [-96.14, 41.95], [-96.14, 41.95], [-96.13, 41.97], [-96.13, 41.97], [-96.16, 41.98], [-96.18, 41.98], [-96.19, 41.99], [-96.18, 42.0], [-96.19, 42.01], [-96.21, 42.01], [-96.22, 42.01], [-96.23, 41.99], [-96.24, 42.0], [-96.24, 42.01], [-96.23, 42.02], [-96.22, 42.03], [-96.23, 42.04], [-96.24, 42.04], [-96.26, 42.04], [-96.27, 42.04], [-96.28, 42.06], [-96.28, 42.07], [-96.27, 42.1], [-96.27, 42.11], [-96.27, 42.12], [-96.28, 42.13], [-96.3, 42.13], [-96.31, 42.14], [-96.32, 42.15], [-96.34, 42.16], [-96.35, 42.17], [-96.35, 42.18], [-96.35, 42.19], [-96.36, 42.21], [-96.36, 42.22], [-96.33, 42.22], [-96.32, 42.23], [-96.33, 42.24], [-96.33, 42.25], [-96.33, 42.26], [-96.34, 42.27], [-96.36, 42.28], [-96.37, 42.29], [-96.37, 42.31], [-96.38, 42.33], [-96.41, 42.34], [-96.42, 42.35], [-96.42, 42.36], [-96.41, 42.38], [-96.42, 42.4], [-96.41, 42.41], [-96.39, 42.43], [-96.38, 42.45], [-96.38, 42.46], [-96.39, 42.47], [-96.4, 42.48], [-96.41, 42.49], [-96.44, 42.49], [-96.46, 42.49], [-96.47, 42.49], [-96.47, 42.5], [-96.48, 42.51], [-96.49, 42.51], [-96.49, 42.52], [-96.48, 42.52], [-96.48, 42.56], [-96.49, 42.56], [-96.5, 42.56], [-96.43, 42.56], [-96.23, 42.56], [-96.01, 42.56], [-95.85, 42.56], [-95.72, 42.56], [-95.54, 42.56], [-95.41, 42.56], [-95.31, 42.56], [-95.05, 42.56], [-94.93, 42.56], [-94.78, 42.56], [-94.68, 42.56], [-94.62, 42.56], [-94.54, 42.56], [-94.44, 42.56]]]}}, {"type": "Feature", "properties": {"STATE": "Iowa", "STATE_FIPS": "19", "CD_2DIG": "05", "STATE_CODE": 13, "CLIMDIV": 1305, "ID": 1305, "CD_NEW": 5, "FIPS_CD": "1905", "NCDC_GEO_I": 87.0, "NAME": "CENTRAL", "ST_ABBRV": "IA", "SHAPE_AREA": 0.0, "SHAPE_LEN": 0.0}, "geometry": {"type": "Polygon", "coordinates": [[[-92.55, 42.56], [-92.55, 42.47], [-92.53, 42.47], [-92.53, 42.3], [-92.3, 42.3], [-92.3, 42.16], [-92.3, 42.04], [-92.3, 41.97], [-92.3, 41.8], [-92.3, 41.74], [-92.3, 41.66], [-92.3, 41.6], [-92.3, 41.6], [-92.3, 41.51], [-92.57, 41.51], [-92.73, 41.51], [-92.87, 41.51], [-93.0, 41.51], [-93.07, 41.51], [-93.33, 41.51], [-93.33, 41.49], [-93.34, 41.48], [-93.35, 41.48], [-93.35, 41.5], [-93.36, 41.49], [-93.37, 41.49], [-93.38, 41.5], [-93.4, 41.49], [-93.4, 41.5], [-93.4, 41.5], [-93.41, 41.49], [-93.42, 41.51], [-93.44, 41.5], [-93.44, 41.51], [-93.55, 41.51], [-93.63, 41.51], [-93.79, 41.51], [-93.9, 41.5], [-94.13, 41.5], [-94.24, 41.5], [-94.24, 41.6], [-94.28, 41.6], [-94.28, 41.77], [-94.28, 41.86], [-94.16, 41.86], [-94.16, 42.04], [-94.17, 42.09], [-94.16, 42.21], [-94.25, 42.21], [-94.4, 42.21], [-94.4, 42.24], [-94.4, 42.4], [-94.4, 42.47], [-94.44, 42.47], [-94.44, 42.56], [-94.44, 42.65], [-94.23, 42.64], [-94.08, 42.64], [-93.97, 42.64], [-93.97, 42.56], [-93.77, 42.56], [-93.64, 42.56], [-93.41, 42.56], [-93.14, 42.56], [-92.95, 42.56], [-92.89, 42.56], [-92.78, 42.56], [-92.55, 42.56]]]}}, {"type": "Feature", "properties": {"STATE": "Iowa", "STATE_FIPS": "19", "CD_2DIG": "06", "STATE_CODE": 13, "CLIMDIV": 1306, "ID": 1306, "CD_NEW": 6, "FIPS_CD": "1906", "NCDC_GEO_I": 88.0, "NAME": "EAST CENTRAL", "ST_ABBRV": "IA", "SHAPE_AREA": 0.0, "SHAPE_LEN": 0.0}, "geometry": {"type": "Polygon", "coordinates": [[[-90.47, 42.38], [-90.46, 42.37], [-90.45, 42.36], [-90.43, 42.34], [-90.42, 42.32], [-90.42, 42.32], [-90.42, 42.31], [-90.43, 42.28], [-90.42, 42.25], [-90.4, 42.24], [-90.39, 42.23], [-90.36, 42.21], [-90.33, 42.2], [-90.32, 42.19], [-90.3, 42.19], [-90.28, 42.18], [-90.25, 42.17], [-90.21, 42.15], [-90.2, 42.13], [-90.19, 42.13], [-90.17, 42.13], [-90.16, 42.12], [-90.16, 42.09], [-90.17, 42.08], [-90.16, 42.04], [-90.15, 42.03], [-90.14, 42.0], [-90.15, 41.98], [-90.16, 41.96], [-90.16, 41.94], [-90.15, 41.93], [-90.15, 41.91], [-90.17, 41.88], [-90.17, 41.86], [-90.18, 41.84], [-90.18, 41.83], [-90.18, 41.81], [-90.19, 41.8], [-90.22, 41.79], [-90.26, 41.77], [-90.28, 41.77], [-90.3, 41.75], [-90.32, 41.73], [-90.32, 41.72], [-90.31, 41.7], [-90.32, 41.69], [-90.33, 41.68], [-90.34, 41.66], [-90.34, 41.65], [-90.34, 41.6], [-90.34, 41.59], [-90.36, 41.58], [-90.4, 41.57], [-90.41, 41.57], [-90.42, 41.55], [-90.43, 41.55], [-90.45, 41.54], [-90.46, 41.52], [-90.47, 41.52], [-90.5, 41.52], [-90.54, 41.53], [-90.56, 41.52], [-90.57, 41.52], [-90.6, 41.51], [-90.6, 41.51], [-90.61, 41.49], [-90.63, 41.48], [-90.66, 41.46], [-90.68, 41.46], [-90.69, 41.46], [-90.74, 41.45], [-90.78, 41.45], [-90.8, 41.45], [-90.85, 41.46], [-90.86, 41.45], [-90.9, 41.43], [-90.93, 41.42], [-90.95, 41.42], [-90.98, 41.43], [-90.99, 41.43], [-91.01, 41.43], [-91.03, 41.42], [-91.05, 41.41], [-91.05, 41.38], [-91.07, 41.37], [-91.07, 41.33], [-91.2, 41.33], [-91.25, 41.34], [-91.37, 41.34], [-91.37, 41.42], [-91.48, 41.42], [-91.49, 41.44], [-91.5, 41.45], [-91.5, 41.46], [-91.52, 41.47], [-91.51, 41.48], [-91.5, 41.48], [-91.5, 41.49], [-91.54, 41.51], [-91.63, 41.51], [-91.78, 41.51], [-91.99, 41.51], [-92.3, 41.51], [-92.3, 41.6], [-92.3, 41.6], [-92.3, 41.66], [-92.3, 41.74], [-92.3, 41.8], [-92.3, 41.97], [-92.3, 42.04], [-92.3, 42.16], [-92.3, 42.3], [-92.06, 42.3], [-91.95, 42.3], [-91.83, 42.3], [-91.7, 42.3], [-91.5, 42.3], [-91.31, 42.3], [-91.16, 42.3], [-91.01, 42.3], [-90.93, 42.3], [-90.74, 42.29], [-90.67, 42.29], [-90.67, 42.38], [-90.5, 42.38], [-90.47, 42.38]]]}}, {"type": "Feature", "properties": {"STATE": "Iowa", "STATE_FIPS": "19", "CD_2DIG": "07", "STATE_CODE": 13, "CLIMDIV": 1307, "ID": 1307, "CD_NEW": 7, "FIPS_CD": "1907", "NCDC_GEO_I": 89.0, "NAME": "SOUTHWEST", "ST_ABBRV": "IA", "SHAPE_AREA": 0.0, "SHAPE_LEN": 0.0}, "geometry": {"type": "Polygon", "coordinates": [[[-94.24, 41.5], [-94.24, 41.33], [-94.24, 41.16], [-94.47, 41.16], [-94.47, 41.07], [-94.47, 41.03], [-94.47, 40.99], [-94.47, 40.91], [-94.47, 40.86], [-94.47, 40.73], [-94.47, 40.57], [-94.54, 40.57], [-94.65, 40.57], [-94.8, 40.57], [-94.97, 40.58], [-94.99, 40.58], [-95.23, 40.58], [-95.32, 40.58], [-95.49, 40.58], [-95.61, 40.58], [-95.77, 40.59], [-95.75, 40.59], [-95.75, 40.6], [-95.75, 40.61], [-95.77, 40.62], [-95.77, 40.64], [-95.78, 40.65], [-95.79, 40.66], [-95.81, 40.67], [-95.82, 40.67], [-95.84, 40.68], [-95.85, 40.7], [-95.86, 40.71], [-95.88, 40.72], [-95.89, 40.73], [-95.88, 40.75], [-95.87, 40.76], [-95.85, 40.77], [-95.84, 40.78], [-95.83, 40.78], [-95.84, 40.8], [-95.84, 40.82], [-95.84, 40.84], [-95.85, 40.85], [-95.85, 40.86], [-95.84, 40.87], [-95.82, 40.88], [-95.81, 40.88], [-95.81, 40.9], [-95.81, 40.9], [-95.84, 40.92], [-95.84, 40.94], [-95.84, 40.95], [-95.83, 40.96], [-95.83, 40.98], [-95.84, 40.99], [-95.86, 41.0], [-95.87, 41.01], [-95.86, 41.03], [-95.86, 41.04], [-95.88, 41.06], [-95.88, 41.07], [-95.87, 41.08], [-95.86, 41.09], [-95.87, 41.1], [-95.87, 41.12], [-95.88, 41.14], [-95.88, 41.15], [-95.87, 41.17], [-95.85, 41.17], [-95.84, 41.17], [-95.85, 41.18], [-95.86, 41.19], [-95.91, 41.18], [-95.92, 41.19], [-95.93, 41.2], [-95.93, 41.21], [-95.92, 41.22], [-95.91, 41.24], [-95.92, 41.26], [-95.92, 41.27], [-95.91, 41.27], [-95.93, 41.28], [-95.93, 41.3], [-95.91, 41.3], [-95.9, 41.29], [-95.91, 41.28], [-95.9, 41.27], [-95.88, 41.28], [-95.87, 41.3], [-95.88, 41.31], [-95.89, 41.32], [-95.91, 41.32], [-95.93, 41.32], [-95.94, 41.33], [-95.95, 41.34], [-95.96, 41.35], [-95.93, 41.36], [-95.93, 41.37], [-95.94, 41.38], [-95.94, 41.4], [-95.93, 41.41], [-95.93, 41.43], [-95.92, 41.44], [-95.93, 41.46], [-95.94, 41.47], [-95.96, 41.46], [-95.98, 41.47], [-96.0, 41.47], [-96.02, 41.49], [-96.02, 41.49], [-96.0, 41.51], [-95.93, 41.51], [-95.71, 41.51], [-95.46, 41.51], [-95.26, 41.51], [-95.04, 41.5], [-94.84, 41.5], [-94.53, 41.5], [-94.36, 41.5], [-94.24, 41.5]]]}}, {"type": "Feature", "properties": {"STATE": "Iowa", "STATE_FIPS": "19", "CD_2DIG": "08", "STATE_CODE": 13, "CLIMDIV": 1308, "ID": 1308, "CD_NEW": 8, "FIPS_CD": "1908", "NCDC_GEO_I": 90.0, "NAME": "SOUTH CENTRAL", "ST_ABBRV": "IA", "SHAPE_AREA": 0.0, "SHAPE_LEN": 0.0}, "geometry": {"type": "Polygon", "coordinates": [[[-92.87, 41.51], [-92.87, 41.38], [-92.87, 41.29], [-92.87, 41.16], [-92.64, 41.16], [-92.64, 41.03], [-92.64, 40.88], [-92.64, 40.77], [-92.64, 40.67], [-92.64, 40.59], [-92.71, 40.59], [-92.78, 40.59], [-92.92, 40.59], [-93.04, 40.59], [-93.14, 40.58], [-93.26, 40.58], [-93.42, 40.58], [-93.55, 40.58], [-93.64, 40.58], [-93.72, 40.58], [-93.82, 40.58], [-94.07, 40.57], [-94.21, 40.57], [-94.35, 40.57], [-94.47, 40.57], [-94.47, 40.73], [-94.47, 40.86], [-94.47, 40.91], [-94.47, 40.99], [-94.47, 41.03], [-94.47, 41.07], [-94.47, 41.16], [-94.24, 41.16], [-94.24, 41.33], [-94.24, 41.5], [-94.13, 41.5], [-93.9, 41.5], [-93.79, 41.51], [-93.63, 41.51], [-93.55, 41.51], [-93.44, 41.51], [-93.44, 41.5], [-93.42, 41.51], [-93.41, 41.49], [-93.4, 41.5], [-93.4, 41.5], [-93.4, 41.49], [-93.38, 41.5], [-93.37, 41.49], [-93.36, 41.49], [-93.35, 41.5], [-93.35, 41.48], [-93.34, 41.48], [-93.33, 41.49], [-93.33, 41.51], [-93.07, 41.51], [-93.0, 41.51], [-92.87, 41.51]]]}}, {"type": "Feature", "properties": {"STATE": "Iowa", "STATE_FIPS": "19", "CD_2DIG": "09", "STATE_CODE": 13, "CLIMDIV": 1309, "ID": 1309, "CD_NEW": 9, "FIPS_CD": "1909", "NCDC_GEO_I": 91.0, "NAME": "SOUTHEAST", "ST_ABBRV": "IA", "SHAPE_AREA": 0.0, "SHAPE_LEN": 0.0}, "geometry": {"type": "Polygon", "coordinates": [[[-91.07, 41.33], [-91.07, 41.31], [-91.08, 41.3], [-91.09, 41.29], [-91.1, 41.26], [-91.11, 41.25], [-91.11, 41.24], [-91.08, 41.21], [-91.07, 41.2], [-91.04, 41.17], [-91.03, 41.16], [-91.01, 41.17], [-91.0, 41.16], [-90.99, 41.16], [-90.97, 41.13], [-90.97, 41.12], [-90.95, 41.1], [-90.95, 41.07], [-90.95, 41.06], [-90.94, 41.03], [-90.95, 41.01], [-90.96, 40.98], [-90.95, 40.96], [-90.96, 40.92], [-90.97, 40.92], [-91.0, 40.91], [-91.01, 40.9], [-91.02, 40.88], [-91.04, 40.87], [-91.06, 40.85], [-91.09, 40.82], [-91.1, 40.82], [-91.1, 40.8], [-91.09, 40.79], [-91.09, 40.78], [-91.1, 40.76], [-91.11, 40.75], [-91.12, 40.73], [-91.11, 40.71], [-91.12, 40.67], [-91.14, 40.66], [-91.19, 40.64], [-91.2, 40.64], [-91.22, 40.64], [-91.25, 40.64], [-91.26, 40.63], [-91.31, 40.63], [-91.35, 40.61], [-91.36, 40.6], [-91.38, 40.57], [-91.4, 40.56], [-91.41, 40.54], [-91.4, 40.54], [-91.39, 40.53], [-91.37, 40.51], [-91.36, 40.5], [-91.36, 40.48], [-91.38, 40.45], [-91.38, 40.44], [-91.37, 40.42], [-91.37, 40.4], [-91.38, 40.39], [-91.4, 40.38], [-91.41, 40.38], [-91.42, 40.38], [-91.44, 40.39], [-91.45, 40.38], [-91.46, 40.38], [-91.46, 40.39], [-91.48, 40.38], [-91.49, 40.39], [-91.49, 40.4], [-91.5, 40.4], [-91.52, 40.41], [-91.53, 40.42], [-91.52, 40.43], [-91.53, 40.44], [-91.52, 40.45], [-91.53, 40.46], [-91.55, 40.46], [-91.57, 40.46], [-91.58, 40.47], [-91.59, 40.49], [-91.59, 40.49], [-91.62, 40.5], [-91.62, 40.52], [-91.62, 40.54], [-91.63, 40.54], [-91.68, 40.55], [-91.69, 40.56], [-91.69, 40.58], [-91.69, 40.58], [-91.71, 40.6], [-91.73, 40.61], [-91.82, 40.61], [-91.87, 40.61], [-91.95, 40.61], [-92.16, 40.6], [-92.3, 40.6], [-92.43, 40.6], [-92.48, 40.6], [-92.59, 40.59], [-92.64, 40.59], [-92.64, 40.67], [-92.64, 40.77], [-92.64, 40.88], [-92.64, 41.03], [-92.64, 41.16], [-92.87, 41.16], [-92.87, 41.29], [-92.87, 41.38], [-92.87, 41.51], [-92.73, 41.51], [-92.57, 41.51], [-92.3, 41.51], [-91.99, 41.51], [-91.78, 41.51], [-91.63, 41.51], [-91.54, 41.51], [-91.5, 41.49], [-91.5, 41.48], [-91.51, 41.48], [-91.52, 41.47], [-91.5, 41.46], [-91.5, 41.45], [-91.49, 41.44], [-91.48, 41.42], [-91.37, 41.42], [-91.37, 41.34], [-91.25, 41.34], [-91.2, 41.33], [-91.07, 41.33]]]}}, {"type": "Feature", "properties": {"STATE": "Iowa", "STATE_FIPS": "19", "CD_2DIG": "01", "STATE_CODE": 13, "CLIMDIV": 1301, "ID": 1301, "CD_NEW": 1, "FIPS_CD": "1901", "NCDC_GEO_I": 83.0, "NAME": "NORTHWEST", "ST_ABBRV": "IA", "SHAPE_AREA": 0.0, "SHAPE_LEN": 0.0}, "geometry": {"type": "Polygon", "coordinates": [[[-94.44, 43.5], [-94.44, 43.41], [-94.44, 43.28], [-94.44, 43.23], [-94.44, 43.2], [-94.44, 43.03], [-94.44, 42.91], [-94.44, 42.86], [-94.44, 42.73], [-94.44, 42.65], [-94.44, 42.56], [-94.54, 42.56], [-94.62, 42.56], [-94.68, 42.56], [-94.78, 42.56], [-94.93, 42.56], [-95.05, 42.56], [-95.31, 42.56], [-95.41, 42.56], [-95.54, 42.56], [-95.72, 42.56], [-95.85, 42.56], [-96.01, 42.56], [-96.23, 42.56], [-96.43, 42.56], [-96.5, 42.56], [-96.5, 42.57], [-96.49, 42.59], [-96.5, 42.59], [-96.51, 42.61], [-96.52, 42.62], [-96.51, 42.63], [-96.53, 42.64], [-96.54, 42.65], [-96.54, 42.66], [-96.56, 42.66], [-96.57, 42.68], [-96.6, 42.7], [-96.61, 42.7], [-96.62, 42.71], [-96.63, 42.72], [-96.64, 42.74], [-96.63, 42.75], [-96.63, 42.76], [-96.63, 42.77], [-96.62, 42.78], [-96.6, 42.78], [-96.6, 42.79], [-96.59, 42.8], [-96.59, 42.82], [-96.58, 42.83], [-96.56, 42.84], [-96.54, 42.86], [-96.55, 42.86], [-96.55, 42.87], [-96.54, 42.88], [-96.54, 42.89], [-96.53, 42.9], [-96.53, 42.9], [-96.54, 42.92], [-96.51, 42.95], [-96.5, 42.96], [-96.51, 42.97], [-96.52, 42.97], [-96.52, 42.98], [-96.51, 42.99], [-96.51, 43.0], [-96.5, 43.0], [-96.49, 43.01], [-96.49, 43.01], [-96.51, 43.02], [-96.51, 43.05], [-96.49, 43.05], [-96.48, 43.06], [-96.46, 43.06], [-96.46, 43.07], [-96.45, 43.1], [-96.44, 43.12], [-96.45, 43.14], [-96.46, 43.14], [-96.47, 43.16], [-96.47, 43.18], [-96.47, 43.19], [-96.47, 43.21], [-96.48, 43.22], [-96.5, 43.22], [-96.51, 43.22], [-96.54, 43.23], [-96.55, 43.23], [-96.57, 43.23], [-96.57, 43.24], [-96.55, 43.25], [-96.55, 43.26], [-96.57, 43.26], [-96.59, 43.27], [-96.58, 43.28], [-96.58, 43.3], [-96.56, 43.29], [-96.53, 43.3], [-96.53, 43.32], [-96.54, 43.34], [-96.53, 43.35], [-96.53, 43.36], [-96.52, 43.38], [-96.52, 43.4], [-96.54, 43.4], [-96.56, 43.41], [-96.57, 43.42], [-96.57, 43.43], [-96.58, 43.43], [-96.59, 43.43], [-96.6, 43.45], [-96.6, 43.46], [-96.58, 43.47], [-96.59, 43.49], [-96.6, 43.5], [-96.45, 43.5], [-96.34, 43.5], [-96.02, 43.5], [-95.76, 43.5], [-95.64, 43.5], [-95.48, 43.5], [-95.25, 43.5], [-95.17, 43.5], [-94.97, 43.5], [-94.85, 43.5], [-94.65, 43.5], [-94.44, 43.5]]]}}]}