{"type": "FeatureCollection", "features": [{"type": "Feature", "properties": {"STATE": "Kansas", "STATE_FIPS": "20", "CD_2DIG": "01", "STATE_CODE": 14, "CLIMDIV": 1401, "ID": 1401, "CD_NEW": 1, "FIPS_CD": "2001", "NCDC_GEO_I": 92.0, "NAME": "NORTHWEST", "ST_ABBRV": "KS", "SHAPE_AREA": 0.0, "SHAPE_LEN": 0.0}, "geometry": {"type": "Polygon", "coordinates": [[[-100.19, 40.0], [-100.08, 40.0], [-99.8, 40.0], [-99.63, 40.0], [-99.63, 39.91], [-99.63, 39.83], [-99.63, 39.74], [-99.63, 39.64], [-99.63, 39.57], [-99.6, 39.57], [-99.6, 39.48], [-99.6, 39.42], [-99.6, 39.36], [-99.6, 39.31], [-99.61, 39.24], [-99.61, 39.13], [-99.83, 39.13], [-100.0, 39.13], [-100.11, 39.13], [-100.27, 39.13], [-100.46, 39.13], [-100.5, 39.13], [-100.61, 39.13], [-100.74, 39.13], [-100.96, 39.13], [-101.11, 39.13], [-101.24, 39.14], [-101.32, 39.14], [-101.45, 39.13], [-101.57, 39.13], [-101.71, 39.13], [-101.87, 39.13], [-101.9, 39.13], [-102.02, 39.13], [-102.05, 39.13], [-102.05, 39.25], [-102.05, 39.37], [-102.05, 39.54], [-102.05, 39.61], [-102.05, 39.75], [-102.05, 39.87], [-102.05, 40.0], [-101.99, 40.0], [-101.84, 40.0], [-101.61, 40.0], [-101.46, 40.0], [-101.18, 40.0], [-100.93, 40.0], [-100.77, 40.0], [-100.51, 40.0], [-100.44, 40.0], [-100.19, 40.0]]]}}, {"type": "Feature", "properties": {"STATE": "Kansas", "STATE_FIPS": "20", "CD_2DIG": "03", "STATE_CODE": 14, "CLIMDIV": 1403, "ID": 1403, "CD_NEW": 3, "FIPS_CD": "2003", "NCDC_GEO_I": 94.0, "NAME": "NORTHEAST", "ST_ABBRV": "KS", "SHAPE_AREA": 0.0, "SHAPE_LEN": 0.0}, "geometry": {"type": "Polygon", "coordinates": [[[-95.31, 40.0], [-95.31, 39.99], [-95.29, 39.98], [-95.27, 39.97], [-95.25, 39.95], [-95.24, 39.94], [-95.22, 39.94], [-95.2, 39.94], [-95.2, 39.93], [-95.21, 39.92], [-95.2, 39.9], [-95.19, 39.9], [-95.18, 39.9], [-95.16, 39.91], [-95.15, 39.9], [-95.14, 39.88], [-95.13, 39.87], [-95.11, 39.87], [-95.09, 39.86], [-95.04, 39.87], [-95.03, 39.87], [-95.03, 39.89], [-95.02, 39.9], [-95.0, 39.9], [-94.98, 39.9], [-94.95, 39.9], [-94.93, 39.89], [-94.93, 39.89], [-94.93, 39.87], [-94.94, 39.86], [-94.94, 39.85], [-94.92, 39.84], [-94.91, 39.83], [-94.89, 39.83], [-94.88, 39.82], [-94.88, 39.81], [-94.88, 39.8], [-94.89, 39.79], [-94.92, 39.79], [-94.93, 39.78], [-94.93, 39.77], [-94.91, 39.76], [-94.9, 39.76], [-94.88, 39.77], [-94.87, 39.77], [-94.86, 39.76], [-94.86, 39.74], [-94.88, 39.73], [-94.89, 39.72], [-94.9, 39.72], [-94.92, 39.73], [-94.94, 39.74], [-94.96, 39.75], [-94.97, 39.74], [-94.97, 39.73], [-94.97, 39.71], [-94.97, 39.69], [-94.98, 39.68], [-94.99, 39.68], [-95.02, 39.67], [-95.02, 39.67], [-95.05, 39.64], [-95.06, 39.62], [-95.05, 39.61], [-95.05, 39.6], [-95.06, 39.58], [-95.07, 39.58], [-95.09, 39.58], [-95.11, 39.57], [-95.11, 39.55], [-95.11, 39.54], [-95.09, 39.52], [-95.08, 39.51], [-95.06, 39.51], [-95.05, 39.5], [-95.05, 39.48], [-95.04, 39.47], [-95.02, 39.45], [-94.99, 39.45], [-94.98, 39.44], [-94.98, 39.43], [-94.96, 39.42], [-94.95, 39.41], [-94.94, 39.39], [-94.93, 39.38], [-94.92, 39.39], [-94.9, 39.39], [-94.89, 39.39], [-94.88, 39.38], [-94.88, 39.37], [-94.9, 39.36], [-94.91, 39.35], [-94.91, 39.35], [-94.91, 39.32], [-94.9, 39.31], [-94.9, 39.3], [-94.88, 39.28], [-94.85, 39.27], [-94.83, 39.26], [-94.83, 39.24], [-94.83, 39.22], [-94.82, 39.21], [-94.81, 39.21], [-94.79, 39.21], [-94.78, 39.2], [-94.77, 39.18], [-94.75, 39.17], [-94.74, 39.17], [-94.72, 39.17], [-94.7, 39.17], [-94.69, 39.18], [-94.67, 39.18], [-94.66, 39.18], [-94.66, 39.16], [-94.66, 39.16], [-94.65, 39.15], [-94.61, 39.16], [-94.6, 39.16], [-94.59, 39.15], [-94.59, 39.13], [-94.61, 39.12], [-94.61, 39.04], [-94.79, 39.04], [-94.81, 39.05], [-94.84, 39.06], [-94.86, 39.06], [-94.87, 39.06], [-94.88, 39.05], [-94.89, 39.03], [-94.89, 39.01], [-94.91, 38.99], [-94.92, 39.0], [-94.93, 39.0], [-94.94, 38.99], [-94.96, 38.98], [-94.97, 38.98], [-94.98, 38.99], [-95.01, 39.0], [-95.02, 39.0], [-95.03, 38.99], [-95.03, 38.98], [-95.04, 38.98], [-95.07, 38.99], [-95.08, 38.98], [-95.09, 38.98], [-95.08, 38.96], [-95.09, 38.95], [-95.1, 38.96], [-95.11, 38.97], [-95.13, 38.97], [-95.16, 38.98], [-95.17, 38.96], [-95.19, 38.96], [-95.19, 39.04], [-95.28, 39.04], [-95.28, 39.05], [-95.29, 39.04], [-95.3, 39.04], [-95.33, 39.03], [-95.35, 39.03], [-95.39, 39.05], [-95.4, 39.06], [-95.44, 39.07], [-95.46, 39.07], [-95.48, 39.06], [-95.49, 39.05], [-95.51, 39.07], [-95.53, 39.07], [-95.55, 39.07], [-95.57, 39.06], [-95.58, 39.06], [-95.6, 39.06], [-95.59, 39.08], [-95.59, 39.13], [-95.59, 39.13], [-95.59, 39.22], [-95.85, 39.22], [-96.04, 39.22], [-96.04, 39.13], [-96.04, 39.14], [-96.06, 39.14], [-96.08, 39.15], [-96.09, 39.15], [-96.08, 39.16], [-96.06, 39.16], [-96.07, 39.18], [-96.08, 39.19], [-96.1, 39.19], [-96.11, 39.2], [-96.12, 39.19], [-96.13, 39.19], [-96.15, 39.19], [-96.18, 39.19], [-96.18, 39.2], [-96.18, 39.21], [-96.2, 39.21], [-96.21, 39.2], [-96.22, 39.2], [-96.23, 39.21], [-96.24, 39.21], [-96.25, 39.2], [-96.25, 39.19], [-96.27, 39.18], [-96.28, 39.18], [-96.29, 39.19], [-96.31, 39.2], [-96.32, 39.19], [-96.33, 39.18], [-96.33, 39.16], [-96.34, 39.16], [-96.34, 39.16], [-96.36, 39.16], [-96.36, 39.17], [-96.37, 39.16], [-96.38, 39.16], [-96.39, 39.17], [-96.39, 39.13], [-96.39, 39.04], [-96.5, 39.04], [-96.5, 39.07], [-96.71, 39.07], [-96.71, 39.09], [-96.72, 39.09], [-96.73, 39.08], [-96.74, 39.09], [-96.85, 39.09], [-96.85, 39.1], [-96.84, 39.12], [-96.83, 39.14], [-96.85, 39.14], [-96.85, 39.22], [-96.96, 39.22], [-96.96, 39.31], [-96.96, 39.44], [-96.96, 39.5], [-96.96, 39.57], [-96.81, 39.57], [-96.81, 39.73], [-96.81, 39.81], [-96.81, 40.0], [-96.48, 40.0], [-96.3, 40.0], [-96.13, 40.0], [-95.93, 40.0], [-95.66, 40.0], [-95.46, 40.0], [-95.46, 40.0], [-95.31, 40.0]]]}}, {"type": "Feature", "properties": {"STATE": "Kansas", "STATE_FIPS": "20", "CD_2DIG": "04", "STATE_CODE": 14, "CLIMDIV": 1404, "ID": 1404, "CD_NEW": 4, "FIPS_CD": "2004", "NCDC_GEO_I": 95.0, "NAME": "WEST CENTRAL", "ST_ABBRV": "KS", "SHAPE_AREA": 0.0, "SHAPE_LEN": 0.0}, "geometry": {"type": "Polygon", "coordinates": [[[-99.61, 39.13], [-99.59, 39.13], [-99.59, 38.96], [-99.6, 38.83], [-99.6, 38.7], [-99.59, 38.7], [-99.59, 38.61], [-99.59, 38.51], [-99.59, 38.44], [-99.58, 38.35], [-99.58, 38.26], [-99.71, 38.26], [-100.0, 38.26], [-100.13, 38.26], [-100.4, 38.26], [-100.54, 38.26], [-100.67, 38.26], [-100.9, 38.27], [-101.09, 38.26], [-101.36, 38.26], [-101.58, 38.26], [-101.77, 38.26], [-102.04, 38.26], [-102.04, 38.35], [-102.05, 38.38], [-102.04, 38.39], [-102.05, 38.4], [-102.04, 38.4], [-102.04, 38.4], [-102.04, 38.41], [-102.04, 38.42], [-102.04, 38.42], [-102.04, 38.44], [-102.05, 38.45], [-102.04, 38.62], [-102.05, 38.74], [-102.05, 38.86], [-102.05, 38.98], [-102.05, 39.0], [-102.05, 39.12], [-102.05, 39.13], [-102.02, 39.13], [-101.9, 39.13], [-101.87, 39.13], [-101.71, 39.13], [-101.57, 39.13], [-101.45, 39.13], [-101.32, 39.14], [-101.24, 39.14], [-101.11, 39.13], [-100.96, 39.13], [-100.74, 39.13], [-100.61, 39.13], [-100.5, 39.13], [-100.46, 39.13], [-100.27, 39.13], [-100.11, 39.13], [-100.0, 39.13], [-99.83, 39.13], [-99.61, 39.13]]]}}, {"type": "Feature", "properties": {"STATE": "Kansas", "STATE_FIPS": "20", "CD_2DIG": "05", "STATE_CODE": 14, "CLIMDIV": 1405, "ID": 1405, "CD_NEW": 5, "FIPS_CD": "2005", "NCDC_GEO_I": 96.0, "NAME": "CENTRAL", "ST_ABBRV": "KS", "SHAPE_AREA": 0.0, "SHAPE_LEN": 0.0}, "geometry": {"type": "Polygon", "coordinates": [[[-96.96, 39.13], [-96.96, 39.06], [-96.96, 38.97], [-96.94, 38.98], [-96.93, 38.98], [-96.93, 38.87], [-96.89, 38.87], [-96.89, 38.81], [-96.93, 38.81], [-96.93, 38.7], [-96.93, 38.7], [-96.93, 38.65], [-96.93, 38.52], [-96.82, 38.52], [-96.82, 38.35], [-96.84, 38.35], [-96.84, 38.26], [-96.84, 38.26], [-96.84, 38.09], [-96.93, 38.09], [-97.03, 38.09], [-97.15, 38.09], [-97.15, 38.16], [-97.16, 38.17], [-97.26, 38.17], [-97.4, 38.17], [-97.62, 38.17], [-97.78, 38.17], [-97.93, 38.17], [-97.98, 38.17], [-98.14, 38.17], [-98.14, 38.16], [-98.22, 38.16], [-98.22, 38.17], [-98.33, 38.17], [-98.35, 38.17], [-98.47, 38.17], [-98.47, 38.26], [-98.54, 38.26], [-98.7, 38.26], [-98.78, 38.26], [-99.03, 38.26], [-99.03, 38.35], [-99.16, 38.35], [-99.25, 38.35], [-99.38, 38.35], [-99.58, 38.35], [-99.59, 38.44], [-99.59, 38.51], [-99.59, 38.61], [-99.59, 38.7], [-99.6, 38.7], [-99.6, 38.83], [-99.59, 38.96], [-99.59, 39.13], [-99.41, 39.13], [-99.34, 39.13], [-99.2, 39.13], [-99.06, 39.13], [-98.88, 39.13], [-98.88, 39.13], [-98.7, 39.13], [-98.65, 39.13], [-98.54, 39.13], [-98.49, 39.13], [-98.49, 39.22], [-98.42, 39.22], [-98.27, 39.22], [-98.14, 39.22], [-97.93, 39.22], [-97.93, 39.15], [-97.93, 39.12], [-97.93, 39.03], [-97.93, 38.96], [-97.79, 38.96], [-97.59, 38.96], [-97.48, 38.96], [-97.37, 38.96], [-97.37, 39.0], [-97.37, 39.13], [-97.2, 39.13], [-96.96, 39.13]]]}}, {"type": "Feature", "properties": {"STATE": "Kansas", "STATE_FIPS": "20", "CD_2DIG": "06", "STATE_CODE": 14, "CLIMDIV": 1406, "ID": 1406, "CD_NEW": 6, "FIPS_CD": "2006", "NCDC_GEO_I": 97.0, "NAME": "EAST CENTRAL", "ST_ABBRV": "KS", "SHAPE_AREA": 0.0, "SHAPE_LEN": 0.0}, "geometry": {"type": "Polygon", "coordinates": [[[-94.61, 39.04], [-94.61, 38.96], [-94.61, 38.85], [-94.61, 38.74], [-94.61, 38.61], [-94.61, 38.5], [-94.61, 38.46], [-94.61, 38.36], [-94.61, 38.31], [-94.61, 38.22], [-94.61, 38.14], [-94.61, 38.04], [-94.75, 38.04], [-94.79, 38.04], [-94.86, 38.04], [-95.1, 38.04], [-95.21, 38.04], [-95.33, 38.04], [-95.37, 38.04], [-95.55, 38.04], [-95.64, 38.04], [-95.7, 38.04], [-95.96, 38.04], [-95.96, 38.17], [-96.03, 38.17], [-96.13, 38.17], [-96.21, 38.17], [-96.36, 38.17], [-96.36, 38.09], [-96.47, 38.09], [-96.62, 38.09], [-96.64, 38.09], [-96.84, 38.09], [-96.84, 38.26], [-96.84, 38.26], [-96.84, 38.35], [-96.82, 38.35], [-96.82, 38.52], [-96.93, 38.52], [-96.93, 38.65], [-96.93, 38.7], [-96.93, 38.7], [-96.93, 38.81], [-96.89, 38.81], [-96.89, 38.87], [-96.93, 38.87], [-96.93, 38.98], [-96.94, 38.98], [-96.96, 38.97], [-96.96, 39.06], [-96.96, 39.13], [-96.96, 39.16], [-96.96, 39.22], [-96.85, 39.22], [-96.85, 39.14], [-96.83, 39.14], [-96.84, 39.12], [-96.85, 39.1], [-96.85, 39.09], [-96.74, 39.09], [-96.73, 39.08], [-96.72, 39.09], [-96.71, 39.09], [-96.71, 39.07], [-96.5, 39.07], [-96.5, 39.04], [-96.39, 39.04], [-96.39, 39.13], [-96.39, 39.17], [-96.38, 39.16], [-96.37, 39.16], [-96.36, 39.17], [-96.36, 39.16], [-96.34, 39.16], [-96.34, 39.16], [-96.33, 39.16], [-96.33, 39.18], [-96.32, 39.19], [-96.31, 39.2], [-96.29, 39.19], [-96.28, 39.18], [-96.27, 39.18], [-96.25, 39.19], [-96.25, 39.2], [-96.24, 39.21], [-96.23, 39.21], [-96.22, 39.2], [-96.21, 39.2], [-96.2, 39.21], [-96.18, 39.21], [-96.18, 39.2], [-96.18, 39.19], [-96.15, 39.19], [-96.13, 39.19], [-96.12, 39.19], [-96.11, 39.2], [-96.1, 39.19], [-96.08, 39.19], [-96.07, 39.18], [-96.06, 39.16], [-96.08, 39.16], [-96.09, 39.15], [-96.08, 39.15], [-96.06, 39.14], [-96.04, 39.14], [-96.04, 39.13], [-96.04, 39.22], [-95.85, 39.22], [-95.59, 39.22], [-95.59, 39.13], [-95.59, 39.13], [-95.59, 39.08], [-95.6, 39.06], [-95.58, 39.06], [-95.57, 39.06], [-95.55, 39.07], [-95.53, 39.07], [-95.51, 39.07], [-95.49, 39.05], [-95.48, 39.06], [-95.46, 39.07], [-95.44, 39.07], [-95.4, 39.06], [-95.39, 39.05], [-95.35, 39.03], [-95.33, 39.03], [-95.3, 39.04], [-95.29, 39.04], [-95.28, 39.05], [-95.28, 39.04], [-95.19, 39.04], [-95.19, 38.96], [-95.17, 38.96], [-95.16, 38.98], [-95.13, 38.97], [-95.11, 38.97], [-95.1, 38.96], [-95.09, 38.95], [-95.08, 38.96], [-95.09, 38.98], [-95.08, 38.98], [-95.07, 38.99], [-95.04, 38.98], [-95.03, 38.98], [-95.03, 38.99], [-95.02, 39.0], [-95.01, 39.0], [-94.98, 38.99], [-94.97, 38.98], [-94.96, 38.98], [-94.94, 38.99], [-94.93, 39.0], [-94.92, 39.0], [-94.91, 38.99], [-94.89, 39.01], [-94.89, 39.03], [-94.88, 39.05], [-94.87, 39.06], [-94.86, 39.06], [-94.84, 39.06], [-94.81, 39.05], [-94.79, 39.04], [-94.61, 39.04]]]}}, {"type": "Feature", "properties": {"STATE": "Kansas", "STATE_FIPS": "20", "CD_2DIG": "07", "STATE_CODE": 14, "CLIMDIV": 1407, "ID": 1407, "CD_NEW": 7, "FIPS_CD": "2007", "NCDC_GEO_I": 98.0, "NAME": "SOUTHWEST", "ST_ABBRV": "KS", "SHAPE_AREA": 0.0, "SHAPE_LEN": 0.0}, "geometry": {"type": "Polygon", "coordinates": [[[-99.58, 38.26], [-99.57, 38.26], [-99.57, 38.09], [-99.57, 37.99], [-99.57, 37.83], [-99.56, 37.83], [-99.56, 37.73], [-99.56, 37.63], [-99.56, 37.44], [-99.56, 37.38], [-99.54, 37.38], [-99.54, 37.3], [-99.54, 37.2], [-99.54, 37.11], [-99.54, 37.0], [-99.65, 37.0], [-99.72, 37.0], [-99.88, 37.0], [-99.99, 37.0], [-100.09, 37.0], [-100.38, 37.0], [-100.6, 37.0], [-100.73, 37.0], [-100.9, 37.0], [-100.95, 37.0], [-101.11, 37.0], [-101.21, 37.0], [-101.46, 37.0], [-101.63, 36.99], [-101.87, 36.99], [-102.04, 36.99], [-102.04, 37.01], [-102.04, 37.02], [-102.04, 37.04], [-102.04, 37.05], [-102.04, 37.14], [-102.04, 37.3], [-102.04, 37.54], [-102.04, 37.69], [-102.04, 37.8], [-102.04, 37.88], [-102.04, 37.98], [-102.04, 38.11], [-102.04, 38.26], [-101.77, 38.26], [-101.58, 38.26], [-101.36, 38.26], [-101.09, 38.26], [-100.9, 38.27], [-100.67, 38.26], [-100.54, 38.26], [-100.4, 38.26], [-100.13, 38.26], [-100.0, 38.26], [-99.71, 38.26], [-99.58, 38.26]]]}}, {"type": "Feature", "properties": {"STATE": "Kansas", "STATE_FIPS": "20", "CD_2DIG": "08", "STATE_CODE": 14, "CLIMDIV": 1408, "ID": 1408, "CD_NEW": 8, "FIPS_CD": "2008", "NCDC_GEO_I": 99.0, "NAME": "SOUTH CENTRAL", "ST_ABBRV": "KS", "SHAPE_AREA": 0.0, "SHAPE_LEN": 0.0}, "geometry": {"type": "Polygon", "coordinates": [[[-97.15, 38.09], [-97.15, 37.91], [-97.15, 37.83], [-97.15, 37.83], [-97.15, 37.74], [-97.15, 37.67], [-97.15, 37.56], [-97.15, 37.48], [-97.15, 37.46], [-97.15, 37.39], [-97.15, 37.39], [-97.15, 37.27], [-97.15, 37.22], [-97.15, 37.16], [-97.15, 37.07], [-97.15, 37.0], [-97.32, 37.0], [-97.58, 37.0], [-97.73, 37.0], [-97.78, 37.0], [-97.95, 37.0], [-98.06, 37.0], [-98.3, 37.0], [-98.53, 37.0], [-98.66, 37.0], [-98.85, 37.0], [-99.11, 37.0], [-99.28, 37.0], [-99.39, 37.0], [-99.46, 37.0], [-99.54, 37.0], [-99.54, 37.11], [-99.54, 37.2], [-99.54, 37.3], [-99.54, 37.38], [-99.56, 37.38], [-99.56, 37.44], [-99.56, 37.63], [-99.56, 37.73], [-99.56, 37.83], [-99.57, 37.83], [-99.57, 37.99], [-99.57, 38.09], [-99.57, 38.26], [-99.58, 38.26], [-99.58, 38.35], [-99.38, 38.35], [-99.25, 38.35], [-99.16, 38.35], [-99.03, 38.35], [-99.03, 38.26], [-98.78, 38.26], [-98.7, 38.26], [-98.54, 38.26], [-98.47, 38.26], [-98.47, 38.17], [-98.35, 38.17], [-98.33, 38.17], [-98.22, 38.17], [-98.22, 38.16], [-98.14, 38.16], [-98.14, 38.17], [-97.98, 38.17], [-97.93, 38.17], [-97.78, 38.17], [-97.62, 38.17], [-97.4, 38.17], [-97.26, 38.17], [-97.16, 38.17], [-97.15, 38.16], [-97.15, 38.09]]]}}, {"type": "Feature", "properties": {"STATE": "Kansas", "STATE_FIPS": "20", "CD_2DIG": "09", "STATE_CODE": 14, "CLIMDIV": 1409, "ID": 1409, "CD_NEW": 9, "FIPS_CD": "2009", "NCDC_GEO_I": 100.0, "NAME": "SOUTHEAST", "ST_ABBRV": "KS", "SHAPE_AREA": 0.0, "SHAPE_LEN": 0.0}, "geometry": {"type": "Polygon", "coordinates": [[[-94.61, 38.04], [-94.61, 37.94], [-94.62, 37.79], [-94.62, 37.72], [-94.62, 37.65], [-94.62, 37.5], [-94.62, 37.48], [-94.62, 37.31], [-94.62, 37.19], [-94.62, 37.0], [-94.63, 37.0], [-94.77, 37.0], [-94.89, 37.0], [-94.96, 37.0], [-95.18, 37.0], [-95.3, 37.0], [-95.5, 37.0], [-95.7, 37.0], [-95.89, 37.0], [-95.96, 37.0], [-96.0, 37.0], [-96.18, 37.0], [-96.37, 37.0], [-96.5, 37.0], [-96.73, 37.0], [-96.75, 37.0], [-96.92, 37.0], [-97.03, 37.0], [-97.15, 37.0], [-97.15, 37.07], [-97.15, 37.16], [-97.15, 37.22], [-97.15, 37.27], [-97.15, 37.39], [-97.15, 37.39], [-97.15, 37.46], [-97.15, 37.48], [-97.15, 37.56], [-97.15, 37.67], [-97.15, 37.74], [-97.15, 37.83], [-97.15, 37.83], [-97.15, 37.91], [-97.15, 38.09], [-97.03, 38.09], [-96.93, 38.09], [-96.84, 38.09], [-96.64, 38.09], [-96.62, 38.09], [-96.47, 38.09], [-96.36, 38.09], [-96.36, 38.17], [-96.21, 38.17], [-96.13, 38.17], [-96.03, 38.17], [-95.96, 38.17], [-95.96, 38.04], [-95.7, 38.04], [-95.64, 38.04], [-95.55, 38.04], [-95.37, 38.04], [-95.33, 38.04], [-95.21, 38.04], [-95.1, 38.04], [-94.86, 38.04], [-94.79, 38.04], [-94.75, 38.04], [-94.61, 38.04]]]}}, {"type": "Feature", "properties": {"STATE": "Kansas", "STATE_FIPS": "20", "CD_2DIG": "02", "STATE_CODE": 14, "CLIMDIV": 1402, "ID": 1402, "CD_NEW": 2, "FIPS_CD": "2002", "NCDC_GEO_I": 93.0, "NAME": "NORTH CENTRAL", "ST_ABBRV": "KS", "SHAPE_AREA": 0.0, "SHAPE_LEN": 0.0}, "geometry": {"type": "Polygon", "coordinates": [[[-96.81, 40.0], [-96.81, 39.81], [-96.81, 39.73], [-96.81, 39.57], [-96.96, 39.57], [-96.96, 39.5], [-96.96, 39.44], [-96.96, 39.31], [-96.96, 39.22], [-96.96, 39.16], [-96.96, 39.13], [-97.2, 39.13], [-97.37, 39.13], [-97.37, 39.0], [-97.37, 38.96], [-97.48, 38.96], [-97.59, 38.96], [-97.79, 38.96], [-97.93, 38.96], [-97.93, 39.03], [-97.93, 39.12], [-97.93, 39.15], [-97.93, 39.22], [-98.14, 39.22], [-98.27, 39.22], [-98.42, 39.22], [-98.49, 39.22], [-98.49, 39.13], [-98.54, 39.13], [-98.65, 39.13], [-98.7, 39.13], [-98.88, 39.13], [-98.88, 39.13], [-99.06, 39.13], [-99.2, 39.13], [-99.34, 39.13], [-99.41, 39.13], [-99.59, 39.13], [-99.61, 39.13], [-99.61, 39.24], [-99.6, 39.31], [-99.6, 39.36], [-99.6, 39.42], [-99.6, 39.48], [-99.6, 39.57], [-99.63, 39.57], [-99.63, 39.64], [-99.63, 39.74], [-99.63, 39.83], [-99.63, 39.91], [-99.63, 40.0], [-99.44, 40.0], [-99.29, 40.0], [-99.14, 40.0], [-98.97, 40.0], [-98.72, 40.0], [-98.53, 40.0], [-98.27, 40.0], [-98.15, 40.0], [-97.94, 40.0], [-97.83, 40.0], [-97.63, 40.0], [-97.36, 40.0], [-97.14, 40.0], [-97.13, 40.0], [-97.01, 40.0], [-96.81, 40.0]]]}}]}