{"type": "FeatureCollection", "features": [{"type": "Feature", "properties": {"STATE": "Louisiana", "STATE_FIPS": "22", "CD_2DIG": "01", "STATE_CODE": 16, "CLIMDIV": 1601, "ID": 1601, "CD_NEW": 1, "FIPS_CD": "2201", "NCDC_GEO_I": 119.0, "NAME": "NORTHWEST", "ST_ABBRV": "LA", "SHAPE_AREA": 0.0, "SHAPE_LEN": 0.0}, "geometry": {"type": "Polygon", "coordinates": [[[-93.49, 33.02], [-93.39, 33.02], [-93.24, 33.02], [-93.24, 32.87], [-93.24, 32.81], [-93.24, 32.75], [-93.24, 32.72], [-93.19, 32.72], [-93.19, 32.67], [-93.18, 32.66], [-93.18, 32.65], [-93.18, 32.65], [-93.18, 32.63], [-93.18, 32.6], [-93.18, 32.6], [-93.18, 32.59], [-93.18, 32.58], [-93.17, 32.56], [-93.17, 32.55], [-93.17, 32.54], [-93.16, 32.5], [-93.15, 32.49], [-93.16, 32.48], [-93.15, 32.48], [-93.15, 32.46], [-93.15, 32.46], [-93.24, 32.45], [-93.24, 32.41], [-93.37, 32.41], [-93.39, 32.4], [-93.4, 32.39], [-93.41, 32.4], [-93.42, 32.4], [-93.43, 32.39], [-93.42, 32.38], [-93.4, 32.37], [-93.4, 32.36], [-93.41, 32.35], [-93.43, 32.3], [-93.42, 32.3], [-93.42, 32.28], [-93.41, 32.28], [-93.41, 32.28], [-93.41, 32.27], [-93.41, 32.26], [-93.41, 32.25], [-93.42, 32.24], [-93.38, 32.24], [-93.21, 32.24], [-93.21, 32.23], [-93.21, 32.2], [-93.21, 32.19], [-93.2, 32.18], [-93.19, 32.16], [-93.19, 32.15], [-93.17, 32.13], [-93.17, 32.13], [-93.16, 32.11], [-93.15, 32.11], [-93.16, 32.09], [-93.16, 32.08], [-93.14, 32.07], [-93.14, 32.06], [-93.14, 32.04], [-93.16, 32.03], [-93.16, 32.01], [-93.15, 32.0], [-93.13, 31.99], [-93.13, 31.97], [-93.24, 31.97], [-93.24, 31.9], [-93.25, 31.91], [-93.25, 31.91], [-93.27, 31.9], [-93.28, 31.89], [-93.29, 31.89], [-93.3, 31.9], [-93.32, 31.89], [-93.34, 31.9], [-93.35, 31.9], [-93.35, 31.92], [-93.36, 31.92], [-93.35, 31.93], [-93.38, 31.93], [-93.4, 31.92], [-93.41, 31.92], [-93.42, 31.93], [-93.43, 31.92], [-93.44, 31.91], [-93.44, 31.91], [-93.44, 31.9], [-93.44, 31.88], [-93.44, 31.85], [-93.63, 31.85], [-93.75, 31.84], [-93.88, 31.84], [-93.88, 31.85], [-93.89, 31.86], [-93.88, 31.87], [-93.89, 31.87], [-93.9, 31.88], [-93.9, 31.89], [-93.9, 31.9], [-93.92, 31.89], [-93.93, 31.89], [-93.92, 31.91], [-93.93, 31.91], [-93.94, 31.91], [-93.95, 31.91], [-93.96, 31.92], [-93.97, 31.92], [-93.98, 31.93], [-93.98, 31.94], [-94.0, 31.96], [-94.01, 31.97], [-94.02, 31.98], [-94.02, 31.99], [-94.03, 32.0], [-94.04, 31.99], [-94.04, 32.0], [-94.04, 32.18], [-94.04, 32.39], [-94.04, 32.55], [-94.04, 32.6], [-94.04, 32.67], [-94.04, 32.77], [-94.04, 32.87], [-94.04, 32.87], [-94.04, 32.92], [-94.04, 33.02], [-93.92, 33.02], [-93.8, 33.02], [-93.63, 33.02], [-93.51, 33.02], [-93.49, 33.02]]]}}, {"type": "Feature", "properties": {"STATE": "Louisiana", "STATE_FIPS": "22", "CD_2DIG": "02", "STATE_CODE": 16, "CLIMDIV": 1602, "ID": 1602, "CD_NEW": 2, "FIPS_CD": "2202", "NCDC_GEO_I": 120.0, "NAME": "NORTH CENTRAL", "ST_ABBRV": "LA", "SHAPE_AREA": 0.0, "SHAPE_LEN": 0.0}, "geometry": {"type": "Polygon", "coordinates": [[[-92.07, 33.01], [-92.07, 32.99], [-92.08, 32.98], [-92.08, 32.97], [-92.09, 32.97], [-92.08, 32.96], [-92.08, 32.93], [-92.07, 32.93], [-92.08, 32.9], [-92.08, 32.89], [-92.09, 32.88], [-92.08, 32.86], [-92.07, 32.85], [-92.06, 32.84], [-92.06, 32.84], [-92.07, 32.83], [-92.06, 32.83], [-92.07, 32.82], [-92.05, 32.79], [-92.05, 32.78], [-92.06, 32.76], [-92.06, 32.75], [-92.05, 32.74], [-92.05, 32.74], [-92.06, 32.73], [-92.06, 32.72], [-92.06, 32.71], [-92.04, 32.69], [-92.03, 32.7], [-92.04, 32.71], [-92.03, 32.71], [-92.03, 32.7], [-92.02, 32.7], [-92.01, 32.71], [-92.0, 32.7], [-91.98, 32.71], [-91.98, 32.71], [-91.97, 32.69], [-91.95, 32.67], [-91.95, 32.66], [-91.94, 32.66], [-91.93, 32.67], [-91.92, 32.67], [-91.91, 32.66], [-91.91, 32.65], [-91.92, 32.65], [-91.92, 32.63], [-91.93, 32.61], [-91.93, 32.58], [-91.92, 32.58], [-91.93, 32.57], [-91.92, 32.55], [-91.91, 32.54], [-91.9, 32.52], [-91.92, 32.5], [-91.93, 32.49], [-91.93, 32.48], [-91.94, 32.47], [-91.95, 32.46], [-91.94, 32.45], [-91.95, 32.44], [-91.97, 32.42], [-91.98, 32.42], [-91.98, 32.41], [-92.0, 32.38], [-92.01, 32.37], [-92.01, 32.35], [-92.01, 32.35], [-92.01, 32.34], [-92.02, 32.32], [-92.02, 32.3], [-92.03, 32.28], [-91.99, 32.28], [-91.99, 32.26], [-92.0, 32.26], [-92.0, 32.25], [-92.0, 32.24], [-92.01, 32.23], [-91.98, 32.22], [-91.98, 32.22], [-91.99, 32.21], [-92.01, 32.2], [-92.01, 32.19], [-92.0, 32.19], [-91.98, 32.2], [-91.98, 32.19], [-91.98, 32.18], [-91.98, 32.17], [-91.97, 32.17], [-91.95, 32.17], [-91.93, 32.17], [-91.91, 32.17], [-91.89, 32.16], [-91.89, 32.14], [-91.88, 32.13], [-91.87, 32.12], [-91.87, 32.1], [-91.87, 32.1], [-91.87, 32.09], [-91.88, 32.09], [-91.89, 32.09], [-91.9, 32.09], [-91.9, 32.08], [-91.91, 32.09], [-91.91, 32.08], [-91.93, 32.08], [-91.92, 32.07], [-91.91, 32.06], [-91.91, 32.05], [-91.9, 32.04], [-91.9, 32.03], [-91.9, 32.03], [-91.89, 32.01], [-91.9, 32.0], [-91.9, 32.0], [-91.89, 31.98], [-91.89, 31.97], [-91.9, 31.97], [-91.9, 31.93], [-92.13, 31.93], [-92.14, 31.93], [-92.31, 31.93], [-92.31, 31.9], [-92.32, 31.89], [-92.32, 31.88], [-92.32, 31.87], [-92.33, 31.85], [-92.34, 31.83], [-92.34, 31.82], [-92.35, 31.81], [-92.36, 31.81], [-92.36, 31.8], [-92.5, 31.8], [-92.62, 31.8], [-92.62, 31.71], [-92.75, 31.71], [-92.87, 31.71], [-92.97, 31.71], [-92.98, 31.71], [-92.97, 31.73], [-92.97, 31.75], [-92.97, 31.75], [-92.97, 31.76], [-92.97, 31.78], [-92.96, 31.78], [-92.95, 31.79], [-92.95, 31.8], [-92.95, 31.8], [-92.95, 31.81], [-92.95, 31.83], [-92.94, 31.83], [-92.95, 31.85], [-92.94, 31.85], [-92.93, 31.85], [-92.91, 31.85], [-92.9, 31.86], [-92.91, 31.87], [-92.9, 31.88], [-92.9, 31.89], [-92.89, 31.9], [-92.89, 31.92], [-92.88, 31.94], [-92.87, 31.95], [-92.89, 31.96], [-92.88, 31.98], [-92.89, 31.99], [-92.9, 31.99], [-92.9, 31.99], [-92.89, 32.0], [-92.89, 32.01], [-92.89, 32.03], [-92.89, 32.04], [-92.9, 32.05], [-92.9, 32.06], [-92.9, 32.07], [-92.91, 32.07], [-92.91, 32.08], [-92.9, 32.09], [-92.91, 32.1], [-92.92, 32.11], [-92.93, 32.13], [-92.93, 32.14], [-92.94, 32.15], [-93.0, 32.15], [-93.13, 32.15], [-93.19, 32.15], [-93.19, 32.16], [-93.2, 32.18], [-93.21, 32.19], [-93.21, 32.2], [-93.21, 32.23], [-93.21, 32.24], [-93.38, 32.24], [-93.42, 32.24], [-93.41, 32.25], [-93.41, 32.26], [-93.41, 32.27], [-93.41, 32.28], [-93.41, 32.28], [-93.42, 32.28], [-93.42, 32.3], [-93.43, 32.3], [-93.41, 32.35], [-93.4, 32.36], [-93.4, 32.37], [-93.42, 32.38], [-93.43, 32.39], [-93.42, 32.4], [-93.41, 32.4], [-93.4, 32.39], [-93.39, 32.4], [-93.37, 32.41], [-93.24, 32.41], [-93.24, 32.45], [-93.15, 32.46], [-93.15, 32.46], [-93.15, 32.48], [-93.16, 32.48], [-93.15, 32.49], [-93.16, 32.5], [-93.17, 32.54], [-93.17, 32.55], [-93.17, 32.56], [-93.18, 32.58], [-93.18, 32.59], [-93.18, 32.6], [-93.18, 32.6], [-93.18, 32.63], [-93.18, 32.65], [-93.18, 32.65], [-93.18, 32.66], [-93.19, 32.67], [-93.19, 32.72], [-93.24, 32.72], [-93.24, 32.75], [-93.24, 32.81], [-93.24, 32.87], [-93.24, 33.02], [-93.13, 33.02], [-93.07, 33.02], [-93.02, 33.02], [-92.96, 33.02], [-92.9, 33.02], [-92.73, 33.01], [-92.7, 33.01], [-92.56, 33.01], [-92.48, 33.01], [-92.37, 33.01], [-92.29, 33.01], [-92.22, 33.01], [-92.07, 33.01]]]}}, {"type": "Feature", "properties": {"STATE": "Louisiana", "STATE_FIPS": "22", "CD_2DIG": "03", "STATE_CODE": 16, "CLIMDIV": 1603, "ID": 1603, "CD_NEW": 3, "FIPS_CD": "2203", "NCDC_GEO_I": 121.0, "NAME": "NORTHEAST", "ST_ABBRV": "LA", "SHAPE_AREA": 0.0, "SHAPE_LEN": 0.0}, "geometry": {"type": "Polygon", "coordinates": [[[-91.17, 33.0], [-91.17, 32.99], [-91.19, 32.97], [-91.2, 32.96], [-91.2, 32.95], [-91.21, 32.94], [-91.21, 32.92], [-91.2, 32.91], [-91.18, 32.9], [-91.16, 32.9], [-91.15, 32.91], [-91.14, 32.92], [-91.13, 32.93], [-91.14, 32.95], [-91.13, 32.96], [-91.14, 32.97], [-91.14, 32.98], [-91.11, 32.99], [-91.1, 32.99], [-91.09, 32.98], [-91.08, 32.96], [-91.08, 32.94], [-91.07, 32.94], [-91.06, 32.93], [-91.06, 32.9], [-91.07, 32.89], [-91.09, 32.87], [-91.11, 32.86], [-91.13, 32.86], [-91.14, 32.84], [-91.15, 32.83], [-91.16, 32.82], [-91.16, 32.81], [-91.16, 32.8], [-91.16, 32.79], [-91.16, 32.78], [-91.17, 32.76], [-91.16, 32.75], [-91.15, 32.74], [-91.13, 32.74], [-91.09, 32.74], [-91.06, 32.73], [-91.05, 32.72], [-91.06, 32.71], [-91.06, 32.7], [-91.08, 32.69], [-91.1, 32.69], [-91.12, 32.67], [-91.13, 32.67], [-91.14, 32.65], [-91.15, 32.64], [-91.15, 32.63], [-91.15, 32.62], [-91.14, 32.6], [-91.13, 32.59], [-91.11, 32.59], [-91.08, 32.6], [-91.05, 32.61], [-91.04, 32.63], [-91.03, 32.65], [-91.01, 32.64], [-91.0, 32.62], [-91.0, 32.61], [-91.01, 32.6], [-91.03, 32.58], [-91.04, 32.58], [-91.08, 32.56], [-91.08, 32.55], [-91.05, 32.53], [-91.02, 32.52], [-90.99, 32.51], [-90.99, 32.5], [-90.99, 32.49], [-91.0, 32.48], [-91.02, 32.49], [-91.04, 32.49], [-91.05, 32.5], [-91.08, 32.53], [-91.09, 32.55], [-91.1, 32.54], [-91.1, 32.53], [-91.12, 32.5], [-91.12, 32.48], [-91.11, 32.48], [-91.09, 32.46], [-91.08, 32.45], [-91.05, 32.44], [-91.03, 32.43], [-90.99, 32.45], [-90.98, 32.45], [-90.97, 32.44], [-90.97, 32.42], [-90.98, 32.41], [-90.99, 32.4], [-91.0, 32.39], [-91.0, 32.37], [-91.0, 32.36], [-90.99, 32.35], [-90.95, 32.35], [-90.93, 32.34], [-90.91, 32.34], [-90.9, 32.35], [-90.89, 32.37], [-90.88, 32.37], [-90.88, 32.37], [-90.89, 32.35], [-90.9, 32.33], [-90.91, 32.32], [-90.92, 32.3], [-90.93, 32.29], [-90.95, 32.28], [-90.96, 32.29], [-90.96, 32.3], [-90.98, 32.3], [-90.98, 32.28], [-90.98, 32.27], [-90.97, 32.25], [-90.98, 32.24], [-90.98, 32.23], [-90.98, 32.21], [-90.99, 32.19], [-91.0, 32.2], [-91.01, 32.21], [-91.0, 32.22], [-91.02, 32.24], [-91.03, 32.24], [-91.05, 32.24], [-91.05, 32.23], [-91.06, 32.22], [-91.07, 32.23], [-91.08, 32.23], [-91.1, 32.22], [-91.11, 32.21], [-91.12, 32.21], [-91.13, 32.21], [-91.16, 32.2], [-91.16, 32.2], [-91.17, 32.18], [-91.17, 32.16], [-91.17, 32.15], [-91.16, 32.13], [-91.14, 32.13], [-91.13, 32.13], [-91.11, 32.12], [-91.1, 32.13], [-91.08, 32.13], [-91.05, 32.13], [-91.05, 32.16], [-91.06, 32.17], [-91.06, 32.18], [-91.04, 32.17], [-91.02, 32.16], [-91.0, 32.16], [-91.01, 32.14], [-91.01, 32.13], [-91.02, 32.12], [-91.03, 32.12], [-91.03, 32.11], [-91.04, 32.1], [-91.08, 32.08], [-91.08, 32.08], [-91.08, 32.05], [-91.08, 32.05], [-91.1, 32.05], [-91.11, 32.06], [-91.13, 32.08], [-91.14, 32.08], [-91.15, 32.08], [-91.16, 32.07], [-91.16, 32.05], [-91.14, 32.05], [-91.09, 32.04], [-91.08, 32.03], [-91.08, 32.02], [-91.09, 32.0], [-91.11, 31.99], [-91.12, 31.99], [-91.16, 31.98], [-91.18, 31.97], [-91.19, 31.96], [-91.19, 31.94], [-91.18, 31.93], [-91.18, 31.92], [-91.18, 31.92], [-91.19, 31.91], [-91.2, 31.91], [-91.23, 31.88], [-91.25, 31.87], [-91.27, 31.86], [-91.27, 31.85], [-91.25, 31.83], [-91.25, 31.82], [-91.25, 31.81], [-91.26, 31.81], [-91.27, 31.81], [-91.28, 31.82], [-91.29, 31.83], [-91.29, 31.85], [-91.29, 31.86], [-91.31, 31.86], [-91.33, 31.85], [-91.34, 31.85], [-91.35, 31.84], [-91.36, 31.78], [-91.37, 31.76], [-91.35, 31.76], [-91.3, 31.77], [-91.29, 31.77], [-91.27, 31.77], [-91.26, 31.77], [-91.26, 31.76], [-91.27, 31.75], [-91.28, 31.74], [-91.29, 31.75], [-91.32, 31.75], [-91.35, 31.75], [-91.37, 31.75], [-91.38, 31.73], [-91.38, 31.75], [-91.4, 31.75], [-91.4, 31.75], [-91.42, 31.76], [-91.43, 31.75], [-91.49, 31.75], [-91.55, 31.75], [-91.55, 31.76], [-91.57, 31.78], [-91.58, 31.8], [-91.57, 31.83], [-91.57, 31.86], [-91.58, 31.86], [-91.58, 31.88], [-91.6, 31.88], [-91.6, 31.97], [-91.65, 31.97], [-91.65, 31.96], [-91.65, 31.95], [-91.67, 31.93], [-91.68, 31.92], [-91.69, 31.91], [-91.7, 31.9], [-91.71, 31.9], [-91.72, 31.89], [-91.73, 31.88], [-91.75, 31.88], [-91.76, 31.89], [-91.78, 31.87], [-91.78, 31.88], [-91.8, 31.89], [-91.8, 31.9], [-91.8, 31.91], [-91.8, 31.92], [-91.81, 31.92], [-91.82, 31.92], [-91.83, 31.93], [-91.83, 31.93], [-91.84, 31.94], [-91.85, 31.95], [-91.85, 31.96], [-91.86, 31.96], [-91.88, 31.97], [-91.89, 31.97], [-91.89, 31.98], [-91.9, 32.0], [-91.9, 32.0], [-91.89, 32.01], [-91.9, 32.03], [-91.9, 32.03], [-91.9, 32.04], [-91.91, 32.05], [-91.91, 32.06], [-91.92, 32.07], [-91.93, 32.08], [-91.91, 32.08], [-91.91, 32.09], [-91.9, 32.08], [-91.9, 32.09], [-91.89, 32.09], [-91.88, 32.09], [-91.87, 32.09], [-91.87, 32.1], [-91.87, 32.1], [-91.87, 32.12], [-91.88, 32.13], [-91.89, 32.14], [-91.89, 32.16], [-91.91, 32.17], [-91.93, 32.17], [-91.95, 32.17], [-91.97, 32.17], [-91.98, 32.17], [-91.98, 32.18], [-91.98, 32.19], [-91.98, 32.2], [-92.0, 32.19], [-92.01, 32.19], [-92.01, 32.2], [-91.99, 32.21], [-91.98, 32.22], [-91.98, 32.22], [-92.01, 32.23], [-92.0, 32.24], [-92.0, 32.25], [-92.0, 32.26], [-91.99, 32.26], [-91.99, 32.28], [-92.03, 32.28], [-92.02, 32.3], [-92.02, 32.32], [-92.01, 32.34], [-92.01, 32.35], [-92.01, 32.35], [-92.01, 32.37], [-92.0, 32.38], [-91.98, 32.41], [-91.98, 32.42], [-91.97, 32.42], [-91.95, 32.44], [-91.94, 32.45], [-91.95, 32.46], [-91.94, 32.47], [-91.93, 32.48], [-91.93, 32.49], [-91.92, 32.5], [-91.9, 32.52], [-91.91, 32.54], [-91.92, 32.55], [-91.93, 32.57], [-91.92, 32.58], [-91.93, 32.58], [-91.93, 32.61], [-91.92, 32.63], [-91.92, 32.65], [-91.91, 32.65], [-91.91, 32.66], [-91.92, 32.67], [-91.93, 32.67], [-91.94, 32.66], [-91.95, 32.66], [-91.95, 32.67], [-91.97, 32.69], [-91.98, 32.71], [-91.98, 32.71], [-92.0, 32.7], [-92.01, 32.71], [-92.02, 32.7], [-92.03, 32.7], [-92.03, 32.71], [-92.04, 32.71], [-92.03, 32.7], [-92.04, 32.69], [-92.06, 32.71], [-92.06, 32.72], [-92.06, 32.73], [-92.05, 32.74], [-92.05, 32.74], [-92.06, 32.75], [-92.06, 32.76], [-92.05, 32.78], [-92.05, 32.79], [-92.07, 32.82], [-92.06, 32.83], [-92.07, 32.83], [-92.06, 32.84], [-92.06, 32.84], [-92.07, 32.85], [-92.08, 32.86], [-92.09, 32.88], [-92.08, 32.89], [-92.08, 32.9], [-92.07, 32.93], [-92.08, 32.93], [-92.08, 32.96], [-92.09, 32.97], [-92.08, 32.97], [-92.08, 32.98], [-92.07, 32.99], [-92.07, 33.01], [-91.95, 33.01], [-91.93, 33.01], [-91.76, 33.01], [-91.74, 33.01], [-91.68, 33.01], [-91.63, 33.01], [-91.59, 33.01], [-91.57, 33.01], [-91.5, 33.01], [-91.45, 33.01], [-91.41, 33.01], [-91.34, 33.01], [-91.27, 33.01], [-91.17, 33.0]]]}}, {"type": "Feature", "properties": {"STATE": "Louisiana", "STATE_FIPS": "22", "CD_2DIG": "05", "STATE_CODE": 16, "CLIMDIV": 1605, "ID": 1605, "CD_NEW": 5, "FIPS_CD": "2205", "NCDC_GEO_I": 123.0, "NAME": "CENTRAL", "ST_ABBRV": "LA", "SHAPE_AREA": 0.0, "SHAPE_LEN": 0.0}, "geometry": {"type": "Polygon", "coordinates": [[[-91.89, 31.97], [-91.88, 31.97], [-91.86, 31.96], [-91.85, 31.96], [-91.85, 31.95], [-91.84, 31.94], [-91.83, 31.93], [-91.83, 31.93], [-91.82, 31.92], [-91.81, 31.92], [-91.8, 31.92], [-91.8, 31.91], [-91.8, 31.9], [-91.8, 31.89], [-91.78, 31.88], [-91.78, 31.87], [-91.76, 31.89], [-91.75, 31.88], [-91.73, 31.88], [-91.72, 31.89], [-91.71, 31.9], [-91.7, 31.9], [-91.69, 31.91], [-91.68, 31.92], [-91.67, 31.93], [-91.65, 31.95], [-91.65, 31.96], [-91.65, 31.97], [-91.6, 31.97], [-91.6, 31.88], [-91.58, 31.88], [-91.58, 31.86], [-91.57, 31.86], [-91.57, 31.83], [-91.58, 31.8], [-91.57, 31.78], [-91.55, 31.76], [-91.55, 31.75], [-91.49, 31.75], [-91.43, 31.75], [-91.42, 31.76], [-91.4, 31.75], [-91.4, 31.75], [-91.38, 31.75], [-91.38, 31.73], [-91.4, 31.71], [-91.4, 31.69], [-91.4, 31.64], [-91.4, 31.62], [-91.42, 31.61], [-91.44, 31.61], [-91.46, 31.62], [-91.48, 31.63], [-91.49, 31.64], [-91.5, 31.65], [-91.51, 31.63], [-91.52, 31.63], [-91.52, 31.61], [-91.5, 31.6], [-91.49, 31.59], [-91.46, 31.59], [-91.44, 31.59], [-91.42, 31.6], [-91.4, 31.59], [-91.41, 31.57], [-91.41, 31.56], [-91.44, 31.54], [-91.48, 31.53], [-91.49, 31.53], [-91.51, 31.53], [-91.52, 31.52], [-91.51, 31.51], [-91.52, 31.48], [-91.52, 31.45], [-91.51, 31.44], [-91.5, 31.43], [-91.48, 31.41], [-91.47, 31.4], [-91.47, 31.38], [-91.47, 31.38], [-91.48, 31.36], [-91.5, 31.36], [-91.52, 31.37], [-91.53, 31.39], [-91.54, 31.41], [-91.54, 31.42], [-91.55, 31.43], [-91.57, 31.42], [-91.58, 31.41], [-91.58, 31.4], [-91.57, 31.38], [-91.56, 31.39], [-91.55, 31.38], [-91.55, 31.36], [-91.55, 31.35], [-91.53, 31.34], [-91.53, 31.33], [-91.51, 31.32], [-91.51, 31.31], [-91.51, 31.29], [-91.52, 31.28], [-91.53, 31.27], [-91.56, 31.26], [-91.57, 31.26], [-91.62, 31.27], [-91.64, 31.27], [-91.65, 31.26], [-91.65, 31.24], [-91.64, 31.23], [-91.63, 31.23], [-91.61, 31.21], [-91.6, 31.2], [-91.59, 31.19], [-91.59, 31.18], [-91.6, 31.16], [-91.62, 31.13], [-91.63, 31.12], [-91.61, 31.1], [-91.59, 31.09], [-91.56, 31.07], [-91.56, 31.05], [-91.56, 31.04], [-91.58, 31.02], [-91.59, 31.02], [-91.63, 31.01], [-91.64, 31.0], [-91.65, 30.99], [-91.66, 30.97], [-91.66, 30.98], [-91.66, 30.99], [-91.65, 31.01], [-91.64, 31.02], [-91.65, 31.04], [-91.66, 31.04], [-91.68, 31.04], [-91.7, 31.04], [-91.72, 31.04], [-91.72, 31.04], [-91.73, 31.03], [-91.75, 31.03], [-91.76, 31.01], [-91.77, 31.0], [-91.78, 30.99], [-91.78, 30.99], [-91.8, 30.98], [-91.81, 30.97], [-91.8, 30.96], [-91.8, 30.94], [-91.8, 30.92], [-91.8, 30.91], [-91.8, 30.88], [-91.8, 30.86], [-91.82, 30.86], [-91.82, 30.85], [-91.8, 30.84], [-91.8, 30.83], [-91.81, 30.82], [-91.81, 30.81], [-91.79, 30.8], [-91.78, 30.79], [-91.77, 30.79], [-91.76, 30.76], [-91.76, 30.74], [-91.75, 30.74], [-91.75, 30.72], [-91.74, 30.71], [-91.73, 30.7], [-91.74, 30.68], [-91.73, 30.67], [-91.75, 30.66], [-91.74, 30.63], [-91.75, 30.62], [-91.75, 30.61], [-91.75, 30.6], [-91.76, 30.56], [-91.74, 30.53], [-91.73, 30.52], [-91.74, 30.51], [-91.75, 30.51], [-91.76, 30.5], [-91.75, 30.49], [-91.74, 30.47], [-91.74, 30.46], [-91.74, 30.45], [-91.72, 30.45], [-91.72, 30.45], [-91.71, 30.43], [-91.7, 30.41], [-91.69, 30.4], [-91.68, 30.39], [-91.73, 30.39], [-91.81, 30.39], [-91.82, 30.4], [-91.84, 30.41], [-91.85, 30.41], [-91.85, 30.41], [-91.87, 30.42], [-91.93, 30.4], [-91.94, 30.4], [-91.96, 30.4], [-91.97, 30.41], [-91.98, 30.41], [-91.98, 30.39], [-91.98, 30.38], [-91.99, 30.37], [-92.0, 30.36], [-92.02, 30.37], [-92.03, 30.36], [-92.03, 30.36], [-92.04, 30.38], [-92.06, 30.38], [-92.07, 30.37], [-92.08, 30.36], [-92.09, 30.34], [-92.09, 30.33], [-92.14, 30.3], [-92.14, 30.32], [-92.16, 30.32], [-92.16, 30.35], [-92.18, 30.35], [-92.18, 30.44], [-92.24, 30.44], [-92.24, 30.48], [-92.43, 30.48], [-92.63, 30.48], [-92.62, 30.51], [-92.62, 30.52], [-92.61, 30.53], [-92.6, 30.54], [-92.58, 30.57], [-92.6, 30.58], [-92.6, 30.63], [-92.6, 30.69], [-92.6, 30.74], [-92.6, 30.79], [-92.6, 30.87], [-92.6, 30.9], [-92.71, 30.9], [-92.72, 30.9], [-92.72, 30.89], [-92.74, 30.89], [-92.78, 30.89], [-92.79, 30.89], [-92.82, 30.89], [-92.82, 30.97], [-92.82, 31.01], [-92.83, 31.01], [-92.83, 31.1], [-92.83, 31.25], [-92.85, 31.25], [-92.85, 31.27], [-92.86, 31.27], [-92.86, 31.29], [-92.88, 31.29], [-92.88, 31.32], [-92.9, 31.32], [-92.9, 31.32], [-92.93, 31.32], [-92.93, 31.33], [-92.96, 31.33], [-92.96, 31.34], [-92.98, 31.34], [-92.98, 31.35], [-92.95, 31.35], [-92.95, 31.37], [-92.91, 31.37], [-92.91, 31.39], [-92.89, 31.39], [-92.89, 31.4], [-92.87, 31.4], [-92.87, 31.42], [-92.85, 31.42], [-92.85, 31.43], [-92.83, 31.43], [-92.83, 31.44], [-92.81, 31.44], [-92.81, 31.46], [-92.8, 31.46], [-92.79, 31.46], [-92.79, 31.47], [-92.78, 31.48], [-92.76, 31.48], [-92.76, 31.49], [-92.72, 31.52], [-92.73, 31.53], [-92.76, 31.55], [-92.76, 31.56], [-92.77, 31.57], [-92.79, 31.58], [-92.79, 31.59], [-92.8, 31.6], [-92.84, 31.6], [-92.87, 31.62], [-92.88, 31.62], [-92.9, 31.62], [-92.91, 31.63], [-92.91, 31.64], [-92.9, 31.66], [-92.92, 31.67], [-92.93, 31.68], [-92.95, 31.68], [-92.96, 31.68], [-92.97, 31.69], [-92.96, 31.7], [-92.97, 31.71], [-92.87, 31.71], [-92.75, 31.71], [-92.62, 31.71], [-92.62, 31.8], [-92.5, 31.8], [-92.36, 31.8], [-92.36, 31.81], [-92.35, 31.81], [-92.34, 31.82], [-92.34, 31.83], [-92.33, 31.85], [-92.32, 31.87], [-92.32, 31.88], [-92.32, 31.89], [-92.31, 31.9], [-92.31, 31.93], [-92.14, 31.93], [-92.13, 31.93], [-91.9, 31.93], [-91.9, 31.97], [-91.89, 31.97]]]}}, {"type": "Feature", "properties": {"STATE": "Louisiana", "STATE_FIPS": "22", "CD_2DIG": "06", "STATE_CODE": 16, "CLIMDIV": 1606, "ID": 1606, "CD_NEW": 6, "FIPS_CD": "2206", "NCDC_GEO_I": 124.0, "NAME": "EAST CENTRAL", "ST_ABBRV": "LA", "SHAPE_AREA": 0.0, "SHAPE_LEN": 0.0}, "geometry": {"type": "MultiPolygon", "coordinates": [[[[-91.64, 31.0], [-91.5, 31.0], [-91.38, 31.0], [-91.25, 31.0], [-91.1, 31.0], [-91.0, 31.0], [-90.88, 31.0], [-90.87, 31.0], [-90.73, 31.0], [-90.55, 31.0], [-90.45, 31.0], [-90.37, 31.0], [-90.21, 31.0], [-89.92, 31.0], [-89.86, 31.0], [-89.75, 31.0], [-89.73, 31.0], [-89.73, 30.98], [-89.73, 30.97], [-89.74, 30.97], [-89.76, 30.94], [-89.75, 30.93], [-89.75, 30.93], [-89.74, 30.92], [-89.75, 30.91], [-89.76, 30.91], [-89.76, 30.9], [-89.76, 30.9], [-89.77, 30.9], [-89.78, 30.87], [-89.77, 30.87], [-89.77, 30.86], [-89.78, 30.85], [-89.79, 30.83], [-89.79, 30.82], [-89.8, 30.82], [-89.8, 30.81], [-89.8, 30.8], [-89.82, 30.79], [-89.82, 30.78], [-89.83, 30.77], [-89.83, 30.76], [-89.83, 30.75], [-89.82, 30.74], [-89.84, 30.73], [-89.83, 30.72], [-89.84, 30.72], [-89.84, 30.69], [-89.84, 30.68], [-89.84, 30.66], [-89.83, 30.66], [-89.83, 30.65], [-89.82, 30.64], [-89.82, 30.63], [-89.82, 30.61], [-89.82, 30.59], [-89.81, 30.57], [-89.81, 30.57], [-89.79, 30.57], [-89.79, 30.56], [-89.79, 30.54], [-89.78, 30.54], [-89.78, 30.53], [-89.77, 30.53], [-89.77, 30.51], [-89.76, 30.51], [-89.75, 30.5], [-89.74, 30.5], [-89.72, 30.49], [-89.72, 30.48], [-89.71, 30.48], [-89.7, 30.47], [-89.69, 30.46], [-89.68, 30.45], [-89.68, 30.41], [-89.68, 30.41], [-89.67, 30.39], [-89.67, 30.38], [-89.66, 30.37], [-89.66, 30.36], [-89.63, 30.34], [-89.63, 30.34], [-89.63, 30.33], [-89.63, 30.31], [-89.64, 30.31], [-89.64, 30.3], [-89.65, 30.29], [-89.63, 30.28], [-89.63, 30.27], [-89.63, 30.27], [-89.63, 30.26], [-89.62, 30.25], [-89.62, 30.23], [-89.61, 30.22], [-89.6, 30.21], [-89.58, 30.19], [-89.59, 30.18], [-89.61, 30.18], [-89.61, 30.17], [-89.62, 30.17], [-89.63, 30.16], [-89.65, 30.16], [-89.66, 30.16], [-89.66, 30.17], [-89.69, 30.18], [-89.71, 30.16], [-89.73, 30.16], [-89.74, 30.17], [-89.75, 30.18], [-89.78, 30.16], [-89.79, 30.15], [-89.81, 30.15], [-89.82, 30.16], [-89.82, 30.17], [-89.82, 30.18], [-89.86, 30.19], [-89.87, 30.2], [-89.88, 30.2], [-89.9, 30.19], [-89.91, 30.19], [-89.99, 30.15], [-90.0, 30.15], [-90.03, 30.17], [-90.04, 30.17], [-90.07, 30.18], [-90.09, 30.19], [-90.12, 30.19], [-90.17, 30.2], [-90.19, 30.21], [-90.22, 30.22], [-90.28, 30.23], [-90.3, 30.29], [-90.32, 30.3], [-90.33, 30.3], [-90.35, 30.3], [-90.37, 30.28], [-90.38, 30.29], [-90.4, 30.29], [-90.41, 30.28], [-90.44, 30.28], [-90.47, 30.27], [-90.49, 30.26], [-90.5, 30.26], [-90.52, 30.23], [-90.53, 30.22], [-90.54, 30.2], [-90.56, 30.19], [-90.58, 30.2], [-90.6, 30.21], [-90.61, 30.21], [-90.62, 30.22], [-90.63, 30.22], [-90.64, 30.23], [-90.65, 30.23], [-90.66, 30.23], [-90.66, 30.22], [-90.68, 30.21], [-90.67, 30.2], [-90.69, 30.18], [-90.7, 30.18], [-90.7, 30.19], [-90.71, 30.18], [-90.72, 30.19], [-90.72, 30.2], [-90.73, 30.22], [-90.74, 30.23], [-90.75, 30.24], [-90.77, 30.24], [-90.79, 30.26], [-90.78, 30.28], [-90.79, 30.28], [-90.81, 30.28], [-90.82, 30.29], [-90.82, 30.29], [-90.83, 30.32], [-90.84, 30.33], [-90.85, 30.33], [-90.86, 30.34], [-90.87, 30.34], [-90.9, 30.35], [-90.91, 30.34], [-90.92, 30.35], [-90.93, 30.34], [-90.94, 30.34], [-90.95, 30.34], [-90.98, 30.35], [-90.98, 30.34], [-91.0, 30.34], [-91.01, 30.34], [-91.02, 30.32], [-91.03, 30.32], [-91.05, 30.32], [-91.06, 30.32], [-91.1, 30.32], [-91.12, 30.31], [-91.13, 30.31], [-91.14, 30.32], [-91.23, 30.32], [-91.31, 30.32], [-91.32, 30.34], [-91.34, 30.35], [-91.36, 30.38], [-91.39, 30.4], [-91.39, 30.41], [-91.41, 30.43], [-91.45, 30.47], [-91.46, 30.47], [-91.49, 30.5], [-91.53, 30.5], [-91.56, 30.49], [-91.56, 30.48], [-91.58, 30.48], [-91.58, 30.5], [-91.76, 30.5], [-91.75, 30.51], [-91.74, 30.51], [-91.73, 30.52], [-91.74, 30.53], [-91.76, 30.56], [-91.75, 30.6], [-91.75, 30.61], [-91.75, 30.62], [-91.74, 30.63], [-91.75, 30.66], [-91.73, 30.67], [-91.74, 30.68], [-91.73, 30.7], [-91.74, 30.71], [-91.75, 30.72], [-91.75, 30.74], [-91.76, 30.74], [-91.76, 30.76], [-91.77, 30.79], [-91.78, 30.79], [-91.79, 30.8], [-91.81, 30.81], [-91.81, 30.82], [-91.8, 30.83], [-91.8, 30.84], [-91.82, 30.85], [-91.82, 30.86], [-91.8, 30.86], [-91.8, 30.88], [-91.8, 30.91], [-91.8, 30.92], [-91.8, 30.94], [-91.8, 30.96], [-91.81, 30.97], [-91.8, 30.98], [-91.78, 30.99], [-91.78, 30.99], [-91.77, 31.0], [-91.76, 31.01], [-91.75, 31.03], [-91.73, 31.03], [-91.72, 31.04], [-91.72, 31.04], [-91.7, 31.04], [-91.68, 31.04], [-91.66, 31.04], [-91.65, 31.04], [-91.64, 31.02], [-91.65, 31.01], [-91.66, 30.99], [-91.66, 30.98], [-91.66, 30.97], [-91.65, 30.99], [-91.64, 31.0]]], [[[-89.53, 30.19], [-89.56, 30.18], [-89.57, 30.17], [-89.57, 30.17], [-89.57, 30.16], [-89.59, 30.15], [-89.6, 30.16], [-89.58, 30.17], [-89.58, 30.18], [-89.57, 30.18], [-89.55, 30.18], [-89.55, 30.19], [-89.54, 30.19], [-89.53, 30.19]]]]}}, {"type": "Feature", "properties": {"STATE": "Louisiana", "STATE_FIPS": "22", "CD_2DIG": "07", "STATE_CODE": 16, "CLIMDIV": 1607, "ID": 1607, "CD_NEW": 7, "FIPS_CD": "2207", "NCDC_GEO_I": 125.0, "NAME": "SOUTHWEST", "ST_ABBRV": "LA", "SHAPE_AREA": 0.0, "SHAPE_LEN": 0.0}, "geometry": {"type": "Polygon", "coordinates": [[[-92.14, 30.3], [-92.14, 30.28], [-92.16, 30.28], [-92.16, 30.27], [-92.18, 30.27], [-92.18, 30.24], [-92.21, 30.24], [-92.21, 30.23], [-92.22, 30.22], [-92.24, 30.22], [-92.25, 30.2], [-92.25, 30.18], [-92.26, 30.16], [-92.28, 30.15], [-92.28, 30.14], [-92.26, 30.14], [-92.26, 30.14], [-92.24, 30.14], [-92.23, 30.14], [-92.21, 30.14], [-92.13, 30.12], [-92.09, 30.13], [-92.09, 30.12], [-92.08, 30.1], [-92.07, 30.09], [-92.06, 30.07], [-91.97, 30.03], [-91.98, 29.99], [-91.99, 29.98], [-91.99, 29.97], [-91.97, 29.83], [-91.98, 29.83], [-91.99, 29.82], [-91.98, 29.8], [-91.98, 29.79], [-92.0, 29.79], [-92.02, 29.79], [-92.04, 29.78], [-92.07, 29.76], [-92.12, 29.74], [-92.14, 29.72], [-92.14, 29.73], [-92.14, 29.73], [-92.13, 29.75], [-92.12, 29.75], [-92.13, 29.77], [-92.14, 29.77], [-92.15, 29.76], [-92.15, 29.75], [-92.16, 29.76], [-92.17, 29.76], [-92.17, 29.75], [-92.18, 29.74], [-92.2, 29.75], [-92.21, 29.74], [-92.2, 29.73], [-92.19, 29.72], [-92.17, 29.7], [-92.15, 29.7], [-92.14, 29.7], [-92.1, 29.7], [-92.1, 29.69], [-92.13, 29.67], [-92.13, 29.66], [-92.12, 29.65], [-92.12, 29.64], [-92.11, 29.62], [-92.09, 29.62], [-92.08, 29.62], [-92.06, 29.62], [-92.05, 29.62], [-92.04, 29.63], [-92.03, 29.63], [-92.02, 29.62], [-92.04, 29.62], [-92.05, 29.61], [-92.07, 29.6], [-92.07, 29.59], [-92.04, 29.59], [-92.04, 29.59], [-92.06, 29.58], [-92.08, 29.58], [-92.11, 29.59], [-92.16, 29.58], [-92.17, 29.58], [-92.21, 29.56], [-92.26, 29.54], [-92.28, 29.53], [-92.31, 29.53], [-92.34, 29.54], [-92.4, 29.55], [-92.42, 29.55], [-92.47, 29.56], [-92.54, 29.57], [-92.62, 29.58], [-92.62, 29.59], [-92.63, 29.59], [-92.64, 29.6], [-92.64, 29.59], [-92.66, 29.59], [-92.68, 29.6], [-92.74, 29.62], [-92.76, 29.63], [-92.79, 29.64], [-92.81, 29.65], [-92.84, 29.66], [-92.86, 29.67], [-92.93, 29.7], [-92.98, 29.72], [-93.01, 29.72], [-93.01, 29.73], [-93.06, 29.74], [-93.09, 29.75], [-93.12, 29.76], [-93.13, 29.76], [-93.18, 29.77], [-93.21, 29.78], [-93.23, 29.78], [-93.27, 29.78], [-93.29, 29.78], [-93.31, 29.77], [-93.35, 29.76], [-93.4, 29.77], [-93.46, 29.77], [-93.49, 29.77], [-93.57, 29.76], [-93.61, 29.76], [-93.66, 29.75], [-93.69, 29.75], [-93.73, 29.74], [-93.75, 29.73], [-93.78, 29.72], [-93.81, 29.71], [-93.84, 29.69], [-93.84, 29.69], [-93.86, 29.72], [-93.87, 29.74], [-93.89, 29.74], [-93.89, 29.75], [-93.89, 29.77], [-93.9, 29.77], [-93.92, 29.79], [-93.93, 29.8], [-93.93, 29.81], [-93.92, 29.82], [-93.9, 29.84], [-93.86, 29.86], [-93.84, 29.88], [-93.83, 29.89], [-93.82, 29.92], [-93.81, 29.95], [-93.81, 29.96], [-93.8, 29.97], [-93.79, 29.99], [-93.78, 29.99], [-93.77, 30.0], [-93.76, 30.02], [-93.74, 30.02], [-93.74, 30.04], [-93.72, 30.05], [-93.7, 30.06], [-93.7, 30.07], [-93.72, 30.07], [-93.73, 30.08], [-93.72, 30.08], [-93.72, 30.09], [-93.7, 30.11], [-93.7, 30.13], [-93.7, 30.14], [-93.69, 30.14], [-93.7, 30.15], [-93.71, 30.16], [-93.7, 30.17], [-93.71, 30.18], [-93.71, 30.19], [-93.72, 30.21], [-93.71, 30.23], [-93.71, 30.23], [-93.71, 30.24], [-93.7, 30.26], [-93.71, 30.27], [-93.7, 30.28], [-93.71, 30.29], [-93.73, 30.3], [-93.74, 30.3], [-93.76, 30.33], [-93.76, 30.33], [-93.77, 30.34], [-93.76, 30.36], [-93.76, 30.38], [-93.76, 30.39], [-93.75, 30.4], [-93.72, 30.42], [-93.71, 30.43], [-93.7, 30.44], [-93.7, 30.44], [-93.7, 30.46], [-93.71, 30.47], [-93.72, 30.48], [-93.72, 30.49], [-93.71, 30.5], [-93.71, 30.51], [-93.71, 30.52], [-93.73, 30.53], [-93.73, 30.54], [-93.73, 30.55], [-93.72, 30.56], [-93.73, 30.57], [-93.71, 30.58], [-93.71, 30.59], [-93.7, 30.59], [-93.69, 30.59], [-93.69, 30.59], [-93.68, 30.6], [-93.68, 30.61], [-93.68, 30.62], [-93.69, 30.63], [-93.68, 30.64], [-93.66, 30.66], [-93.65, 30.67], [-93.65, 30.67], [-93.63, 30.68], [-93.62, 30.7], [-93.62, 30.7], [-93.61, 30.72], [-93.61, 30.73], [-93.62, 30.74], [-93.61, 30.75], [-93.61, 30.75], [-93.59, 30.76], [-93.59, 30.77], [-93.59, 30.79], [-93.58, 30.79], [-93.58, 30.8], [-93.57, 30.8], [-93.56, 30.82], [-93.55, 30.82], [-93.55, 30.84], [-93.56, 30.85], [-93.56, 30.85], [-93.56, 30.86], [-93.56, 30.87], [-93.55, 30.88], [-93.54, 30.88], [-93.52, 30.88], [-93.51, 30.87], [-93.49, 30.87], [-93.48, 30.86], [-93.47, 30.86], [-93.46, 30.87], [-93.44, 30.88], [-93.42, 30.88], [-93.3, 30.88], [-93.21, 30.88], [-93.13, 30.88], [-93.13, 30.88], [-93.0, 30.88], [-92.93, 30.88], [-92.88, 30.88], [-92.86, 30.88], [-92.82, 30.88], [-92.82, 30.89], [-92.79, 30.89], [-92.78, 30.89], [-92.74, 30.89], [-92.72, 30.89], [-92.72, 30.9], [-92.71, 30.9], [-92.6, 30.9], [-92.6, 30.87], [-92.6, 30.79], [-92.6, 30.74], [-92.6, 30.69], [-92.6, 30.63], [-92.6, 30.58], [-92.58, 30.57], [-92.6, 30.54], [-92.61, 30.53], [-92.62, 30.52], [-92.62, 30.51], [-92.63, 30.48], [-92.43, 30.48], [-92.24, 30.48], [-92.24, 30.44], [-92.18, 30.44], [-92.18, 30.35], [-92.16, 30.35], [-92.16, 30.32], [-92.14, 30.32], [-92.14, 30.3]]]}}, {"type": "Feature", "properties": {"STATE": "Louisiana", "STATE_FIPS": "22", "CD_2DIG": "09", "STATE_CODE": 16, "CLIMDIV": 1609, "ID": 1609, "CD_NEW": 9, "FIPS_CD": "2209", "NCDC_GEO_I": 127.0, "NAME": "SOUTHEAST", "ST_ABBRV": "LA", "SHAPE_AREA": 0.0, "SHAPE_LEN": 0.0}, "geometry": {"type": "MultiPolygon", "coordinates": [[[[-89.66, 30.16], [-89.65, 30.15], [-89.64, 30.15], [-89.63, 30.15], [-89.63, 30.14], [-89.64, 30.14], [-89.65, 30.12], [-89.68, 30.11], [-89.68, 30.08], [-89.7, 30.07], [-89.71, 30.07], [-89.72, 30.07], [-89.73, 30.06], [-89.73, 30.05], [-89.72, 30.03], [-89.73, 30.02], [-89.75, 30.04], [-89.77, 30.04], [-89.78, 30.05], [-89.82, 30.04], [-89.83, 30.04], [-89.84, 30.03], [-89.85, 30.01], [-89.86, 30.0], [-89.85, 29.99], [-89.85, 29.98], [-89.84, 29.95], [-89.84, 29.94], [-89.82, 29.93], [-89.81, 29.93], [-89.78, 29.94], [-89.75, 29.95], [-89.73, 29.96], [-89.72, 29.95], [-89.71, 29.95], [-89.74, 29.94], [-89.75, 29.93], [-89.74, 29.91], [-89.74, 29.9], [-89.73, 29.9], [-89.71, 29.88], [-89.69, 29.87], [-89.67, 29.87], [-89.66, 29.86], [-89.64, 29.86], [-89.62, 29.87], [-89.61, 29.87], [-89.59, 29.89], [-89.59, 29.89], [-89.59, 29.92], [-89.58, 29.93], [-89.58, 29.95], [-89.57, 29.96], [-89.57, 29.98], [-89.58, 29.99], [-89.58, 30.0], [-89.56, 30.0], [-89.53, 30.02], [-89.51, 30.03], [-89.49, 30.04], [-89.5, 30.06], [-89.49, 30.07], [-89.49, 30.07], [-89.47, 30.07], [-89.46, 30.06], [-89.45, 30.06], [-89.44, 30.05], [-89.44, 30.04], [-89.43, 30.03], [-89.45, 30.02], [-89.45, 30.01], [-89.46, 30.0], [-89.46, 29.99], [-89.44, 29.99], [-89.43, 29.99], [-89.43, 29.98], [-89.42, 29.96], [-89.41, 29.97], [-89.39, 29.97], [-89.4, 29.96], [-89.39, 29.95], [-89.38, 29.94], [-89.38, 29.92], [-89.38, 29.92], [-89.37, 29.89], [-89.36, 29.89], [-89.36, 29.88], [-89.35, 29.87], [-89.36, 29.85], [-89.36, 29.85], [-89.38, 29.84], [-89.39, 29.83], [-89.41, 29.82], [-89.41, 29.81], [-89.39, 29.81], [-89.37, 29.8], [-89.35, 29.8], [-89.34, 29.79], [-89.33, 29.78], [-89.31, 29.79], [-89.31, 29.8], [-89.29, 29.8], [-89.3, 29.79], [-89.29, 29.78], [-89.29, 29.76], [-89.3, 29.77], [-89.32, 29.77], [-89.33, 29.78], [-89.35, 29.78], [-89.36, 29.78], [-89.38, 29.78], [-89.38, 29.79], [-89.39, 29.79], [-89.4, 29.78], [-89.4, 29.77], [-89.43, 29.78], [-89.44, 29.79], [-89.45, 29.79], [-89.45, 29.77], [-89.44, 29.77], [-89.44, 29.75], [-89.43, 29.73], [-89.43, 29.71], [-89.42, 29.71], [-89.43, 29.7], [-89.43, 29.69], [-89.44, 29.68], [-89.47, 29.69], [-89.47, 29.7], [-89.48, 29.71], [-89.47, 29.72], [-89.48, 29.73], [-89.49, 29.73], [-89.5, 29.73], [-89.52, 29.74], [-89.52, 29.74], [-89.54, 29.74], [-89.56, 29.74], [-89.58, 29.75], [-89.6, 29.75], [-89.61, 29.74], [-89.63, 29.76], [-89.65, 29.75], [-89.65, 29.73], [-89.65, 29.73], [-89.65, 29.71], [-89.63, 29.71], [-89.62, 29.7], [-89.59, 29.7], [-89.59, 29.7], [-89.6, 29.69], [-89.6, 29.68], [-89.57, 29.67], [-89.57, 29.67], [-89.56, 29.67], [-89.55, 29.66], [-89.53, 29.66], [-89.53, 29.66], [-89.51, 29.65], [-89.5, 29.63], [-89.51, 29.63], [-89.51, 29.64], [-89.52, 29.64], [-89.53, 29.65], [-89.55, 29.65], [-89.56, 29.66], [-89.57, 29.66], [-89.61, 29.66], [-89.61, 29.66], [-89.63, 29.66], [-89.63, 29.68], [-89.64, 29.68], [-89.65, 29.67], [-89.65, 29.66], [-89.64, 29.65], [-89.64, 29.65], [-89.66, 29.65], [-89.67, 29.64], [-89.69, 29.64], [-89.69, 29.62], [-89.69, 29.61], [-89.71, 29.61], [-89.72, 29.61], [-89.71, 29.6], [-89.7, 29.6], [-89.7, 29.59], [-89.7, 29.58], [-89.7, 29.57], [-89.71, 29.56], [-89.7, 29.56], [-89.69, 29.55], [-89.68, 29.55], [-89.68, 29.54], [-89.68, 29.53], [-89.69, 29.53], [-89.67, 29.52], [-89.65, 29.52], [-89.64, 29.51], [-89.62, 29.5], [-89.61, 29.49], [-89.6, 29.49], [-89.59, 29.49], [-89.59, 29.48], [-89.57, 29.46], [-89.56, 29.47], [-89.56, 29.46], [-89.54, 29.45], [-89.52, 29.46], [-89.53, 29.44], [-89.53, 29.43], [-89.53, 29.42], [-89.52, 29.42], [-89.52, 29.4], [-89.53, 29.4], [-89.55, 29.41], [-89.55, 29.42], [-89.57, 29.42], [-89.57, 29.41], [-89.56, 29.4], [-89.56, 29.39], [-89.55, 29.39], [-89.54, 29.39], [-89.53, 29.38], [-89.51, 29.38], [-89.48, 29.4], [-89.47, 29.4], [-89.46, 29.39], [-89.44, 29.39], [-89.43, 29.39], [-89.42, 29.39], [-89.43, 29.38], [-89.42, 29.37], [-89.41, 29.38], [-89.41, 29.39], [-89.39, 29.38], [-89.38, 29.39], [-89.36, 29.38], [-89.34, 29.38], [-89.35, 29.37], [-89.36, 29.38], [-89.38, 29.38], [-89.38, 29.38], [-89.38, 29.37], [-89.4, 29.36], [-89.39, 29.35], [-89.38, 29.34], [-89.35, 29.33], [-89.34, 29.33], [-89.34, 29.35], [-89.32, 29.34], [-89.3, 29.36], [-89.27, 29.35], [-89.27, 29.34], [-89.27, 29.33], [-89.26, 29.32], [-89.26, 29.32], [-89.25, 29.3], [-89.24, 29.31], [-89.24, 29.3], [-89.24, 29.29], [-89.24, 29.27], [-89.24, 29.25], [-89.25, 29.22], [-89.26, 29.2], [-89.27, 29.2], [-89.28, 29.21], [-89.29, 29.23], [-89.3, 29.24], [-89.34, 29.28], [-89.35, 29.29], [-89.36, 29.28], [-89.35, 29.27], [-89.35, 29.26], [-89.35, 29.25], [-89.34, 29.23], [-89.35, 29.21], [-89.34, 29.2], [-89.35, 29.18], [-89.36, 29.17], [-89.36, 29.18], [-89.37, 29.17], [-89.38, 29.16], [-89.41, 29.14], [-89.42, 29.14], [-89.43, 29.14], [-89.44, 29.15], [-89.45, 29.18], [-89.46, 29.2], [-89.47, 29.21], [-89.48, 29.22], [-89.48, 29.22], [-89.49, 29.24], [-89.5, 29.25], [-89.51, 29.25], [-89.52, 29.24], [-89.51, 29.23], [-89.5, 29.23], [-89.5, 29.22], [-89.56, 29.24], [-89.61, 29.25], [-89.62, 29.26], [-89.63, 29.27], [-89.62, 29.28], [-89.63, 29.29], [-89.64, 29.29], [-89.65, 29.29], [-89.63, 29.31], [-89.63, 29.32], [-89.64, 29.33], [-89.66, 29.32], [-89.67, 29.31], [-89.67, 29.3], [-89.68, 29.29], [-89.7, 29.3], [-89.74, 29.31], [-89.77, 29.31], [-89.79, 29.31], [-89.82, 29.31], [-89.82, 29.32], [-89.8, 29.32], [-89.79, 29.33], [-89.8, 29.34], [-89.82, 29.33], [-89.83, 29.33], [-89.84, 29.34], [-89.83, 29.36], [-89.82, 29.36], [-89.82, 29.37], [-89.8, 29.37], [-89.79, 29.37], [-89.78, 29.38], [-89.79, 29.39], [-89.78, 29.4], [-89.78, 29.42], [-89.79, 29.41], [-89.8, 29.41], [-89.81, 29.39], [-89.83, 29.4], [-89.81, 29.41], [-89.82, 29.42], [-89.82, 29.42], [-89.84, 29.42], [-89.85, 29.42], [-89.84, 29.43], [-89.85, 29.44], [-89.84, 29.44], [-89.84, 29.45], [-89.83, 29.45], [-89.82, 29.45], [-89.81, 29.46], [-89.83, 29.47], [-89.85, 29.48], [-89.86, 29.47], [-89.87, 29.48], [-89.88, 29.47], [-89.89, 29.47], [-89.89, 29.48], [-89.88, 29.48], [-89.89, 29.49], [-89.9, 29.49], [-89.91, 29.48], [-89.93, 29.49], [-89.93, 29.48], [-89.92, 29.47], [-89.94, 29.47], [-89.94, 29.46], [-89.96, 29.46], [-89.97, 29.46], [-89.98, 29.46], [-89.99, 29.46], [-89.99, 29.48], [-90.0, 29.49], [-90.02, 29.49], [-90.04, 29.49], [-90.05, 29.5], [-90.07, 29.51], [-90.08, 29.52], [-90.1, 29.53], [-90.11, 29.53], [-90.12, 29.54], [-90.12, 29.55], [-90.14, 29.55], [-90.15, 29.54], [-90.16, 29.54], [-90.16, 29.55], [-90.17, 29.56], [-90.17, 29.57], [-90.19, 29.57], [-90.21, 29.57], [-90.21, 29.56], [-90.22, 29.54], [-90.23, 29.54], [-90.22, 29.53], [-90.23, 29.52], [-90.23, 29.51], [-90.22, 29.5], [-90.2, 29.5], [-90.19, 29.49], [-90.18, 29.47], [-90.15, 29.47], [-90.15, 29.46], [-90.14, 29.45], [-90.13, 29.46], [-90.13, 29.45], [-90.12, 29.45], [-90.11, 29.45], [-90.1, 29.45], [-90.09, 29.45], [-90.07, 29.45], [-90.07, 29.43], [-90.06, 29.42], [-90.07, 29.4], [-90.06, 29.39], [-90.05, 29.38], [-90.07, 29.38], [-90.07, 29.36], [-90.08, 29.35], [-90.07, 29.34], [-90.06, 29.34], [-90.05, 29.32], [-90.04, 29.31], [-90.06, 29.31], [-90.07, 29.33], [-90.08, 29.32], [-90.1, 29.32], [-90.11, 29.31], [-90.12, 29.32], [-90.13, 29.32], [-90.13, 29.31], [-90.12, 29.3], [-90.13, 29.29], [-90.12, 29.28], [-90.11, 29.28], [-90.11, 29.27], [-90.11, 29.27], [-90.11, 29.25], [-90.1, 29.25], [-90.1, 29.24], [-90.09, 29.23], [-90.07, 29.22], [-90.08, 29.21], [-90.07, 29.21], [-90.05, 29.21], [-90.06, 29.19], [-90.05, 29.19], [-90.09, 29.16], [-90.13, 29.14], [-90.19, 29.1], [-90.22, 29.09], [-90.24, 29.1], [-90.25, 29.11], [-90.23, 29.11], [-90.23, 29.13], [-90.24, 29.13], [-90.25, 29.14], [-90.24, 29.15], [-90.26, 29.16], [-90.26, 29.17], [-90.26, 29.18], [-90.26, 29.19], [-90.27, 29.2], [-90.26, 29.22], [-90.25, 29.21], [-90.25, 29.22], [-90.24, 29.23], [-90.24, 29.24], [-90.25, 29.23], [-90.26, 29.26], [-90.27, 29.26], [-90.28, 29.27], [-90.29, 29.26], [-90.29, 29.24], [-90.3, 29.24], [-90.3, 29.25], [-90.3, 29.26], [-90.32, 29.27], [-90.34, 29.28], [-90.34, 29.29], [-90.33, 29.3], [-90.33, 29.31], [-90.35, 29.32], [-90.34, 29.33], [-90.35, 29.34], [-90.36, 29.34], [-90.35, 29.32], [-90.35, 29.31], [-90.37, 29.29], [-90.38, 29.28], [-90.37, 29.27], [-90.37, 29.26], [-90.38, 29.26], [-90.39, 29.27], [-90.4, 29.26], [-90.41, 29.27], [-90.4, 29.28], [-90.4, 29.3], [-90.4, 29.31], [-90.41, 29.32], [-90.44, 29.33], [-90.43, 29.34], [-90.44, 29.35], [-90.46, 29.34], [-90.46, 29.33], [-90.45, 29.33], [-90.45, 29.32], [-90.47, 29.3], [-90.48, 29.29], [-90.48, 29.28], [-90.49, 29.28], [-90.51, 29.29], [-90.51, 29.3], [-90.53, 29.3], [-90.53, 29.29], [-90.54, 29.3], [-90.54, 29.31], [-90.55, 29.31], [-90.56, 29.3], [-90.56, 29.3], [-90.57, 29.31], [-90.58, 29.31], [-90.59, 29.31], [-90.61, 29.31], [-90.61, 29.31], [-90.61, 29.3], [-90.61, 29.29], [-90.62, 29.29], [-90.61, 29.28], [-90.6, 29.28], [-90.6, 29.27], [-90.58, 29.26], [-90.59, 29.25], [-90.58, 29.24], [-90.57, 29.24], [-90.54, 29.23], [-90.57, 29.24], [-90.57, 29.22], [-90.56, 29.2], [-90.58, 29.21], [-90.57, 29.21], [-90.58, 29.22], [-90.58, 29.23], [-90.59, 29.23], [-90.59, 29.24], [-90.61, 29.25], [-90.61, 29.23], [-90.6, 29.22], [-90.61, 29.22], [-90.62, 29.22], [-90.62, 29.24], [-90.64, 29.25], [-90.64, 29.24], [-90.64, 29.23], [-90.66, 29.23], [-90.67, 29.23], [-90.67, 29.21], [-90.67, 29.21], [-90.67, 29.18], [-90.67, 29.17], [-90.68, 29.17], [-90.68, 29.16], [-90.68, 29.15], [-90.69, 29.12], [-90.7, 29.12], [-90.71, 29.11], [-90.73, 29.14], [-90.73, 29.13], [-90.74, 29.11], [-90.76, 29.12], [-90.77, 29.11], [-90.78, 29.11], [-90.79, 29.13], [-90.79, 29.13], [-90.8, 29.12], [-90.81, 29.12], [-90.82, 29.11], [-90.84, 29.1], [-90.86, 29.1], [-90.86, 29.1], [-90.87, 29.09], [-90.89, 29.12], [-90.9, 29.13], [-90.91, 29.14], [-90.92, 29.15], [-90.94, 29.16], [-90.94, 29.16], [-90.95, 29.17], [-90.96, 29.18], [-90.98, 29.17], [-91.0, 29.17], [-91.02, 29.17], [-91.03, 29.18], [-91.03, 29.19], [-91.04, 29.21], [-91.05, 29.2], [-91.05, 29.19], [-91.06, 29.18], [-91.09, 29.19], [-91.1, 29.2], [-91.12, 29.21], [-91.16, 29.22], [-91.2, 29.22], [-91.22, 29.23], [-91.28, 29.25], [-91.3, 29.27], [-91.32, 29.29], [-91.34, 29.3], [-91.34, 29.31], [-91.31, 29.31], [-91.3, 29.31], [-91.29, 29.32], [-91.28, 29.33], [-91.28, 29.34], [-91.27, 29.36], [-91.25, 29.37], [-91.24, 29.37], [-91.24, 29.36], [-91.23, 29.35], [-91.23, 29.34], [-91.21, 29.32], [-91.2, 29.31], [-91.19, 29.31], [-91.17, 29.33], [-91.16, 29.32], [-91.17, 29.31], [-91.17, 29.28], [-91.17, 29.27], [-91.15, 29.25], [-91.13, 29.25], [-91.12, 29.26], [-91.12, 29.27], [-91.13, 29.28], [-91.13, 29.29], [-91.12, 29.3], [-91.12, 29.32], [-91.13, 29.32], [-91.13, 29.33], [-91.14, 29.34], [-91.15, 29.34], [-91.15, 29.35], [-91.2, 29.37], [-91.2, 29.4], [-91.22, 29.41], [-91.21, 29.42], [-91.22, 29.44], [-91.23, 29.44], [-91.25, 29.44], [-91.26, 29.44], [-91.26, 29.46], [-91.26, 29.47], [-91.26, 29.5], [-91.26, 29.5], [-91.26, 29.51], [-91.26, 29.53], [-91.26, 29.55], [-91.24, 29.55], [-91.23, 29.56], [-91.23, 29.58], [-91.21, 29.59], [-91.2, 29.6], [-91.18, 29.61], [-91.17, 29.6], [-91.16, 29.59], [-91.15, 29.6], [-91.14, 29.6], [-91.14, 29.61], [-91.12, 29.61], [-91.12, 29.62], [-91.1, 29.62], [-91.1, 29.62], [-91.08, 29.63], [-91.04, 29.68], [-90.98, 29.74], [-90.95, 29.79], [-90.92, 29.83], [-90.91, 29.88], [-90.89, 29.88], [-90.89, 29.94], [-90.93, 29.94], [-90.93, 29.98], [-90.96, 29.98], [-90.96, 30.04], [-90.96, 30.04], [-90.97, 30.07], [-90.98, 30.06], [-91.01, 30.08], [-91.06, 30.07], [-91.07, 30.08], [-91.08, 30.08], [-91.09, 30.08], [-91.09, 30.06], [-91.11, 30.06], [-91.11, 30.11], [-91.09, 30.11], [-91.09, 30.15], [-91.07, 30.16], [-91.07, 30.18], [-91.06, 30.21], [-91.02, 30.32], [-91.02, 30.32], [-91.01, 30.34], [-91.0, 30.34], [-90.98, 30.34], [-90.98, 30.35], [-90.95, 30.34], [-90.94, 30.34], [-90.93, 30.34], [-90.92, 30.35], [-90.91, 30.34], [-90.9, 30.35], [-90.87, 30.34], [-90.86, 30.34], [-90.85, 30.33], [-90.84, 30.33], [-90.83, 30.32], [-90.82, 30.29], [-90.82, 30.29], [-90.81, 30.28], [-90.79, 30.28], [-90.78, 30.28], [-90.79, 30.26], [-90.77, 30.24], [-90.75, 30.24], [-90.74, 30.23], [-90.73, 30.22], [-90.72, 30.2], [-90.72, 30.19], [-90.71, 30.18], [-90.7, 30.19], [-90.7, 30.18], [-90.69, 30.18], [-90.67, 30.2], [-90.68, 30.21], [-90.66, 30.22], [-90.66, 30.23], [-90.65, 30.23], [-90.64, 30.23], [-90.63, 30.22], [-90.62, 30.22], [-90.61, 30.21], [-90.6, 30.21], [-90.58, 30.2], [-90.56, 30.19], [-90.54, 30.2], [-90.53, 30.22], [-90.52, 30.23], [-90.5, 30.26], [-90.49, 30.26], [-90.47, 30.27], [-90.44, 30.28], [-90.41, 30.28], [-90.4, 30.29], [-90.38, 30.29], [-90.37, 30.28], [-90.35, 30.3], [-90.33, 30.3], [-90.32, 30.3], [-90.3, 30.29], [-90.28, 30.23], [-90.22, 30.22], [-90.19, 30.21], [-90.17, 30.2], [-90.12, 30.19], [-90.09, 30.19], [-90.07, 30.18], [-90.04, 30.17], [-90.03, 30.17], [-90.0, 30.15], [-89.99, 30.15], [-89.91, 30.19], [-89.9, 30.19], [-89.88, 30.2], [-89.87, 30.2], [-89.86, 30.19], [-89.82, 30.18], [-89.82, 30.17], [-89.82, 30.16], [-89.81, 30.15], [-89.79, 30.15], [-89.78, 30.16], [-89.75, 30.18], [-89.74, 30.17], [-89.73, 30.16], [-89.71, 30.16], [-89.69, 30.18], [-89.66, 30.17], [-89.66, 30.16]]], [[[-89.13, 29.23], [-89.13, 29.23], [-89.12, 29.22], [-89.13, 29.21], [-89.13, 29.2], [-89.14, 29.2], [-89.14, 29.19], [-89.16, 29.17], [-89.17, 29.17], [-89.18, 29.16], [-89.19, 29.16], [-89.2, 29.15], [-89.22, 29.15], [-89.25, 29.16], [-89.26, 29.19], [-89.26, 29.19], [-89.23, 29.2], [-89.22, 29.21], [-89.2, 29.21], [-89.19, 29.22], [-89.17, 29.23], [-89.16, 29.23], [-89.15, 29.23], [-89.14, 29.23], [-89.13, 29.23]]], [[[-89.18, 29.33], [-89.17, 29.32], [-89.17, 29.3], [-89.16, 29.3], [-89.15, 29.28], [-89.15, 29.27], [-89.16, 29.27], [-89.18, 29.25], [-89.18, 29.24], [-89.21, 29.21], [-89.25, 29.2], [-89.26, 29.2], [-89.25, 29.22], [-89.24, 29.24], [-89.22, 29.27], [-89.2, 29.29], [-89.19, 29.3], [-89.18, 29.33]]], [[[-89.35, 29.27], [-89.32, 29.25], [-89.31, 29.24], [-89.3, 29.22], [-89.27, 29.18], [-89.26, 29.16], [-89.26, 29.15], [-89.26, 29.14], [-89.27, 29.15], [-89.29, 29.15], [-89.31, 29.15], [-89.31, 29.16], [-89.31, 29.17], [-89.32, 29.17], [-89.33, 29.18], [-89.33, 29.19], [-89.33, 29.2], [-89.34, 29.21], [-89.34, 29.23], [-89.35, 29.25], [-89.35, 29.26], [-89.35, 29.27]]], [[[-89.2, 29.34], [-89.19, 29.32], [-89.19, 29.3], [-89.2, 29.29], [-89.22, 29.27], [-89.24, 29.25], [-89.24, 29.27], [-89.24, 29.29], [-89.24, 29.3], [-89.23, 29.3], [-89.22, 29.31], [-89.22, 29.32], [-89.21, 29.33], [-89.21, 29.33], [-89.2, 29.34], [-89.2, 29.34]]], [[[-88.87, 30.05], [-88.86, 30.04], [-88.84, 30.02], [-88.83, 30.0], [-88.82, 29.96], [-88.82, 29.93], [-88.82, 29.91], [-88.82, 29.87], [-88.82, 29.85], [-88.83, 29.82], [-88.85, 29.78], [-88.86, 29.78], [-88.85, 29.8], [-88.85, 29.81], [-88.84, 29.82], [-88.84, 29.83], [-88.83, 29.84], [-88.83, 29.85], [-88.83, 29.86], [-88.83, 29.87], [-88.82, 29.88], [-88.83, 29.9], [-88.82, 29.91], [-88.82, 29.92], [-88.82, 29.93], [-88.83, 29.93], [-88.82, 29.94], [-88.83, 29.95], [-88.84, 29.96], [-88.83, 29.98], [-88.84, 29.99], [-88.84, 30.01], [-88.85, 30.01], [-88.85, 30.02], [-88.86, 30.03], [-88.87, 30.04], [-88.87, 30.05]]], [[[-90.08, 29.51], [-90.07, 29.5], [-90.06, 29.5], [-90.06, 29.49], [-90.05, 29.48], [-90.05, 29.48], [-90.06, 29.49], [-90.08, 29.49], [-90.09, 29.49], [-90.08, 29.48], [-90.09, 29.47], [-90.09, 29.47], [-90.1, 29.47], [-90.1, 29.48], [-90.11, 29.49], [-90.13, 29.49], [-90.12, 29.51], [-90.11, 29.51], [-90.09, 29.51], [-90.08, 29.51]]], [[[-89.14, 29.28], [-89.14, 29.27], [-89.13, 29.26], [-89.12, 29.25], [-89.13, 29.25], [-89.15, 29.25], [-89.17, 29.24], [-89.17, 29.23], [-89.2, 29.22], [-89.2, 29.22], [-89.18, 29.24], [-89.18, 29.24], [-89.16, 29.26], [-89.15, 29.27], [-89.14, 29.28]]], [[[-89.23, 29.14], [-89.22, 29.13], [-89.24, 29.12], [-89.23, 29.1], [-89.22, 29.08], [-89.2, 29.08], [-89.18, 29.05], [-89.18, 29.04], [-89.18, 29.03], [-89.19, 29.04], [-89.2, 29.06], [-89.21, 29.08], [-89.23, 29.09], [-89.24, 29.11], [-89.24, 29.14], [-89.23, 29.14]]], [[[-89.95, 29.26], [-89.96, 29.25], [-89.99, 29.23], [-90.03, 29.21], [-90.02, 29.23], [-90.01, 29.24], [-90.0, 29.24], [-89.98, 29.25], [-89.97, 29.26], [-89.96, 29.27], [-89.95, 29.26]]], [[[-90.06, 29.47], [-90.04, 29.48], [-90.02, 29.47], [-90.01, 29.46], [-90.01, 29.46], [-90.0, 29.44], [-90.02, 29.45], [-90.02, 29.46], [-90.03, 29.46], [-90.04, 29.47], [-90.05, 29.46], [-90.06, 29.47], [-90.06, 29.47]]], [[[-90.54, 29.09], [-90.53, 29.08], [-90.52, 29.08], [-90.5, 29.07], [-90.49, 29.07], [-90.47, 29.07], [-90.45, 29.07], [-90.46, 29.06], [-90.47, 29.06], [-90.51, 29.07], [-90.54, 29.09], [-90.54, 29.09]]], [[[-89.24, 29.13], [-89.24, 29.12], [-89.24, 29.1], [-89.25, 29.1], [-89.26, 29.12], [-89.25, 29.12], [-89.24, 29.13]]], [[[-89.18, 29.14], [-89.17, 29.14], [-89.18, 29.13], [-89.17, 29.12], [-89.19, 29.12], [-89.19, 29.13], [-89.2, 29.13], [-89.19, 29.14], [-89.18, 29.14]]], [[[-89.13, 29.25], [-89.14, 29.23], [-89.15, 29.23], [-89.16, 29.23], [-89.17, 29.23], [-89.16, 29.24], [-89.15, 29.24], [-89.13, 29.25]]], [[[-89.35, 29.01], [-89.39, 28.96], [-89.39, 28.98], [-89.37, 28.99], [-89.36, 29.0], [-89.35, 29.01]]], [[[-89.07, 29.18], [-89.09, 29.18], [-89.09, 29.15], [-89.1, 29.17], [-89.1, 29.18], [-89.07, 29.18]]], [[[-89.05, 29.12], [-89.05, 29.1], [-89.06, 29.1], [-89.06, 29.12], [-89.05, 29.12]]], [[[-90.64, 29.07], [-90.64, 29.07], [-90.65, 29.06], [-90.67, 29.06], [-90.67, 29.06], [-90.65, 29.06], [-90.64, 29.07]]], [[[-90.28, 29.08], [-90.28, 29.08], [-90.29, 29.07], [-90.32, 29.06], [-90.32, 29.07], [-90.29, 29.07], [-90.28, 29.08]]], [[[-90.96, 29.06], [-90.94, 29.05], [-90.93, 29.06], [-90.92, 29.05], [-90.95, 29.05], [-90.96, 29.06]]], [[[-89.11, 29.13], [-89.09, 29.13], [-89.09, 29.12], [-89.1, 29.12], [-89.11, 29.13]]], [[[-89.11, 29.17], [-89.11, 29.17], [-89.12, 29.15], [-89.13, 29.17], [-89.11, 29.17]]], [[[-88.86, 29.78], [-88.86, 29.77], [-88.86, 29.76], [-88.87, 29.77], [-88.86, 29.78]]], [[[-90.35, 29.13], [-90.34, 29.13], [-90.35, 29.12], [-90.35, 29.12], [-90.36, 29.13], [-90.35, 29.13]]], [[[-89.19, 29.12], [-89.19, 29.11], [-89.2, 29.12], [-89.21, 29.13], [-89.19, 29.12]]], [[[-89.04, 29.16], [-89.06, 29.16], [-89.05, 29.17], [-89.04, 29.16]]], [[[-89.03, 29.13], [-89.03, 29.13], [-89.04, 29.13], [-89.05, 29.12], [-89.06, 29.12], [-89.05, 29.13], [-89.04, 29.13], [-89.03, 29.13]]], [[[-90.84, 29.05], [-90.83, 29.04], [-90.84, 29.04], [-90.84, 29.05], [-90.84, 29.05]]], [[[-89.22, 29.12], [-89.22, 29.11], [-89.23, 29.11], [-89.23, 29.11], [-89.22, 29.12]]], [[[-89.23, 29.09], [-89.21, 29.07], [-89.22, 29.07], [-89.23, 29.08], [-89.23, 29.09]]], [[[-90.73, 29.06], [-90.72, 29.05], [-90.74, 29.05], [-90.73, 29.06]]], [[[-89.14, 29.16], [-89.13, 29.15], [-89.14, 29.15], [-89.15, 29.16], [-89.14, 29.16]]], [[[-90.51, 29.08], [-90.49, 29.07], [-90.49, 29.07], [-90.51, 29.08]]], [[[-89.14, 29.17], [-89.15, 29.15], [-89.15, 29.16], [-89.14, 29.17]]], [[[-90.87, 29.04], [-90.87, 29.04], [-90.9, 29.04], [-90.9, 29.05], [-90.88, 29.04], [-90.87, 29.04]]], [[[-90.15, 29.53], [-90.14, 29.53], [-90.14, 29.52], [-90.15, 29.52], [-90.15, 29.53], [-90.15, 29.53]]]]}}, {"type": "Feature", "properties": {"STATE": "Louisiana", "STATE_FIPS": "22", "CD_2DIG": "04", "STATE_CODE": 16, "CLIMDIV": 1604, "ID": 1604, "CD_NEW": 4, "FIPS_CD": "2204", "NCDC_GEO_I": 122.0, "NAME": "WEST CENTRAL", "ST_ABBRV": "LA", "SHAPE_AREA": 0.0, "SHAPE_LEN": 0.0}, "geometry": {"type": "Polygon", "coordinates": [[[-92.97, 31.71], [-92.96, 31.7], [-92.97, 31.69], [-92.96, 31.68], [-92.95, 31.68], [-92.93, 31.68], [-92.92, 31.67], [-92.9, 31.66], [-92.91, 31.64], [-92.91, 31.63], [-92.9, 31.62], [-92.88, 31.62], [-92.87, 31.62], [-92.84, 31.6], [-92.8, 31.6], [-92.79, 31.59], [-92.79, 31.58], [-92.77, 31.57], [-92.76, 31.56], [-92.76, 31.55], [-92.73, 31.53], [-92.72, 31.52], [-92.76, 31.49], [-92.76, 31.48], [-92.78, 31.48], [-92.79, 31.47], [-92.79, 31.46], [-92.8, 31.46], [-92.81, 31.46], [-92.81, 31.44], [-92.83, 31.44], [-92.83, 31.43], [-92.85, 31.43], [-92.85, 31.42], [-92.87, 31.42], [-92.87, 31.4], [-92.89, 31.4], [-92.89, 31.39], [-92.91, 31.39], [-92.91, 31.37], [-92.95, 31.37], [-92.95, 31.35], [-92.98, 31.35], [-92.98, 31.34], [-92.96, 31.34], [-92.96, 31.33], [-92.93, 31.33], [-92.93, 31.32], [-92.9, 31.32], [-92.9, 31.32], [-92.88, 31.32], [-92.88, 31.29], [-92.86, 31.29], [-92.86, 31.27], [-92.85, 31.27], [-92.85, 31.25], [-92.83, 31.25], [-92.83, 31.1], [-92.83, 31.01], [-92.82, 31.01], [-92.82, 30.97], [-92.82, 30.89], [-92.82, 30.88], [-92.86, 30.88], [-92.88, 30.88], [-92.93, 30.88], [-93.0, 30.88], [-93.13, 30.88], [-93.13, 30.88], [-93.21, 30.88], [-93.3, 30.88], [-93.42, 30.88], [-93.44, 30.88], [-93.46, 30.87], [-93.47, 30.86], [-93.48, 30.86], [-93.49, 30.87], [-93.51, 30.87], [-93.52, 30.88], [-93.54, 30.88], [-93.55, 30.88], [-93.56, 30.87], [-93.57, 30.88], [-93.57, 30.88], [-93.57, 30.89], [-93.55, 30.9], [-93.55, 30.91], [-93.56, 30.91], [-93.55, 30.93], [-93.54, 30.92], [-93.53, 30.93], [-93.53, 30.94], [-93.53, 30.95], [-93.53, 30.96], [-93.54, 30.96], [-93.55, 30.96], [-93.56, 30.97], [-93.57, 30.97], [-93.57, 30.99], [-93.57, 30.99], [-93.58, 31.0], [-93.57, 31.01], [-93.56, 31.0], [-93.55, 31.01], [-93.54, 31.01], [-93.53, 31.02], [-93.52, 31.02], [-93.51, 31.03], [-93.52, 31.04], [-93.53, 31.06], [-93.52, 31.06], [-93.52, 31.07], [-93.53, 31.07], [-93.55, 31.08], [-93.55, 31.09], [-93.56, 31.09], [-93.55, 31.1], [-93.55, 31.11], [-93.54, 31.12], [-93.54, 31.13], [-93.54, 31.14], [-93.55, 31.16], [-93.54, 31.16], [-93.54, 31.17], [-93.53, 31.18], [-93.53, 31.19], [-93.55, 31.19], [-93.57, 31.18], [-93.58, 31.17], [-93.59, 31.17], [-93.6, 31.18], [-93.6, 31.2], [-93.61, 31.2], [-93.6, 31.22], [-93.61, 31.23], [-93.62, 31.23], [-93.61, 31.26], [-93.62, 31.27], [-93.64, 31.27], [-93.65, 31.28], [-93.66, 31.28], [-93.67, 31.3], [-93.68, 31.3], [-93.69, 31.31], [-93.68, 31.32], [-93.67, 31.32], [-93.68, 31.33], [-93.67, 31.34], [-93.67, 31.35], [-93.65, 31.36], [-93.64, 31.37], [-93.67, 31.37], [-93.67, 31.39], [-93.67, 31.4], [-93.68, 31.4], [-93.69, 31.41], [-93.7, 31.41], [-93.7, 31.42], [-93.69, 31.44], [-93.71, 31.44], [-93.7, 31.45], [-93.72, 31.46], [-93.72, 31.45], [-93.75, 31.47], [-93.74, 31.48], [-93.72, 31.49], [-93.72, 31.51], [-93.71, 31.51], [-93.74, 31.51], [-93.74, 31.53], [-93.75, 31.53], [-93.76, 31.52], [-93.79, 31.53], [-93.8, 31.54], [-93.8, 31.54], [-93.82, 31.56], [-93.82, 31.57], [-93.83, 31.59], [-93.84, 31.6], [-93.83, 31.62], [-93.82, 31.62], [-93.82, 31.63], [-93.82, 31.64], [-93.82, 31.65], [-93.83, 31.66], [-93.82, 31.67], [-93.81, 31.68], [-93.79, 31.7], [-93.81, 31.7], [-93.81, 31.71], [-93.82, 31.73], [-93.82, 31.73], [-93.84, 31.75], [-93.83, 31.75], [-93.82, 31.77], [-93.84, 31.79], [-93.84, 31.8], [-93.85, 31.81], [-93.87, 31.82], [-93.87, 31.84], [-93.88, 31.84], [-93.75, 31.84], [-93.63, 31.85], [-93.44, 31.85], [-93.44, 31.88], [-93.44, 31.9], [-93.44, 31.91], [-93.44, 31.91], [-93.43, 31.92], [-93.42, 31.93], [-93.41, 31.92], [-93.4, 31.92], [-93.38, 31.93], [-93.35, 31.93], [-93.36, 31.92], [-93.35, 31.92], [-93.35, 31.9], [-93.34, 31.9], [-93.32, 31.89], [-93.3, 31.9], [-93.29, 31.89], [-93.28, 31.89], [-93.27, 31.9], [-93.25, 31.91], [-93.25, 31.91], [-93.24, 31.9], [-93.24, 31.97], [-93.13, 31.97], [-93.13, 31.99], [-93.15, 32.0], [-93.16, 32.01], [-93.16, 32.03], [-93.14, 32.04], [-93.14, 32.06], [-93.14, 32.07], [-93.16, 32.08], [-93.16, 32.09], [-93.15, 32.11], [-93.16, 32.11], [-93.17, 32.13], [-93.17, 32.13], [-93.19, 32.15], [-93.13, 32.15], [-93.0, 32.15], [-92.94, 32.15], [-92.93, 32.14], [-92.93, 32.13], [-92.92, 32.11], [-92.91, 32.1], [-92.9, 32.09], [-92.91, 32.08], [-92.91, 32.07], [-92.9, 32.07], [-92.9, 32.06], [-92.9, 32.05], [-92.89, 32.04], [-92.89, 32.03], [-92.89, 32.01], [-92.89, 32.0], [-92.9, 31.99], [-92.9, 31.99], [-92.89, 31.99], [-92.88, 31.98], [-92.89, 31.96], [-92.87, 31.95], [-92.88, 31.94], [-92.89, 31.92], [-92.89, 31.9], [-92.9, 31.89], [-92.9, 31.88], [-92.91, 31.87], [-92.9, 31.86], [-92.91, 31.85], [-92.93, 31.85], [-92.94, 31.85], [-92.95, 31.85], [-92.94, 31.83], [-92.95, 31.83], [-92.95, 31.81], [-92.95, 31.8], [-92.95, 31.8], [-92.95, 31.79], [-92.96, 31.78], [-92.97, 31.78], [-92.97, 31.76], [-92.97, 31.75], [-92.97, 31.75], [-92.97, 31.73], [-92.98, 31.71], [-92.97, 31.71]]]}}, {"type": "Feature", "properties": {"STATE": "Louisiana", "STATE_FIPS": "22", "CD_2DIG": "08", "STATE_CODE": 16, "CLIMDIV": 1608, "ID": 1608, "CD_NEW": 8, "FIPS_CD": "2208", "NCDC_GEO_I": 126.0, "NAME": "SOUTH CENTRAL", "ST_ABBRV": "LA", "SHAPE_AREA": 0.0, "SHAPE_LEN": 0.0}, "geometry": {"type": "MultiPolygon", "coordinates": [[[[-91.02, 30.32], [-91.02, 30.32], [-91.06, 30.21], [-91.07, 30.18], [-91.07, 30.16], [-91.09, 30.15], [-91.09, 30.11], [-91.11, 30.11], [-91.11, 30.06], [-91.09, 30.06], [-91.09, 30.08], [-91.08, 30.08], [-91.07, 30.08], [-91.06, 30.07], [-91.01, 30.08], [-90.98, 30.06], [-90.97, 30.07], [-90.96, 30.04], [-90.96, 30.04], [-90.96, 29.98], [-90.93, 29.98], [-90.93, 29.94], [-90.89, 29.94], [-90.89, 29.88], [-90.91, 29.88], [-90.92, 29.83], [-90.95, 29.79], [-90.98, 29.74], [-91.04, 29.68], [-91.08, 29.63], [-91.1, 29.62], [-91.1, 29.62], [-91.12, 29.62], [-91.12, 29.61], [-91.14, 29.61], [-91.14, 29.6], [-91.15, 29.6], [-91.16, 29.59], [-91.17, 29.6], [-91.18, 29.61], [-91.2, 29.6], [-91.21, 29.59], [-91.23, 29.58], [-91.23, 29.56], [-91.24, 29.55], [-91.26, 29.55], [-91.26, 29.55], [-91.27, 29.55], [-91.29, 29.54], [-91.29, 29.53], [-91.27, 29.51], [-91.28, 29.5], [-91.28, 29.49], [-91.29, 29.48], [-91.3, 29.48], [-91.33, 29.48], [-91.34, 29.49], [-91.35, 29.5], [-91.35, 29.5], [-91.36, 29.52], [-91.4, 29.51], [-91.42, 29.52], [-91.43, 29.52], [-91.43, 29.53], [-91.41, 29.53], [-91.41, 29.55], [-91.41, 29.55], [-91.42, 29.55], [-91.43, 29.54], [-91.45, 29.54], [-91.47, 29.54], [-91.5, 29.54], [-91.51, 29.53], [-91.53, 29.53], [-91.55, 29.52], [-91.53, 29.55], [-91.53, 29.56], [-91.54, 29.57], [-91.54, 29.58], [-91.55, 29.61], [-91.55, 29.63], [-91.57, 29.64], [-91.58, 29.64], [-91.6, 29.63], [-91.63, 29.63], [-91.65, 29.63], [-91.65, 29.64], [-91.64, 29.64], [-91.64, 29.65], [-91.63, 29.66], [-91.63, 29.67], [-91.63, 29.68], [-91.62, 29.71], [-91.62, 29.74], [-91.63, 29.74], [-91.67, 29.75], [-91.72, 29.74], [-91.74, 29.75], [-91.75, 29.75], [-91.78, 29.74], [-91.81, 29.73], [-91.82, 29.72], [-91.83, 29.72], [-91.84, 29.71], [-91.86, 29.7], [-91.86, 29.71], [-91.88, 29.72], [-91.87, 29.72], [-91.86, 29.73], [-91.86, 29.74], [-91.88, 29.75], [-91.88, 29.76], [-91.86, 29.79], [-91.83, 29.78], [-91.83, 29.78], [-91.82, 29.8], [-91.83, 29.83], [-91.85, 29.83], [-91.86, 29.83], [-91.88, 29.84], [-91.89, 29.84], [-91.91, 29.83], [-91.92, 29.82], [-91.94, 29.81], [-91.95, 29.82], [-91.96, 29.83], [-91.97, 29.83], [-91.99, 29.97], [-91.99, 29.98], [-91.98, 29.99], [-91.97, 30.03], [-92.06, 30.07], [-92.07, 30.09], [-92.08, 30.1], [-92.09, 30.12], [-92.09, 30.13], [-92.13, 30.12], [-92.21, 30.14], [-92.23, 30.14], [-92.24, 30.14], [-92.26, 30.14], [-92.26, 30.14], [-92.28, 30.14], [-92.28, 30.15], [-92.26, 30.16], [-92.25, 30.18], [-92.25, 30.2], [-92.24, 30.22], [-92.22, 30.22], [-92.21, 30.23], [-92.21, 30.24], [-92.18, 30.24], [-92.18, 30.27], [-92.16, 30.27], [-92.16, 30.28], [-92.14, 30.28], [-92.14, 30.3], [-92.09, 30.33], [-92.09, 30.34], [-92.08, 30.36], [-92.07, 30.37], [-92.06, 30.38], [-92.04, 30.38], [-92.03, 30.36], [-92.03, 30.36], [-92.02, 30.37], [-92.0, 30.36], [-91.99, 30.37], [-91.98, 30.38], [-91.98, 30.39], [-91.98, 30.41], [-91.97, 30.41], [-91.96, 30.4], [-91.94, 30.4], [-91.93, 30.4], [-91.87, 30.42], [-91.85, 30.41], [-91.85, 30.41], [-91.84, 30.41], [-91.82, 30.4], [-91.81, 30.39], [-91.73, 30.39], [-91.68, 30.39], [-91.69, 30.4], [-91.7, 30.41], [-91.71, 30.43], [-91.72, 30.45], [-91.72, 30.45], [-91.74, 30.45], [-91.74, 30.46], [-91.74, 30.47], [-91.75, 30.49], [-91.76, 30.5], [-91.58, 30.5], [-91.58, 30.48], [-91.56, 30.48], [-91.56, 30.49], [-91.53, 30.5], [-91.49, 30.5], [-91.46, 30.47], [-91.45, 30.47], [-91.41, 30.43], [-91.39, 30.41], [-91.39, 30.4], [-91.36, 30.38], [-91.34, 30.35], [-91.32, 30.34], [-91.31, 30.32], [-91.23, 30.32], [-91.14, 30.32], [-91.13, 30.31], [-91.12, 30.31], [-91.1, 30.32], [-91.06, 30.32], [-91.05, 30.32], [-91.03, 30.32], [-91.02, 30.32]]], [[[-91.9, 29.64], [-91.9, 29.64], [-91.88, 29.63], [-91.86, 29.63], [-91.86, 29.63], [-91.84, 29.62], [-91.83, 29.61], [-91.81, 29.6], [-91.8, 29.59], [-91.78, 29.59], [-91.77, 29.59], [-91.77, 29.58], [-91.75, 29.57], [-91.74, 29.58], [-91.74, 29.57], [-91.7, 29.57], [-91.7, 29.57], [-91.71, 29.55], [-91.73, 29.54], [-91.75, 29.54], [-91.77, 29.52], [-91.77, 29.5], [-91.77, 29.49], [-91.79, 29.48], [-91.8, 29.49], [-91.81, 29.48], [-91.82, 29.47], [-91.83, 29.48], [-91.85, 29.48], [-91.85, 29.49], [-91.86, 29.5], [-91.88, 29.5], [-91.89, 29.51], [-91.91, 29.52], [-91.92, 29.52], [-91.93, 29.53], [-91.96, 29.54], [-91.97, 29.53], [-91.97, 29.54], [-91.98, 29.55], [-92.03, 29.57], [-92.03, 29.58], [-92.02, 29.58], [-92.02, 29.59], [-92.01, 29.59], [-92.01, 29.6], [-91.98, 29.62], [-91.97, 29.61], [-91.95, 29.61], [-91.93, 29.61], [-91.93, 29.62], [-91.93, 29.63], [-91.92, 29.63], [-91.9, 29.64]]]]}}]}