{"type": "FeatureCollection", "features": [{"type": "Feature", "properties": {"STATE": "Maine", "STATE_FIPS": "23", "CD_2DIG": "01", "STATE_CODE": 17, "CLIMDIV": 1701, "ID": 1701, "CD_NEW": 1, "FIPS_CD": "2301", "NCDC_GEO_I": 263.0, "NAME": "NORTHERN", "ST_ABBRV": "ME", "SHAPE_AREA": 0.0, "SHAPE_LEN": 0.0}, "geometry": {"type": "Polygon", "coordinates": [[[-67.81, 45.68], [-67.81, 45.68], [-68.31, 45.56], [-68.62, 45.47], [-68.88, 45.41], [-69.21, 45.3], [-69.45, 45.18], [-69.77, 45.06], [-70.11, 44.85], [-70.2, 44.8], [-70.54, 44.53], [-70.79, 44.36], [-71.01, 44.3], [-71.01, 44.3], [-71.01, 44.3], [-71.01, 44.34], [-71.02, 44.43], [-71.03, 44.56], [-71.03, 44.66], [-71.04, 44.76], [-71.04, 44.85], [-71.05, 44.93], [-71.06, 45.0], [-71.06, 45.0], [-71.07, 45.14], [-71.07, 45.18], [-71.08, 45.25], [-71.08, 45.31], [-71.06, 45.31], [-71.03, 45.31], [-71.01, 45.32], [-71.0, 45.33], [-71.01, 45.33], [-71.01, 45.34], [-71.0, 45.35], [-70.99, 45.33], [-70.97, 45.33], [-70.95, 45.34], [-70.94, 45.32], [-70.92, 45.31], [-70.91, 45.29], [-70.92, 45.28], [-70.91, 45.27], [-70.9, 45.25], [-70.9, 45.24], [-70.89, 45.23], [-70.86, 45.23], [-70.84, 45.23], [-70.85, 45.24], [-70.85, 45.26], [-70.84, 45.27], [-70.83, 45.28], [-70.83, 45.29], [-70.84, 45.29], [-70.81, 45.3], [-70.81, 45.32], [-70.82, 45.33], [-70.82, 45.34], [-70.81, 45.35], [-70.8, 45.37], [-70.81, 45.38], [-70.83, 45.4], [-70.8, 45.42], [-70.8, 45.43], [-70.78, 45.43], [-70.76, 45.43], [-70.76, 45.43], [-70.74, 45.42], [-70.74, 45.41], [-70.73, 45.4], [-70.73, 45.4], [-70.71, 45.39], [-70.7, 45.39], [-70.68, 45.39], [-70.66, 45.39], [-70.66, 45.38], [-70.65, 45.38], [-70.63, 45.38], [-70.64, 45.39], [-70.62, 45.41], [-70.63, 45.42], [-70.63, 45.43], [-70.64, 45.43], [-70.65, 45.45], [-70.68, 45.45], [-70.68, 45.46], [-70.69, 45.46], [-70.69, 45.47], [-70.71, 45.48], [-70.72, 45.49], [-70.71, 45.5], [-70.72, 45.51], [-70.72, 45.52], [-70.71, 45.52], [-70.7, 45.54], [-70.68, 45.55], [-70.69, 45.56], [-70.67, 45.58], [-70.66, 45.59], [-70.64, 45.61], [-70.62, 45.61], [-70.61, 45.63], [-70.59, 45.63], [-70.58, 45.64], [-70.57, 45.65], [-70.56, 45.67], [-70.53, 45.67], [-70.49, 45.69], [-70.48, 45.69], [-70.47, 45.71], [-70.44, 45.7], [-70.43, 45.71], [-70.4, 45.72], [-70.4, 45.73], [-70.39, 45.74], [-70.39, 45.74], [-70.39, 45.75], [-70.41, 45.76], [-70.41, 45.78], [-70.42, 45.8], [-70.4, 45.8], [-70.4, 45.81], [-70.39, 45.82], [-70.36, 45.84], [-70.34, 45.85], [-70.31, 45.86], [-70.28, 45.87], [-70.27, 45.88], [-70.27, 45.89], [-70.25, 45.9], [-70.26, 45.91], [-70.26, 45.92], [-70.26, 45.92], [-70.24, 45.94], [-70.24, 45.94], [-70.25, 45.96], [-70.27, 45.96], [-70.31, 45.96], [-70.31, 45.97], [-70.31, 45.98], [-70.3, 45.99], [-70.29, 45.99], [-70.3, 46.0], [-70.31, 46.01], [-70.32, 46.02], [-70.31, 46.03], [-70.3, 46.04], [-70.28, 46.05], [-70.28, 46.06], [-70.31, 46.06], [-70.3, 46.08], [-70.29, 46.09], [-70.28, 46.1], [-70.25, 46.1], [-70.25, 46.11], [-70.24, 46.13], [-70.24, 46.15], [-70.24, 46.15], [-70.26, 46.17], [-70.29, 46.19], [-70.29, 46.19], [-70.27, 46.21], [-70.27, 46.23], [-70.25, 46.25], [-70.25, 46.26], [-70.24, 46.27], [-70.23, 46.29], [-70.21, 46.3], [-70.21, 46.33], [-70.2, 46.34], [-70.19, 46.35], [-70.17, 46.36], [-70.15, 46.36], [-70.14, 46.37], [-70.13, 46.37], [-70.13, 46.38], [-70.11, 46.39], [-70.09, 46.41], [-70.08, 46.41], [-70.06, 46.41], [-70.06, 46.42], [-70.03, 46.56], [-70.02, 46.6], [-70.0, 46.69], [-69.99, 46.7], [-69.87, 46.82], [-69.82, 46.88], [-69.66, 47.03], [-69.57, 47.13], [-69.46, 47.23], [-69.32, 47.36], [-69.22, 47.46], [-69.2, 47.45], [-69.18, 47.46], [-69.16, 47.45], [-69.15, 47.45], [-69.12, 47.44], [-69.1, 47.43], [-69.08, 47.42], [-69.07, 47.43], [-69.06, 47.43], [-69.04, 47.43], [-69.03, 47.41], [-69.05, 47.39], [-69.04, 47.39], [-69.05, 47.38], [-69.05, 47.34], [-69.05, 47.32], [-69.05, 47.31], [-69.05, 47.3], [-69.05, 47.27], [-69.05, 47.26], [-69.03, 47.24], [-69.02, 47.24], [-68.97, 47.21], [-68.96, 47.21], [-68.94, 47.21], [-68.92, 47.2], [-68.92, 47.19], [-68.9, 47.18], [-68.88, 47.18], [-68.87, 47.19], [-68.86, 47.19], [-68.85, 47.2], [-68.81, 47.22], [-68.78, 47.22], [-68.77, 47.22], [-68.75, 47.23], [-68.74, 47.24], [-68.72, 47.24], [-68.7, 47.24], [-68.69, 47.24], [-68.66, 47.24], [-68.64, 47.24], [-68.62, 47.24], [-68.61, 47.25], [-68.59, 47.26], [-68.6, 47.27], [-68.59, 47.28], [-68.58, 47.29], [-68.56, 47.28], [-68.54, 47.29], [-68.52, 47.3], [-68.49, 47.29], [-68.48, 47.3], [-68.47, 47.29], [-68.46, 47.29], [-68.43, 47.28], [-68.41, 47.29], [-68.38, 47.29], [-68.38, 47.29], [-68.38, 47.3], [-68.38, 47.31], [-68.38, 47.32], [-68.38, 47.34], [-68.36, 47.36], [-68.33, 47.36], [-68.3, 47.36], [-68.28, 47.36], [-68.27, 47.35], [-68.23, 47.36], [-68.21, 47.34], [-68.2, 47.34], [-68.18, 47.33], [-68.15, 47.32], [-68.15, 47.31], [-68.14, 47.3], [-68.12, 47.29], [-68.08, 47.27], [-68.08, 47.26], [-68.06, 47.26], [-68.02, 47.24], [-67.99, 47.21], [-67.97, 47.21], [-67.95, 47.2], [-67.95, 47.18], [-67.93, 47.15], [-67.91, 47.15], [-67.89, 47.12], [-67.89, 47.11], [-67.83, 47.09], [-67.82, 47.08], [-67.81, 47.08], [-67.79, 47.07], [-67.79, 47.03], [-67.79, 47.0], [-67.79, 46.91], [-67.79, 46.79], [-67.79, 46.75], [-67.79, 46.6], [-67.79, 46.5], [-67.78, 46.31], [-67.78, 46.2], [-67.78, 46.0], [-67.78, 45.94], [-67.78, 45.93], [-67.76, 45.93], [-67.75, 45.91], [-67.77, 45.91], [-67.77, 45.9], [-67.79, 45.89], [-67.8, 45.88], [-67.8, 45.87], [-67.79, 45.85], [-67.77, 45.84], [-67.76, 45.83], [-67.77, 45.82], [-67.78, 45.82], [-67.8, 45.8], [-67.81, 45.79], [-67.8, 45.78], [-67.81, 45.77], [-67.81, 45.76], [-67.79, 45.75], [-67.78, 45.73], [-67.81, 45.73], [-67.8, 45.7], [-67.82, 45.69], [-67.81, 45.68]]]}}, {"type": "Feature", "properties": {"STATE": "Maine", "STATE_FIPS": "23", "CD_2DIG": "02", "STATE_CODE": 17, "CLIMDIV": 1702, "ID": 1702, "CD_NEW": 2, "FIPS_CD": "2302", "NCDC_GEO_I": 264.0, "NAME": "SOUTHERN INTERIOR", "ST_ABBRV": "ME", "SHAPE_AREA": 0.0, "SHAPE_LEN": 0.0}, "geometry": {"type": "Polygon", "coordinates": [[[-67.16, 45.16], [-67.33, 45.02], [-67.5, 44.92], [-67.93, 44.79], [-68.11, 44.73], [-68.32, 44.68], [-68.54, 44.62], [-68.79, 44.55], [-68.8, 44.55], [-69.0, 44.51], [-69.21, 44.45], [-69.71, 44.21], [-69.96, 44.07], [-70.28, 43.9], [-70.5, 43.66], [-70.78, 43.51], [-70.99, 43.38], [-70.99, 43.38], [-70.99, 43.41], [-70.98, 43.42], [-70.97, 43.43], [-70.96, 43.44], [-70.97, 43.45], [-70.96, 43.47], [-70.97, 43.49], [-70.96, 43.5], [-70.95, 43.52], [-70.96, 43.54], [-70.95, 43.55], [-70.96, 43.56], [-70.97, 43.57], [-70.98, 43.63], [-70.98, 43.7], [-70.98, 43.75], [-70.99, 43.79], [-70.99, 43.85], [-70.99, 43.92], [-71.0, 44.13], [-71.01, 44.3], [-70.79, 44.36], [-70.54, 44.53], [-70.2, 44.8], [-69.77, 45.06], [-69.45, 45.18], [-69.21, 45.3], [-68.88, 45.41], [-68.62, 45.47], [-68.31, 45.56], [-67.81, 45.68], [-67.81, 45.68], [-67.8, 45.68], [-67.77, 45.68], [-67.75, 45.67], [-67.75, 45.67], [-67.73, 45.66], [-67.72, 45.67], [-67.73, 45.68], [-67.73, 45.69], [-67.71, 45.68], [-67.7, 45.67], [-67.69, 45.65], [-67.68, 45.63], [-67.65, 45.61], [-67.63, 45.62], [-67.61, 45.61], [-67.59, 45.61], [-67.58, 45.6], [-67.56, 45.6], [-67.55, 45.6], [-67.52, 45.59], [-67.5, 45.59], [-67.49, 45.59], [-67.49, 45.6], [-67.46, 45.6], [-67.43, 45.58], [-67.42, 45.57], [-67.43, 45.57], [-67.42, 45.55], [-67.43, 45.54], [-67.44, 45.53], [-67.43, 45.52], [-67.42, 45.51], [-67.43, 45.5], [-67.45, 45.51], [-67.45, 45.5], [-67.46, 45.51], [-67.47, 45.5], [-67.49, 45.49], [-67.5, 45.49], [-67.5, 45.48], [-67.49, 45.47], [-67.48, 45.46], [-67.48, 45.45], [-67.47, 45.42], [-67.46, 45.42], [-67.43, 45.39], [-67.42, 45.38], [-67.43, 45.37], [-67.43, 45.36], [-67.43, 45.36], [-67.43, 45.34], [-67.45, 45.33], [-67.45, 45.33], [-67.45, 45.31], [-67.47, 45.29], [-67.48, 45.29], [-67.49, 45.28], [-67.48, 45.28], [-67.47, 45.26], [-67.46, 45.24], [-67.45, 45.24], [-67.44, 45.22], [-67.43, 45.2], [-67.43, 45.19], [-67.42, 45.19], [-67.41, 45.18], [-67.4, 45.18], [-67.4, 45.17], [-67.4, 45.16], [-67.38, 45.15], [-67.37, 45.14], [-67.35, 45.13], [-67.34, 45.13], [-67.32, 45.13], [-67.32, 45.14], [-67.3, 45.15], [-67.3, 45.16], [-67.3, 45.17], [-67.29, 45.19], [-67.28, 45.19], [-67.27, 45.19], [-67.25, 45.18], [-67.24, 45.17], [-67.23, 45.16], [-67.22, 45.16], [-67.21, 45.17], [-67.18, 45.16], [-67.16, 45.16]]]}}, {"type": "Feature", "properties": {"STATE": "Maine", "STATE_FIPS": "23", "CD_2DIG": "03", "STATE_CODE": 17, "CLIMDIV": 1703, "ID": 1703, "CD_NEW": 3, "FIPS_CD": "2303", "NCDC_GEO_I": 265.0, "NAME": "COASTAL", "ST_ABBRV": "ME", "SHAPE_AREA": 0.0, "SHAPE_LEN": 0.0}, "geometry": {"type": "MultiPolygon", "coordinates": [[[[-70.83, 43.17], [-70.83, 43.19], [-70.82, 43.19], [-70.82, 43.21], [-70.81, 43.22], [-70.82, 43.24], [-70.84, 43.24], [-70.84, 43.25], [-70.86, 43.26], [-70.86, 43.27], [-70.88, 43.27], [-70.89, 43.28], [-70.9, 43.29], [-70.92, 43.32], [-70.93, 43.33], [-70.93, 43.34], [-70.96, 43.33], [-70.98, 43.36], [-70.97, 43.36], [-70.99, 43.38], [-70.99, 43.38], [-70.78, 43.51], [-70.5, 43.66], [-70.28, 43.9], [-69.96, 44.07], [-69.71, 44.21], [-69.21, 44.45], [-69.0, 44.51], [-68.81, 44.55], [-68.81, 44.54], [-68.81, 44.53], [-68.81, 44.51], [-68.81, 44.5], [-68.83, 44.49], [-68.84, 44.48], [-68.82, 44.47], [-68.84, 44.45], [-68.86, 44.44], [-68.86, 44.45], [-68.85, 44.48], [-68.86, 44.48], [-68.88, 44.46], [-68.87, 44.45], [-68.87, 44.44], [-68.88, 44.43], [-68.89, 44.43], [-68.89, 44.44], [-68.88, 44.46], [-68.88, 44.46], [-68.9, 44.46], [-68.9, 44.45], [-68.91, 44.45], [-68.92, 44.46], [-68.93, 44.44], [-68.96, 44.43], [-68.99, 44.43], [-69.0, 44.42], [-68.98, 44.4], [-68.99, 44.39], [-68.97, 44.38], [-68.96, 44.37], [-68.95, 44.36], [-68.95, 44.32], [-68.96, 44.31], [-68.98, 44.29], [-68.99, 44.3], [-69.0, 44.29], [-69.01, 44.28], [-69.0, 44.27], [-69.02, 44.26], [-69.03, 44.25], [-69.04, 44.23], [-69.04, 44.22], [-69.05, 44.22], [-69.06, 44.21], [-69.05, 44.2], [-69.06, 44.17], [-69.07, 44.18], [-69.08, 44.16], [-69.08, 44.13], [-69.08, 44.12], [-69.09, 44.12], [-69.1, 44.12], [-69.11, 44.09], [-69.1, 44.08], [-69.08, 44.09], [-69.05, 44.09], [-69.05, 44.08], [-69.06, 44.07], [-69.07, 44.07], [-69.08, 44.05], [-69.07, 44.05], [-69.08, 44.04], [-69.11, 44.04], [-69.13, 44.02], [-69.13, 44.01], [-69.14, 44.0], [-69.14, 43.99], [-69.15, 44.0], [-69.16, 44.0], [-69.18, 44.0], [-69.18, 43.98], [-69.19, 43.98], [-69.2, 43.96], [-69.19, 43.96], [-69.21, 43.93], [-69.22, 43.94], [-69.24, 43.93], [-69.24, 43.92], [-69.25, 43.92], [-69.26, 43.93], [-69.27, 43.93], [-69.27, 43.94], [-69.28, 43.95], [-69.26, 43.98], [-69.25, 43.99], [-69.23, 43.98], [-69.23, 44.0], [-69.19, 44.04], [-69.18, 44.05], [-69.17, 44.06], [-69.16, 44.07], [-69.17, 44.07], [-69.19, 44.06], [-69.19, 44.05], [-69.21, 44.04], [-69.21, 44.03], [-69.22, 44.01], [-69.24, 44.01], [-69.25, 44.0], [-69.25, 43.99], [-69.26, 43.98], [-69.27, 43.98], [-69.28, 43.99], [-69.28, 43.98], [-69.28, 43.97], [-69.29, 43.96], [-69.3, 43.96], [-69.31, 43.97], [-69.3, 43.98], [-69.29, 44.0], [-69.3, 44.0], [-69.32, 43.99], [-69.32, 43.97], [-69.35, 43.98], [-69.36, 43.98], [-69.37, 43.99], [-69.36, 44.0], [-69.35, 44.02], [-69.37, 44.02], [-69.36, 44.03], [-69.34, 44.04], [-69.35, 44.05], [-69.35, 44.06], [-69.37, 44.07], [-69.38, 44.07], [-69.39, 44.07], [-69.38, 44.06], [-69.37, 44.05], [-69.38, 44.03], [-69.38, 44.03], [-69.39, 44.04], [-69.41, 44.03], [-69.41, 44.02], [-69.4, 44.02], [-69.39, 44.01], [-69.41, 43.99], [-69.43, 43.99], [-69.44, 43.98], [-69.45, 43.95], [-69.45, 43.94], [-69.45, 43.93], [-69.46, 43.9], [-69.47, 43.89], [-69.48, 43.88], [-69.48, 43.87], [-69.5, 43.85], [-69.5, 43.84], [-69.51, 43.84], [-69.52, 43.87], [-69.52, 43.88], [-69.54, 43.88], [-69.54, 43.9], [-69.53, 43.91], [-69.55, 43.91], [-69.56, 43.9], [-69.55, 43.86], [-69.57, 43.86], [-69.58, 43.83], [-69.59, 43.81], [-69.6, 43.81], [-69.6, 43.83], [-69.59, 43.83], [-69.59, 43.84], [-69.59, 43.86], [-69.6, 43.86], [-69.61, 43.85], [-69.62, 43.85], [-69.61, 43.84], [-69.62, 43.83], [-69.63, 43.84], [-69.62, 43.85], [-69.64, 43.85], [-69.65, 43.84], [-69.66, 43.85], [-69.67, 43.87], [-69.68, 43.87], [-69.69, 43.89], [-69.7, 43.89], [-69.7, 43.87], [-69.71, 43.86], [-69.72, 43.85], [-69.71, 43.83], [-69.72, 43.81], [-69.72, 43.79], [-69.73, 43.77], [-69.76, 43.77], [-69.76, 43.76], [-69.78, 43.76], [-69.78, 43.75], [-69.78, 43.74], [-69.79, 43.74], [-69.79, 43.73], [-69.81, 43.73], [-69.84, 43.72], [-69.83, 43.71], [-69.84, 43.71], [-69.85, 43.7], [-69.86, 43.73], [-69.85, 43.74], [-69.86, 43.74], [-69.86, 43.76], [-69.88, 43.8], [-69.87, 43.81], [-69.86, 43.82], [-69.85, 43.83], [-69.87, 43.83], [-69.87, 43.84], [-69.87, 43.85], [-69.87, 43.86], [-69.88, 43.87], [-69.89, 43.87], [-69.89, 43.88], [-69.89, 43.89], [-69.9, 43.87], [-69.91, 43.87], [-69.93, 43.85], [-69.93, 43.86], [-69.94, 43.85], [-69.94, 43.84], [-69.95, 43.84], [-69.95, 43.83], [-69.96, 43.81], [-69.98, 43.8], [-69.97, 43.8], [-69.99, 43.78], [-70.01, 43.76], [-70.0, 43.76], [-70.0, 43.75], [-70.01, 43.74], [-70.02, 43.75], [-70.03, 43.74], [-70.04, 43.75], [-70.03, 43.76], [-70.02, 43.77], [-70.02, 43.78], [-70.01, 43.78], [-70.0, 43.8], [-69.99, 43.81], [-69.98, 43.82], [-69.98, 43.83], [-69.95, 43.85], [-69.98, 43.85], [-70.02, 43.83], [-69.99, 43.86], [-70.0, 43.87], [-70.01, 43.86], [-70.02, 43.86], [-70.04, 43.84], [-70.05, 43.83], [-70.06, 43.82], [-70.08, 43.83], [-70.08, 43.82], [-70.09, 43.83], [-70.08, 43.84], [-70.1, 43.84], [-70.1, 43.83], [-70.11, 43.82], [-70.12, 43.81], [-70.11, 43.8], [-70.15, 43.8], [-70.14, 43.79], [-70.16, 43.77], [-70.17, 43.76], [-70.19, 43.77], [-70.2, 43.75], [-70.2, 43.74], [-70.22, 43.72], [-70.21, 43.71], [-70.22, 43.7], [-70.25, 43.7], [-70.24, 43.71], [-70.25, 43.71], [-70.26, 43.7], [-70.25, 43.68], [-70.27, 43.68], [-70.28, 43.67], [-70.27, 43.66], [-70.26, 43.67], [-70.25, 43.67], [-70.24, 43.66], [-70.26, 43.64], [-70.29, 43.64], [-70.28, 43.64], [-70.27, 43.64], [-70.25, 43.65], [-70.24, 43.66], [-70.22, 43.63], [-70.21, 43.62], [-70.22, 43.6], [-70.21, 43.59], [-70.2, 43.59], [-70.21, 43.58], [-70.2, 43.57], [-70.2, 43.56], [-70.22, 43.56], [-70.22, 43.56], [-70.23, 43.56], [-70.24, 43.55], [-70.27, 43.55], [-70.28, 43.56], [-70.3, 43.55], [-70.31, 43.54], [-70.33, 43.54], [-70.35, 43.54], [-70.36, 43.53], [-70.38, 43.5], [-70.38, 43.47], [-70.37, 43.45], [-70.37, 43.44], [-70.34, 43.45], [-70.34, 43.44], [-70.35, 43.44], [-70.37, 43.44], [-70.39, 43.42], [-70.39, 43.41], [-70.42, 43.4], [-70.43, 43.39], [-70.42, 43.38], [-70.43, 43.37], [-70.44, 43.36], [-70.44, 43.36], [-70.45, 43.35], [-70.47, 43.34], [-70.47, 43.35], [-70.5, 43.34], [-70.52, 43.34], [-70.54, 43.34], [-70.56, 43.31], [-70.57, 43.29], [-70.57, 43.29], [-70.58, 43.28], [-70.6, 43.25], [-70.59, 43.24], [-70.58, 43.22], [-70.59, 43.21], [-70.59, 43.19], [-70.61, 43.19], [-70.61, 43.17], [-70.62, 43.16], [-70.63, 43.15], [-70.62, 43.13], [-70.64, 43.13], [-70.63, 43.13], [-70.64, 43.11], [-70.65, 43.1], [-70.66, 43.09], [-70.67, 43.08], [-70.67, 43.07], [-70.69, 43.07], [-70.7, 43.08], [-70.71, 43.08], [-70.74, 43.09], [-70.75, 43.08], [-70.76, 43.09], [-70.78, 43.1], [-70.81, 43.12], [-70.83, 43.13], [-70.83, 43.15], [-70.83, 43.17]]], [[[-68.8, 44.55], [-68.79, 44.55], [-68.54, 44.62], [-68.32, 44.68], [-68.11, 44.73], [-67.93, 44.79], [-67.5, 44.92], [-67.33, 45.02], [-67.16, 45.16], [-67.16, 45.15], [-67.15, 45.13], [-67.13, 45.11], [-67.11, 45.09], [-67.11, 45.08], [-67.11, 45.06], [-67.12, 45.06], [-67.1, 45.04], [-67.1, 45.04], [-67.08, 45.03], [-67.07, 45.01], [-67.06, 44.99], [-67.05, 44.98], [-67.06, 44.97], [-67.05, 44.96], [-67.04, 44.96], [-67.03, 44.94], [-67.01, 44.94], [-67.01, 44.93], [-66.99, 44.92], [-66.98, 44.91], [-66.99, 44.9], [-67.0, 44.89], [-67.0, 44.9], [-67.0, 44.91], [-67.02, 44.91], [-67.01, 44.92], [-67.03, 44.93], [-67.04, 44.94], [-67.04, 44.95], [-67.05, 44.96], [-67.05, 44.94], [-67.06, 44.93], [-67.07, 44.93], [-67.08, 44.92], [-67.08, 44.92], [-67.1, 44.92], [-67.09, 44.93], [-67.1, 44.94], [-67.12, 44.94], [-67.13, 44.95], [-67.14, 44.95], [-67.13, 44.94], [-67.11, 44.93], [-67.11, 44.92], [-67.14, 44.93], [-67.14, 44.93], [-67.16, 44.93], [-67.14, 44.92], [-67.14, 44.92], [-67.11, 44.9], [-67.12, 44.9], [-67.13, 44.89], [-67.13, 44.88], [-67.15, 44.89], [-67.16, 44.91], [-67.17, 44.91], [-67.19, 44.91], [-67.21, 44.92], [-67.2, 44.91], [-67.18, 44.88], [-67.17, 44.88], [-67.16, 44.87], [-67.15, 44.85], [-67.15, 44.85], [-67.15, 44.84], [-67.15, 44.82], [-67.14, 44.81], [-67.14, 44.84], [-67.13, 44.83], [-67.14, 44.86], [-67.14, 44.87], [-67.12, 44.87], [-67.12, 44.85], [-67.1, 44.84], [-67.1, 44.85], [-67.11, 44.87], [-67.09, 44.87], [-67.11, 44.88], [-67.11, 44.89], [-67.1, 44.89], [-67.09, 44.88], [-67.08, 44.87], [-67.05, 44.86], [-67.05, 44.84], [-67.04, 44.84], [-67.03, 44.86], [-67.04, 44.86], [-67.04, 44.87], [-67.05, 44.88], [-67.05, 44.89], [-67.07, 44.9], [-67.06, 44.91], [-67.04, 44.9], [-67.03, 44.89], [-67.02, 44.88], [-67.01, 44.86], [-67.01, 44.84], [-67.0, 44.85], [-66.99, 44.86], [-66.98, 44.86], [-66.99, 44.85], [-67.0, 44.84], [-66.99, 44.84], [-66.99, 44.83], [-66.98, 44.81], [-66.97, 44.82], [-66.95, 44.82], [-66.96, 44.81], [-66.98, 44.81], [-66.99, 44.8], [-67.0, 44.79], [-67.01, 44.79], [-67.01, 44.78], [-67.02, 44.77], [-67.05, 44.77], [-67.06, 44.77], [-67.07, 44.75], [-67.07, 44.74], [-67.09, 44.74], [-67.11, 44.74], [-67.1, 44.73], [-67.1, 44.72], [-67.12, 44.71], [-67.12, 44.7], [-67.15, 44.68], [-67.16, 44.67], [-67.17, 44.66], [-67.19, 44.66], [-67.2, 44.65], [-67.19, 44.65], [-67.21, 44.64], [-67.23, 44.64], [-67.25, 44.65], [-67.24, 44.67], [-67.25, 44.67], [-67.26, 44.67], [-67.27, 44.66], [-67.27, 44.64], [-67.26, 44.64], [-67.26, 44.63], [-67.28, 44.62], [-67.29, 44.63], [-67.29, 44.65], [-67.31, 44.66], [-67.31, 44.67], [-67.31, 44.68], [-67.31, 44.69], [-67.3, 44.71], [-67.31, 44.71], [-67.33, 44.7], [-67.35, 44.7], [-67.37, 44.69], [-67.38, 44.69], [-67.39, 44.7], [-67.38, 44.71], [-67.4, 44.72], [-67.4, 44.69], [-67.39, 44.68], [-67.39, 44.68], [-67.39, 44.67], [-67.38, 44.67], [-67.38, 44.66], [-67.37, 44.65], [-67.38, 44.64], [-67.36, 44.63], [-67.38, 44.62], [-67.38, 44.63], [-67.39, 44.62], [-67.4, 44.6], [-67.41, 44.59], [-67.42, 44.6], [-67.42, 44.63], [-67.42, 44.64], [-67.44, 44.65], [-67.43, 44.67], [-67.45, 44.66], [-67.44, 44.65], [-67.45, 44.63], [-67.44, 44.61], [-67.44, 44.61], [-67.45, 44.61], [-67.46, 44.6], [-67.47, 44.61], [-67.47, 44.61], [-67.49, 44.61], [-67.5, 44.61], [-67.49, 44.63], [-67.51, 44.64], [-67.52, 44.63], [-67.53, 44.64], [-67.55, 44.65], [-67.56, 44.64], [-67.55, 44.62], [-67.57, 44.62], [-67.59, 44.62], [-67.59, 44.62], [-67.56, 44.61], [-67.56, 44.6], [-67.57, 44.58], [-67.58, 44.56], [-67.57, 44.55], [-67.56, 44.54], [-67.57, 44.53], [-67.58, 44.53], [-67.59, 44.54], [-67.6, 44.53], [-67.64, 44.53], [-67.64, 44.53], [-67.63, 44.55], [-67.64, 44.56], [-67.65, 44.57], [-67.67, 44.56], [-67.67, 44.56], [-67.67, 44.54], [-67.68, 44.54], [-67.69, 44.54], [-67.7, 44.53], [-67.7, 44.52], [-67.71, 44.5], [-67.72, 44.5], [-67.73, 44.5], [-67.74, 44.5], [-67.74, 44.51], [-67.74, 44.52], [-67.74, 44.53], [-67.75, 44.54], [-67.75, 44.55], [-67.74, 44.56], [-67.75, 44.57], [-67.74, 44.59], [-67.74, 44.61], [-67.75, 44.6], [-67.75, 44.59], [-67.77, 44.57], [-67.76, 44.56], [-67.77, 44.55], [-67.79, 44.55], [-67.78, 44.54], [-67.78, 44.52], [-67.8, 44.52], [-67.8, 44.52], [-67.81, 44.54], [-67.78, 44.55], [-67.79, 44.56], [-67.78, 44.59], [-67.8, 44.59], [-67.8, 44.57], [-67.81, 44.56], [-67.81, 44.57], [-67.82, 44.58], [-67.83, 44.59], [-67.84, 44.57], [-67.82, 44.56], [-67.81, 44.56], [-67.81, 44.54], [-67.83, 44.56], [-67.85, 44.56], [-67.84, 44.54], [-67.85, 44.54], [-67.87, 44.54], [-67.88, 44.54], [-67.87, 44.53], [-67.86, 44.52], [-67.85, 44.51], [-67.85, 44.49], [-67.86, 44.48], [-67.86, 44.48], [-67.87, 44.47], [-67.88, 44.48], [-67.89, 44.47], [-67.88, 44.46], [-67.89, 44.44], [-67.89, 44.44], [-67.89, 44.42], [-67.89, 44.41], [-67.9, 44.4], [-67.91, 44.42], [-67.91, 44.44], [-67.91, 44.46], [-67.91, 44.47], [-67.92, 44.48], [-67.93, 44.47], [-67.93, 44.47], [-67.92, 44.45], [-67.93, 44.45], [-67.93, 44.42], [-67.94, 44.41], [-67.95, 44.43], [-67.96, 44.45], [-67.97, 44.47], [-67.96, 44.48], [-67.97, 44.5], [-67.98, 44.5], [-67.98, 44.48], [-67.99, 44.47], [-68.0, 44.46], [-68.01, 44.47], [-68.02, 44.48], [-68.03, 44.48], [-68.03, 44.46], [-68.02, 44.46], [-68.01, 44.44], [-68.0, 44.46], [-68.0, 44.45], [-67.98, 44.44], [-67.97, 44.42], [-67.96, 44.41], [-67.97, 44.4], [-67.98, 44.39], [-67.99, 44.39], [-68.0, 44.41], [-68.02, 44.4], [-68.01, 44.39], [-68.02, 44.38], [-68.03, 44.37], [-68.05, 44.36], [-68.04, 44.34], [-68.07, 44.34], [-68.06, 44.34], [-68.08, 44.35], [-68.08, 44.37], [-68.07, 44.39], [-68.09, 44.39], [-68.11, 44.4], [-68.11, 44.42], [-68.12, 44.44], [-68.12, 44.46], [-68.11, 44.47], [-68.1, 44.47], [-68.11, 44.48], [-68.13, 44.48], [-68.14, 44.49], [-68.15, 44.5], [-68.16, 44.49], [-68.17, 44.49], [-68.16, 44.47], [-68.17, 44.47], [-68.19, 44.49], [-68.2, 44.49], [-68.2, 44.52], [-68.24, 44.53], [-68.25, 44.54], [-68.25, 44.57], [-68.24, 44.57], [-68.24, 44.57], [-68.22, 44.57], [-68.21, 44.57], [-68.22, 44.58], [-68.25, 44.58], [-68.27, 44.58], [-68.27, 44.56], [-68.28, 44.57], [-68.29, 44.56], [-68.28, 44.54], [-68.27, 44.53], [-68.25, 44.53], [-68.23, 44.52], [-68.21, 44.52], [-68.22, 44.5], [-68.23, 44.49], [-68.22, 44.49], [-68.23, 44.48], [-68.23, 44.47], [-68.23, 44.47], [-68.24, 44.47], [-68.25, 44.48], [-68.26, 44.49], [-68.27, 44.51], [-68.26, 44.51], [-68.28, 44.52], [-68.28, 44.51], [-68.29, 44.51], [-68.3, 44.52], [-68.31, 44.52], [-68.3, 44.5], [-68.29, 44.5], [-68.28, 44.5], [-68.26, 44.49], [-68.27, 44.47], [-68.29, 44.48], [-68.3, 44.47], [-68.28, 44.45], [-68.3, 44.45], [-68.33, 44.46], [-68.33, 44.45], [-68.35, 44.46], [-68.35, 44.45], [-68.37, 44.43], [-68.39, 44.44], [-68.39, 44.42], [-68.41, 44.4], [-68.42, 44.4], [-68.43, 44.4], [-68.43, 44.43], [-68.43, 44.44], [-68.43, 44.46], [-68.42, 44.5], [-68.43, 44.5], [-68.44, 44.48], [-68.46, 44.49], [-68.49, 44.49], [-68.47, 44.48], [-68.47, 44.47], [-68.46, 44.45], [-68.46, 44.45], [-68.47, 44.44], [-68.46, 44.42], [-68.46, 44.4], [-68.46, 44.39], [-68.47, 44.38], [-68.48, 44.38], [-68.48, 44.39], [-68.47, 44.4], [-68.48, 44.43], [-68.5, 44.43], [-68.5, 44.42], [-68.51, 44.41], [-68.53, 44.4], [-68.56, 44.4], [-68.57, 44.4], [-68.57, 44.39], [-68.56, 44.38], [-68.55, 44.37], [-68.55, 44.36], [-68.56, 44.33], [-68.57, 44.32], [-68.56, 44.31], [-68.56, 44.3], [-68.53, 44.3], [-68.53, 44.29], [-68.53, 44.28], [-68.52, 44.26], [-68.53, 44.26], [-68.53, 44.25], [-68.52, 44.23], [-68.55, 44.24], [-68.55, 44.24], [-68.58, 44.25], [-68.58, 44.26], [-68.59, 44.26], [-68.6, 44.28], [-68.63, 44.28], [-68.64, 44.29], [-68.67, 44.29], [-68.68, 44.3], [-68.69, 44.3], [-68.69, 44.31], [-68.71, 44.32], [-68.72, 44.32], [-68.74, 44.33], [-68.75, 44.33], [-68.76, 44.33], [-68.77, 44.32], [-68.79, 44.32], [-68.8, 44.31], [-68.83, 44.31], [-68.83, 44.32], [-68.82, 44.33], [-68.83, 44.33], [-68.82, 44.35], [-68.79, 44.37], [-68.79, 44.37], [-68.81, 44.38], [-68.82, 44.38], [-68.82, 44.39], [-68.81, 44.4], [-68.82, 44.41], [-68.81, 44.43], [-68.8, 44.43], [-68.8, 44.45], [-68.78, 44.45], [-68.78, 44.47], [-68.78, 44.49], [-68.78, 44.49], [-68.79, 44.51], [-68.8, 44.53], [-68.8, 44.55]]], [[[-68.31, 44.44], [-68.29, 44.43], [-68.27, 44.44], [-68.27, 44.44], [-68.25, 44.43], [-68.24, 44.42], [-68.25, 44.42], [-68.22, 44.4], [-68.21, 44.39], [-68.2, 44.39], [-68.2, 44.38], [-68.18, 44.37], [-68.18, 44.35], [-68.18, 44.34], [-68.19, 44.32], [-68.2, 44.31], [-68.2, 44.3], [-68.23, 44.29], [-68.24, 44.29], [-68.25, 44.29], [-68.26, 44.29], [-68.28, 44.29], [-68.28, 44.29], [-68.3, 44.29], [-68.31, 44.32], [-68.3, 44.34], [-68.31, 44.34], [-68.31, 44.36], [-68.32, 44.36], [-68.33, 44.35], [-68.31, 44.32], [-68.32, 44.31], [-68.32, 44.3], [-68.32, 44.28], [-68.33, 44.27], [-68.3, 44.27], [-68.29, 44.25], [-68.3, 44.24], [-68.32, 44.23], [-68.34, 44.22], [-68.35, 44.23], [-68.37, 44.23], [-68.37, 44.24], [-68.4, 44.25], [-68.41, 44.27], [-68.41, 44.27], [-68.41, 44.28], [-68.42, 44.28], [-68.43, 44.3], [-68.43, 44.31], [-68.41, 44.32], [-68.41, 44.34], [-68.42, 44.35], [-68.41, 44.36], [-68.39, 44.37], [-68.4, 44.38], [-68.38, 44.38], [-68.38, 44.39], [-68.36, 44.39], [-68.36, 44.39], [-68.36, 44.4], [-68.36, 44.41], [-68.37, 44.42], [-68.35, 44.43], [-68.35, 44.42], [-68.33, 44.43], [-68.33, 44.43], [-68.32, 44.44], [-68.31, 44.44]]], [[[-68.73, 44.31], [-68.72, 44.3], [-68.69, 44.29], [-68.68, 44.28], [-68.67, 44.28], [-68.66, 44.26], [-68.64, 44.26], [-68.63, 44.26], [-68.61, 44.24], [-68.62, 44.24], [-68.63, 44.22], [-68.63, 44.22], [-68.61, 44.21], [-68.61, 44.22], [-68.58, 44.21], [-68.59, 44.21], [-68.57, 44.2], [-68.57, 44.2], [-68.57, 44.19], [-68.59, 44.19], [-68.59, 44.2], [-68.59, 44.21], [-68.61, 44.21], [-68.63, 44.21], [-68.63, 44.2], [-68.65, 44.21], [-68.66, 44.22], [-68.67, 44.21], [-68.66, 44.2], [-68.66, 44.19], [-68.64, 44.2], [-68.62, 44.19], [-68.61, 44.18], [-68.63, 44.17], [-68.64, 44.17], [-68.64, 44.16], [-68.67, 44.15], [-68.68, 44.15], [-68.7, 44.16], [-68.7, 44.16], [-68.72, 44.18], [-68.72, 44.19], [-68.71, 44.19], [-68.71, 44.21], [-68.72, 44.22], [-68.73, 44.22], [-68.72, 44.23], [-68.71, 44.23], [-68.7, 44.23], [-68.68, 44.22], [-68.68, 44.23], [-68.7, 44.24], [-68.69, 44.25], [-68.68, 44.27], [-68.68, 44.28], [-68.68, 44.28], [-68.7, 44.27], [-68.71, 44.27], [-68.73, 44.28], [-68.73, 44.29], [-68.74, 44.3], [-68.73, 44.31]]], [[[-68.84, 44.13], [-68.84, 44.12], [-68.82, 44.12], [-68.8, 44.11], [-68.81, 44.1], [-68.83, 44.09], [-68.83, 44.08], [-68.8, 44.08], [-68.79, 44.09], [-68.78, 44.08], [-68.78, 44.06], [-68.8, 44.05], [-68.82, 44.03], [-68.83, 44.05], [-68.84, 44.04], [-68.85, 44.04], [-68.86, 44.05], [-68.87, 44.06], [-68.86, 44.07], [-68.86, 44.07], [-68.89, 44.08], [-68.88, 44.09], [-68.9, 44.09], [-68.9, 44.11], [-68.91, 44.11], [-68.9, 44.12], [-68.89, 44.13], [-68.87, 44.12], [-68.86, 44.1], [-68.85, 44.11], [-68.84, 44.13]]], [[[-68.87, 44.38], [-68.87, 44.36], [-68.88, 44.36], [-68.88, 44.35], [-68.87, 44.34], [-68.89, 44.34], [-68.9, 44.33], [-68.9, 44.31], [-68.89, 44.3], [-68.9, 44.28], [-68.91, 44.27], [-68.91, 44.26], [-68.91, 44.25], [-68.93, 44.24], [-68.91, 44.26], [-68.92, 44.26], [-68.92, 44.28], [-68.94, 44.29], [-68.93, 44.29], [-68.93, 44.3], [-68.9, 44.33], [-68.91, 44.33], [-68.91, 44.37], [-68.9, 44.38], [-68.89, 44.38], [-68.88, 44.39], [-68.87, 44.38]]], [[[-68.82, 44.19], [-68.82, 44.15], [-68.83, 44.14], [-68.86, 44.14], [-68.86, 44.14], [-68.86, 44.13], [-68.88, 44.13], [-68.88, 44.13], [-68.87, 44.15], [-68.89, 44.15], [-68.9, 44.13], [-68.93, 44.13], [-68.93, 44.14], [-68.92, 44.15], [-68.91, 44.15], [-68.87, 44.17], [-68.86, 44.17], [-68.84, 44.19], [-68.82, 44.19]]], [[[-68.62, 44.09], [-68.61, 44.09], [-68.6, 44.08], [-68.6, 44.06], [-68.6, 44.05], [-68.61, 44.02], [-68.63, 44.02], [-68.65, 44.01], [-68.66, 44.02], [-68.66, 44.03], [-68.65, 44.04], [-68.64, 44.05], [-68.66, 44.05], [-68.65, 44.06], [-68.63, 44.08], [-68.62, 44.09]]], [[[-68.42, 44.19], [-68.41, 44.19], [-68.41, 44.18], [-68.4, 44.17], [-68.39, 44.16], [-68.39, 44.14], [-68.41, 44.13], [-68.43, 44.13], [-68.45, 44.15], [-68.48, 44.16], [-68.48, 44.15], [-68.5, 44.15], [-68.5, 44.16], [-68.49, 44.17], [-68.48, 44.16], [-68.47, 44.18], [-68.46, 44.18], [-68.44, 44.16], [-68.42, 44.17], [-68.42, 44.19]]], [[[-69.9, 43.86], [-69.89, 43.86], [-69.88, 43.84], [-69.89, 43.81], [-69.89, 43.8], [-69.9, 43.79], [-69.92, 43.8], [-69.91, 43.81], [-69.9, 43.81], [-69.9, 43.82], [-69.92, 43.83], [-69.93, 43.8], [-69.93, 43.8], [-69.93, 43.79], [-69.94, 43.77], [-69.95, 43.77], [-69.94, 43.79], [-69.94, 43.81], [-69.95, 43.81], [-69.94, 43.84], [-69.92, 43.85], [-69.9, 43.86]]], [[[-67.61, 44.52], [-67.61, 44.52], [-67.6, 44.51], [-67.58, 44.51], [-67.59, 44.49], [-67.58, 44.49], [-67.57, 44.48], [-67.57, 44.47], [-67.57, 44.46], [-67.59, 44.45], [-67.59, 44.47], [-67.6, 44.49], [-67.61, 44.5], [-67.62, 44.51], [-67.61, 44.52]]], [[[-69.67, 43.85], [-69.65, 43.84], [-69.65, 43.8], [-69.65, 43.79], [-69.66, 43.79], [-69.67, 43.8], [-69.68, 43.81], [-69.69, 43.83], [-69.67, 43.83], [-69.67, 43.85]]], [[[-68.42, 44.36], [-68.42, 44.36], [-68.43, 44.35], [-68.43, 44.33], [-68.44, 44.33], [-68.44, 44.34], [-68.46, 44.35], [-68.45, 44.36], [-68.43, 44.37], [-68.43, 44.37], [-68.42, 44.36]]], [[[-70.1, 43.76], [-70.1, 43.75], [-70.11, 43.73], [-70.11, 43.73], [-70.12, 43.71], [-70.13, 43.72], [-70.14, 43.73], [-70.12, 43.75], [-70.11, 43.75], [-70.1, 43.76]]], [[[-69.95, 43.79], [-69.95, 43.79], [-69.96, 43.77], [-69.97, 43.75], [-69.99, 43.75], [-69.99, 43.73], [-70.01, 43.72], [-69.99, 43.75], [-69.98, 43.76], [-69.97, 43.77], [-69.97, 43.78], [-69.95, 43.79]]], [[[-68.35, 44.13], [-68.34, 44.12], [-68.34, 44.11], [-68.36, 44.1], [-68.37, 44.11], [-68.37, 44.12], [-68.35, 44.13]]], [[[-67.51, 44.59], [-67.5, 44.59], [-67.5, 44.58], [-67.51, 44.58], [-67.52, 44.57], [-67.52, 44.56], [-67.53, 44.56], [-67.54, 44.58], [-67.52, 44.59], [-67.51, 44.59]]], [[[-67.54, 44.51], [-67.52, 44.51], [-67.51, 44.5], [-67.51, 44.49], [-67.53, 44.5], [-67.55, 44.51], [-67.54, 44.51]]], [[[-68.26, 44.26], [-68.26, 44.25], [-68.25, 44.24], [-68.28, 44.24], [-68.28, 44.25], [-68.27, 44.26], [-68.26, 44.26]]], [[[-69.38, 44.01], [-69.38, 44.0], [-69.38, 43.99], [-69.38, 43.97], [-69.39, 43.97], [-69.4, 43.99], [-69.4, 44.0], [-69.38, 44.01]]], [[[-68.95, 44.27], [-68.94, 44.26], [-68.95, 44.25], [-68.95, 44.24], [-68.97, 44.25], [-68.96, 44.26], [-68.95, 44.27]]], [[[-68.13, 44.39], [-68.12, 44.39], [-68.14, 44.38], [-68.15, 44.39], [-68.14, 44.4], [-68.13, 44.4], [-68.13, 44.39]]], [[[-70.14, 43.71], [-70.14, 43.7], [-70.16, 43.68], [-70.17, 43.68], [-70.17, 43.68], [-70.17, 43.69], [-70.15, 43.7], [-70.14, 43.71]]], [[[-69.43, 43.95], [-69.42, 43.94], [-69.43, 43.93], [-69.43, 43.92], [-69.44, 43.92], [-69.43, 43.95]]], [[[-68.89, 43.87], [-68.88, 43.87], [-68.89, 43.86], [-68.89, 43.85], [-68.9, 43.87], [-68.89, 43.87]]], [[[-70.18, 43.67], [-70.18, 43.66], [-70.18, 43.65], [-70.2, 43.65], [-70.2, 43.66], [-70.18, 43.67]]], [[[-70.13, 43.77], [-70.13, 43.77], [-70.14, 43.75], [-70.15, 43.75], [-70.16, 43.75], [-70.14, 43.76], [-70.15, 43.77], [-70.13, 43.77], [-70.13, 43.77]]], [[[-69.55, 43.87], [-69.55, 43.86], [-69.56, 43.84], [-69.57, 43.85], [-69.56, 43.86], [-69.55, 43.87]]], [[[-68.23, 44.27], [-68.21, 44.26], [-68.23, 44.26], [-68.23, 44.27]]], [[[-70.19, 43.69], [-70.19, 43.68], [-70.19, 43.67], [-70.21, 43.67], [-70.2, 43.68], [-70.19, 43.69]]], [[[-70.0, 43.83], [-70.0, 43.82], [-70.01, 43.81], [-70.02, 43.82], [-70.0, 43.83]]], [[[-69.3, 43.77], [-69.32, 43.76], [-69.32, 43.76], [-69.31, 43.77], [-69.3, 43.77]]]]}}]}