{"type": "FeatureCollection", "features": [{"type": "Feature", "properties": {"STATE": "Massachusetts", "STATE_FIPS": "25", "CD_2DIG": "02", "STATE_CODE": 19, "CLIMDIV": 1902, "ID": 1902, "CD_NEW": 2, "FIPS_CD": "2502", "NCDC_GEO_I": 272.0, "NAME": "CENTRAL", "ST_ABBRV": "MA", "SHAPE_AREA": 0.0, "SHAPE_LEN": 0.0}, "geometry": {"type": "Polygon", "coordinates": [[[-71.03, 42.86], [-71.06, 42.72], [-71.09, 42.6], [-71.14, 42.39], [-71.09, 42.25], [-71.09, 42.07], [-71.21, 41.9], [-71.34, 41.9], [-71.34, 41.9], [-71.35, 41.9], [-71.35, 41.9], [-71.35, 41.9], [-71.35, 41.9], [-71.35, 41.9], [-71.35, 41.9], [-71.35, 41.9], [-71.35, 41.9], [-71.36, 41.9], [-71.36, 41.9], [-71.36, 41.9], [-71.37, 41.89], [-71.37, 41.89], [-71.38, 41.89], [-71.38, 41.9], [-71.38, 41.9], [-71.38, 41.9], [-71.38, 41.9], [-71.38, 41.91], [-71.38, 41.91], [-71.38, 41.91], [-71.38, 41.91], [-71.38, 41.91], [-71.38, 41.91], [-71.38, 41.92], [-71.38, 41.92], [-71.38, 41.92], [-71.38, 41.93], [-71.38, 41.94], [-71.38, 41.95], [-71.38, 41.95], [-71.38, 41.95], [-71.38, 41.96], [-71.38, 41.97], [-71.38, 41.97], [-71.38, 41.98], [-71.38, 41.98], [-71.38, 41.99], [-71.38, 42.0], [-71.38, 42.01], [-71.38, 42.02], [-71.4, 42.02], [-71.42, 42.02], [-71.42, 42.02], [-71.42, 42.02], [-71.46, 42.02], [-71.48, 42.02], [-71.49, 42.02], [-71.49, 42.02], [-71.5, 42.02], [-71.5, 42.02], [-71.5, 42.02], [-71.5, 42.02], [-71.5, 42.02], [-71.51, 42.02], [-71.51, 42.02], [-71.52, 42.02], [-71.52, 42.02], [-71.52, 42.02], [-71.52, 42.02], [-71.52, 42.02], [-71.53, 42.01], [-71.54, 42.01], [-71.54, 42.01], [-71.54, 42.01], [-71.54, 42.01], [-71.55, 42.01], [-71.55, 42.01], [-71.56, 42.01], [-71.57, 42.01], [-71.58, 42.01], [-71.59, 42.01], [-71.59, 42.01], [-71.59, 42.01], [-71.62, 42.01], [-71.65, 42.01], [-71.66, 42.01], [-71.68, 42.01], [-71.68, 42.01], [-71.71, 42.01], [-71.71, 42.01], [-71.72, 42.01], [-71.75, 42.01], [-71.77, 42.01], [-71.79, 42.01], [-71.8, 42.01], [-71.8, 42.02], [-71.89, 42.02], [-71.99, 42.03], [-72.06, 42.03], [-72.14, 42.03], [-72.34, 42.03], [-72.46, 42.03], [-72.53, 42.03], [-72.57, 42.03], [-72.58, 42.02], [-72.61, 42.02], [-72.61, 42.03], [-72.64, 42.03], [-72.7, 42.04], [-72.75, 42.04], [-72.76, 42.73], [-72.76, 42.74], [-72.75, 42.73], [-72.69, 42.73], [-72.68, 42.73], [-72.66, 42.73], [-72.64, 42.73], [-72.62, 42.73], [-72.61, 42.73], [-72.6, 42.73], [-72.58, 42.73], [-72.57, 42.73], [-72.57, 42.73], [-72.55, 42.73], [-72.53, 42.73], [-72.5, 42.73], [-72.46, 42.73], [-72.46, 42.73], [-72.46, 42.73], [-72.46, 42.73], [-72.42, 42.73], [-72.4, 42.73], [-72.39, 42.72], [-72.35, 42.72], [-72.32, 42.72], [-72.3, 42.72], [-72.29, 42.72], [-72.29, 42.72], [-72.27, 42.72], [-72.25, 42.72], [-72.24, 42.72], [-72.21, 42.72], [-72.17, 42.72], [-72.15, 42.72], [-72.15, 42.72], [-72.13, 42.72], [-72.1, 42.72], [-72.08, 42.72], [-72.08, 42.72], [-72.08, 42.72], [-72.06, 42.72], [-72.05, 42.72], [-72.02, 42.71], [-72.01, 42.71], [-72.01, 42.71], [-72.01, 42.71], [-72.0, 42.71], [-71.99, 42.71], [-71.99, 42.71], [-71.98, 42.71], [-71.97, 42.71], [-71.96, 42.71], [-71.96, 42.71], [-71.93, 42.71], [-71.92, 42.71], [-71.9, 42.71], [-71.88, 42.71], [-71.86, 42.71], [-71.81, 42.71], [-71.8, 42.71], [-71.77, 42.71], [-71.75, 42.71], [-71.73, 42.71], [-71.7, 42.71], [-71.69, 42.71], [-71.67, 42.71], [-71.66, 42.71], [-71.62, 42.7], [-71.62, 42.7], [-71.62, 42.7], [-71.61, 42.7], [-71.6, 42.7], [-71.59, 42.7], [-71.59, 42.7], [-71.54, 42.7], [-71.54, 42.7], [-71.5, 42.7], [-71.5, 42.7], [-71.48, 42.7], [-71.44, 42.7], [-71.44, 42.7], [-71.43, 42.7], [-71.43, 42.7], [-71.39, 42.7], [-71.39, 42.7], [-71.37, 42.7], [-71.37, 42.7], [-71.35, 42.7], [-71.33, 42.7], [-71.32, 42.7], [-71.31, 42.7], [-71.31, 42.7], [-71.29, 42.7], [-71.29, 42.7], [-71.28, 42.71], [-71.27, 42.73], [-71.27, 42.73], [-71.26, 42.73], [-71.26, 42.74], [-71.25, 42.74], [-71.23, 42.75], [-71.22, 42.75], [-71.22, 42.75], [-71.22, 42.74], [-71.21, 42.74], [-71.21, 42.74], [-71.21, 42.74], [-71.2, 42.74], [-71.19, 42.74], [-71.18, 42.75], [-71.19, 42.78], [-71.19, 42.79], [-71.17, 42.8], [-71.17, 42.81], [-71.15, 42.82], [-71.14, 42.82], [-71.12, 42.82], [-71.12, 42.82], [-71.12, 42.82], [-71.11, 42.82], [-71.11, 42.82], [-71.1, 42.81], [-71.09, 42.81], [-71.07, 42.81], [-71.07, 42.81], [-71.06, 42.81], [-71.06, 42.81], [-71.06, 42.82], [-71.06, 42.82], [-71.05, 42.83], [-71.05, 42.84], [-71.03, 42.86], [-71.03, 42.86]]]}}, {"type": "Feature", "properties": {"STATE": "Massachusetts", "STATE_FIPS": "25", "CD_2DIG": "01", "STATE_CODE": 19, "CLIMDIV": 1901, "ID": 1901, "CD_NEW": 1, "FIPS_CD": "2501", "NCDC_GEO_I": 271.0, "NAME": "WESTERN", "ST_ABBRV": "MA", "SHAPE_AREA": 0.0, "SHAPE_LEN": 0.0}, "geometry": {"type": "Polygon", "coordinates": [[[-72.76, 42.74], [-72.76, 42.74], [-72.76, 42.73], [-72.75, 42.04], [-72.75, 42.04], [-72.76, 42.04], [-72.76, 42.04], [-72.76, 42.03], [-72.76, 42.03], [-72.76, 42.03], [-72.76, 42.03], [-72.76, 42.03], [-72.75, 42.03], [-72.75, 42.03], [-72.75, 42.03], [-72.75, 42.03], [-72.75, 42.03], [-72.76, 42.02], [-72.76, 42.02], [-72.76, 42.02], [-72.77, 42.02], [-72.77, 42.02], [-72.77, 42.02], [-72.77, 42.02], [-72.77, 42.02], [-72.76, 42.02], [-72.76, 42.02], [-72.76, 42.02], [-72.76, 42.02], [-72.76, 42.02], [-72.76, 42.02], [-72.76, 42.02], [-72.76, 42.02], [-72.76, 42.02], [-72.76, 42.01], [-72.76, 42.01], [-72.76, 42.01], [-72.76, 42.01], [-72.76, 42.01], [-72.76, 42.01], [-72.76, 42.01], [-72.76, 42.01], [-72.77, 42.01], [-72.77, 42.0], [-72.77, 42.0], [-72.77, 42.0], [-72.82, 42.0], [-72.81, 42.03], [-72.81, 42.04], [-72.85, 42.04], [-72.86, 42.04], [-72.86, 42.04], [-72.89, 42.04], [-72.9, 42.04], [-72.92, 42.04], [-72.93, 42.04], [-72.94, 42.04], [-72.97, 42.04], [-72.98, 42.04], [-73.01, 42.04], [-73.02, 42.04], [-73.04, 42.04], [-73.04, 42.04], [-73.05, 42.04], [-73.05, 42.04], [-73.06, 42.04], [-73.08, 42.04], [-73.1, 42.04], [-73.12, 42.04], [-73.13, 42.04], [-73.13, 42.04], [-73.17, 42.04], [-73.19, 42.04], [-73.2, 42.04], [-73.22, 42.04], [-73.23, 42.05], [-73.23, 42.05], [-73.25, 42.05], [-73.26, 42.05], [-73.29, 42.05], [-73.29, 42.05], [-73.31, 42.05], [-73.37, 42.05], [-73.38, 42.05], [-73.43, 42.05], [-73.43, 42.05], [-73.44, 42.05], [-73.44, 42.05], [-73.48, 42.05], [-73.49, 42.05], [-73.5, 42.05], [-73.51, 42.09], [-73.45, 42.24], [-73.41, 42.37], [-73.36, 42.48], [-73.35, 42.52], [-73.29, 42.67], [-73.26, 42.75], [-73.05, 42.74], [-72.92, 42.74], [-72.76, 42.74]]]}}, {"type": "Feature", "properties": {"STATE": "Massachusetts", "STATE_FIPS": "25", "CD_2DIG": "03", "STATE_CODE": 19, "CLIMDIV": 1903, "ID": 1903, "CD_NEW": 3, "FIPS_CD": "2503", "NCDC_GEO_I": 273.0, "NAME": "COASTAL", "ST_ABBRV": "MA", "SHAPE_AREA": 0.0, "SHAPE_LEN": 0.0}, "geometry": {"type": "MultiPolygon", "coordinates": [[[[-70.85, 42.86], [-70.85, 42.86], [-70.84, 42.87], [-70.84, 42.87], [-70.83, 42.87], [-70.83, 42.87], [-70.83, 42.87], [-70.83, 42.87], [-70.82, 42.87], [-70.82, 42.87], [-70.82, 42.87], [-70.82, 42.87], [-70.82, 42.87], [-70.82, 42.87], [-70.82, 42.87], [-70.82, 42.87], [-70.82, 42.87], [-70.82, 42.85], [-70.81, 42.82], [-70.83, 42.82], [-70.84, 42.82], [-70.86, 42.82], [-70.86, 42.81], [-70.85, 42.8], [-70.83, 42.8], [-70.82, 42.81], [-70.81, 42.81], [-70.81, 42.79], [-70.8, 42.75], [-70.79, 42.74], [-70.77, 42.71], [-70.78, 42.71], [-70.8, 42.72], [-70.8, 42.73], [-70.81, 42.75], [-70.81, 42.75], [-70.82, 42.76], [-70.82, 42.75], [-70.81, 42.74], [-70.82, 42.72], [-70.81, 42.71], [-70.8, 42.71], [-70.79, 42.69], [-70.77, 42.69], [-70.75, 42.68], [-70.73, 42.67], [-70.73, 42.67], [-70.76, 42.68], [-70.77, 42.66], [-70.75, 42.65], [-70.74, 42.65], [-70.73, 42.65], [-70.72, 42.65], [-70.72, 42.66], [-70.69, 42.66], [-70.67, 42.67], [-70.66, 42.68], [-70.64, 42.69], [-70.63, 42.69], [-70.62, 42.67], [-70.62, 42.66], [-70.61, 42.66], [-70.6, 42.66], [-70.6, 42.63], [-70.61, 42.64], [-70.62, 42.62], [-70.63, 42.62], [-70.63, 42.61], [-70.64, 42.6], [-70.65, 42.58], [-70.67, 42.58], [-70.65, 42.61], [-70.68, 42.61], [-70.69, 42.6], [-70.68, 42.59], [-70.7, 42.58], [-70.72, 42.58], [-70.73, 42.58], [-70.76, 42.57], [-70.76, 42.56], [-70.78, 42.57], [-70.8, 42.56], [-70.82, 42.55], [-70.86, 42.55], [-70.87, 42.55], [-70.88, 42.54], [-70.87, 42.53], [-70.87, 42.53], [-70.89, 42.52], [-70.88, 42.5], [-70.88, 42.5], [-70.86, 42.52], [-70.85, 42.52], [-70.84, 42.51], [-70.85, 42.5], [-70.83, 42.49], [-70.86, 42.49], [-70.88, 42.48], [-70.89, 42.46], [-70.91, 42.47], [-70.92, 42.47], [-70.93, 42.46], [-70.94, 42.44], [-70.93, 42.43], [-70.92, 42.42], [-70.94, 42.42], [-70.94, 42.43], [-70.94, 42.44], [-70.94, 42.45], [-70.95, 42.46], [-70.96, 42.44], [-70.96, 42.44], [-70.98, 42.43], [-70.99, 42.41], [-70.98, 42.39], [-70.97, 42.39], [-70.97, 42.37], [-70.99, 42.37], [-71.0, 42.36], [-71.01, 42.35], [-71.03, 42.36], [-71.05, 42.37], [-71.04, 42.39], [-71.07, 42.39], [-71.07, 42.39], [-71.05, 42.38], [-71.05, 42.37], [-71.05, 42.36], [-71.04, 42.35], [-71.01, 42.34], [-71.02, 42.33], [-71.05, 42.32], [-71.03, 42.32], [-71.05, 42.31], [-71.01, 42.29], [-71.02, 42.29], [-71.02, 42.28], [-71.0, 42.27], [-71.0, 42.27], [-70.97, 42.26], [-70.97, 42.27], [-70.95, 42.27], [-70.95, 42.26], [-70.96, 42.25], [-70.97, 42.26], [-70.99, 42.26], [-70.99, 42.25], [-70.98, 42.25], [-70.97, 42.25], [-70.97, 42.24], [-70.95, 42.23], [-70.96, 42.25], [-70.94, 42.25], [-70.93, 42.25], [-70.91, 42.25], [-70.91, 42.26], [-70.9, 42.26], [-70.89, 42.25], [-70.88, 42.25], [-70.88, 42.27], [-70.87, 42.27], [-70.87, 42.28], [-70.85, 42.27], [-70.83, 42.27], [-70.8, 42.26], [-70.79, 42.25], [-70.76, 42.24], [-70.76, 42.23], [-70.75, 42.22], [-70.72, 42.21], [-70.71, 42.17], [-70.72, 42.17], [-70.71, 42.16], [-70.68, 42.13], [-70.66, 42.11], [-70.64, 42.09], [-70.65, 42.08], [-70.65, 42.07], [-70.64, 42.05], [-70.66, 42.04], [-70.67, 42.04], [-70.67, 42.03], [-70.67, 42.01], [-70.68, 42.01], [-70.69, 42.01], [-70.7, 42.01], [-70.71, 42.01], [-70.7, 42.0], [-70.7, 41.99], [-70.68, 41.98], [-70.67, 41.96], [-70.65, 41.95], [-70.64, 41.95], [-70.62, 41.94], [-70.61, 41.94], [-70.59, 41.95], [-70.58, 41.95], [-70.57, 41.94], [-70.54, 41.92], [-70.55, 41.92], [-70.55, 41.91], [-70.53, 41.89], [-70.53, 41.87], [-70.53, 41.86], [-70.53, 41.84], [-70.54, 41.83], [-70.54, 41.82], [-70.53, 41.8], [-70.51, 41.79], [-70.5, 41.78], [-70.5, 41.78], [-70.51, 41.77], [-70.54, 41.78], [-70.56, 41.77], [-70.57, 41.76], [-70.59, 41.75], [-70.62, 41.74], [-70.63, 41.74], [-70.64, 41.74], [-70.65, 41.74], [-70.67, 41.74], [-70.65, 41.73], [-70.66, 41.73], [-70.65, 41.72], [-70.66, 41.72], [-70.67, 41.72], [-70.68, 41.73], [-70.71, 41.73], [-70.72, 41.74], [-70.72, 41.74], [-70.73, 41.73], [-70.72, 41.71], [-70.71, 41.71], [-70.72, 41.68], [-70.73, 41.69], [-70.73, 41.7], [-70.75, 41.71], [-70.77, 41.71], [-70.75, 41.7], [-70.76, 41.69], [-70.76, 41.67], [-70.76, 41.67], [-70.76, 41.65], [-70.77, 41.65], [-70.79, 41.65], [-70.81, 41.66], [-70.83, 41.65], [-70.8, 41.64], [-70.8, 41.63], [-70.81, 41.62], [-70.82, 41.63], [-70.84, 41.63], [-70.85, 41.63], [-70.86, 41.63], [-70.85, 41.61], [-70.85, 41.61], [-70.85, 41.6], [-70.86, 41.58], [-70.86, 41.6], [-70.87, 41.61], [-70.87, 41.63], [-70.89, 41.63], [-70.89, 41.62], [-70.9, 41.63], [-70.91, 41.65], [-70.92, 41.65], [-70.91, 41.62], [-70.91, 41.61], [-70.9, 41.59], [-70.91, 41.59], [-70.92, 41.61], [-70.93, 41.61], [-70.93, 41.6], [-70.93, 41.58], [-70.94, 41.59], [-70.96, 41.59], [-70.96, 41.58], [-70.95, 41.58], [-70.95, 41.57], [-70.94, 41.56], [-70.94, 41.55], [-70.93, 41.54], [-70.94, 41.54], [-70.95, 41.53], [-70.95, 41.53], [-70.97, 41.53], [-70.98, 41.53], [-70.98, 41.52], [-70.98, 41.51], [-71.0, 41.51], [-71.02, 41.51], [-71.04, 41.5], [-71.05, 41.5], [-71.06, 41.51], [-71.05, 41.52], [-71.05, 41.53], [-71.05, 41.55], [-71.06, 41.56], [-71.07, 41.56], [-71.06, 41.54], [-71.06, 41.53], [-71.07, 41.52], [-71.08, 41.52], [-71.11, 41.55], [-71.12, 41.54], [-71.1, 41.53], [-71.1, 41.52], [-71.1, 41.5], [-71.12, 41.5], [-71.12, 41.51], [-71.12, 41.51], [-71.12, 41.51], [-71.12, 41.52], [-71.12, 41.54], [-71.13, 41.55], [-71.13, 41.56], [-71.13, 41.56], [-71.13, 41.59], [-71.14, 41.61], [-71.14, 41.62], [-71.14, 41.62], [-71.14, 41.62], [-71.14, 41.63], [-71.14, 41.63], [-71.13, 41.64], [-71.13, 41.66], [-71.13, 41.66], [-71.14, 41.66], [-71.15, 41.66], [-71.16, 41.67], [-71.16, 41.67], [-71.17, 41.67], [-71.18, 41.67], [-71.18, 41.67], [-71.18, 41.67], [-71.18, 41.67], [-71.18, 41.67], [-71.18, 41.67], [-71.18, 41.67], [-71.19, 41.67], [-71.19, 41.67], [-71.19, 41.67], [-71.19, 41.67], [-71.19, 41.67], [-71.19, 41.67], [-71.19, 41.67], [-71.19, 41.67], [-71.19, 41.67], [-71.2, 41.68], [-71.23, 41.71], [-71.25, 41.73], [-71.25, 41.74], [-71.26, 41.75], [-71.27, 41.76], [-71.28, 41.76], [-71.28, 41.76], [-71.29, 41.76], [-71.31, 41.77], [-71.32, 41.78], [-71.32, 41.78], [-71.33, 41.78], [-71.33, 41.78], [-71.33, 41.79], [-71.33, 41.79], [-71.34, 41.79], [-71.34, 41.8], [-71.34, 41.8], [-71.34, 41.81], [-71.34, 41.81], [-71.35, 41.82], [-71.34, 41.83], [-71.34, 41.83], [-71.34, 41.83], [-71.34, 41.83], [-71.34, 41.84], [-71.34, 41.84], [-71.33, 41.86], [-71.34, 41.87], [-71.34, 41.88], [-71.34, 41.88], [-71.34, 41.88], [-71.34, 41.89], [-71.34, 41.89], [-71.34, 41.89], [-71.34, 41.9], [-71.34, 41.9], [-71.21, 41.9], [-71.09, 42.07], [-71.09, 42.25], [-71.14, 42.39], [-71.09, 42.6], [-71.06, 42.72], [-71.03, 42.86], [-71.02, 42.86], [-71.0, 42.86], [-71.0, 42.86], [-70.99, 42.87], [-70.98, 42.87], [-70.96, 42.87], [-70.95, 42.88], [-70.93, 42.88], [-70.93, 42.88], [-70.92, 42.89], [-70.9, 42.89], [-70.89, 42.88], [-70.88, 42.88], [-70.88, 42.88], [-70.87, 42.87], [-70.87, 42.87], [-70.86, 42.87], [-70.86, 42.87], [-70.85, 42.86]]], [[[-70.19, 42.08], [-70.16, 42.08], [-70.11, 42.07], [-70.09, 42.06], [-70.06, 42.04], [-70.04, 42.02], [-70.02, 41.99], [-69.99, 41.95], [-69.97, 41.92], [-69.96, 41.87], [-69.94, 41.84], [-69.95, 41.84], [-69.97, 41.83], [-69.96, 41.81], [-69.95, 41.8], [-69.94, 41.8], [-69.93, 41.79], [-69.93, 41.72], [-69.93, 41.72], [-69.93, 41.74], [-69.95, 41.77], [-69.96, 41.76], [-69.97, 41.75], [-69.97, 41.74], [-69.99, 41.74], [-70.0, 41.72], [-69.99, 41.71], [-69.98, 41.72], [-69.97, 41.72], [-69.97, 41.71], [-69.95, 41.71], [-69.95, 41.69], [-69.95, 41.68], [-69.95, 41.67], [-69.96, 41.66], [-69.96, 41.65], [-69.99, 41.66], [-70.0, 41.67], [-70.02, 41.67], [-70.03, 41.67], [-70.07, 41.66], [-70.08, 41.66], [-70.11, 41.66], [-70.14, 41.65], [-70.16, 41.65], [-70.19, 41.65], [-70.25, 41.63], [-70.26, 41.62], [-70.26, 41.61], [-70.27, 41.61], [-70.27, 41.62], [-70.27, 41.63], [-70.25, 41.63], [-70.24, 41.64], [-70.26, 41.65], [-70.27, 41.64], [-70.28, 41.64], [-70.29, 41.64], [-70.3, 41.63], [-70.32, 41.63], [-70.32, 41.63], [-70.34, 41.64], [-70.36, 41.63], [-70.37, 41.62], [-70.39, 41.61], [-70.39, 41.63], [-70.41, 41.64], [-70.41, 41.63], [-70.43, 41.62], [-70.43, 41.61], [-70.44, 41.6], [-70.47, 41.6], [-70.46, 41.57], [-70.48, 41.56], [-70.49, 41.55], [-70.52, 41.55], [-70.51, 41.57], [-70.52, 41.58], [-70.53, 41.57], [-70.55, 41.55], [-70.57, 41.55], [-70.58, 41.54], [-70.59, 41.55], [-70.6, 41.54], [-70.62, 41.54], [-70.64, 41.53], [-70.65, 41.52], [-70.66, 41.52], [-70.67, 41.53], [-70.67, 41.53], [-70.66, 41.54], [-70.65, 41.55], [-70.65, 41.57], [-70.64, 41.57], [-70.64, 41.58], [-70.65, 41.6], [-70.64, 41.61], [-70.65, 41.61], [-70.64, 41.63], [-70.65, 41.64], [-70.65, 41.65], [-70.63, 41.65], [-70.62, 41.66], [-70.63, 41.66], [-70.64, 41.66], [-70.65, 41.67], [-70.64, 41.67], [-70.63, 41.66], [-70.62, 41.69], [-70.63, 41.69], [-70.65, 41.68], [-70.64, 41.7], [-70.62, 41.7], [-70.62, 41.73], [-70.63, 41.73], [-70.62, 41.74], [-70.59, 41.75], [-70.57, 41.76], [-70.56, 41.77], [-70.54, 41.78], [-70.51, 41.77], [-70.49, 41.78], [-70.47, 41.76], [-70.42, 41.75], [-70.38, 41.74], [-70.35, 41.74], [-70.3, 41.73], [-70.27, 41.73], [-70.3, 41.72], [-70.31, 41.73], [-70.34, 41.72], [-70.35, 41.71], [-70.33, 41.71], [-70.28, 41.71], [-70.26, 41.72], [-70.23, 41.74], [-70.22, 41.74], [-70.19, 41.75], [-70.14, 41.76], [-70.12, 41.76], [-70.08, 41.77], [-70.07, 41.77], [-70.05, 41.78], [-70.02, 41.79], [-70.0, 41.81], [-70.0, 41.84], [-70.01, 41.87], [-70.01, 41.88], [-70.0, 41.89], [-70.0, 41.91], [-69.99, 41.91], [-70.0, 41.92], [-70.0, 41.91], [-70.01, 41.91], [-70.02, 41.92], [-70.02, 41.93], [-70.05, 41.93], [-70.06, 41.92], [-70.07, 41.9], [-70.07, 41.92], [-70.07, 41.94], [-70.08, 41.94], [-70.08, 41.98], [-70.08, 42.0], [-70.09, 42.03], [-70.1, 42.04], [-70.12, 42.05], [-70.15, 42.06], [-70.18, 42.06], [-70.19, 42.05], [-70.2, 42.03], [-70.21, 42.03], [-70.22, 42.05], [-70.23, 42.06], [-70.23, 42.06], [-70.25, 42.07], [-70.24, 42.07], [-70.22, 42.08], [-70.19, 42.08]]], [[[-70.6, 41.48], [-70.6, 41.47], [-70.6, 41.46], [-70.6, 41.45], [-70.58, 41.45], [-70.58, 41.46], [-70.57, 41.47], [-70.56, 41.47], [-70.56, 41.46], [-70.55, 41.44], [-70.57, 41.43], [-70.56, 41.42], [-70.56, 41.41], [-70.54, 41.4], [-70.54, 41.41], [-70.52, 41.4], [-70.52, 41.4], [-70.5, 41.39], [-70.51, 41.39], [-70.51, 41.38], [-70.51, 41.36], [-70.49, 41.35], [-70.47, 41.35], [-70.47, 41.36], [-70.49, 41.36], [-70.5, 41.38], [-70.5, 41.38], [-70.47, 41.39], [-70.46, 41.38], [-70.45, 41.38], [-70.45, 41.41], [-70.46, 41.42], [-70.45, 41.42], [-70.45, 41.4], [-70.45, 41.38], [-70.45, 41.35], [-70.45, 41.35], [-70.47, 41.35], [-70.5, 41.35], [-70.54, 41.35], [-70.59, 41.35], [-70.65, 41.35], [-70.71, 41.34], [-70.74, 41.34], [-70.76, 41.32], [-70.77, 41.3], [-70.78, 41.3], [-70.8, 41.31], [-70.82, 41.33], [-70.84, 41.34], [-70.83, 41.35], [-70.81, 41.36], [-70.79, 41.35], [-70.77, 41.35], [-70.75, 41.37], [-70.74, 41.38], [-70.73, 41.4], [-70.72, 41.4], [-70.71, 41.41], [-70.7, 41.43], [-70.69, 41.44], [-70.67, 41.44], [-70.66, 41.46], [-70.64, 41.46], [-70.6, 41.48], [-70.6, 41.48]]], [[[-69.97, 41.3], [-69.96, 41.28], [-69.96, 41.27], [-69.97, 41.25], [-69.97, 41.25], [-70.0, 41.24], [-70.02, 41.24], [-70.06, 41.24], [-70.09, 41.24], [-70.1, 41.24], [-70.15, 41.25], [-70.19, 41.26], [-70.21, 41.28], [-70.19, 41.28], [-70.2, 41.3], [-70.18, 41.29], [-70.12, 41.29], [-70.08, 41.3], [-70.06, 41.31], [-70.05, 41.32], [-70.03, 41.34], [-70.03, 41.35], [-70.02, 41.36], [-69.98, 41.31], [-69.97, 41.3]]], [[[-70.71, 41.52], [-70.71, 41.5], [-70.72, 41.49], [-70.73, 41.49], [-70.74, 41.48], [-70.76, 41.48], [-70.76, 41.47], [-70.76, 41.46], [-70.78, 41.46], [-70.79, 41.45], [-70.8, 41.45], [-70.81, 41.46], [-70.8, 41.47], [-70.79, 41.47], [-70.78, 41.48], [-70.78, 41.48], [-70.77, 41.49], [-70.75, 41.49], [-70.74, 41.5], [-70.73, 41.5], [-70.72, 41.51], [-70.71, 41.52]]], [[[-70.86, 41.45], [-70.85, 41.44], [-70.85, 41.43], [-70.87, 41.42], [-70.9, 41.42], [-70.9, 41.43], [-70.88, 41.43], [-70.86, 41.45]]], [[[-69.97, 41.64], [-69.97, 41.63], [-69.98, 41.62], [-69.99, 41.6], [-69.99, 41.58], [-69.99, 41.55], [-70.0, 41.54], [-70.01, 41.54], [-70.02, 41.55], [-70.0, 41.57], [-69.99, 41.58], [-69.99, 41.6], [-69.99, 41.61], [-69.99, 41.62], [-69.98, 41.62], [-69.98, 41.64], [-69.97, 41.64]]], [[[-70.27, 41.31], [-70.26, 41.31], [-70.25, 41.31], [-70.24, 41.3], [-70.24, 41.29], [-70.26, 41.29], [-70.27, 41.31]]], [[[-70.82, 41.46], [-70.81, 41.45], [-70.83, 41.44], [-70.84, 41.45], [-70.83, 41.46], [-70.82, 41.46]]], [[[-70.41, 41.63], [-70.4, 41.61], [-70.42, 41.61], [-70.42, 41.62], [-70.41, 41.63]]], [[[-70.81, 41.26], [-70.8, 41.26], [-70.81, 41.25], [-70.82, 41.25], [-70.83, 41.26], [-70.81, 41.26]]], [[[-70.83, 41.6], [-70.82, 41.6], [-70.82, 41.58], [-70.83, 41.58], [-70.84, 41.6], [-70.83, 41.6]]], [[[-70.92, 41.43], [-70.93, 41.42], [-70.94, 41.41], [-70.94, 41.42], [-70.92, 41.43]]], [[[-70.53, 41.57], [-70.54, 41.55], [-70.54, 41.55], [-70.53, 41.57]]]]}}]}