{"type": "FeatureCollection", "features": [{"type": "Feature", "properties": {"STATE": "Michigan", "STATE_FIPS": "26", "CD_2DIG": "01", "STATE_CODE": 20, "CLIMDIV": 2001, "ID": 2001, "CD_NEW": 1, "FIPS_CD": "2601", "NCDC_GEO_I": 128.0, "NAME": "WEST UPPER", "ST_ABBRV": "MI", "SHAPE_AREA": 0.0, "SHAPE_LEN": 0.0}, "geometry": {"type": "MultiPolygon", "coordinates": [[[[-87.12, 46.49], [-87.12, 46.36], [-87.12, 46.16], [-87.24, 46.16], [-87.24, 45.99], [-87.37, 45.99], [-87.37, 45.92], [-87.37, 45.9], [-87.33, 45.9], [-87.33, 45.88], [-87.33, 45.71], [-87.33, 45.55], [-87.26, 45.55], [-87.27, 45.54], [-87.27, 45.53], [-87.29, 45.5], [-87.3, 45.48], [-87.31, 45.47], [-87.32, 45.46], [-87.33, 45.45], [-87.33, 45.43], [-87.33, 45.43], [-87.34, 45.41], [-87.36, 45.4], [-87.36, 45.39], [-87.37, 45.38], [-87.39, 45.37], [-87.39, 45.37], [-87.39, 45.35], [-87.41, 45.34], [-87.41, 45.33], [-87.43, 45.32], [-87.44, 45.3], [-87.44, 45.29], [-87.44, 45.29], [-87.47, 45.27], [-87.47, 45.27], [-87.49, 45.25], [-87.51, 45.23], [-87.51, 45.22], [-87.54, 45.2], [-87.54, 45.19], [-87.56, 45.18], [-87.57, 45.17], [-87.58, 45.17], [-87.59, 45.16], [-87.6, 45.15], [-87.6, 45.14], [-87.61, 45.14], [-87.61, 45.12], [-87.61, 45.11], [-87.59, 45.09], [-87.63, 45.1], [-87.63, 45.11], [-87.66, 45.11], [-87.68, 45.13], [-87.68, 45.14], [-87.7, 45.15], [-87.72, 45.16], [-87.74, 45.18], [-87.74, 45.2], [-87.73, 45.21], [-87.73, 45.23], [-87.71, 45.24], [-87.71, 45.27], [-87.7, 45.27], [-87.7, 45.28], [-87.69, 45.3], [-87.66, 45.32], [-87.66, 45.33], [-87.65, 45.34], [-87.65, 45.35], [-87.66, 45.36], [-87.66, 45.37], [-87.67, 45.38], [-87.67, 45.38], [-87.69, 45.39], [-87.72, 45.38], [-87.74, 45.36], [-87.75, 45.35], [-87.78, 45.35], [-87.79, 45.35], [-87.81, 45.35], [-87.83, 45.35], [-87.84, 45.35], [-87.85, 45.35], [-87.87, 45.36], [-87.88, 45.35], [-87.89, 45.35], [-87.88, 45.36], [-87.87, 45.37], [-87.88, 45.38], [-87.86, 45.39], [-87.86, 45.4], [-87.85, 45.41], [-87.86, 45.42], [-87.86, 45.43], [-87.83, 45.46], [-87.81, 45.46], [-87.81, 45.48], [-87.8, 45.48], [-87.79, 45.5], [-87.8, 45.51], [-87.81, 45.54], [-87.83, 45.56], [-87.83, 45.57], [-87.8, 45.56], [-87.79, 45.57], [-87.79, 45.58], [-87.78, 45.59], [-87.77, 45.6], [-87.78, 45.61], [-87.79, 45.62], [-87.8, 45.63], [-87.81, 45.64], [-87.82, 45.65], [-87.82, 45.66], [-87.8, 45.67], [-87.78, 45.67], [-87.79, 45.69], [-87.8, 45.7], [-87.81, 45.7], [-87.81, 45.71], [-87.84, 45.72], [-87.85, 45.73], [-87.86, 45.74], [-87.86, 45.75], [-87.88, 45.75], [-87.9, 45.75], [-87.92, 45.76], [-87.94, 45.76], [-87.96, 45.76], [-87.97, 45.76], [-87.99, 45.77], [-87.98, 45.78], [-87.99, 45.79], [-87.99, 45.8], [-88.03, 45.79], [-88.04, 45.79], [-88.04, 45.78], [-88.07, 45.78], [-88.08, 45.79], [-88.09, 45.79], [-88.1, 45.79], [-88.11, 45.8], [-88.13, 45.81], [-88.13, 45.82], [-88.08, 45.86], [-88.07, 45.87], [-88.08, 45.88], [-88.1, 45.88], [-88.11, 45.9], [-88.11, 45.9], [-88.1, 45.92], [-88.1, 45.92], [-88.12, 45.92], [-88.14, 45.93], [-88.15, 45.94], [-88.17, 45.94], [-88.18, 45.95], [-88.2, 45.95], [-88.2, 45.95], [-88.23, 45.95], [-88.24, 45.95], [-88.25, 45.96], [-88.25, 45.96], [-88.27, 45.96], [-88.29, 45.96], [-88.29, 45.95], [-88.31, 45.96], [-88.32, 45.96], [-88.36, 45.98], [-88.38, 45.99], [-88.39, 45.98], [-88.41, 45.98], [-88.45, 45.99], [-88.46, 46.0], [-88.47, 46.0], [-88.47, 45.99], [-88.49, 45.99], [-88.5, 46.0], [-88.51, 46.02], [-88.53, 46.02], [-88.55, 46.01], [-88.57, 46.02], [-88.59, 46.01], [-88.59, 46.01], [-88.6, 46.02], [-88.62, 45.99], [-88.64, 45.99], [-88.66, 45.99], [-88.68, 46.01], [-88.7, 46.02], [-88.71, 46.01], [-88.72, 46.02], [-88.74, 46.03], [-88.76, 46.02], [-88.78, 46.02], [-88.79, 46.03], [-88.81, 46.02], [-88.84, 46.03], [-88.85, 46.04], [-88.93, 46.07], [-89.09, 46.14], [-89.19, 46.16], [-89.38, 46.19], [-89.46, 46.21], [-89.53, 46.22], [-89.76, 46.27], [-89.92, 46.3], [-90.12, 46.34], [-90.12, 46.35], [-90.12, 46.36], [-90.13, 46.37], [-90.13, 46.38], [-90.14, 46.39], [-90.15, 46.4], [-90.16, 46.41], [-90.16, 46.42], [-90.16, 46.43], [-90.18, 46.44], [-90.18, 46.46], [-90.19, 46.46], [-90.19, 46.47], [-90.2, 46.48], [-90.22, 46.5], [-90.23, 46.51], [-90.26, 46.5], [-90.27, 46.52], [-90.28, 46.52], [-90.32, 46.52], [-90.31, 46.54], [-90.33, 46.55], [-90.33, 46.55], [-90.34, 46.55], [-90.35, 46.54], [-90.37, 46.54], [-90.39, 46.53], [-90.4, 46.54], [-90.42, 46.57], [-90.38, 46.58], [-90.33, 46.61], [-90.31, 46.6], [-90.27, 46.62], [-90.23, 46.63], [-90.2, 46.64], [-90.16, 46.65], [-90.14, 46.65], [-90.1, 46.66], [-90.05, 46.67], [-90.03, 46.67], [-90.0, 46.69], [-89.98, 46.7], [-89.96, 46.72], [-89.92, 46.74], [-89.87, 46.78], [-89.85, 46.8], [-89.83, 46.8], [-89.79, 46.82], [-89.73, 46.83], [-89.71, 46.83], [-89.69, 46.83], [-89.67, 46.83], [-89.66, 46.83], [-89.63, 46.82], [-89.62, 46.82], [-89.6, 46.83], [-89.57, 46.83], [-89.55, 46.84], [-89.54, 46.84], [-89.51, 46.84], [-89.5, 46.84], [-89.47, 46.84], [-89.43, 46.84], [-89.42, 46.84], [-89.38, 46.86], [-89.35, 46.86], [-89.33, 46.88], [-89.28, 46.89], [-89.23, 46.91], [-89.2, 46.93], [-89.18, 46.95], [-89.18, 46.96], [-89.16, 46.97], [-89.14, 46.98], [-89.13, 46.99], [-89.12, 46.99], [-89.11, 46.99], [-89.09, 46.99], [-89.06, 46.99], [-89.04, 47.0], [-89.01, 46.99], [-88.99, 47.0], [-88.97, 47.0], [-88.95, 47.02], [-88.92, 47.04], [-88.91, 47.06], [-88.91, 47.07], [-88.9, 47.09], [-88.89, 47.1], [-88.84, 47.12], [-88.82, 47.14], [-88.79, 47.15], [-88.78, 47.15], [-88.76, 47.16], [-88.73, 47.19], [-88.7, 47.2], [-88.67, 47.22], [-88.66, 47.23], [-88.63, 47.23], [-88.61, 47.24], [-88.58, 47.25], [-88.55, 47.26], [-88.52, 47.28], [-88.49, 47.3], [-88.48, 47.32], [-88.46, 47.34], [-88.43, 47.36], [-88.43, 47.37], [-88.41, 47.37], [-88.39, 47.38], [-88.37, 47.39], [-88.36, 47.39], [-88.33, 47.4], [-88.3, 47.41], [-88.29, 47.42], [-88.24, 47.43], [-88.22, 47.44], [-88.22, 47.45], [-88.18, 47.46], [-88.16, 47.46], [-88.14, 47.46], [-88.14, 47.46], [-88.13, 47.46], [-88.11, 47.46], [-88.08, 47.47], [-88.08, 47.47], [-88.05, 47.47], [-88.04, 47.48], [-88.03, 47.48], [-87.94, 47.48], [-87.9, 47.48], [-87.9, 47.47], [-87.88, 47.47], [-87.85, 47.47], [-87.85, 47.47], [-87.8, 47.47], [-87.76, 47.46], [-87.73, 47.45], [-87.72, 47.44], [-87.72, 47.42], [-87.71, 47.41], [-87.72, 47.4], [-87.74, 47.41], [-87.75, 47.41], [-87.77, 47.39], [-87.79, 47.39], [-87.8, 47.39], [-87.81, 47.39], [-87.83, 47.39], [-87.85, 47.39], [-87.88, 47.4], [-87.9, 47.39], [-87.9, 47.39], [-87.94, 47.39], [-87.96, 47.39], [-87.97, 47.37], [-87.96, 47.36], [-87.95, 47.35], [-87.94, 47.34], [-87.94, 47.34], [-87.97, 47.33], [-87.99, 47.32], [-88.02, 47.31], [-88.06, 47.3], [-88.07, 47.29], [-88.1, 47.26], [-88.12, 47.25], [-88.13, 47.24], [-88.18, 47.22], [-88.19, 47.21], [-88.21, 47.21], [-88.23, 47.2], [-88.24, 47.17], [-88.24, 47.16], [-88.23, 47.15], [-88.24, 47.14], [-88.26, 47.15], [-88.28, 47.14], [-88.29, 47.13], [-88.29, 47.11], [-88.3, 47.1], [-88.31, 47.09], [-88.35, 47.08], [-88.35, 47.05], [-88.37, 47.03], [-88.37, 47.02], [-88.4, 46.99], [-88.41, 46.98], [-88.42, 46.98], [-88.45, 46.97], [-88.45, 46.95], [-88.46, 46.92], [-88.47, 46.89], [-88.48, 46.85], [-88.48, 46.83], [-88.48, 46.82], [-88.47, 46.82], [-88.47, 46.81], [-88.46, 46.79], [-88.47, 46.78], [-88.48, 46.78], [-88.5, 46.76], [-88.5, 46.75], [-88.48, 46.75], [-88.47, 46.75], [-88.45, 46.76], [-88.45, 46.77], [-88.44, 46.79], [-88.42, 46.81], [-88.38, 46.84], [-88.39, 46.85], [-88.4, 46.85], [-88.39, 46.87], [-88.38, 46.87], [-88.38, 46.86], [-88.36, 46.86], [-88.35, 46.86], [-88.34, 46.87], [-88.31, 46.88], [-88.3, 46.9], [-88.26, 46.91], [-88.24, 46.93], [-88.2, 46.94], [-88.19, 46.95], [-88.17, 46.96], [-88.16, 46.96], [-88.14, 46.96], [-88.15, 46.95], [-88.15, 46.95], [-88.18, 46.92], [-88.21, 46.91], [-88.23, 46.9], [-88.24, 46.89], [-88.26, 46.86], [-88.27, 46.84], [-88.28, 46.83], [-88.27, 46.82], [-88.26, 46.84], [-88.25, 46.84], [-88.24, 46.86], [-88.23, 46.88], [-88.21, 46.88], [-88.21, 46.89], [-88.18, 46.91], [-88.17, 46.9], [-88.13, 46.91], [-88.1, 46.92], [-88.08, 46.92], [-88.07, 46.92], [-88.04, 46.91], [-88.02, 46.91], [-87.99, 46.9], [-87.96, 46.91], [-87.94, 46.91], [-87.9, 46.91], [-87.87, 46.89], [-87.84, 46.88], [-87.82, 46.89], [-87.8, 46.88], [-87.78, 46.88], [-87.77, 46.86], [-87.76, 46.86], [-87.74, 46.87], [-87.73, 46.83], [-87.73, 46.83], [-87.71, 46.83], [-87.69, 46.83], [-87.68, 46.84], [-87.68, 46.84], [-87.67, 46.82], [-87.66, 46.81], [-87.63, 46.81], [-87.61, 46.79], [-87.59, 46.78], [-87.59, 46.75], [-87.58, 46.72], [-87.55, 46.7], [-87.54, 46.7], [-87.52, 46.69], [-87.53, 46.68], [-87.51, 46.66], [-87.5, 46.65], [-87.47, 46.64], [-87.46, 46.61], [-87.44, 46.6], [-87.43, 46.59], [-87.41, 46.59], [-87.39, 46.58], [-87.39, 46.57], [-87.38, 46.56], [-87.38, 46.54], [-87.39, 46.54], [-87.39, 46.53], [-87.38, 46.52], [-87.36, 46.5], [-87.32, 46.49], [-87.27, 46.49], [-87.22, 46.49], [-87.2, 46.49], [-87.18, 46.5], [-87.17, 46.5], [-87.14, 46.49], [-87.12, 46.49]]], [[[-88.51, 48.15], [-88.54, 48.13], [-88.54, 48.11], [-88.57, 48.1], [-88.59, 48.1], [-88.6, 48.09], [-88.64, 48.07], [-88.65, 48.06], [-88.63, 48.06], [-88.62, 48.07], [-88.6, 48.08], [-88.58, 48.09], [-88.57, 48.07], [-88.58, 48.06], [-88.6, 48.05], [-88.64, 48.03], [-88.67, 48.01], [-88.71, 48.0], [-88.74, 47.99], [-88.76, 47.98], [-88.8, 47.99], [-88.83, 47.98], [-88.85, 47.97], [-88.85, 47.97], [-88.87, 47.96], [-88.89, 47.95], [-88.9, 47.95], [-88.94, 47.94], [-88.95, 47.93], [-88.96, 47.92], [-89.0, 47.91], [-89.0, 47.89], [-88.98, 47.89], [-88.96, 47.89], [-88.95, 47.89], [-88.9, 47.9], [-88.91, 47.89], [-88.95, 47.88], [-88.97, 47.87], [-89.0, 47.87], [-89.03, 47.86], [-89.04, 47.86], [-89.11, 47.84], [-89.12, 47.83], [-89.15, 47.83], [-89.16, 47.82], [-89.18, 47.83], [-89.19, 47.83], [-89.2, 47.85], [-89.21, 47.85], [-89.23, 47.85], [-89.22, 47.87], [-89.2, 47.88], [-89.21, 47.89], [-89.19, 47.9], [-89.17, 47.9], [-89.16, 47.91], [-89.16, 47.92], [-89.18, 47.91], [-89.19, 47.9], [-89.22, 47.89], [-89.22, 47.91], [-89.2, 47.92], [-89.2, 47.92], [-89.18, 47.94], [-89.14, 47.95], [-89.11, 47.96], [-89.06, 47.98], [-89.02, 47.99], [-88.99, 48.0], [-88.97, 48.01], [-88.93, 48.02], [-88.91, 48.02], [-88.9, 48.03], [-88.88, 48.04], [-88.85, 48.05], [-88.83, 48.05], [-88.77, 48.07], [-88.77, 48.08], [-88.74, 48.09], [-88.71, 48.1], [-88.67, 48.12], [-88.65, 48.12], [-88.65, 48.13], [-88.63, 48.13], [-88.62, 48.14], [-88.56, 48.15], [-88.53, 48.16], [-88.52, 48.15], [-88.5, 48.16], [-88.49, 48.18], [-88.48, 48.17], [-88.49, 48.17], [-88.51, 48.16], [-88.54, 48.15], [-88.53, 48.14], [-88.51, 48.15], [-88.47, 48.17], [-88.46, 48.17], [-88.5, 48.15], [-88.51, 48.15]]]]}}, {"type": "Feature", "properties": {"STATE": "Michigan", "STATE_FIPS": "26", "CD_2DIG": "02", "STATE_CODE": 20, "CLIMDIV": 2002, "ID": 2002, "CD_NEW": 2, "FIPS_CD": "2602", "NCDC_GEO_I": 129.0, "NAME": "EAST UPPER", "ST_ABBRV": "MI", "SHAPE_AREA": 0.0, "SHAPE_LEN": 0.0}, "geometry": {"type": "MultiPolygon", "coordinates": [[[[-87.26, 45.55], [-87.33, 45.55], [-87.33, 45.71], [-87.33, 45.88], [-87.33, 45.9], [-87.37, 45.9], [-87.37, 45.92], [-87.37, 45.99], [-87.24, 45.99], [-87.24, 46.16], [-87.12, 46.16], [-87.12, 46.36], [-87.12, 46.49], [-87.08, 46.51], [-87.08, 46.52], [-87.06, 46.52], [-87.04, 46.52], [-87.02, 46.53], [-87.02, 46.53], [-87.0, 46.53], [-86.99, 46.53], [-86.98, 46.53], [-86.97, 46.52], [-86.96, 46.5], [-86.95, 46.48], [-86.95, 46.47], [-86.93, 46.47], [-86.91, 46.47], [-86.89, 46.46], [-86.89, 46.45], [-86.88, 46.44], [-86.86, 46.43], [-86.83, 46.43], [-86.82, 46.44], [-86.81, 46.46], [-86.79, 46.48], [-86.75, 46.48], [-86.73, 46.47], [-86.73, 46.46], [-86.72, 46.46], [-86.7, 46.44], [-86.68, 46.44], [-86.67, 46.45], [-86.65, 46.44], [-86.65, 46.43], [-86.66, 46.42], [-86.65, 46.41], [-86.64, 46.41], [-86.61, 46.44], [-86.61, 46.45], [-86.59, 46.45], [-86.58, 46.47], [-86.57, 46.48], [-86.55, 46.5], [-86.53, 46.5], [-86.52, 46.52], [-86.51, 46.52], [-86.49, 46.53], [-86.48, 46.54], [-86.46, 46.55], [-86.44, 46.55], [-86.4, 46.56], [-86.37, 46.57], [-86.35, 46.58], [-86.21, 46.64], [-86.18, 46.66], [-86.16, 46.67], [-86.14, 46.67], [-86.13, 46.66], [-86.12, 46.66], [-86.11, 46.65], [-86.08, 46.66], [-86.04, 46.67], [-85.99, 46.67], [-85.98, 46.67], [-85.91, 46.69], [-85.88, 46.69], [-85.84, 46.69], [-85.79, 46.68], [-85.74, 46.68], [-85.71, 46.68], [-85.67, 46.68], [-85.61, 46.68], [-85.59, 46.67], [-85.54, 46.67], [-85.5, 46.68], [-85.48, 46.68], [-85.44, 46.69], [-85.43, 46.7], [-85.37, 46.71], [-85.36, 46.71], [-85.36, 46.72], [-85.29, 46.74], [-85.26, 46.75], [-85.22, 46.76], [-85.18, 46.76], [-85.16, 46.76], [-85.09, 46.76], [-85.06, 46.76], [-85.04, 46.76], [-85.01, 46.77], [-84.99, 46.77], [-84.96, 46.77], [-84.96, 46.77], [-85.0, 46.74], [-85.01, 46.72], [-85.02, 46.71], [-85.03, 46.69], [-85.03, 46.67], [-85.04, 46.62], [-85.04, 46.58], [-85.03, 46.55], [-85.05, 46.53], [-85.05, 46.51], [-85.05, 46.5], [-85.03, 46.49], [-85.02, 46.48], [-84.97, 46.48], [-84.95, 46.49], [-84.94, 46.49], [-84.92, 46.47], [-84.9, 46.47], [-84.88, 46.47], [-84.86, 46.47], [-84.85, 46.46], [-84.85, 46.45], [-84.84, 46.45], [-84.82, 46.44], [-84.8, 46.45], [-84.76, 46.46], [-84.73, 46.47], [-84.68, 46.49], [-84.65, 46.48], [-84.63, 46.48], [-84.62, 46.47], [-84.61, 46.46], [-84.6, 46.45], [-84.6, 46.44], [-84.6, 46.43], [-84.6, 46.42], [-84.57, 46.41], [-84.56, 46.42], [-84.54, 46.43], [-84.52, 46.43], [-84.51, 46.43], [-84.5, 46.45], [-84.49, 46.44], [-84.48, 46.43], [-84.46, 46.44], [-84.46, 46.45], [-84.45, 46.47], [-84.41, 46.49], [-84.36, 46.5], [-84.34, 46.49], [-84.33, 46.5], [-84.31, 46.49], [-84.3, 46.47], [-84.28, 46.46], [-84.26, 46.43], [-84.26, 46.41], [-84.25, 46.39], [-84.24, 46.37], [-84.22, 46.35], [-84.22, 46.29], [-84.2, 46.27], [-84.18, 46.24], [-84.21, 46.25], [-84.21, 46.23], [-84.22, 46.23], [-84.25, 46.22], [-84.25, 46.21], [-84.26, 46.2], [-84.24, 46.19], [-84.24, 46.18], [-84.25, 46.18], [-84.22, 46.16], [-84.2, 46.17], [-84.19, 46.17], [-84.18, 46.18], [-84.16, 46.17], [-84.15, 46.18], [-84.14, 46.17], [-84.13, 46.17], [-84.12, 46.18], [-84.11, 46.17], [-84.12, 46.16], [-84.1, 46.16], [-84.1, 46.15], [-84.08, 46.15], [-84.07, 46.14], [-84.06, 46.15], [-84.03, 46.13], [-84.06, 46.11], [-84.07, 46.1], [-84.07, 46.09], [-84.06, 46.08], [-84.03, 46.05], [-84.01, 46.04], [-84.0, 46.05], [-83.98, 46.03], [-83.98, 46.02], [-83.97, 46.02], [-83.95, 46.03], [-83.93, 46.02], [-83.91, 46.01], [-83.9, 46.0], [-83.9, 45.99], [-83.91, 45.97], [-83.92, 45.97], [-83.92, 45.97], [-83.94, 45.97], [-83.95, 45.97], [-83.98, 45.97], [-84.0, 45.96], [-84.0, 45.95], [-84.03, 45.96], [-84.06, 45.97], [-84.09, 45.97], [-84.12, 45.98], [-84.13, 45.98], [-84.15, 45.98], [-84.2, 45.98], [-84.22, 45.99], [-84.25, 45.98], [-84.26, 45.98], [-84.27, 45.99], [-84.28, 45.98], [-84.3, 46.0], [-84.3, 45.99], [-84.29, 45.99], [-84.29, 45.97], [-84.3, 45.98], [-84.31, 45.98], [-84.33, 45.98], [-84.33, 45.99], [-84.36, 46.0], [-84.35, 45.98], [-84.36, 45.97], [-84.39, 45.99], [-84.39, 46.0], [-84.41, 46.01], [-84.42, 46.0], [-84.44, 46.01], [-84.46, 46.01], [-84.46, 46.01], [-84.47, 46.0], [-84.47, 45.99], [-84.46, 45.98], [-84.47, 45.97], [-84.48, 45.98], [-84.48, 45.99], [-84.5, 46.0], [-84.52, 45.99], [-84.51, 45.97], [-84.53, 45.97], [-84.53, 45.98], [-84.53, 45.99], [-84.53, 46.01], [-84.54, 46.02], [-84.56, 46.03], [-84.58, 46.03], [-84.59, 46.03], [-84.61, 46.03], [-84.62, 46.04], [-84.63, 46.04], [-84.66, 46.05], [-84.68, 46.04], [-84.69, 46.02], [-84.68, 46.0], [-84.69, 45.99], [-84.68, 45.98], [-84.7, 45.97], [-84.71, 45.97], [-84.73, 45.96], [-84.74, 45.94], [-84.73, 45.93], [-84.72, 45.93], [-84.71, 45.92], [-84.73, 45.92], [-84.74, 45.91], [-84.73, 45.9], [-84.73, 45.89], [-84.72, 45.87], [-84.7, 45.85], [-84.71, 45.85], [-84.72, 45.85], [-84.74, 45.85], [-84.75, 45.84], [-84.78, 45.85], [-84.8, 45.86], [-84.8, 45.87], [-84.82, 45.87], [-84.83, 45.87], [-84.84, 45.88], [-84.84, 45.9], [-84.87, 45.91], [-84.89, 45.92], [-84.91, 45.93], [-84.93, 45.95], [-84.95, 45.96], [-84.97, 45.99], [-85.0, 46.0], [-85.01, 46.01], [-85.03, 46.02], [-85.05, 46.02], [-85.09, 46.03], [-85.13, 46.05], [-85.15, 46.05], [-85.16, 46.05], [-85.17, 46.06], [-85.18, 46.06], [-85.19, 46.06], [-85.19, 46.05], [-85.22, 46.06], [-85.23, 46.06], [-85.25, 46.06], [-85.26, 46.06], [-85.28, 46.07], [-85.31, 46.08], [-85.33, 46.09], [-85.35, 46.09], [-85.37, 46.09], [-85.38, 46.08], [-85.39, 46.09], [-85.39, 46.1], [-85.41, 46.1], [-85.43, 46.1], [-85.46, 46.09], [-85.48, 46.1], [-85.5, 46.1], [-85.51, 46.09], [-85.54, 46.08], [-85.57, 46.06], [-85.58, 46.05], [-85.6, 46.03], [-85.62, 46.01], [-85.63, 45.99], [-85.65, 45.98], [-85.66, 45.97], [-85.67, 45.97], [-85.69, 45.96], [-85.7, 45.96], [-85.73, 45.97], [-85.74, 45.97], [-85.77, 45.97], [-85.78, 45.98], [-85.8, 45.98], [-85.82, 45.98], [-85.84, 45.97], [-85.85, 45.97], [-85.89, 45.97], [-85.91, 45.96], [-85.92, 45.95], [-85.93, 45.93], [-85.94, 45.93], [-85.95, 45.94], [-86.01, 45.95], [-86.06, 45.96], [-86.09, 45.97], [-86.12, 45.96], [-86.15, 45.95], [-86.18, 45.96], [-86.2, 45.96], [-86.22, 45.96], [-86.23, 45.95], [-86.25, 45.95], [-86.28, 45.94], [-86.28, 45.93], [-86.29, 45.93], [-86.31, 45.92], [-86.32, 45.91], [-86.32, 45.9], [-86.34, 45.86], [-86.33, 45.85], [-86.34, 45.85], [-86.35, 45.83], [-86.35, 45.82], [-86.36, 45.81], [-86.35, 45.8], [-86.37, 45.79], [-86.39, 45.8], [-86.4, 45.8], [-86.42, 45.79], [-86.43, 45.79], [-86.43, 45.77], [-86.44, 45.76], [-86.45, 45.76], [-86.45, 45.76], [-86.48, 45.76], [-86.49, 45.75], [-86.5, 45.75], [-86.54, 45.75], [-86.54, 45.74], [-86.52, 45.74], [-86.53, 45.73], [-86.53, 45.71], [-86.56, 45.71], [-86.57, 45.72], [-86.59, 45.7], [-86.58, 45.69], [-86.59, 45.68], [-86.59, 45.67], [-86.61, 45.67], [-86.63, 45.66], [-86.62, 45.64], [-86.62, 45.62], [-86.62, 45.61], [-86.63, 45.62], [-86.65, 45.62], [-86.66, 45.62], [-86.69, 45.63], [-86.7, 45.66], [-86.71, 45.66], [-86.72, 45.67], [-86.72, 45.68], [-86.7, 45.69], [-86.69, 45.69], [-86.67, 45.69], [-86.67, 45.7], [-86.67, 45.72], [-86.66, 45.73], [-86.65, 45.73], [-86.64, 45.74], [-86.62, 45.75], [-86.62, 45.76], [-86.63, 45.78], [-86.62, 45.78], [-86.61, 45.78], [-86.58, 45.78], [-86.57, 45.77], [-86.56, 45.77], [-86.57, 45.79], [-86.58, 45.79], [-86.58, 45.8], [-86.56, 45.81], [-86.56, 45.82], [-86.55, 45.83], [-86.54, 45.84], [-86.54, 45.85], [-86.53, 45.85], [-86.53, 45.87], [-86.53, 45.88], [-86.55, 45.9], [-86.57, 45.9], [-86.59, 45.9], [-86.6, 45.88], [-86.61, 45.88], [-86.63, 45.86], [-86.63, 45.84], [-86.65, 45.84], [-86.65, 45.84], [-86.68, 45.84], [-86.71, 45.84], [-86.72, 45.84], [-86.73, 45.85], [-86.73, 45.85], [-86.74, 45.87], [-86.76, 45.87], [-86.78, 45.86], [-86.78, 45.84], [-86.79, 45.83], [-86.78, 45.83], [-86.77, 45.81], [-86.78, 45.8], [-86.81, 45.79], [-86.81, 45.78], [-86.82, 45.77], [-86.82, 45.77], [-86.82, 45.76], [-86.83, 45.75], [-86.85, 45.74], [-86.84, 45.72], [-86.88, 45.71], [-86.9, 45.71], [-86.92, 45.7], [-86.92, 45.7], [-86.94, 45.7], [-86.95, 45.69], [-86.97, 45.67], [-86.97, 45.69], [-86.98, 45.7], [-86.98, 45.71], [-86.98, 45.73], [-86.98, 45.75], [-86.98, 45.76], [-86.98, 45.78], [-86.98, 45.79], [-86.99, 45.8], [-86.99, 45.81], [-87.0, 45.82], [-87.01, 45.83], [-86.99, 45.84], [-86.98, 45.85], [-86.97, 45.86], [-86.96, 45.86], [-86.95, 45.88], [-86.95, 45.9], [-86.96, 45.91], [-86.97, 45.92], [-86.99, 45.9], [-86.99, 45.89], [-87.02, 45.86], [-87.0, 45.85], [-87.02, 45.84], [-87.04, 45.83], [-87.06, 45.81], [-87.06, 45.8], [-87.06, 45.79], [-87.07, 45.78], [-87.06, 45.75], [-87.04, 45.74], [-87.06, 45.74], [-87.07, 45.72], [-87.09, 45.71], [-87.1, 45.7], [-87.1, 45.69], [-87.13, 45.68], [-87.15, 45.67], [-87.17, 45.66], [-87.18, 45.65], [-87.2, 45.64], [-87.21, 45.62], [-87.23, 45.59], [-87.23, 45.59], [-87.24, 45.58], [-87.25, 45.57], [-87.26, 45.55]]], [[[-83.64, 46.1], [-83.63, 46.1], [-83.59, 46.09], [-83.59, 46.09], [-83.58, 46.08], [-83.57, 46.07], [-83.57, 46.06], [-83.55, 46.06], [-83.55, 46.04], [-83.54, 46.02], [-83.52, 46.01], [-83.5, 46.0], [-83.49, 46.0], [-83.48, 46.0], [-83.47, 45.98], [-83.48, 45.97], [-83.5, 45.96], [-83.5, 45.95], [-83.51, 45.94], [-83.51, 45.93], [-83.53, 45.92], [-83.54, 45.92], [-83.55, 45.92], [-83.56, 45.92], [-83.57, 45.92], [-83.6, 45.92], [-83.61, 45.93], [-83.61, 45.94], [-83.62, 45.94], [-83.63, 45.96], [-83.64, 45.96], [-83.65, 45.95], [-83.66, 45.95], [-83.69, 45.94], [-83.7, 45.94], [-83.71, 45.93], [-83.74, 45.94], [-83.76, 45.95], [-83.76, 45.95], [-83.78, 45.95], [-83.78, 45.94], [-83.79, 45.93], [-83.81, 45.95], [-83.8, 45.95], [-83.81, 45.96], [-83.83, 45.95], [-83.84, 45.96], [-83.84, 45.97], [-83.86, 45.98], [-83.87, 45.97], [-83.88, 45.97], [-83.88, 45.98], [-83.87, 46.01], [-83.86, 46.01], [-83.85, 46.03], [-83.84, 46.02], [-83.83, 46.02], [-83.83, 46.01], [-83.83, 46.0], [-83.82, 45.99], [-83.81, 45.98], [-83.79, 45.99], [-83.79, 46.0], [-83.78, 46.0], [-83.77, 46.01], [-83.76, 46.03], [-83.75, 46.02], [-83.74, 46.02], [-83.73, 46.03], [-83.71, 46.04], [-83.69, 46.03], [-83.69, 46.05], [-83.67, 46.05], [-83.68, 46.07], [-83.7, 46.08], [-83.73, 46.09], [-83.72, 46.1], [-83.7, 46.1], [-83.69, 46.1], [-83.68, 46.1], [-83.66, 46.1], [-83.64, 46.1]]], [[[-84.2, 46.53], [-84.19, 46.53], [-84.16, 46.52], [-84.14, 46.53], [-84.13, 46.53], [-84.12, 46.52], [-84.13, 46.51], [-84.15, 46.49], [-84.15, 46.47], [-84.17, 46.46], [-84.18, 46.46], [-84.18, 46.45], [-84.19, 46.44], [-84.19, 46.43], [-84.19, 46.41], [-84.18, 46.41], [-84.17, 46.4], [-84.16, 46.39], [-84.15, 46.38], [-84.14, 46.37], [-84.14, 46.36], [-84.12, 46.33], [-84.11, 46.32], [-84.13, 46.32], [-84.14, 46.33], [-84.15, 46.33], [-84.17, 46.34], [-84.18, 46.36], [-84.18, 46.37], [-84.2, 46.37], [-84.22, 46.39], [-84.23, 46.39], [-84.23, 46.42], [-84.25, 46.44], [-84.25, 46.46], [-84.27, 46.46], [-84.28, 46.46], [-84.29, 46.48], [-84.28, 46.49], [-84.25, 46.5], [-84.24, 46.51], [-84.24, 46.51], [-84.23, 46.52], [-84.22, 46.53], [-84.2, 46.53]]], [[[-84.56, 45.82], [-84.55, 45.81], [-84.52, 45.81], [-84.5, 45.81], [-84.49, 45.8], [-84.43, 45.79], [-84.41, 45.8], [-84.4, 45.79], [-84.39, 45.78], [-84.36, 45.77], [-84.37, 45.76], [-84.37, 45.75], [-84.38, 45.74], [-84.39, 45.74], [-84.39, 45.73], [-84.41, 45.72], [-84.42, 45.72], [-84.44, 45.73], [-84.45, 45.73], [-84.47, 45.73], [-84.48, 45.73], [-84.5, 45.74], [-84.51, 45.76], [-84.53, 45.76], [-84.54, 45.78], [-84.56, 45.79], [-84.58, 45.8], [-84.59, 45.81], [-84.58, 45.82], [-84.56, 45.82]]], [[[-84.17, 46.33], [-84.14, 46.32], [-84.14, 46.31], [-84.13, 46.29], [-84.13, 46.28], [-84.12, 46.27], [-84.1, 46.25], [-84.12, 46.24], [-84.15, 46.23], [-84.15, 46.21], [-84.16, 46.24], [-84.18, 46.25], [-84.18, 46.26], [-84.18, 46.27], [-84.2, 46.27], [-84.21, 46.28], [-84.21, 46.29], [-84.2, 46.31], [-84.21, 46.31], [-84.21, 46.32], [-84.2, 46.32], [-84.18, 46.33], [-84.17, 46.33]]], [[[-86.68, 46.56], [-86.68, 46.56], [-86.65, 46.56], [-86.65, 46.55], [-86.63, 46.54], [-86.63, 46.51], [-86.64, 46.5], [-86.65, 46.49], [-86.64, 46.48], [-86.63, 46.48], [-86.62, 46.49], [-86.61, 46.49], [-86.61, 46.48], [-86.61, 46.47], [-86.62, 46.46], [-86.64, 46.45], [-86.64, 46.46], [-86.64, 46.47], [-86.66, 46.47], [-86.67, 46.45], [-86.68, 46.45], [-86.69, 46.46], [-86.69, 46.46], [-86.68, 46.5], [-86.7, 46.5], [-86.7, 46.51], [-86.7, 46.53], [-86.71, 46.54], [-86.7, 46.55], [-86.68, 46.56]]], [[[-84.63, 45.88], [-84.62, 45.88], [-84.61, 45.86], [-84.6, 45.85], [-84.62, 45.85], [-84.65, 45.86], [-84.65, 45.88], [-84.65, 45.89], [-84.63, 45.88]]]]}}, {"type": "Feature", "properties": {"STATE": "Michigan", "STATE_FIPS": "26", "CD_2DIG": "03", "STATE_CODE": 20, "CLIMDIV": 2003, "ID": 2003, "CD_NEW": 3, "FIPS_CD": "2603", "NCDC_GEO_I": 130.0, "NAME": "NORTHWEST", "ST_ABBRV": "MI", "SHAPE_AREA": 0.0, "SHAPE_LEN": 0.0}, "geometry": {"type": "MultiPolygon", "coordinates": [[[[-84.73, 45.79], [-84.73, 45.63], [-84.73, 45.54], [-84.73, 45.52], [-84.73, 45.43], [-84.73, 45.34], [-84.73, 45.18], [-84.73, 45.11], [-84.84, 45.12], [-84.86, 45.12], [-84.86, 45.07], [-84.86, 45.03], [-84.85, 45.03], [-84.85, 44.99], [-84.85, 44.9], [-84.85, 44.83], [-84.85, 44.77], [-84.85, 44.75], [-84.85, 44.62], [-84.85, 44.58], [-84.85, 44.51], [-84.86, 44.43], [-84.86, 44.39], [-84.85, 44.33], [-84.85, 44.3], [-84.85, 44.25], [-84.85, 44.16], [-84.89, 44.16], [-85.11, 44.16], [-85.39, 44.17], [-85.56, 44.16], [-85.68, 44.16], [-85.75, 44.16], [-85.83, 44.16], [-85.95, 44.17], [-86.04, 44.17], [-86.12, 44.17], [-86.22, 44.17], [-86.27, 44.18], [-86.39, 44.18], [-86.36, 44.21], [-86.35, 44.23], [-86.34, 44.25], [-86.33, 44.26], [-86.31, 44.3], [-86.27, 44.35], [-86.26, 44.38], [-86.25, 44.4], [-86.25, 44.43], [-86.25, 44.45], [-86.25, 44.48], [-86.24, 44.5], [-86.23, 44.52], [-86.22, 44.55], [-86.22, 44.57], [-86.23, 44.59], [-86.23, 44.61], [-86.25, 44.65], [-86.26, 44.67], [-86.26, 44.69], [-86.25, 44.7], [-86.24, 44.71], [-86.17, 44.72], [-86.15, 44.73], [-86.14, 44.73], [-86.12, 44.73], [-86.11, 44.73], [-86.09, 44.74], [-86.08, 44.76], [-86.07, 44.77], [-86.08, 44.8], [-86.07, 44.81], [-86.07, 44.82], [-86.07, 44.83], [-86.07, 44.88], [-86.07, 44.9], [-86.07, 44.91], [-86.06, 44.91], [-86.04, 44.92], [-86.03, 44.91], [-86.02, 44.9], [-86.0, 44.9], [-85.98, 44.91], [-85.97, 44.92], [-85.97, 44.93], [-85.95, 44.94], [-85.94, 44.95], [-85.94, 44.96], [-85.93, 44.97], [-85.92, 44.97], [-85.89, 44.96], [-85.88, 44.94], [-85.86, 44.94], [-85.83, 44.94], [-85.82, 44.95], [-85.8, 44.95], [-85.78, 44.98], [-85.78, 44.99], [-85.78, 45.01], [-85.76, 45.02], [-85.75, 45.04], [-85.74, 45.05], [-85.72, 45.06], [-85.7, 45.08], [-85.68, 45.09], [-85.67, 45.12], [-85.67, 45.13], [-85.66, 45.15], [-85.63, 45.17], [-85.62, 45.19], [-85.61, 45.18], [-85.59, 45.18], [-85.57, 45.19], [-85.56, 45.2], [-85.55, 45.21], [-85.54, 45.21], [-85.54, 45.2], [-85.53, 45.19], [-85.53, 45.18], [-85.55, 45.17], [-85.57, 45.16], [-85.59, 45.15], [-85.6, 45.15], [-85.6, 45.14], [-85.61, 45.13], [-85.61, 45.11], [-85.6, 45.1], [-85.6, 45.09], [-85.58, 45.07], [-85.57, 45.06], [-85.57, 45.04], [-85.57, 45.04], [-85.58, 45.06], [-85.59, 45.05], [-85.6, 45.04], [-85.6, 45.02], [-85.6, 45.02], [-85.63, 45.0], [-85.65, 44.97], [-85.63, 44.97], [-85.61, 44.98], [-85.6, 44.99], [-85.6, 44.94], [-85.6, 44.92], [-85.63, 44.92], [-85.64, 44.89], [-85.65, 44.87], [-85.65, 44.86], [-85.65, 44.85], [-85.65, 44.83], [-85.64, 44.81], [-85.63, 44.8], [-85.64, 44.77], [-85.63, 44.77], [-85.61, 44.76], [-85.59, 44.77], [-85.59, 44.78], [-85.58, 44.8], [-85.58, 44.82], [-85.57, 44.83], [-85.55, 44.86], [-85.53, 44.87], [-85.52, 44.9], [-85.53, 44.9], [-85.55, 44.9], [-85.55, 44.89], [-85.56, 44.89], [-85.55, 44.91], [-85.54, 44.92], [-85.53, 44.94], [-85.53, 44.95], [-85.52, 44.96], [-85.52, 44.97], [-85.5, 44.98], [-85.49, 44.99], [-85.47, 44.99], [-85.47, 44.96], [-85.48, 44.96], [-85.49, 44.96], [-85.49, 44.94], [-85.49, 44.93], [-85.49, 44.92], [-85.49, 44.91], [-85.49, 44.9], [-85.49, 44.88], [-85.5, 44.87], [-85.5, 44.86], [-85.51, 44.85], [-85.52, 44.85], [-85.54, 44.83], [-85.56, 44.82], [-85.56, 44.79], [-85.57, 44.77], [-85.57, 44.76], [-85.56, 44.75], [-85.54, 44.75], [-85.52, 44.75], [-85.5, 44.77], [-85.51, 44.79], [-85.5, 44.8], [-85.47, 44.82], [-85.46, 44.82], [-85.46, 44.83], [-85.45, 44.85], [-85.45, 44.85], [-85.44, 44.87], [-85.42, 44.89], [-85.42, 44.89], [-85.41, 44.91], [-85.4, 44.93], [-85.39, 44.95], [-85.39, 44.96], [-85.38, 44.97], [-85.38, 44.99], [-85.38, 45.0], [-85.38, 45.02], [-85.38, 45.05], [-85.37, 45.07], [-85.37, 45.07], [-85.36, 45.11], [-85.37, 45.13], [-85.38, 45.15], [-85.38, 45.18], [-85.39, 45.19], [-85.39, 45.24], [-85.39, 45.24], [-85.37, 45.27], [-85.36, 45.28], [-85.34, 45.29], [-85.33, 45.3], [-85.31, 45.31], [-85.3, 45.32], [-85.29, 45.31], [-85.27, 45.32], [-85.25, 45.33], [-85.25, 45.34], [-85.24, 45.34], [-85.22, 45.35], [-85.2, 45.36], [-85.18, 45.36], [-85.16, 45.37], [-85.15, 45.37], [-85.14, 45.37], [-85.11, 45.37], [-85.06, 45.36], [-85.04, 45.36], [-85.01, 45.37], [-84.99, 45.37], [-84.96, 45.38], [-84.94, 45.39], [-84.91, 45.39], [-84.91, 45.41], [-84.92, 45.42], [-84.95, 45.43], [-84.98, 45.43], [-85.0, 45.43], [-85.01, 45.43], [-85.04, 45.44], [-85.06, 45.45], [-85.08, 45.47], [-85.09, 45.48], [-85.1, 45.5], [-85.11, 45.52], [-85.12, 45.54], [-85.12, 45.58], [-85.09, 45.6], [-85.08, 45.62], [-85.07, 45.63], [-85.06, 45.64], [-85.01, 45.65], [-85.0, 45.66], [-84.99, 45.68], [-84.97, 45.68], [-84.97, 45.69], [-84.94, 45.71], [-84.94, 45.73], [-84.95, 45.74], [-84.97, 45.75], [-84.97, 45.76], [-84.94, 45.76], [-84.92, 45.76], [-84.9, 45.75], [-84.89, 45.76], [-84.88, 45.76], [-84.84, 45.74], [-84.82, 45.75], [-84.81, 45.75], [-84.8, 45.75], [-84.78, 45.76], [-84.79, 45.78], [-84.77, 45.79], [-84.75, 45.78], [-84.73, 45.79]]], [[[-85.56, 45.76], [-85.55, 45.76], [-85.54, 45.75], [-85.52, 45.75], [-85.51, 45.74], [-85.5, 45.73], [-85.49, 45.7], [-85.5, 45.7], [-85.51, 45.68], [-85.5, 45.67], [-85.49, 45.65], [-85.49, 45.62], [-85.5, 45.61], [-85.51, 45.6], [-85.53, 45.59], [-85.53, 45.58], [-85.56, 45.57], [-85.58, 45.58], [-85.61, 45.58], [-85.62, 45.59], [-85.63, 45.6], [-85.62, 45.61], [-85.62, 45.63], [-85.61, 45.63], [-85.6, 45.64], [-85.61, 45.66], [-85.6, 45.68], [-85.6, 45.68], [-85.59, 45.7], [-85.57, 45.71], [-85.57, 45.73], [-85.56, 45.74], [-85.57, 45.76], [-85.56, 45.76]]], [[[-86.04, 45.16], [-86.0, 45.16], [-85.99, 45.15], [-85.98, 45.14], [-85.98, 45.12], [-85.98, 45.1], [-85.98, 45.08], [-85.98, 45.08], [-85.96, 45.07], [-86.0, 45.05], [-86.04, 45.09], [-86.06, 45.1], [-86.06, 45.12], [-86.07, 45.14], [-86.06, 45.15], [-86.04, 45.16]]], [[[-86.12, 45.05], [-86.09, 45.04], [-86.08, 45.03], [-86.09, 45.03], [-86.1, 45.02], [-86.1, 45.01], [-86.12, 45.0], [-86.13, 45.0], [-86.16, 45.0], [-86.16, 45.01], [-86.14, 45.04], [-86.12, 45.05]]], [[[-85.52, 45.83], [-85.49, 45.82], [-85.47, 45.81], [-85.46, 45.79], [-85.47, 45.78], [-85.48, 45.78], [-85.5, 45.77], [-85.51, 45.78], [-85.49, 45.79], [-85.51, 45.8], [-85.53, 45.81], [-85.52, 45.83]]], [[[-85.68, 45.75], [-85.66, 45.74], [-85.65, 45.73], [-85.65, 45.72], [-85.68, 45.7], [-85.7, 45.7], [-85.69, 45.72], [-85.7, 45.74], [-85.69, 45.75], [-85.68, 45.75]]], [[[-85.35, 45.8], [-85.35, 45.8], [-85.36, 45.79], [-85.36, 45.78], [-85.37, 45.77], [-85.39, 45.77], [-85.39, 45.78], [-85.37, 45.8], [-85.37, 45.82], [-85.36, 45.82], [-85.35, 45.8]]]]}}, {"type": "Feature", "properties": {"STATE": "Michigan", "STATE_FIPS": "26", "CD_2DIG": "04", "STATE_CODE": 20, "CLIMDIV": 2004, "ID": 2004, "CD_NEW": 4, "FIPS_CD": "2604", "NCDC_GEO_I": 131.0, "NAME": "NORTHEAST LOWER", "ST_ABBRV": "MI", "SHAPE_AREA": 0.0, "SHAPE_LEN": 0.0}, "geometry": {"type": "Polygon", "coordinates": [[[-83.57, 44.16], [-83.67, 44.16], [-83.69, 44.16], [-83.73, 44.16], [-83.89, 44.16], [-84.17, 44.16], [-84.28, 44.16], [-84.38, 44.16], [-84.59, 44.16], [-84.75, 44.16], [-84.85, 44.16], [-84.85, 44.25], [-84.85, 44.3], [-84.85, 44.33], [-84.86, 44.39], [-84.86, 44.43], [-84.85, 44.51], [-84.85, 44.58], [-84.85, 44.62], [-84.85, 44.75], [-84.85, 44.77], [-84.85, 44.83], [-84.85, 44.9], [-84.85, 44.99], [-84.85, 45.03], [-84.86, 45.03], [-84.86, 45.07], [-84.86, 45.12], [-84.84, 45.12], [-84.73, 45.11], [-84.73, 45.18], [-84.73, 45.34], [-84.73, 45.43], [-84.73, 45.52], [-84.73, 45.54], [-84.73, 45.63], [-84.73, 45.79], [-84.72, 45.78], [-84.72, 45.77], [-84.72, 45.77], [-84.68, 45.76], [-84.68, 45.75], [-84.65, 45.74], [-84.63, 45.73], [-84.58, 45.71], [-84.56, 45.71], [-84.55, 45.7], [-84.52, 45.68], [-84.51, 45.68], [-84.5, 45.67], [-84.48, 45.66], [-84.47, 45.66], [-84.46, 45.65], [-84.44, 45.65], [-84.43, 45.65], [-84.43, 45.65], [-84.41, 45.65], [-84.43, 45.67], [-84.41, 45.67], [-84.38, 45.66], [-84.33, 45.66], [-84.29, 45.65], [-84.27, 45.65], [-84.24, 45.64], [-84.22, 45.64], [-84.2, 45.62], [-84.17, 45.59], [-84.14, 45.57], [-84.13, 45.56], [-84.13, 45.54], [-84.12, 45.53], [-84.11, 45.51], [-84.1, 45.5], [-84.07, 45.49], [-84.06, 45.49], [-84.03, 45.5], [-84.01, 45.5], [-84.0, 45.49], [-83.97, 45.5], [-83.94, 45.49], [-83.91, 45.49], [-83.9, 45.48], [-83.88, 45.47], [-83.86, 45.45], [-83.84, 45.43], [-83.81, 45.42], [-83.8, 45.42], [-83.77, 45.41], [-83.76, 45.41], [-83.74, 45.4], [-83.73, 45.41], [-83.72, 45.41], [-83.7, 45.4], [-83.67, 45.39], [-83.66, 45.38], [-83.63, 45.37], [-83.62, 45.36], [-83.59, 45.35], [-83.57, 45.35], [-83.55, 45.35], [-83.54, 45.36], [-83.52, 45.35], [-83.49, 45.34], [-83.48, 45.33], [-83.48, 45.33], [-83.46, 45.33], [-83.46, 45.32], [-83.45, 45.32], [-83.44, 45.31], [-83.43, 45.3], [-83.42, 45.29], [-83.41, 45.29], [-83.38, 45.27], [-83.39, 45.25], [-83.41, 45.26], [-83.41, 45.24], [-83.4, 45.22], [-83.38, 45.2], [-83.37, 45.18], [-83.37, 45.17], [-83.36, 45.16], [-83.35, 45.16], [-83.33, 45.14], [-83.33, 45.15], [-83.32, 45.14], [-83.32, 45.13], [-83.32, 45.12], [-83.31, 45.11], [-83.31, 45.1], [-83.3, 45.1], [-83.31, 45.09], [-83.32, 45.08], [-83.31, 45.07], [-83.31, 45.05], [-83.31, 45.05], [-83.28, 45.05], [-83.27, 45.04], [-83.26, 45.02], [-83.29, 45.03], [-83.32, 45.04], [-83.34, 45.04], [-83.35, 45.05], [-83.36, 45.05], [-83.37, 45.06], [-83.37, 45.08], [-83.39, 45.08], [-83.41, 45.07], [-83.42, 45.07], [-83.44, 45.05], [-83.45, 45.04], [-83.46, 45.02], [-83.45, 45.01], [-83.46, 45.01], [-83.46, 45.0], [-83.45, 44.99], [-83.45, 44.98], [-83.45, 44.96], [-83.44, 44.94], [-83.43, 44.93], [-83.41, 44.92], [-83.39, 44.9], [-83.38, 44.9], [-83.37, 44.89], [-83.35, 44.88], [-83.32, 44.88], [-83.32, 44.87], [-83.32, 44.85], [-83.31, 44.84], [-83.3, 44.83], [-83.3, 44.82], [-83.29, 44.81], [-83.3, 44.78], [-83.29, 44.77], [-83.3, 44.75], [-83.29, 44.73], [-83.27, 44.71], [-83.28, 44.69], [-83.29, 44.65], [-83.3, 44.64], [-83.31, 44.62], [-83.32, 44.6], [-83.31, 44.56], [-83.31, 44.55], [-83.32, 44.51], [-83.32, 44.49], [-83.32, 44.46], [-83.33, 44.43], [-83.32, 44.41], [-83.33, 44.37], [-83.34, 44.36], [-83.33, 44.34], [-83.34, 44.33], [-83.36, 44.33], [-83.37, 44.33], [-83.4, 44.3], [-83.42, 44.29], [-83.43, 44.27], [-83.44, 44.25], [-83.44, 44.27], [-83.46, 44.28], [-83.48, 44.28], [-83.51, 44.27], [-83.54, 44.25], [-83.55, 44.22], [-83.55, 44.2], [-83.56, 44.18], [-83.57, 44.16]]]}}, {"type": "Feature", "properties": {"STATE": "Michigan", "STATE_FIPS": "26", "CD_2DIG": "05", "STATE_CODE": 20, "CLIMDIV": 2005, "ID": 2005, "CD_NEW": 5, "FIPS_CD": "2605", "NCDC_GEO_I": 132.0, "NAME": "WEST CENTRAL LOWER", "ST_ABBRV": "MI", "SHAPE_AREA": 0.0, "SHAPE_LEN": 0.0}, "geometry": {"type": "Polygon", "coordinates": [[[-85.56, 44.16], [-85.56, 44.05], [-85.56, 43.96], [-85.56, 43.82], [-85.56, 43.68], [-85.56, 43.64], [-85.56, 43.54], [-85.56, 43.33], [-85.56, 43.29], [-85.79, 43.29], [-85.79, 43.21], [-85.91, 43.21], [-85.91, 43.19], [-85.91, 43.12], [-86.11, 43.12], [-86.19, 43.12], [-86.27, 43.12], [-86.3, 43.17], [-86.32, 43.2], [-86.34, 43.22], [-86.34, 43.24], [-86.37, 43.28], [-86.39, 43.3], [-86.4, 43.33], [-86.42, 43.37], [-86.43, 43.37], [-86.45, 43.43], [-86.46, 43.48], [-86.48, 43.52], [-86.5, 43.54], [-86.51, 43.56], [-86.53, 43.6], [-86.54, 43.63], [-86.54, 43.65], [-86.53, 43.68], [-86.51, 43.7], [-86.48, 43.73], [-86.46, 43.76], [-86.45, 43.77], [-86.44, 43.79], [-86.43, 43.81], [-86.43, 43.84], [-86.43, 43.86], [-86.45, 43.9], [-86.45, 43.92], [-86.45, 43.94], [-86.46, 43.95], [-86.46, 43.97], [-86.48, 44.0], [-86.5, 44.02], [-86.51, 44.04], [-86.52, 44.06], [-86.51, 44.07], [-86.49, 44.08], [-86.45, 44.11], [-86.43, 44.12], [-86.4, 44.16], [-86.39, 44.18], [-86.27, 44.18], [-86.22, 44.17], [-86.12, 44.17], [-86.04, 44.17], [-85.95, 44.17], [-85.83, 44.16], [-85.75, 44.16], [-85.68, 44.16], [-85.56, 44.16]]]}}, {"type": "Feature", "properties": {"STATE": "Michigan", "STATE_FIPS": "26", "CD_2DIG": "06", "STATE_CODE": 20, "CLIMDIV": 2006, "ID": 2006, "CD_NEW": 6, "FIPS_CD": "2606", "NCDC_GEO_I": 133.0, "NAME": "CENTRAL LOWER", "ST_ABBRV": "MI", "SHAPE_AREA": 0.0, "SHAPE_LEN": 0.0}, "geometry": {"type": "Polygon", "coordinates": [[[-84.85, 44.16], [-84.75, 44.16], [-84.59, 44.16], [-84.38, 44.16], [-84.28, 44.16], [-84.17, 44.16], [-84.17, 44.1], [-84.17, 43.9], [-84.17, 43.83], [-84.17, 43.8], [-84.17, 43.64], [-84.17, 43.57], [-84.17, 43.48], [-84.28, 43.48], [-84.37, 43.48], [-84.37, 43.44], [-84.37, 43.29], [-84.37, 43.13], [-84.37, 43.12], [-84.51, 43.12], [-84.68, 43.12], [-84.84, 43.12], [-85.06, 43.12], [-85.24, 43.12], [-85.31, 43.12], [-85.31, 43.29], [-85.56, 43.29], [-85.56, 43.33], [-85.56, 43.54], [-85.56, 43.64], [-85.56, 43.68], [-85.56, 43.82], [-85.56, 43.96], [-85.56, 44.05], [-85.56, 44.16], [-85.39, 44.17], [-85.11, 44.16], [-84.89, 44.16], [-84.85, 44.16]]]}}, {"type": "Feature", "properties": {"STATE": "Michigan", "STATE_FIPS": "26", "CD_2DIG": "07", "STATE_CODE": 20, "CLIMDIV": 2007, "ID": 2007, "CD_NEW": 7, "FIPS_CD": "2607", "NCDC_GEO_I": 134.0, "NAME": "EAST CENTRAL LOWER", "ST_ABBRV": "MI", "SHAPE_AREA": 0.0, "SHAPE_LEN": 0.0}, "geometry": {"type": "Polygon", "coordinates": [[[-83.57, 44.16], [-83.57, 44.15], [-83.57, 44.13], [-83.56, 44.11], [-83.59, 44.09], [-83.59, 44.07], [-83.58, 44.05], [-83.6, 44.06], [-83.63, 44.06], [-83.65, 44.05], [-83.68, 44.04], [-83.68, 44.03], [-83.69, 44.03], [-83.68, 43.99], [-83.7, 43.99], [-83.7, 44.0], [-83.72, 44.0], [-83.74, 44.0], [-83.75, 44.0], [-83.75, 43.99], [-83.76, 43.99], [-83.78, 43.99], [-83.8, 43.99], [-83.82, 44.0], [-83.83, 44.0], [-83.85, 43.99], [-83.85, 43.98], [-83.87, 43.96], [-83.88, 43.96], [-83.89, 43.93], [-83.89, 43.92], [-83.91, 43.92], [-83.92, 43.89], [-83.92, 43.87], [-83.92, 43.86], [-83.92, 43.83], [-83.92, 43.82], [-83.93, 43.8], [-83.93, 43.79], [-83.94, 43.78], [-83.96, 43.76], [-83.95, 43.75], [-83.94, 43.71], [-83.91, 43.68], [-83.9, 43.67], [-83.88, 43.66], [-83.85, 43.65], [-83.85, 43.64], [-83.84, 43.64], [-83.81, 43.64], [-83.78, 43.63], [-83.75, 43.62], [-83.75, 43.63], [-83.73, 43.61], [-83.72, 43.61], [-83.71, 43.6], [-83.69, 43.59], [-83.69, 43.58], [-83.68, 43.59], [-83.67, 43.59], [-83.65, 43.6], [-83.62, 43.63], [-83.6, 43.65], [-83.59, 43.66], [-83.56, 43.68], [-83.55, 43.69], [-83.55, 43.7], [-83.54, 43.71], [-83.52, 43.72], [-83.51, 43.71], [-83.52, 43.7], [-83.5, 43.7], [-83.49, 43.7], [-83.48, 43.72], [-83.47, 43.72], [-83.47, 43.74], [-83.46, 43.74], [-83.45, 43.76], [-83.44, 43.76], [-83.44, 43.77], [-83.43, 43.78], [-83.4, 43.82], [-83.39, 43.83], [-83.39, 43.85], [-83.38, 43.85], [-83.37, 43.85], [-83.35, 43.86], [-83.34, 43.88], [-83.33, 43.88], [-83.33, 43.89], [-83.33, 43.9], [-83.38, 43.91], [-83.4, 43.91], [-83.4, 43.92], [-83.38, 43.91], [-83.33, 43.92], [-83.31, 43.92], [-83.28, 43.94], [-83.28, 43.95], [-83.27, 43.95], [-83.26, 43.97], [-83.26, 43.98], [-83.25, 43.98], [-83.23, 43.98], [-83.2, 43.98], [-83.18, 43.98], [-83.17, 43.99], [-83.15, 43.99], [-83.14, 43.99], [-83.11, 44.0], [-83.08, 44.0], [-83.06, 44.0], [-83.05, 44.02], [-83.03, 44.05], [-83.0, 44.05], [-82.99, 44.05], [-82.96, 44.07], [-82.95, 44.06], [-82.93, 44.07], [-82.9, 44.06], [-82.89, 44.05], [-82.88, 44.04], [-82.81, 44.03], [-82.81, 44.03], [-82.79, 44.02], [-82.78, 44.01], [-82.77, 44.01], [-82.75, 43.99], [-82.74, 43.99], [-82.72, 43.97], [-82.72, 43.95], [-82.71, 43.95], [-82.7, 43.94], [-82.7, 43.93], [-82.68, 43.91], [-82.69, 43.9], [-82.68, 43.88], [-82.66, 43.87], [-82.65, 43.84], [-82.63, 43.83], [-82.63, 43.82], [-82.62, 43.8], [-82.62, 43.79], [-82.61, 43.78], [-82.62, 43.76], [-82.61, 43.74], [-82.61, 43.73], [-82.61, 43.71], [-82.61, 43.7], [-82.6, 43.68], [-82.61, 43.66], [-82.6, 43.64], [-82.6, 43.63], [-82.6, 43.62], [-82.6, 43.6], [-82.6, 43.59], [-82.58, 43.55], [-82.59, 43.54], [-82.58, 43.53], [-82.57, 43.5], [-82.57, 43.49], [-82.56, 43.48], [-82.55, 43.46], [-82.55, 43.46], [-82.55, 43.45], [-82.54, 43.44], [-82.54, 43.4], [-82.53, 43.38], [-82.54, 43.36], [-82.53, 43.33], [-82.53, 43.32], [-82.53, 43.31], [-82.53, 43.29], [-82.53, 43.26], [-82.52, 43.24], [-82.52, 43.23], [-82.52, 43.21], [-82.51, 43.2], [-82.5, 43.17], [-82.63, 43.16], [-82.8, 43.16], [-83.0, 43.15], [-83.0, 43.22], [-83.0, 43.28], [-83.12, 43.28], [-83.12, 43.33], [-83.26, 43.32], [-83.35, 43.32], [-83.35, 43.24], [-83.46, 43.23], [-83.46, 43.22], [-83.48, 43.22], [-83.58, 43.22], [-83.7, 43.22], [-83.93, 43.22], [-83.93, 43.13], [-84.05, 43.13], [-84.17, 43.13], [-84.33, 43.13], [-84.37, 43.13], [-84.37, 43.29], [-84.37, 43.44], [-84.37, 43.48], [-84.28, 43.48], [-84.17, 43.48], [-84.17, 43.57], [-84.17, 43.64], [-84.17, 43.8], [-84.17, 43.83], [-84.17, 43.9], [-84.17, 44.1], [-84.17, 44.16], [-83.89, 44.16], [-83.73, 44.16], [-83.69, 44.16], [-83.67, 44.16], [-83.57, 44.16]]]}}, {"type": "Feature", "properties": {"STATE": "Michigan", "STATE_FIPS": "26", "CD_2DIG": "08", "STATE_CODE": 20, "CLIMDIV": 2008, "ID": 2008, "CD_NEW": 8, "FIPS_CD": "2608", "NCDC_GEO_I": 135.0, "NAME": "SOUTHWEST LOWER", "ST_ABBRV": "MI", "SHAPE_AREA": 0.0, "SHAPE_LEN": 0.0}, "geometry": {"type": "Polygon", "coordinates": [[[-85.31, 43.12], [-85.31, 43.01], [-85.31, 42.88], [-85.31, 42.77], [-85.55, 42.77], [-85.55, 42.68], [-85.54, 42.54], [-85.54, 42.42], [-85.5, 42.42], [-85.42, 42.42], [-85.3, 42.42], [-85.3, 42.3], [-85.3, 42.25], [-85.29, 42.07], [-85.51, 42.07], [-85.76, 42.07], [-85.76, 41.98], [-85.76, 41.9], [-85.76, 41.8], [-85.77, 41.79], [-85.79, 41.78], [-85.79, 41.76], [-85.88, 41.76], [-86.0, 41.76], [-86.11, 41.76], [-86.17, 41.76], [-86.3, 41.76], [-86.33, 41.76], [-86.52, 41.76], [-86.7, 41.76], [-86.82, 41.76], [-86.78, 41.78], [-86.75, 41.8], [-86.72, 41.82], [-86.69, 41.84], [-86.67, 41.85], [-86.63, 41.88], [-86.62, 41.89], [-86.6, 41.91], [-86.59, 41.93], [-86.58, 41.96], [-86.56, 42.0], [-86.53, 42.03], [-86.52, 42.06], [-86.49, 42.11], [-86.49, 42.12], [-86.46, 42.14], [-86.4, 42.2], [-86.36, 42.25], [-86.35, 42.27], [-86.32, 42.31], [-86.3, 42.36], [-86.29, 42.39], [-86.28, 42.4], [-86.28, 42.41], [-86.26, 42.44], [-86.25, 42.49], [-86.24, 42.54], [-86.23, 42.57], [-86.23, 42.6], [-86.23, 42.63], [-86.23, 42.65], [-86.21, 42.67], [-86.21, 42.69], [-86.21, 42.71], [-86.21, 42.76], [-86.21, 42.77], [-86.21, 42.78], [-86.21, 42.83], [-86.21, 42.86], [-86.22, 42.92], [-86.22, 42.95], [-86.23, 42.99], [-86.23, 43.02], [-86.24, 43.05], [-86.25, 43.06], [-86.25, 43.07], [-86.26, 43.09], [-86.27, 43.12], [-86.19, 43.12], [-86.11, 43.12], [-85.91, 43.12], [-85.91, 43.19], [-85.91, 43.21], [-85.79, 43.21], [-85.79, 43.29], [-85.56, 43.29], [-85.31, 43.29], [-85.31, 43.12]]]}}, {"type": "Feature", "properties": {"STATE": "Michigan", "STATE_FIPS": "26", "CD_2DIG": "09", "STATE_CODE": 20, "CLIMDIV": 2009, "ID": 2009, "CD_NEW": 9, "FIPS_CD": "2609", "NCDC_GEO_I": 136.0, "NAME": "SOUTH CENTRAL LOWER", "ST_ABBRV": "MI", "SHAPE_AREA": 0.0, "SHAPE_LEN": 0.0}, "geometry": {"type": "Polygon", "coordinates": [[[-83.93, 43.13], [-83.93, 43.04], [-83.93, 42.96], [-83.93, 42.96], [-83.93, 42.87], [-83.92, 42.78], [-84.0, 42.78], [-84.16, 42.78], [-84.15, 42.71], [-84.14, 42.55], [-84.14, 42.51], [-84.14, 42.42], [-84.13, 42.42], [-84.13, 42.35], [-84.13, 42.25], [-84.13, 42.17], [-84.13, 42.08], [-84.13, 42.07], [-84.18, 42.07], [-84.24, 42.07], [-84.36, 42.07], [-84.36, 42.0], [-84.36, 41.86], [-84.36, 41.71], [-84.56, 41.7], [-84.75, 41.7], [-84.81, 41.7], [-84.81, 41.76], [-84.97, 41.76], [-85.23, 41.76], [-85.34, 41.76], [-85.6, 41.76], [-85.66, 41.76], [-85.79, 41.76], [-85.79, 41.78], [-85.77, 41.79], [-85.76, 41.8], [-85.76, 41.9], [-85.76, 41.98], [-85.76, 42.07], [-85.51, 42.07], [-85.29, 42.07], [-85.3, 42.25], [-85.3, 42.3], [-85.3, 42.42], [-85.42, 42.42], [-85.5, 42.42], [-85.54, 42.42], [-85.54, 42.54], [-85.55, 42.68], [-85.55, 42.77], [-85.31, 42.77], [-85.31, 42.88], [-85.31, 43.01], [-85.31, 43.12], [-85.24, 43.12], [-85.06, 43.12], [-84.84, 43.12], [-84.68, 43.12], [-84.51, 43.12], [-84.37, 43.12], [-84.37, 43.13], [-84.33, 43.13], [-84.17, 43.13], [-84.05, 43.13], [-83.93, 43.13]]]}}, {"type": "Feature", "properties": {"STATE": "Michigan", "STATE_FIPS": "26", "CD_2DIG": "10", "STATE_CODE": 20, "CLIMDIV": 2010, "ID": 2010, "CD_NEW": 10, "FIPS_CD": "2610", "NCDC_GEO_I": 137.0, "NAME": "SOUTHEAST LOWER", "ST_ABBRV": "MI", "SHAPE_AREA": 0.0, "SHAPE_LEN": 0.0}, "geometry": {"type": "MultiPolygon", "coordinates": [[[[-82.5, 43.17], [-82.49, 43.14], [-82.49, 43.12], [-82.48, 43.1], [-82.47, 43.09], [-82.46, 43.07], [-82.44, 43.04], [-82.43, 43.02], [-82.42, 43.01], [-82.43, 42.99], [-82.42, 42.98], [-82.42, 42.96], [-82.43, 42.95], [-82.46, 42.93], [-82.47, 42.89], [-82.48, 42.87], [-82.47, 42.85], [-82.48, 42.83], [-82.49, 42.81], [-82.48, 42.79], [-82.47, 42.76], [-82.48, 42.75], [-82.49, 42.74], [-82.49, 42.72], [-82.5, 42.69], [-82.51, 42.67], [-82.51, 42.64], [-82.52, 42.63], [-82.54, 42.61], [-82.57, 42.62], [-82.6, 42.63], [-82.61, 42.62], [-82.63, 42.63], [-82.63, 42.64], [-82.62, 42.66], [-82.62, 42.67], [-82.64, 42.68], [-82.65, 42.67], [-82.67, 42.68], [-82.69, 42.69], [-82.7, 42.69], [-82.71, 42.68], [-82.73, 42.68], [-82.73, 42.67], [-82.75, 42.67], [-82.76, 42.66], [-82.76, 42.66], [-82.78, 42.65], [-82.8, 42.65], [-82.81, 42.64], [-82.82, 42.63], [-82.82, 42.61], [-82.8, 42.61], [-82.79, 42.59], [-82.79, 42.59], [-82.78, 42.57], [-82.81, 42.57], [-82.83, 42.57], [-82.85, 42.56], [-82.85, 42.55], [-82.86, 42.54], [-82.87, 42.52], [-82.88, 42.5], [-82.88, 42.48], [-82.88, 42.47], [-82.87, 42.46], [-82.87, 42.45], [-82.88, 42.43], [-82.89, 42.4], [-82.9, 42.38], [-82.92, 42.38], [-82.92, 42.36], [-82.93, 42.36], [-82.96, 42.35], [-82.97, 42.36], [-82.99, 42.35], [-83.01, 42.34], [-83.03, 42.33], [-83.07, 42.32], [-83.08, 42.31], [-83.1, 42.29], [-83.12, 42.26], [-83.13, 42.25], [-83.14, 42.24], [-83.15, 42.23], [-83.14, 42.21], [-83.15, 42.19], [-83.17, 42.17], [-83.17, 42.16], [-83.17, 42.15], [-83.18, 42.13], [-83.18, 42.11], [-83.19, 42.1], [-83.19, 42.09], [-83.19, 42.06], [-83.19, 42.05], [-83.19, 42.04], [-83.21, 42.04], [-83.19, 42.03], [-83.2, 42.02], [-83.21, 42.02], [-83.22, 42.01], [-83.21, 42.0], [-83.22, 41.99], [-83.24, 41.98], [-83.25, 41.98], [-83.26, 41.97], [-83.25, 41.97], [-83.26, 41.95], [-83.25, 41.95], [-83.27, 41.94], [-83.28, 41.94], [-83.3, 41.95], [-83.32, 41.93], [-83.33, 41.91], [-83.34, 41.89], [-83.34, 41.88], [-83.35, 41.88], [-83.35, 41.87], [-83.37, 41.88], [-83.38, 41.87], [-83.4, 41.85], [-83.41, 41.83], [-83.43, 41.82], [-83.44, 41.81], [-83.45, 41.79], [-83.46, 41.78], [-83.45, 41.77], [-83.45, 41.76], [-83.47, 41.76], [-83.47, 41.75], [-83.48, 41.74], [-83.48, 41.73], [-83.61, 41.73], [-83.69, 41.73], [-83.71, 41.72], [-83.86, 41.72], [-84.0, 41.72], [-84.02, 41.72], [-84.13, 41.71], [-84.36, 41.71], [-84.36, 41.86], [-84.36, 42.0], [-84.36, 42.07], [-84.24, 42.07], [-84.18, 42.07], [-84.13, 42.07], [-84.13, 42.08], [-84.13, 42.17], [-84.13, 42.25], [-84.13, 42.35], [-84.13, 42.42], [-84.14, 42.42], [-84.14, 42.51], [-84.14, 42.55], [-84.15, 42.71], [-84.16, 42.78], [-84.0, 42.78], [-83.92, 42.78], [-83.93, 42.87], [-83.93, 42.96], [-83.93, 42.96], [-83.93, 43.04], [-83.93, 43.13], [-83.93, 43.22], [-83.7, 43.22], [-83.58, 43.22], [-83.48, 43.22], [-83.46, 43.22], [-83.46, 43.23], [-83.35, 43.24], [-83.35, 43.32], [-83.26, 43.32], [-83.12, 43.33], [-83.12, 43.28], [-83.0, 43.28], [-83.0, 43.22], [-83.0, 43.15], [-82.8, 43.16], [-82.63, 43.16], [-82.5, 43.17]]], [[[-82.52, 42.62], [-82.53, 42.61], [-82.54, 42.6], [-82.56, 42.58], [-82.58, 42.57], [-82.59, 42.56], [-82.6, 42.55], [-82.61, 42.55], [-82.61, 42.56], [-82.62, 42.57], [-82.62, 42.58], [-82.64, 42.59], [-82.61, 42.6], [-82.6, 42.6], [-82.59, 42.61], [-82.58, 42.62], [-82.56, 42.61], [-82.55, 42.6], [-82.54, 42.61], [-82.52, 42.62]]], [[[-83.15, 42.1], [-83.17, 42.09], [-83.17, 42.1], [-83.17, 42.12], [-83.17, 42.14], [-83.16, 42.16], [-83.16, 42.17], [-83.14, 42.18], [-83.14, 42.16], [-83.14, 42.14], [-83.14, 42.12], [-83.15, 42.11], [-83.15, 42.1]]], [[[-82.63, 42.63], [-82.61, 42.62], [-82.59, 42.62], [-82.61, 42.6], [-82.62, 42.6], [-82.64, 42.59], [-82.65, 42.62], [-82.63, 42.63]]], [[[-82.97, 42.35], [-82.95, 42.35], [-82.96, 42.34], [-82.99, 42.33], [-83.0, 42.34], [-82.98, 42.34], [-82.97, 42.35]]]]}}]}