{"type": "FeatureCollection", "features": [{"type": "Feature", "properties": {"STATE": "Minnesota", "STATE_FIPS": "27", "CD_2DIG": "01", "STATE_CODE": 21, "CLIMDIV": 2101, "ID": 2101, "CD_NEW": 1, "FIPS_CD": "2701", "NCDC_GEO_I": 138.0, "NAME": "NORTHWEST", "ST_ABBRV": "MN", "SHAPE_AREA": 0.0, "SHAPE_LEN": 0.0}, "geometry": {"type": "Polygon", "coordinates": [[[-95.32, 49.0], [-95.32, 49.0], [-95.33, 48.98], [-95.32, 48.96], [-95.31, 48.96], [-95.31, 48.95], [-95.32, 48.94], [-95.31, 48.92], [-95.3, 48.91], [-95.3, 48.9], [-95.25, 48.88], [-95.23, 48.88], [-95.16, 48.89], [-95.14, 48.89], [-95.12, 48.9], [-95.09, 48.92], [-95.09, 48.76], [-95.09, 48.71], [-95.34, 48.71], [-95.34, 48.71], [-95.34, 48.54], [-95.47, 48.54], [-95.52, 48.54], [-95.6, 48.54], [-95.6, 48.5], [-95.6, 48.41], [-95.6, 48.37], [-95.59, 48.37], [-95.59, 48.33], [-95.59, 48.25], [-95.59, 48.1], [-95.6, 48.09], [-95.59, 48.08], [-95.59, 48.02], [-95.5, 48.02], [-95.23, 48.02], [-95.25, 48.0], [-95.27, 47.96], [-95.28, 47.93], [-95.27, 47.91], [-95.27, 47.9], [-95.25, 47.88], [-95.21, 47.87], [-95.19, 47.87], [-95.19, 47.78], [-95.19, 47.67], [-95.19, 47.67], [-95.18, 47.59], [-95.18, 47.46], [-95.18, 47.38], [-95.18, 47.33], [-95.17, 47.33], [-95.17, 47.25], [-95.17, 47.14], [-95.17, 47.09], [-95.17, 47.04], [-95.17, 46.98], [-95.16, 46.98], [-95.16, 46.91], [-95.16, 46.8], [-95.16, 46.72], [-95.25, 46.72], [-95.4, 46.72], [-95.44, 46.72], [-95.49, 46.72], [-95.55, 46.72], [-95.64, 46.72], [-95.71, 46.72], [-95.81, 46.72], [-95.96, 46.72], [-96.04, 46.72], [-96.17, 46.72], [-96.17, 46.63], [-96.5, 46.63], [-96.78, 46.63], [-96.8, 46.63], [-96.79, 46.64], [-96.79, 46.65], [-96.8, 46.65], [-96.8, 46.68], [-96.79, 46.68], [-96.79, 46.69], [-96.78, 46.69], [-96.79, 46.71], [-96.78, 46.72], [-96.79, 46.74], [-96.79, 46.77], [-96.79, 46.78], [-96.79, 46.79], [-96.79, 46.79], [-96.8, 46.81], [-96.8, 46.82], [-96.78, 46.84], [-96.78, 46.85], [-96.78, 46.86], [-96.78, 46.86], [-96.77, 46.88], [-96.78, 46.9], [-96.77, 46.91], [-96.76, 46.92], [-96.76, 46.93], [-96.79, 46.93], [-96.79, 46.94], [-96.8, 46.94], [-96.8, 46.97], [-96.81, 46.96], [-96.82, 46.97], [-96.82, 46.98], [-96.82, 46.99], [-96.82, 47.0], [-96.83, 47.01], [-96.82, 47.03], [-96.82, 47.04], [-96.82, 47.05], [-96.83, 47.08], [-96.82, 47.09], [-96.82, 47.1], [-96.83, 47.12], [-96.82, 47.13], [-96.83, 47.16], [-96.82, 47.16], [-96.83, 47.18], [-96.84, 47.2], [-96.83, 47.21], [-96.84, 47.22], [-96.83, 47.23], [-96.84, 47.23], [-96.83, 47.25], [-96.84, 47.25], [-96.84, 47.26], [-96.84, 47.29], [-96.83, 47.31], [-96.84, 47.33], [-96.83, 47.34], [-96.84, 47.34], [-96.84, 47.35], [-96.85, 47.37], [-96.84, 47.38], [-96.84, 47.39], [-96.84, 47.4], [-96.86, 47.41], [-96.86, 47.43], [-96.86, 47.43], [-96.86, 47.45], [-96.85, 47.46], [-96.86, 47.47], [-96.85, 47.48], [-96.86, 47.49], [-96.85, 47.5], [-96.85, 47.51], [-96.86, 47.52], [-96.87, 47.53], [-96.86, 47.53], [-96.85, 47.54], [-96.86, 47.55], [-96.86, 47.56], [-96.85, 47.57], [-96.86, 47.57], [-96.85, 47.58], [-96.85, 47.6], [-96.86, 47.61], [-96.88, 47.62], [-96.88, 47.65], [-96.89, 47.65], [-96.89, 47.67], [-96.9, 47.67], [-96.9, 47.69], [-96.91, 47.7], [-96.91, 47.71], [-96.93, 47.72], [-96.92, 47.72], [-96.93, 47.74], [-96.93, 47.75], [-96.94, 47.75], [-96.94, 47.77], [-96.97, 47.78], [-96.96, 47.79], [-96.97, 47.8], [-96.99, 47.81], [-96.98, 47.81], [-96.99, 47.84], [-97.0, 47.84], [-97.0, 47.86], [-97.01, 47.87], [-97.02, 47.87], [-97.02, 47.89], [-97.02, 47.91], [-97.02, 47.92], [-97.04, 47.93], [-97.04, 47.94], [-97.05, 47.95], [-97.05, 47.96], [-97.06, 47.96], [-97.05, 47.99], [-97.06, 48.0], [-97.07, 48.02], [-97.07, 48.05], [-97.08, 48.05], [-97.09, 48.06], [-97.1, 48.07], [-97.1, 48.09], [-97.11, 48.1], [-97.12, 48.11], [-97.12, 48.12], [-97.13, 48.13], [-97.12, 48.14], [-97.15, 48.14], [-97.14, 48.15], [-97.12, 48.16], [-97.13, 48.16], [-97.14, 48.16], [-97.15, 48.17], [-97.14, 48.18], [-97.15, 48.19], [-97.14, 48.2], [-97.13, 48.21], [-97.14, 48.22], [-97.14, 48.24], [-97.15, 48.24], [-97.12, 48.25], [-97.13, 48.26], [-97.14, 48.27], [-97.13, 48.27], [-97.12, 48.28], [-97.12, 48.29], [-97.14, 48.29], [-97.12, 48.3], [-97.14, 48.31], [-97.13, 48.32], [-97.13, 48.34], [-97.14, 48.34], [-97.14, 48.35], [-97.16, 48.36], [-97.15, 48.37], [-97.14, 48.37], [-97.15, 48.38], [-97.16, 48.39], [-97.16, 48.4], [-97.15, 48.4], [-97.13, 48.41], [-97.14, 48.42], [-97.14, 48.43], [-97.12, 48.43], [-97.12, 48.44], [-97.15, 48.44], [-97.13, 48.45], [-97.13, 48.46], [-97.14, 48.46], [-97.15, 48.48], [-97.13, 48.49], [-97.15, 48.5], [-97.15, 48.51], [-97.14, 48.51], [-97.13, 48.52], [-97.15, 48.52], [-97.15, 48.53], [-97.15, 48.54], [-97.16, 48.54], [-97.17, 48.55], [-97.14, 48.55], [-97.14, 48.56], [-97.17, 48.56], [-97.17, 48.56], [-97.15, 48.57], [-97.14, 48.58], [-97.14, 48.6], [-97.13, 48.61], [-97.12, 48.62], [-97.13, 48.63], [-97.12, 48.63], [-97.11, 48.63], [-97.11, 48.65], [-97.1, 48.66], [-97.1, 48.68], [-97.09, 48.69], [-97.11, 48.69], [-97.12, 48.7], [-97.12, 48.71], [-97.13, 48.72], [-97.14, 48.73], [-97.14, 48.73], [-97.14, 48.75], [-97.15, 48.76], [-97.15, 48.77], [-97.16, 48.78], [-97.16, 48.79], [-97.17, 48.79], [-97.18, 48.8], [-97.16, 48.81], [-97.16, 48.81], [-97.18, 48.82], [-97.18, 48.84], [-97.17, 48.85], [-97.18, 48.86], [-97.19, 48.87], [-97.18, 48.87], [-97.2, 48.88], [-97.19, 48.9], [-97.21, 48.91], [-97.21, 48.92], [-97.22, 48.92], [-97.23, 48.94], [-97.23, 48.95], [-97.23, 48.96], [-97.24, 48.97], [-97.24, 48.98], [-97.23, 49.0], [-96.93, 49.0], [-96.66, 49.0], [-96.36, 49.0], [-96.09, 49.0], [-95.92, 49.0], [-95.63, 49.0], [-95.32, 49.0]]]}}, {"type": "Feature", "properties": {"STATE": "Minnesota", "STATE_FIPS": "27", "CD_2DIG": "02", "STATE_CODE": 21, "CLIMDIV": 2102, "ID": 2102, "CD_NEW": 2, "FIPS_CD": "2702", "NCDC_GEO_I": 139.0, "NAME": "NORTH CENTRAL", "ST_ABBRV": "MN", "SHAPE_AREA": 0.0, "SHAPE_LEN": 0.0}, "geometry": {"type": "Polygon", "coordinates": [[[-93.09, 48.63], [-93.09, 48.6], [-93.09, 48.5], [-93.09, 48.41], [-93.09, 48.37], [-93.1, 48.25], [-93.1, 48.24], [-93.1, 48.07], [-93.09, 48.07], [-93.09, 47.98], [-93.08, 47.98], [-93.08, 47.87], [-93.08, 47.82], [-93.08, 47.72], [-93.06, 47.72], [-93.06, 47.62], [-93.06, 47.6], [-93.07, 47.5], [-93.07, 47.46], [-93.07, 47.39], [-93.06, 47.37], [-93.07, 47.3], [-93.07, 47.18], [-93.07, 47.11], [-93.06, 47.11], [-93.06, 47.03], [-93.12, 47.03], [-93.17, 47.02], [-93.26, 47.03], [-93.28, 47.02], [-93.29, 47.03], [-93.32, 47.03], [-93.4, 47.03], [-93.5, 47.03], [-93.51, 47.03], [-93.59, 47.03], [-93.65, 47.03], [-93.78, 47.03], [-93.78, 47.01], [-93.78, 46.98], [-93.78, 46.96], [-93.78, 46.83], [-93.78, 46.8], [-93.86, 46.8], [-93.89, 46.8], [-93.9, 46.8], [-93.97, 46.8], [-94.0, 46.8], [-94.09, 46.8], [-94.15, 46.8], [-94.34, 46.81], [-94.34, 46.74], [-94.35, 46.72], [-94.35, 46.63], [-94.33, 46.63], [-94.33, 46.52], [-94.33, 46.52], [-94.33, 46.5], [-94.33, 46.4], [-94.33, 46.38], [-94.33, 46.38], [-94.33, 46.29], [-94.33, 46.28], [-94.34, 46.28], [-94.35, 46.3], [-94.36, 46.3], [-94.37, 46.3], [-94.38, 46.31], [-94.4, 46.32], [-94.4, 46.32], [-94.42, 46.33], [-94.42, 46.33], [-94.44, 46.33], [-94.45, 46.33], [-94.49, 46.31], [-94.51, 46.31], [-94.53, 46.3], [-94.56, 46.31], [-94.59, 46.32], [-94.61, 46.33], [-94.61, 46.33], [-94.63, 46.33], [-94.64, 46.34], [-94.64, 46.34], [-94.67, 46.36], [-94.68, 46.35], [-94.7, 46.35], [-94.72, 46.35], [-94.73, 46.36], [-94.73, 46.38], [-94.76, 46.38], [-94.76, 46.39], [-94.78, 46.39], [-94.78, 46.5], [-94.78, 46.63], [-94.79, 46.63], [-94.79, 46.73], [-94.79, 46.8], [-94.91, 46.81], [-95.04, 46.81], [-95.16, 46.8], [-95.16, 46.91], [-95.16, 46.98], [-95.17, 46.98], [-95.17, 47.04], [-95.17, 47.09], [-95.17, 47.14], [-95.17, 47.25], [-95.17, 47.33], [-95.18, 47.33], [-95.18, 47.38], [-95.18, 47.46], [-95.18, 47.59], [-95.19, 47.67], [-95.19, 47.67], [-95.19, 47.78], [-95.19, 47.87], [-95.21, 47.87], [-95.25, 47.88], [-95.27, 47.9], [-95.27, 47.91], [-95.28, 47.93], [-95.27, 47.96], [-95.25, 48.0], [-95.23, 48.02], [-95.5, 48.02], [-95.59, 48.02], [-95.59, 48.08], [-95.6, 48.09], [-95.59, 48.1], [-95.59, 48.25], [-95.59, 48.33], [-95.59, 48.37], [-95.6, 48.37], [-95.6, 48.41], [-95.6, 48.5], [-95.6, 48.54], [-95.52, 48.54], [-95.47, 48.54], [-95.34, 48.54], [-95.34, 48.71], [-95.34, 48.71], [-95.09, 48.71], [-95.09, 48.76], [-95.09, 48.92], [-95.12, 48.9], [-95.14, 48.89], [-95.16, 48.89], [-95.23, 48.88], [-95.25, 48.88], [-95.3, 48.9], [-95.3, 48.91], [-95.31, 48.92], [-95.32, 48.94], [-95.31, 48.95], [-95.31, 48.96], [-95.32, 48.96], [-95.33, 48.98], [-95.32, 49.0], [-95.32, 49.0], [-95.15, 49.0], [-95.15, 49.12], [-95.15, 49.29], [-95.15, 49.38], [-95.13, 49.37], [-95.06, 49.35], [-95.01, 49.36], [-94.99, 49.37], [-94.97, 49.37], [-94.96, 49.37], [-94.91, 49.35], [-94.88, 49.33], [-94.85, 49.32], [-94.82, 49.32], [-94.82, 49.31], [-94.83, 49.29], [-94.8, 49.21], [-94.8, 49.2], [-94.77, 49.12], [-94.75, 49.1], [-94.75, 49.0], [-94.72, 49.0], [-94.68, 48.88], [-94.68, 48.87], [-94.69, 48.87], [-94.69, 48.85], [-94.69, 48.84], [-94.7, 48.83], [-94.7, 48.82], [-94.69, 48.81], [-94.7, 48.8], [-94.69, 48.78], [-94.67, 48.77], [-94.65, 48.76], [-94.64, 48.74], [-94.62, 48.74], [-94.6, 48.73], [-94.59, 48.72], [-94.56, 48.72], [-94.55, 48.71], [-94.54, 48.7], [-94.5, 48.7], [-94.47, 48.7], [-94.45, 48.69], [-94.44, 48.69], [-94.42, 48.71], [-94.39, 48.71], [-94.37, 48.71], [-94.34, 48.7], [-94.33, 48.7], [-94.31, 48.71], [-94.28, 48.71], [-94.26, 48.7], [-94.25, 48.68], [-94.25, 48.66], [-94.24, 48.65], [-94.22, 48.65], [-94.2, 48.65], [-94.16, 48.65], [-94.09, 48.64], [-94.07, 48.65], [-94.06, 48.64], [-94.03, 48.64], [-94.01, 48.64], [-93.95, 48.63], [-93.93, 48.63], [-93.91, 48.63], [-93.89, 48.63], [-93.84, 48.63], [-93.83, 48.62], [-93.82, 48.61], [-93.82, 48.6], [-93.81, 48.58], [-93.81, 48.57], [-93.81, 48.55], [-93.81, 48.54], [-93.82, 48.53], [-93.79, 48.52], [-93.75, 48.52], [-93.74, 48.52], [-93.71, 48.52], [-93.69, 48.51], [-93.65, 48.52], [-93.63, 48.53], [-93.63, 48.53], [-93.61, 48.52], [-93.6, 48.53], [-93.58, 48.53], [-93.55, 48.53], [-93.52, 48.53], [-93.5, 48.54], [-93.47, 48.55], [-93.46, 48.55], [-93.46, 48.56], [-93.47, 48.59], [-93.46, 48.59], [-93.44, 48.59], [-93.4, 48.61], [-93.4, 48.6], [-93.37, 48.61], [-93.36, 48.61], [-93.35, 48.63], [-93.25, 48.64], [-93.21, 48.64], [-93.18, 48.62], [-93.09, 48.63]]]}}, {"type": "Feature", "properties": {"STATE": "Minnesota", "STATE_FIPS": "27", "CD_2DIG": "03", "STATE_CODE": 21, "CLIMDIV": 2103, "ID": 2103, "CD_NEW": 3, "FIPS_CD": "2703", "NCDC_GEO_I": 140.0, "NAME": "NORTHEAST", "ST_ABBRV": "MN", "SHAPE_AREA": 0.0, "SHAPE_LEN": 0.0}, "geometry": {"type": "Polygon", "coordinates": [[[-92.17, 46.72], [-92.19, 46.72], [-92.21, 46.7], [-92.2, 46.7], [-92.18, 46.7], [-92.18, 46.69], [-92.18, 46.68], [-92.19, 46.68], [-92.21, 46.66], [-92.2, 46.66], [-92.21, 46.65], [-92.23, 46.65], [-92.24, 46.65], [-92.26, 46.66], [-92.27, 46.65], [-92.27, 46.66], [-92.29, 46.66], [-92.3, 46.67], [-92.3, 46.76], [-92.32, 46.77], [-92.41, 46.76], [-92.64, 46.77], [-92.66, 46.77], [-92.8, 46.77], [-92.91, 46.77], [-93.0, 46.77], [-93.06, 46.77], [-93.06, 46.95], [-93.06, 47.03], [-93.06, 47.11], [-93.07, 47.11], [-93.07, 47.18], [-93.07, 47.3], [-93.06, 47.37], [-93.07, 47.39], [-93.07, 47.46], [-93.07, 47.5], [-93.06, 47.6], [-93.06, 47.62], [-93.06, 47.72], [-93.08, 47.72], [-93.08, 47.82], [-93.08, 47.87], [-93.08, 47.98], [-93.09, 47.98], [-93.09, 48.07], [-93.1, 48.07], [-93.1, 48.24], [-93.1, 48.25], [-93.09, 48.37], [-93.09, 48.41], [-93.09, 48.5], [-93.09, 48.6], [-93.09, 48.63], [-92.98, 48.62], [-92.95, 48.63], [-92.95, 48.63], [-92.95, 48.61], [-92.93, 48.61], [-92.91, 48.6], [-92.89, 48.59], [-92.73, 48.54], [-92.66, 48.55], [-92.63, 48.54], [-92.63, 48.51], [-92.63, 48.5], [-92.64, 48.5], [-92.65, 48.5], [-92.66, 48.5], [-92.68, 48.5], [-92.7, 48.49], [-92.7, 48.48], [-92.71, 48.46], [-92.69, 48.44], [-92.66, 48.44], [-92.66, 48.44], [-92.58, 48.44], [-92.54, 48.45], [-92.51, 48.45], [-92.48, 48.42], [-92.46, 48.41], [-92.46, 48.4], [-92.48, 48.37], [-92.47, 48.35], [-92.45, 48.33], [-92.43, 48.31], [-92.42, 48.29], [-92.41, 48.28], [-92.39, 48.25], [-92.38, 48.24], [-92.37, 48.22], [-92.36, 48.22], [-92.35, 48.23], [-92.33, 48.23], [-92.31, 48.24], [-92.28, 48.24], [-92.27, 48.25], [-92.27, 48.26], [-92.29, 48.27], [-92.3, 48.29], [-92.29, 48.31], [-92.31, 48.32], [-92.3, 48.32], [-92.29, 48.34], [-92.26, 48.35], [-92.21, 48.35], [-92.18, 48.35], [-92.18, 48.36], [-92.16, 48.36], [-92.15, 48.37], [-92.14, 48.36], [-92.08, 48.35], [-92.08, 48.36], [-92.06, 48.36], [-92.05, 48.35], [-92.05, 48.33], [-92.03, 48.33], [-92.0, 48.32], [-92.01, 48.3], [-92.01, 48.28], [-92.01, 48.27], [-91.99, 48.26], [-91.98, 48.25], [-91.97, 48.25], [-91.95, 48.25], [-91.96, 48.23], [-91.95, 48.23], [-91.92, 48.24], [-91.89, 48.24], [-91.88, 48.23], [-91.87, 48.22], [-91.86, 48.21], [-91.82, 48.21], [-91.81, 48.21], [-91.78, 48.2], [-91.75, 48.2], [-91.74, 48.2], [-91.72, 48.2], [-91.71, 48.19], [-91.72, 48.18], [-91.72, 48.17], [-91.71, 48.17], [-91.71, 48.15], [-91.7, 48.14], [-91.7, 48.13], [-91.71, 48.11], [-91.69, 48.11], [-91.68, 48.11], [-91.65, 48.11], [-91.64, 48.1], [-91.62, 48.1], [-91.59, 48.1], [-91.56, 48.11], [-91.55, 48.1], [-91.57, 48.09], [-91.58, 48.07], [-91.58, 48.05], [-91.57, 48.04], [-91.54, 48.05], [-91.49, 48.07], [-91.47, 48.07], [-91.45, 48.07], [-91.44, 48.05], [-91.43, 48.05], [-91.41, 48.05], [-91.39, 48.06], [-91.37, 48.07], [-91.37, 48.07], [-91.34, 48.07], [-91.29, 48.07], [-91.25, 48.08], [-91.23, 48.1], [-91.21, 48.1], [-91.19, 48.12], [-91.18, 48.12], [-91.16, 48.14], [-91.14, 48.15], [-91.14, 48.15], [-91.12, 48.16], [-91.11, 48.17], [-91.09, 48.17], [-91.08, 48.18], [-91.07, 48.18], [-91.06, 48.19], [-91.03, 48.19], [-91.0, 48.2], [-90.98, 48.22], [-90.93, 48.23], [-90.91, 48.23], [-90.91, 48.24], [-90.89, 48.25], [-90.88, 48.24], [-90.85, 48.24], [-90.84, 48.24], [-90.83, 48.17], [-90.82, 48.18], [-90.8, 48.18], [-90.8, 48.16], [-90.78, 48.16], [-90.78, 48.15], [-90.8, 48.14], [-90.78, 48.12], [-90.76, 48.1], [-90.75, 48.09], [-90.74, 48.09], [-90.7, 48.1], [-90.69, 48.1], [-90.64, 48.1], [-90.63, 48.11], [-90.59, 48.12], [-90.58, 48.12], [-90.56, 48.12], [-90.56, 48.12], [-90.57, 48.11], [-90.56, 48.1], [-90.52, 48.1], [-90.49, 48.1], [-90.47, 48.11], [-90.44, 48.1], [-90.4, 48.11], [-90.38, 48.09], [-90.37, 48.09], [-90.35, 48.09], [-90.33, 48.1], [-90.31, 48.11], [-90.29, 48.1], [-90.27, 48.1], [-90.25, 48.1], [-90.22, 48.11], [-90.21, 48.11], [-90.19, 48.11], [-90.18, 48.11], [-90.16, 48.11], [-90.13, 48.11], [-90.12, 48.1], [-90.09, 48.1], [-90.06, 48.1], [-90.04, 48.09], [-90.02, 48.08], [-90.02, 48.07], [-90.01, 48.07], [-89.99, 48.05], [-90.0, 48.04], [-89.99, 48.03], [-89.97, 48.02], [-89.97, 48.01], [-89.95, 48.01], [-89.93, 48.02], [-89.93, 48.0], [-89.9, 47.99], [-89.87, 47.99], [-89.87, 47.99], [-89.85, 47.99], [-89.83, 48.0], [-89.82, 48.02], [-89.8, 48.01], [-89.77, 48.02], [-89.73, 48.02], [-89.72, 48.01], [-89.7, 48.01], [-89.69, 48.01], [-89.66, 48.01], [-89.65, 48.0], [-89.64, 48.01], [-89.62, 48.01], [-89.59, 48.0], [-89.58, 48.0], [-89.55, 48.0], [-89.52, 48.0], [-89.57, 47.99], [-89.57, 47.98], [-89.59, 47.98], [-89.61, 47.98], [-89.61, 47.99], [-89.62, 48.0], [-89.64, 47.99], [-89.65, 47.98], [-89.64, 47.96], [-89.65, 47.96], [-89.66, 47.97], [-89.68, 47.96], [-89.69, 47.95], [-89.68, 47.95], [-89.7, 47.94], [-89.73, 47.93], [-89.74, 47.92], [-89.77, 47.9], [-89.79, 47.89], [-89.82, 47.88], [-89.84, 47.88], [-89.85, 47.87], [-89.87, 47.87], [-89.89, 47.87], [-89.9, 47.87], [-89.92, 47.86], [-89.93, 47.86], [-89.93, 47.85], [-89.94, 47.84], [-89.97, 47.84], [-89.97, 47.83], [-90.0, 47.83], [-90.02, 47.82], [-90.05, 47.82], [-90.07, 47.81], [-90.08, 47.81], [-90.12, 47.79], [-90.15, 47.79], [-90.17, 47.79], [-90.18, 47.78], [-90.19, 47.78], [-90.23, 47.78], [-90.26, 47.77], [-90.3, 47.76], [-90.31, 47.76], [-90.35, 47.74], [-90.39, 47.74], [-90.39, 47.74], [-90.44, 47.73], [-90.44, 47.72], [-90.49, 47.72], [-90.5, 47.71], [-90.53, 47.71], [-90.54, 47.7], [-90.55, 47.69], [-90.57, 47.69], [-90.63, 47.66], [-90.66, 47.65], [-90.69, 47.64], [-90.73, 47.63], [-90.76, 47.61], [-90.78, 47.61], [-90.79, 47.6], [-90.83, 47.58], [-90.84, 47.57], [-90.87, 47.56], [-90.89, 47.54], [-90.93, 47.52], [-90.94, 47.51], [-91.0, 47.48], [-91.01, 47.47], [-91.03, 47.46], [-91.04, 47.46], [-91.06, 47.44], [-91.07, 47.43], [-91.09, 47.42], [-91.1, 47.41], [-91.11, 47.41], [-91.13, 47.4], [-91.15, 47.38], [-91.15, 47.38], [-91.17, 47.37], [-91.18, 47.34], [-91.21, 47.33], [-91.21, 47.32], [-91.22, 47.32], [-91.23, 47.31], [-91.24, 47.3], [-91.25, 47.29], [-91.27, 47.28], [-91.27, 47.27], [-91.29, 47.26], [-91.3, 47.25], [-91.33, 47.24], [-91.33, 47.23], [-91.35, 47.22], [-91.36, 47.21], [-91.38, 47.2], [-91.38, 47.19], [-91.42, 47.17], [-91.44, 47.16], [-91.44, 47.15], [-91.46, 47.14], [-91.46, 47.13], [-91.48, 47.12], [-91.51, 47.12], [-91.52, 47.1], [-91.54, 47.1], [-91.55, 47.09], [-91.57, 47.09], [-91.58, 47.08], [-91.58, 47.07], [-91.6, 47.06], [-91.6, 47.06], [-91.63, 47.05], [-91.64, 47.04], [-91.64, 47.03], [-91.66, 47.03], [-91.66, 47.02], [-91.68, 47.02], [-91.69, 47.01], [-91.7, 47.01], [-91.74, 46.98], [-91.77, 46.96], [-91.78, 46.95], [-91.78, 46.94], [-91.79, 46.94], [-91.81, 46.93], [-91.85, 46.92], [-91.85, 46.91], [-91.87, 46.91], [-91.88, 46.91], [-91.92, 46.88], [-91.95, 46.87], [-91.97, 46.86], [-91.99, 46.85], [-92.0, 46.84], [-92.02, 46.83], [-92.03, 46.82], [-92.04, 46.82], [-92.06, 46.81], [-92.06, 46.8], [-92.08, 46.8], [-92.09, 46.79], [-92.09, 46.78], [-92.1, 46.78], [-92.09, 46.75], [-92.1, 46.75], [-92.12, 46.76], [-92.13, 46.74], [-92.14, 46.74], [-92.15, 46.73], [-92.15, 46.73], [-92.15, 46.72], [-92.17, 46.72]]]}}, {"type": "Feature", "properties": {"STATE": "Minnesota", "STATE_FIPS": "27", "CD_2DIG": "05", "STATE_CODE": 21, "CLIMDIV": 2105, "ID": 2105, "CD_NEW": 5, "FIPS_CD": "2705", "NCDC_GEO_I": 142.0, "NAME": "CENTRAL", "ST_ABBRV": "MN", "SHAPE_AREA": 0.0, "SHAPE_LEN": 0.0}, "geometry": {"type": "Polygon", "coordinates": [[[-94.34, 46.28], [-94.34, 46.27], [-94.36, 46.26], [-94.36, 46.26], [-94.37, 46.24], [-94.39, 46.24], [-94.39, 46.23], [-94.4, 46.21], [-94.39, 46.2], [-94.37, 46.18], [-94.37, 46.17], [-94.37, 46.16], [-94.27, 46.16], [-94.19, 46.16], [-94.14, 46.16], [-93.89, 46.16], [-93.81, 46.16], [-93.81, 46.08], [-93.81, 45.98], [-93.77, 45.98], [-93.77, 45.91], [-93.76, 45.84], [-93.76, 45.76], [-93.76, 45.74], [-93.76, 45.66], [-93.76, 45.56], [-93.65, 45.56], [-93.51, 45.56], [-93.51, 45.44], [-93.51, 45.39], [-93.51, 45.25], [-93.52, 45.24], [-93.53, 45.23], [-93.54, 45.23], [-93.57, 45.22], [-93.58, 45.22], [-93.6, 45.21], [-93.6, 45.21], [-93.62, 45.21], [-93.63, 45.2], [-93.64, 45.21], [-93.65, 45.2], [-93.66, 45.19], [-93.65, 45.18], [-93.64, 45.18], [-93.64, 45.17], [-93.66, 45.15], [-93.68, 45.15], [-93.7, 45.14], [-93.7, 45.13], [-93.72, 45.11], [-93.73, 45.1], [-93.73, 45.09], [-93.74, 45.08], [-93.76, 45.08], [-93.77, 45.06], [-93.77, 44.93], [-93.77, 44.89], [-93.66, 44.89], [-93.6, 44.89], [-93.52, 44.89], [-93.52, 44.89], [-93.52, 44.8], [-93.5, 44.8], [-93.46, 44.81], [-93.45, 44.8], [-93.44, 44.81], [-93.41, 44.81], [-93.4, 44.8], [-93.38, 44.8], [-93.38, 44.79], [-93.37, 44.79], [-93.36, 44.79], [-93.35, 44.79], [-93.34, 44.79], [-93.33, 44.79], [-93.33, 44.78], [-93.33, 44.72], [-93.32, 44.72], [-93.32, 44.63], [-93.28, 44.63], [-93.28, 44.54], [-93.28, 44.54], [-93.57, 44.54], [-93.67, 44.54], [-93.73, 44.54], [-93.91, 44.54], [-93.9, 44.54], [-93.9, 44.53], [-93.89, 44.53], [-93.89, 44.5], [-93.9, 44.49], [-93.9, 44.49], [-93.91, 44.47], [-93.92, 44.47], [-93.93, 44.47], [-93.92, 44.46], [-93.93, 44.46], [-94.1, 44.46], [-94.17, 44.46], [-94.33, 44.46], [-94.57, 44.46], [-94.74, 44.46], [-94.79, 44.46], [-94.81, 44.47], [-94.81, 44.48], [-94.84, 44.49], [-94.85, 44.49], [-94.87, 44.5], [-94.88, 44.51], [-94.9, 44.52], [-94.91, 44.52], [-94.93, 44.52], [-94.97, 44.53], [-95.0, 44.55], [-95.01, 44.54], [-95.01, 44.55], [-95.03, 44.55], [-95.04, 44.56], [-95.06, 44.56], [-95.07, 44.57], [-95.1, 44.57], [-95.1, 44.59], [-95.12, 44.59], [-95.12, 44.6], [-95.15, 44.61], [-95.15, 44.62], [-95.16, 44.62], [-95.17, 44.62], [-95.19, 44.63], [-95.2, 44.64], [-95.23, 44.65], [-95.24, 44.67], [-95.27, 44.66], [-95.29, 44.66], [-95.31, 44.68], [-95.31, 44.69], [-95.31, 44.69], [-95.36, 44.7], [-95.38, 44.7], [-95.4, 44.71], [-95.4, 44.73], [-95.42, 44.73], [-95.44, 44.74], [-95.46, 44.74], [-95.48, 44.76], [-95.48, 44.75], [-95.48, 44.81], [-95.48, 44.89], [-95.25, 44.89], [-95.25, 44.98], [-95.25, 45.07], [-95.25, 45.15], [-95.25, 45.24], [-95.26, 45.24], [-95.25, 45.28], [-95.26, 45.37], [-95.26, 45.41], [-95.13, 45.41], [-95.13, 45.47], [-95.13, 45.59], [-95.14, 45.59], [-95.14, 45.64], [-95.14, 45.87], [-95.14, 45.93], [-95.15, 45.93], [-95.15, 45.98], [-95.15, 46.11], [-95.15, 46.19], [-95.15, 46.28], [-95.15, 46.28], [-95.16, 46.37], [-95.16, 46.63], [-95.16, 46.63], [-95.16, 46.72], [-95.16, 46.8], [-95.04, 46.81], [-94.91, 46.81], [-94.79, 46.8], [-94.79, 46.73], [-94.79, 46.63], [-94.78, 46.63], [-94.78, 46.5], [-94.78, 46.39], [-94.76, 46.39], [-94.76, 46.38], [-94.73, 46.38], [-94.73, 46.36], [-94.72, 46.35], [-94.7, 46.35], [-94.68, 46.35], [-94.67, 46.36], [-94.64, 46.34], [-94.64, 46.34], [-94.63, 46.33], [-94.61, 46.33], [-94.61, 46.33], [-94.59, 46.32], [-94.56, 46.31], [-94.53, 46.3], [-94.51, 46.31], [-94.49, 46.31], [-94.45, 46.33], [-94.44, 46.33], [-94.42, 46.33], [-94.42, 46.33], [-94.4, 46.32], [-94.4, 46.32], [-94.38, 46.31], [-94.37, 46.3], [-94.36, 46.3], [-94.35, 46.3], [-94.34, 46.28]]]}}, {"type": "Feature", "properties": {"STATE": "Minnesota", "STATE_FIPS": "27", "CD_2DIG": "06", "STATE_CODE": 21, "CLIMDIV": 2106, "ID": 2106, "CD_NEW": 6, "FIPS_CD": "2706", "NCDC_GEO_I": 143.0, "NAME": "EAST CENTRAL", "ST_ABBRV": "MN", "SHAPE_AREA": 0.0, "SHAPE_LEN": 0.0}, "geometry": {"type": "Polygon", "coordinates": [[[-93.06, 47.03], [-93.06, 46.95], [-93.06, 46.77], [-93.0, 46.77], [-92.91, 46.77], [-92.8, 46.77], [-92.66, 46.77], [-92.64, 46.77], [-92.41, 46.76], [-92.32, 46.77], [-92.3, 46.76], [-92.3, 46.67], [-92.29, 46.66], [-92.29, 46.63], [-92.29, 46.5], [-92.29, 46.37], [-92.29, 46.3], [-92.29, 46.19], [-92.29, 46.11], [-92.29, 46.07], [-92.32, 46.07], [-92.34, 46.06], [-92.34, 46.04], [-92.34, 46.03], [-92.35, 46.02], [-92.37, 46.01], [-92.39, 46.02], [-92.41, 46.03], [-92.42, 46.03], [-92.44, 46.02], [-92.45, 45.99], [-92.46, 45.99], [-92.46, 45.98], [-92.47, 45.97], [-92.49, 45.98], [-92.5, 45.98], [-92.53, 45.98], [-92.55, 45.97], [-92.55, 45.95], [-92.6, 45.94], [-92.62, 45.93], [-92.64, 45.93], [-92.64, 45.92], [-92.66, 45.92], [-92.68, 45.91], [-92.68, 45.91], [-92.71, 45.89], [-92.72, 45.88], [-92.74, 45.86], [-92.74, 45.85], [-92.76, 45.83], [-92.77, 45.83], [-92.76, 45.81], [-92.76, 45.8], [-92.77, 45.8], [-92.78, 45.78], [-92.78, 45.76], [-92.8, 45.75], [-92.81, 45.74], [-92.83, 45.73], [-92.85, 45.73], [-92.85, 45.72], [-92.87, 45.72], [-92.88, 45.67], [-92.88, 45.66], [-92.89, 45.63], [-92.88, 45.61], [-92.89, 45.59], [-92.88, 45.58], [-92.87, 45.57], [-92.84, 45.57], [-92.82, 45.56], [-92.8, 45.56], [-92.79, 45.57], [-92.77, 45.57], [-92.76, 45.56], [-92.73, 45.54], [-92.73, 45.51], [-92.71, 45.5], [-92.7, 45.49], [-92.69, 45.48], [-92.68, 45.46], [-92.65, 45.45], [-92.65, 45.44], [-92.65, 45.42], [-92.65, 45.41], [-92.65, 45.4], [-92.66, 45.39], [-92.68, 45.38], [-92.68, 45.37], [-92.7, 45.36], [-92.7, 45.35], [-92.7, 45.34], [-92.71, 45.32], [-92.74, 45.3], [-92.76, 45.29], [-92.76, 45.28], [-92.75, 45.27], [-92.75, 45.26], [-92.76, 45.25], [-92.76, 45.23], [-92.75, 45.22], [-92.76, 45.21], [-92.77, 45.19], [-92.76, 45.18], [-92.75, 45.17], [-92.76, 45.15], [-92.75, 45.15], [-92.75, 45.12], [-92.74, 45.12], [-92.74, 45.11], [-92.77, 45.09], [-92.79, 45.08], [-92.8, 45.07], [-92.8, 45.06], [-92.79, 45.04], [-92.77, 45.03], [-92.76, 45.02], [-92.77, 45.0], [-92.77, 44.97], [-92.75, 44.96], [-92.75, 44.94], [-92.76, 44.91], [-92.77, 44.9], [-92.77, 44.89], [-92.76, 44.87], [-92.77, 44.86], [-92.77, 44.84], [-92.77, 44.82], [-92.78, 44.81], [-92.79, 44.79], [-92.8, 44.78], [-92.81, 44.77], [-92.81, 44.75], [-92.8, 44.75], [-92.83, 44.75], [-92.85, 44.75], [-92.86, 44.75], [-92.88, 44.78], [-92.91, 44.77], [-92.93, 44.78], [-92.94, 44.77], [-92.96, 44.77], [-92.98, 44.77], [-93.0, 44.77], [-93.02, 44.78], [-93.02, 44.79], [-93.0, 44.82], [-93.01, 44.84], [-93.01, 44.86], [-93.02, 44.89], [-93.04, 44.9], [-93.05, 44.92], [-93.13, 44.92], [-93.14, 44.91], [-93.15, 44.89], [-93.18, 44.88], [-93.18, 44.88], [-93.2, 44.87], [-93.2, 44.86], [-93.21, 44.84], [-93.22, 44.84], [-93.23, 44.83], [-93.25, 44.81], [-93.28, 44.81], [-93.29, 44.8], [-93.31, 44.79], [-93.33, 44.79], [-93.34, 44.79], [-93.35, 44.79], [-93.36, 44.79], [-93.37, 44.79], [-93.38, 44.79], [-93.38, 44.8], [-93.4, 44.8], [-93.41, 44.81], [-93.44, 44.81], [-93.45, 44.8], [-93.46, 44.81], [-93.5, 44.8], [-93.52, 44.8], [-93.52, 44.89], [-93.52, 44.89], [-93.6, 44.89], [-93.66, 44.89], [-93.77, 44.89], [-93.77, 44.93], [-93.77, 45.06], [-93.76, 45.08], [-93.74, 45.08], [-93.73, 45.09], [-93.73, 45.1], [-93.72, 45.11], [-93.7, 45.13], [-93.7, 45.14], [-93.68, 45.15], [-93.66, 45.15], [-93.64, 45.17], [-93.64, 45.18], [-93.65, 45.18], [-93.66, 45.19], [-93.65, 45.2], [-93.64, 45.21], [-93.63, 45.2], [-93.62, 45.21], [-93.6, 45.21], [-93.6, 45.21], [-93.58, 45.22], [-93.57, 45.22], [-93.54, 45.23], [-93.53, 45.23], [-93.52, 45.24], [-93.51, 45.25], [-93.51, 45.39], [-93.51, 45.44], [-93.51, 45.56], [-93.65, 45.56], [-93.76, 45.56], [-93.76, 45.66], [-93.76, 45.74], [-93.76, 45.76], [-93.76, 45.84], [-93.77, 45.91], [-93.77, 45.98], [-93.81, 45.98], [-93.81, 46.08], [-93.81, 46.16], [-93.89, 46.16], [-94.14, 46.16], [-94.19, 46.16], [-94.27, 46.16], [-94.37, 46.16], [-94.37, 46.17], [-94.37, 46.18], [-94.39, 46.2], [-94.4, 46.21], [-94.39, 46.23], [-94.39, 46.24], [-94.37, 46.24], [-94.36, 46.26], [-94.36, 46.26], [-94.34, 46.27], [-94.34, 46.28], [-94.33, 46.28], [-94.33, 46.29], [-94.33, 46.38], [-94.33, 46.38], [-94.33, 46.4], [-94.33, 46.5], [-94.33, 46.52], [-94.33, 46.52], [-94.33, 46.63], [-94.35, 46.63], [-94.35, 46.72], [-94.34, 46.74], [-94.34, 46.81], [-94.15, 46.8], [-94.09, 46.8], [-94.0, 46.8], [-93.97, 46.8], [-93.9, 46.8], [-93.89, 46.8], [-93.86, 46.8], [-93.78, 46.8], [-93.78, 46.83], [-93.78, 46.96], [-93.78, 46.98], [-93.78, 47.01], [-93.78, 47.03], [-93.65, 47.03], [-93.59, 47.03], [-93.51, 47.03], [-93.5, 47.03], [-93.4, 47.03], [-93.32, 47.03], [-93.29, 47.03], [-93.28, 47.02], [-93.26, 47.03], [-93.17, 47.02], [-93.12, 47.03], [-93.06, 47.03]]]}}, {"type": "Feature", "properties": {"STATE": "Minnesota", "STATE_FIPS": "27", "CD_2DIG": "07", "STATE_CODE": 21, "CLIMDIV": 2107, "ID": 2107, "CD_NEW": 7, "FIPS_CD": "2707", "NCDC_GEO_I": 144.0, "NAME": "SOUTHWEST", "ST_ABBRV": "MN", "SHAPE_AREA": 0.0, "SHAPE_LEN": 0.0}, "geometry": {"type": "Polygon", "coordinates": [[[-94.87, 44.5], [-94.87, 44.44], [-94.87, 44.28], [-94.99, 44.28], [-95.11, 44.28], [-95.11, 44.2], [-95.1, 44.19], [-95.1, 44.11], [-94.98, 44.11], [-94.86, 44.11], [-94.86, 44.04], [-94.86, 43.85], [-94.85, 43.85], [-94.85, 43.69], [-94.85, 43.5], [-94.97, 43.5], [-95.17, 43.5], [-95.25, 43.5], [-95.48, 43.5], [-95.64, 43.5], [-95.76, 43.5], [-96.02, 43.5], [-96.34, 43.5], [-96.45, 43.5], [-96.45, 43.6], [-96.45, 43.78], [-96.45, 43.83], [-96.45, 43.93], [-96.45, 44.0], [-96.45, 44.0], [-96.45, 44.01], [-96.45, 44.03], [-96.45, 44.05], [-96.45, 44.09], [-96.45, 44.27], [-96.45, 44.46], [-96.45, 44.63], [-96.45, 44.63], [-96.45, 44.63], [-96.43, 44.63], [-96.33, 44.63], [-96.32, 44.63], [-96.23, 44.63], [-96.01, 44.63], [-95.95, 44.63], [-95.81, 44.63], [-95.7, 44.63], [-95.6, 44.63], [-95.6, 44.54], [-95.54, 44.54], [-95.36, 44.54], [-95.36, 44.7], [-95.31, 44.69], [-95.31, 44.69], [-95.31, 44.68], [-95.29, 44.66], [-95.27, 44.66], [-95.24, 44.67], [-95.23, 44.65], [-95.2, 44.64], [-95.19, 44.63], [-95.17, 44.62], [-95.16, 44.62], [-95.15, 44.62], [-95.15, 44.61], [-95.12, 44.6], [-95.12, 44.59], [-95.1, 44.59], [-95.1, 44.57], [-95.07, 44.57], [-95.06, 44.56], [-95.04, 44.56], [-95.03, 44.55], [-95.01, 44.55], [-95.01, 44.54], [-95.0, 44.55], [-94.97, 44.53], [-94.93, 44.52], [-94.91, 44.52], [-94.9, 44.52], [-94.88, 44.51], [-94.87, 44.5]]]}}, {"type": "Feature", "properties": {"STATE": "Minnesota", "STATE_FIPS": "27", "CD_2DIG": "08", "STATE_CODE": 21, "CLIMDIV": 2108, "ID": 2108, "CD_NEW": 8, "FIPS_CD": "2708", "NCDC_GEO_I": 145.0, "NAME": "SOUTH CENTRAL", "ST_ABBRV": "MN", "SHAPE_AREA": 0.0, "SHAPE_LEN": 0.0}, "geometry": {"type": "Polygon", "coordinates": [[[-93.28, 44.54], [-93.28, 44.47], [-93.16, 44.47], [-93.04, 44.47], [-93.04, 44.39], [-93.04, 44.2], [-93.05, 44.2], [-93.05, 44.16], [-93.05, 44.01], [-93.05, 43.93], [-93.05, 43.85], [-93.05, 43.84], [-93.05, 43.72], [-93.05, 43.56], [-93.05, 43.5], [-93.34, 43.5], [-93.51, 43.5], [-93.79, 43.5], [-93.93, 43.5], [-94.19, 43.5], [-94.44, 43.5], [-94.65, 43.5], [-94.85, 43.5], [-94.85, 43.69], [-94.85, 43.85], [-94.86, 43.85], [-94.86, 44.04], [-94.86, 44.11], [-94.98, 44.11], [-95.1, 44.11], [-95.1, 44.19], [-95.11, 44.2], [-95.11, 44.28], [-94.99, 44.28], [-94.87, 44.28], [-94.87, 44.44], [-94.87, 44.5], [-94.85, 44.49], [-94.84, 44.49], [-94.81, 44.48], [-94.81, 44.47], [-94.79, 44.46], [-94.74, 44.46], [-94.57, 44.46], [-94.33, 44.46], [-94.17, 44.46], [-94.1, 44.46], [-93.93, 44.46], [-93.92, 44.46], [-93.93, 44.47], [-93.92, 44.47], [-93.91, 44.47], [-93.9, 44.49], [-93.9, 44.49], [-93.89, 44.5], [-93.89, 44.53], [-93.9, 44.53], [-93.9, 44.54], [-93.91, 44.54], [-93.73, 44.54], [-93.67, 44.54], [-93.57, 44.54], [-93.28, 44.54]]]}}, {"type": "Feature", "properties": {"STATE": "Minnesota", "STATE_FIPS": "27", "CD_2DIG": "09", "STATE_CODE": 21, "CLIMDIV": 2109, "ID": 2109, "CD_NEW": 9, "FIPS_CD": "2709", "NCDC_GEO_I": 146.0, "NAME": "SOUTHEAST", "ST_ABBRV": "MN", "SHAPE_AREA": 0.0, "SHAPE_LEN": 0.0}, "geometry": {"type": "Polygon", "coordinates": [[[-92.8, 44.75], [-92.79, 44.74], [-92.74, 44.72], [-92.7, 44.69], [-92.66, 44.66], [-92.63, 44.65], [-92.62, 44.64], [-92.62, 44.63], [-92.62, 44.62], [-92.61, 44.61], [-92.6, 44.61], [-92.58, 44.6], [-92.57, 44.6], [-92.55, 44.58], [-92.55, 44.57], [-92.54, 44.57], [-92.52, 44.58], [-92.49, 44.57], [-92.48, 44.57], [-92.46, 44.56], [-92.43, 44.57], [-92.42, 44.56], [-92.39, 44.56], [-92.37, 44.56], [-92.35, 44.56], [-92.33, 44.55], [-92.32, 44.54], [-92.3, 44.52], [-92.3, 44.5], [-92.3, 44.49], [-92.28, 44.48], [-92.27, 44.47], [-92.25, 44.46], [-92.23, 44.45], [-92.22, 44.44], [-92.2, 44.43], [-92.16, 44.43], [-92.12, 44.42], [-92.11, 44.41], [-92.09, 44.41], [-92.08, 44.4], [-92.05, 44.4], [-92.04, 44.39], [-92.02, 44.38], [-92.0, 44.38], [-91.99, 44.37], [-91.97, 44.37], [-91.96, 44.36], [-91.94, 44.34], [-91.93, 44.34], [-91.92, 44.32], [-91.91, 44.31], [-91.92, 44.3], [-91.92, 44.29], [-91.9, 44.28], [-91.9, 44.27], [-91.9, 44.26], [-91.89, 44.25], [-91.89, 44.24], [-91.89, 44.23], [-91.88, 44.22], [-91.88, 44.2], [-91.83, 44.18], [-91.82, 44.16], [-91.8, 44.15], [-91.77, 44.15], [-91.75, 44.13], [-91.73, 44.13], [-91.72, 44.13], [-91.71, 44.12], [-91.71, 44.1], [-91.7, 44.1], [-91.68, 44.1], [-91.67, 44.09], [-91.66, 44.07], [-91.65, 44.06], [-91.64, 44.06], [-91.63, 44.06], [-91.61, 44.05], [-91.6, 44.03], [-91.58, 44.03], [-91.55, 44.02], [-91.51, 44.02], [-91.48, 44.01], [-91.47, 44.01], [-91.44, 44.0], [-91.43, 43.99], [-91.42, 43.98], [-91.41, 43.96], [-91.39, 43.95], [-91.36, 43.93], [-91.36, 43.92], [-91.35, 43.91], [-91.34, 43.9], [-91.32, 43.89], [-91.31, 43.87], [-91.3, 43.86], [-91.28, 43.85], [-91.28, 43.84], [-91.27, 43.81], [-91.26, 43.79], [-91.24, 43.77], [-91.26, 43.74], [-91.26, 43.73], [-91.27, 43.71], [-91.27, 43.7], [-91.27, 43.68], [-91.27, 43.65], [-91.26, 43.65], [-91.26, 43.64], [-91.27, 43.63], [-91.27, 43.62], [-91.26, 43.6], [-91.24, 43.59], [-91.23, 43.58], [-91.23, 43.56], [-91.24, 43.55], [-91.24, 43.54], [-91.23, 43.52], [-91.22, 43.51], [-91.22, 43.5], [-91.27, 43.5], [-91.38, 43.5], [-91.63, 43.5], [-91.76, 43.5], [-92.03, 43.5], [-92.21, 43.5], [-92.55, 43.5], [-92.78, 43.5], [-93.05, 43.5], [-93.05, 43.56], [-93.05, 43.72], [-93.05, 43.84], [-93.05, 43.85], [-93.05, 43.93], [-93.05, 44.01], [-93.05, 44.16], [-93.05, 44.2], [-93.04, 44.2], [-93.04, 44.39], [-93.04, 44.47], [-93.16, 44.47], [-93.28, 44.47], [-93.28, 44.54], [-93.28, 44.54], [-93.28, 44.63], [-93.32, 44.63], [-93.32, 44.72], [-93.33, 44.72], [-93.33, 44.78], [-93.33, 44.79], [-93.31, 44.79], [-93.29, 44.8], [-93.28, 44.81], [-93.25, 44.81], [-93.23, 44.83], [-93.22, 44.84], [-93.21, 44.84], [-93.2, 44.86], [-93.2, 44.87], [-93.18, 44.88], [-93.18, 44.88], [-93.15, 44.89], [-93.14, 44.91], [-93.13, 44.92], [-93.05, 44.92], [-93.04, 44.9], [-93.02, 44.89], [-93.01, 44.86], [-93.01, 44.84], [-93.0, 44.82], [-93.02, 44.79], [-93.02, 44.78], [-93.0, 44.77], [-92.98, 44.77], [-92.96, 44.77], [-92.94, 44.77], [-92.93, 44.78], [-92.91, 44.77], [-92.88, 44.78], [-92.86, 44.75], [-92.85, 44.75], [-92.83, 44.75], [-92.8, 44.75]]]}}, {"type": "Feature", "properties": {"STATE": "Minnesota", "STATE_FIPS": "27", "CD_2DIG": "04", "STATE_CODE": 21, "CLIMDIV": 2104, "ID": 2104, "CD_NEW": 4, "FIPS_CD": "2704", "NCDC_GEO_I": 141.0, "NAME": "WEST CENTRAL", "ST_ABBRV": "MN", "SHAPE_AREA": 0.0, "SHAPE_LEN": 0.0}, "geometry": {"type": "Polygon", "coordinates": [[[-95.16, 46.72], [-95.16, 46.63], [-95.16, 46.63], [-95.16, 46.37], [-95.15, 46.28], [-95.15, 46.28], [-95.15, 46.19], [-95.15, 46.11], [-95.15, 45.98], [-95.15, 45.93], [-95.14, 45.93], [-95.14, 45.87], [-95.14, 45.64], [-95.14, 45.59], [-95.13, 45.59], [-95.13, 45.47], [-95.13, 45.41], [-95.26, 45.41], [-95.26, 45.37], [-95.25, 45.28], [-95.26, 45.24], [-95.25, 45.24], [-95.25, 45.15], [-95.25, 45.07], [-95.25, 44.98], [-95.25, 44.89], [-95.48, 44.89], [-95.48, 44.81], [-95.48, 44.75], [-95.48, 44.76], [-95.46, 44.74], [-95.44, 44.74], [-95.42, 44.73], [-95.4, 44.73], [-95.4, 44.71], [-95.38, 44.7], [-95.36, 44.7], [-95.36, 44.54], [-95.54, 44.54], [-95.6, 44.54], [-95.6, 44.63], [-95.7, 44.63], [-95.81, 44.63], [-95.95, 44.63], [-96.01, 44.63], [-96.23, 44.63], [-96.32, 44.63], [-96.33, 44.63], [-96.43, 44.63], [-96.45, 44.63], [-96.45, 44.63], [-96.45, 44.63], [-96.45, 44.7], [-96.45, 44.71], [-96.45, 44.72], [-96.45, 44.76], [-96.45, 44.81], [-96.45, 44.87], [-96.45, 44.87], [-96.45, 44.92], [-96.45, 44.93], [-96.45, 44.94], [-96.45, 44.96], [-96.45, 44.97], [-96.45, 44.98], [-96.45, 45.0], [-96.45, 45.0], [-96.45, 45.0], [-96.45, 45.01], [-96.45, 45.12], [-96.45, 45.2], [-96.45, 45.3], [-96.48, 45.34], [-96.49, 45.36], [-96.52, 45.38], [-96.55, 45.38], [-96.58, 45.39], [-96.6, 45.4], [-96.62, 45.41], [-96.64, 45.41], [-96.64, 45.41], [-96.68, 45.41], [-96.7, 45.42], [-96.72, 45.45], [-96.73, 45.46], [-96.75, 45.49], [-96.76, 45.52], [-96.78, 45.54], [-96.79, 45.55], [-96.8, 45.56], [-96.86, 45.61], [-96.85, 45.61], [-96.84, 45.64], [-96.84, 45.65], [-96.83, 45.65], [-96.83, 45.66], [-96.81, 45.66], [-96.81, 45.66], [-96.8, 45.67], [-96.79, 45.67], [-96.79, 45.67], [-96.76, 45.69], [-96.76, 45.69], [-96.75, 45.7], [-96.71, 45.72], [-96.69, 45.72], [-96.67, 45.73], [-96.65, 45.75], [-96.64, 45.76], [-96.64, 45.77], [-96.64, 45.77], [-96.63, 45.77], [-96.63, 45.78], [-96.63, 45.78], [-96.63, 45.78], [-96.63, 45.78], [-96.63, 45.79], [-96.61, 45.79], [-96.59, 45.81], [-96.59, 45.82], [-96.59, 45.82], [-96.58, 45.82], [-96.57, 45.84], [-96.57, 45.89], [-96.57, 45.89], [-96.57, 45.89], [-96.57, 45.91], [-96.56, 45.91], [-96.57, 45.91], [-96.57, 45.91], [-96.57, 45.92], [-96.57, 45.92], [-96.57, 45.92], [-96.56, 45.92], [-96.56, 45.93], [-96.56, 45.94], [-96.56, 45.95], [-96.57, 45.96], [-96.57, 45.98], [-96.57, 46.02], [-96.58, 46.03], [-96.57, 46.04], [-96.56, 46.06], [-96.55, 46.08], [-96.56, 46.1], [-96.57, 46.11], [-96.57, 46.13], [-96.58, 46.15], [-96.58, 46.16], [-96.58, 46.17], [-96.58, 46.18], [-96.59, 46.19], [-96.58, 46.2], [-96.59, 46.21], [-96.6, 46.24], [-96.59, 46.25], [-96.6, 46.26], [-96.6, 46.27], [-96.6, 46.29], [-96.6, 46.31], [-96.6, 46.32], [-96.6, 46.33], [-96.62, 46.34], [-96.63, 46.35], [-96.65, 46.35], [-96.64, 46.36], [-96.67, 46.37], [-96.68, 46.39], [-96.68, 46.41], [-96.7, 46.42], [-96.7, 46.43], [-96.72, 46.44], [-96.71, 46.46], [-96.71, 46.47], [-96.73, 46.48], [-96.74, 46.5], [-96.73, 46.51], [-96.74, 46.53], [-96.75, 46.54], [-96.75, 46.56], [-96.74, 46.57], [-96.75, 46.58], [-96.76, 46.59], [-96.76, 46.6], [-96.77, 46.6], [-96.77, 46.61], [-96.78, 46.62], [-96.78, 46.63], [-96.5, 46.63], [-96.17, 46.63], [-96.17, 46.72], [-96.04, 46.72], [-95.96, 46.72], [-95.81, 46.72], [-95.71, 46.72], [-95.64, 46.72], [-95.55, 46.72], [-95.49, 46.72], [-95.44, 46.72], [-95.4, 46.72], [-95.25, 46.72], [-95.16, 46.72]]]}}]}