{"type": "FeatureCollection", "features": [{"type": "Feature", "properties": {"STATE": "Mississippi", "STATE_FIPS": "28", "CD_2DIG": "01", "STATE_CODE": 22, "CLIMDIV": 2201, "ID": 2201, "CD_NEW": 1, "FIPS_CD": "2801", "NCDC_GEO_I": 147.0, "NAME": "UPPER DELTA", "ST_ABBRV": "MS", "SHAPE_AREA": 0.0, "SHAPE_LEN": 0.0}, "geometry": {"type": "Polygon", "coordinates": [[[-90.3, 34.86], [-90.2, 34.86], [-90.2, 34.8], [-90.2, 34.77], [-90.2, 34.72], [-90.21, 34.72], [-90.22, 34.72], [-90.22, 34.71], [-90.23, 34.7], [-90.22, 34.69], [-90.23, 34.68], [-90.22, 34.66], [-90.22, 34.65], [-90.22, 34.64], [-90.23, 34.63], [-90.24, 34.63], [-90.24, 34.62], [-90.24, 34.61], [-90.24, 34.6], [-90.22, 34.58], [-90.22, 34.58], [-90.21, 34.57], [-90.21, 34.56], [-90.2, 34.55], [-90.2, 34.55], [-90.2, 34.51], [-90.2, 34.43], [-90.2, 34.34], [-90.19, 34.34], [-90.19, 34.3], [-90.13, 34.27], [-90.14, 34.16], [-89.96, 34.16], [-89.97, 34.16], [-89.93, 34.16], [-89.93, 34.14], [-89.93, 34.14], [-89.93, 33.99], [-89.93, 33.97], [-89.93, 33.89], [-89.93, 33.82], [-89.98, 33.82], [-89.98, 33.81], [-90.12, 33.81], [-90.14, 33.81], [-90.14, 33.72], [-90.22, 33.72], [-90.23, 33.74], [-90.24, 33.74], [-90.25, 33.73], [-90.26, 33.71], [-90.26, 33.7], [-90.27, 33.7], [-90.28, 33.69], [-90.3, 33.7], [-90.31, 33.72], [-90.31, 33.73], [-90.3, 33.74], [-90.29, 33.75], [-90.25, 33.76], [-90.24, 33.77], [-90.23, 33.76], [-90.2, 33.76], [-90.19, 33.77], [-90.18, 33.78], [-90.17, 33.79], [-90.18, 33.8], [-90.18, 33.81], [-90.25, 33.81], [-90.29, 33.81], [-90.45, 33.81], [-90.45, 33.94], [-90.45, 33.99], [-90.54, 33.99], [-90.66, 33.99], [-90.66, 33.94], [-90.66, 33.85], [-90.66, 33.72], [-90.66, 33.69], [-90.66, 33.62], [-90.76, 33.62], [-90.76, 33.53], [-90.83, 33.53], [-90.88, 33.53], [-90.88, 33.53], [-91.18, 33.53], [-91.22, 33.53], [-91.23, 33.54], [-91.23, 33.55], [-91.23, 33.56], [-91.22, 33.57], [-91.2, 33.57], [-91.18, 33.58], [-91.15, 33.58], [-91.14, 33.59], [-91.13, 33.61], [-91.14, 33.63], [-91.17, 33.65], [-91.18, 33.65], [-91.21, 33.66], [-91.22, 33.66], [-91.23, 33.67], [-91.23, 33.68], [-91.22, 33.69], [-91.21, 33.7], [-91.18, 33.7], [-91.16, 33.71], [-91.13, 33.68], [-91.1, 33.66], [-91.09, 33.66], [-91.08, 33.66], [-91.06, 33.67], [-91.03, 33.67], [-91.03, 33.69], [-91.04, 33.69], [-91.05, 33.71], [-91.06, 33.71], [-91.07, 33.72], [-91.09, 33.71], [-91.1, 33.71], [-91.12, 33.71], [-91.13, 33.71], [-91.14, 33.72], [-91.15, 33.73], [-91.14, 33.76], [-91.15, 33.77], [-91.13, 33.78], [-91.12, 33.78], [-91.11, 33.77], [-91.09, 33.78], [-91.05, 33.78], [-91.03, 33.76], [-91.01, 33.76], [-91.0, 33.77], [-90.99, 33.78], [-90.99, 33.78], [-90.99, 33.79], [-91.0, 33.8], [-91.02, 33.8], [-91.05, 33.82], [-91.07, 33.84], [-91.07, 33.86], [-91.07, 33.87], [-91.06, 33.88], [-91.03, 33.91], [-91.01, 33.92], [-91.01, 33.93], [-91.02, 33.94], [-91.05, 33.95], [-91.08, 33.95], [-91.09, 33.96], [-91.09, 33.98], [-91.07, 33.98], [-91.05, 33.99], [-91.02, 34.0], [-91.0, 33.97], [-90.98, 33.96], [-90.97, 33.96], [-90.96, 33.98], [-90.97, 33.99], [-90.98, 34.0], [-90.99, 34.02], [-90.97, 34.02], [-90.95, 34.02], [-90.93, 34.02], [-90.92, 34.02], [-90.91, 34.02], [-90.9, 34.02], [-90.89, 34.03], [-90.89, 34.05], [-90.89, 34.06], [-90.87, 34.07], [-90.87, 34.08], [-90.88, 34.1], [-90.89, 34.1], [-90.91, 34.09], [-90.92, 34.09], [-90.94, 34.11], [-90.96, 34.12], [-90.96, 34.13], [-90.95, 34.14], [-90.91, 34.17], [-90.89, 34.16], [-90.87, 34.14], [-90.85, 34.14], [-90.84, 34.14], [-90.82, 34.14], [-90.81, 34.16], [-90.81, 34.16], [-90.81, 34.18], [-90.82, 34.18], [-90.84, 34.18], [-90.85, 34.19], [-90.89, 34.18], [-90.92, 34.2], [-90.94, 34.22], [-90.94, 34.24], [-90.92, 34.25], [-90.91, 34.24], [-90.9, 34.23], [-90.88, 34.22], [-90.86, 34.21], [-90.85, 34.21], [-90.84, 34.23], [-90.84, 34.24], [-90.83, 34.26], [-90.82, 34.28], [-90.8, 34.28], [-90.77, 34.28], [-90.75, 34.29], [-90.74, 34.31], [-90.74, 34.31], [-90.75, 34.33], [-90.77, 34.34], [-90.77, 34.36], [-90.76, 34.37], [-90.74, 34.37], [-90.73, 34.36], [-90.71, 34.36], [-90.68, 34.37], [-90.68, 34.35], [-90.69, 34.34], [-90.69, 34.32], [-90.68, 34.31], [-90.66, 34.32], [-90.66, 34.33], [-90.67, 34.35], [-90.67, 34.36], [-90.66, 34.37], [-90.66, 34.38], [-90.64, 34.39], [-90.62, 34.39], [-90.58, 34.41], [-90.57, 34.42], [-90.57, 34.44], [-90.57, 34.45], [-90.58, 34.46], [-90.59, 34.47], [-90.59, 34.48], [-90.59, 34.5], [-90.58, 34.51], [-90.57, 34.52], [-90.55, 34.54], [-90.54, 34.55], [-90.55, 34.56], [-90.56, 34.58], [-90.57, 34.59], [-90.58, 34.6], [-90.59, 34.63], [-90.58, 34.64], [-90.59, 34.67], [-90.58, 34.68], [-90.57, 34.69], [-90.56, 34.7], [-90.55, 34.7], [-90.54, 34.68], [-90.54, 34.67], [-90.55, 34.66], [-90.56, 34.65], [-90.55, 34.63], [-90.53, 34.63], [-90.52, 34.63], [-90.5, 34.65], [-90.48, 34.66], [-90.47, 34.67], [-90.46, 34.69], [-90.47, 34.7], [-90.5, 34.7], [-90.53, 34.7], [-90.55, 34.7], [-90.57, 34.72], [-90.57, 34.73], [-90.56, 34.74], [-90.54, 34.74], [-90.54, 34.75], [-90.55, 34.78], [-90.55, 34.79], [-90.53, 34.8], [-90.51, 34.8], [-90.5, 34.77], [-90.51, 34.76], [-90.52, 34.75], [-90.52, 34.74], [-90.52, 34.73], [-90.5, 34.72], [-90.47, 34.73], [-90.46, 34.73], [-90.45, 34.74], [-90.46, 34.76], [-90.47, 34.78], [-90.47, 34.79], [-90.47, 34.8], [-90.46, 34.81], [-90.46, 34.82], [-90.46, 34.83], [-90.48, 34.86], [-90.48, 34.88], [-90.48, 34.88], [-90.47, 34.89], [-90.45, 34.89], [-90.44, 34.88], [-90.43, 34.87], [-90.43, 34.86], [-90.43, 34.84], [-90.42, 34.83], [-90.41, 34.83], [-90.4, 34.84], [-90.38, 34.84], [-90.36, 34.85], [-90.34, 34.86], [-90.32, 34.85], [-90.31, 34.84], [-90.31, 34.85], [-90.3, 34.86]]]}}, {"type": "Feature", "properties": {"STATE": "Mississippi", "STATE_FIPS": "28", "CD_2DIG": "02", "STATE_CODE": 22, "CLIMDIV": 2202, "ID": 2202, "CD_NEW": 2, "FIPS_CD": "2802", "NCDC_GEO_I": 148.0, "NAME": "NORTH CENTRAL", "ST_ABBRV": "MS", "SHAPE_AREA": 0.0, "SHAPE_LEN": 0.0}, "geometry": {"type": "Polygon", "coordinates": [[[-89.02, 34.99], [-89.02, 34.86], [-89.03, 34.86], [-89.04, 34.82], [-89.09, 34.82], [-89.09, 34.76], [-89.09, 34.6], [-89.25, 34.6], [-89.25, 34.41], [-89.25, 34.18], [-89.24, 34.07], [-89.14, 34.07], [-89.14, 33.89], [-89.14, 33.88], [-89.14, 33.81], [-89.19, 33.81], [-89.19, 33.74], [-89.19, 33.72], [-89.25, 33.72], [-89.37, 33.72], [-89.51, 33.72], [-89.51, 33.68], [-89.62, 33.68], [-89.66, 33.68], [-89.82, 33.68], [-90.0, 33.68], [-90.13, 33.68], [-90.14, 33.68], [-90.14, 33.72], [-90.14, 33.81], [-90.12, 33.81], [-89.98, 33.81], [-89.98, 33.82], [-89.93, 33.82], [-89.93, 33.89], [-89.93, 33.97], [-89.93, 33.99], [-89.93, 34.14], [-89.93, 34.14], [-89.93, 34.16], [-89.97, 34.16], [-89.96, 34.16], [-90.14, 34.16], [-90.13, 34.27], [-90.19, 34.3], [-90.19, 34.34], [-90.2, 34.34], [-90.2, 34.43], [-90.2, 34.51], [-90.2, 34.55], [-90.2, 34.55], [-90.21, 34.56], [-90.21, 34.57], [-90.22, 34.58], [-90.22, 34.58], [-90.24, 34.6], [-90.24, 34.61], [-90.24, 34.62], [-90.24, 34.63], [-90.23, 34.63], [-90.22, 34.64], [-90.22, 34.65], [-90.22, 34.66], [-90.23, 34.68], [-90.22, 34.69], [-90.23, 34.7], [-90.22, 34.71], [-90.22, 34.72], [-90.21, 34.72], [-90.2, 34.72], [-90.2, 34.77], [-90.2, 34.8], [-90.2, 34.86], [-90.3, 34.86], [-90.31, 34.87], [-90.3, 34.88], [-90.28, 34.89], [-90.25, 34.91], [-90.24, 34.92], [-90.24, 34.94], [-90.25, 34.96], [-90.28, 34.97], [-90.3, 34.98], [-90.3, 34.98], [-90.31, 35.0], [-90.2, 35.0], [-90.11, 34.99], [-90.02, 34.99], [-89.8, 34.99], [-89.74, 35.0], [-89.66, 35.0], [-89.52, 34.99], [-89.44, 34.99], [-89.35, 34.99], [-89.21, 34.99], [-89.16, 34.99], [-89.13, 34.99], [-89.02, 34.99]]]}}, {"type": "Feature", "properties": {"STATE": "Mississippi", "STATE_FIPS": "28", "CD_2DIG": "03", "STATE_CODE": 22, "CLIMDIV": 2203, "ID": 2203, "CD_NEW": 3, "FIPS_CD": "2803", "NCDC_GEO_I": 149.0, "NAME": "NORTHEAST", "ST_ABBRV": "MS", "SHAPE_AREA": 0.0, "SHAPE_LEN": 0.0}, "geometry": {"type": "Polygon", "coordinates": [[[-88.38, 35.0], [-88.2, 35.0], [-88.19, 34.97], [-88.17, 34.96], [-88.15, 34.92], [-88.14, 34.91], [-88.1, 34.89], [-88.11, 34.81], [-88.12, 34.75], [-88.12, 34.72], [-88.13, 34.63], [-88.15, 34.5], [-88.16, 34.46], [-88.17, 34.38], [-88.17, 34.32], [-88.19, 34.22], [-88.19, 34.2], [-88.19, 34.18], [-88.2, 34.09], [-88.37, 34.09], [-88.4, 34.09], [-88.49, 34.09], [-88.72, 34.09], [-88.72, 34.07], [-88.73, 34.07], [-88.88, 34.08], [-89.14, 34.07], [-89.24, 34.07], [-89.25, 34.18], [-89.25, 34.41], [-89.25, 34.6], [-89.09, 34.6], [-89.09, 34.76], [-89.09, 34.82], [-89.04, 34.82], [-89.03, 34.86], [-89.02, 34.86], [-89.02, 34.99], [-88.93, 34.99], [-88.9, 35.0], [-88.86, 35.0], [-88.74, 35.0], [-88.62, 35.0], [-88.49, 35.0], [-88.38, 35.0]]]}}, {"type": "Feature", "properties": {"STATE": "Mississippi", "STATE_FIPS": "28", "CD_2DIG": "04", "STATE_CODE": 22, "CLIMDIV": 2204, "ID": 2204, "CD_NEW": 4, "FIPS_CD": "2804", "NCDC_GEO_I": 150.0, "NAME": "LOWER DELTA", "ST_ABBRV": "MS", "SHAPE_AREA": 0.0, "SHAPE_LEN": 0.0}, "geometry": {"type": "Polygon", "coordinates": [[[-90.14, 33.72], [-90.14, 33.68], [-90.13, 33.68], [-90.12, 33.67], [-90.12, 33.66], [-90.11, 33.66], [-90.1, 33.65], [-90.11, 33.63], [-90.1, 33.62], [-90.11, 33.61], [-90.1, 33.6], [-90.1, 33.56], [-90.1, 33.53], [-90.1, 33.46], [-90.14, 33.46], [-90.14, 33.42], [-90.17, 33.42], [-90.17, 33.33], [-90.32, 33.37], [-90.32, 33.36], [-90.3, 33.36], [-90.29, 33.36], [-90.28, 33.34], [-90.29, 33.33], [-90.29, 33.32], [-90.32, 33.32], [-90.33, 33.31], [-90.33, 33.3], [-90.33, 33.25], [-90.33, 33.14], [-90.35, 33.13], [-90.35, 33.12], [-90.36, 33.11], [-90.35, 33.1], [-90.36, 33.09], [-90.37, 33.1], [-90.37, 33.12], [-90.38, 33.13], [-90.39, 33.11], [-90.38, 33.11], [-90.37, 33.1], [-90.37, 33.09], [-90.37, 33.08], [-90.38, 33.09], [-90.39, 33.1], [-90.4, 33.11], [-90.42, 33.1], [-90.42, 33.11], [-90.43, 33.11], [-90.42, 33.1], [-90.43, 33.1], [-90.43, 33.06], [-90.42, 33.05], [-90.4, 33.05], [-90.39, 33.05], [-90.38, 33.04], [-90.38, 33.03], [-90.38, 33.02], [-90.36, 33.01], [-90.36, 33.01], [-90.35, 33.02], [-90.34, 33.02], [-90.34, 33.01], [-90.29, 33.0], [-90.27, 32.99], [-90.13, 32.94], [-89.97, 32.88], [-89.97, 32.87], [-89.98, 32.86], [-89.99, 32.85], [-90.0, 32.83], [-90.02, 32.83], [-90.02, 32.81], [-90.02, 32.81], [-90.02, 32.79], [-90.03, 32.77], [-90.03, 32.77], [-90.04, 32.76], [-90.04, 32.75], [-90.05, 32.74], [-90.07, 32.73], [-90.08, 32.73], [-90.08, 32.72], [-90.09, 32.7], [-90.12, 32.7], [-90.14, 32.7], [-90.14, 32.69], [-90.16, 32.69], [-90.18, 32.68], [-90.19, 32.67], [-90.21, 32.67], [-90.22, 32.66], [-90.23, 32.67], [-90.24, 32.67], [-90.25, 32.66], [-90.26, 32.66], [-90.27, 32.66], [-90.28, 32.66], [-90.29, 32.64], [-90.3, 32.65], [-90.31, 32.64], [-90.32, 32.63], [-90.34, 32.61], [-90.35, 32.6], [-90.37, 32.6], [-90.38, 32.6], [-90.39, 32.58], [-90.4, 32.57], [-90.43, 32.59], [-90.44, 32.58], [-90.45, 32.57], [-90.45, 32.56], [-90.46, 32.56], [-90.47, 32.55], [-90.47, 32.54], [-90.48, 32.54], [-90.49, 32.53], [-90.51, 32.52], [-90.51, 32.53], [-90.52, 32.52], [-90.52, 32.51], [-90.53, 32.51], [-90.54, 32.51], [-90.55, 32.51], [-90.55, 32.51], [-90.55, 32.53], [-90.59, 32.53], [-90.59, 32.55], [-90.65, 32.55], [-90.66, 32.59], [-90.69, 32.59], [-90.69, 32.62], [-90.72, 32.62], [-90.72, 32.61], [-90.72, 32.59], [-90.73, 32.59], [-90.73, 32.58], [-90.73, 32.57], [-90.73, 32.57], [-90.74, 32.57], [-90.75, 32.57], [-90.76, 32.58], [-90.77, 32.57], [-90.86, 32.58], [-90.86, 32.44], [-90.87, 32.45], [-90.88, 32.44], [-90.89, 32.45], [-90.92, 32.44], [-90.93, 32.45], [-90.94, 32.45], [-90.95, 32.44], [-90.96, 32.41], [-90.96, 32.5], [-90.96, 32.58], [-91.04, 32.58], [-91.03, 32.58], [-91.01, 32.6], [-91.0, 32.61], [-91.0, 32.62], [-91.01, 32.64], [-91.03, 32.65], [-91.04, 32.63], [-91.05, 32.61], [-91.08, 32.6], [-91.11, 32.59], [-91.13, 32.59], [-91.14, 32.6], [-91.15, 32.62], [-91.15, 32.63], [-91.15, 32.64], [-91.14, 32.65], [-91.13, 32.67], [-91.12, 32.67], [-91.1, 32.69], [-91.08, 32.69], [-91.06, 32.7], [-91.06, 32.71], [-91.05, 32.72], [-91.06, 32.73], [-91.09, 32.74], [-91.13, 32.74], [-91.15, 32.74], [-91.16, 32.75], [-91.17, 32.76], [-91.16, 32.78], [-91.16, 32.79], [-91.16, 32.8], [-91.16, 32.81], [-91.16, 32.82], [-91.15, 32.83], [-91.14, 32.84], [-91.13, 32.86], [-91.11, 32.86], [-91.09, 32.87], [-91.07, 32.89], [-91.06, 32.9], [-91.06, 32.93], [-91.07, 32.94], [-91.08, 32.94], [-91.08, 32.96], [-91.09, 32.98], [-91.1, 32.99], [-91.11, 32.99], [-91.14, 32.98], [-91.14, 32.97], [-91.13, 32.96], [-91.14, 32.95], [-91.13, 32.93], [-91.14, 32.92], [-91.15, 32.91], [-91.16, 32.9], [-91.18, 32.9], [-91.2, 32.91], [-91.21, 32.92], [-91.21, 32.94], [-91.2, 32.95], [-91.2, 32.96], [-91.19, 32.97], [-91.17, 32.99], [-91.17, 33.0], [-91.16, 33.02], [-91.15, 33.03], [-91.13, 33.03], [-91.12, 33.05], [-91.12, 33.06], [-91.15, 33.08], [-91.17, 33.09], [-91.18, 33.1], [-91.2, 33.11], [-91.2, 33.13], [-91.2, 33.13], [-91.18, 33.14], [-91.16, 33.14], [-91.15, 33.13], [-91.13, 33.13], [-91.1, 33.13], [-91.09, 33.14], [-91.09, 33.15], [-91.09, 33.16], [-91.08, 33.18], [-91.09, 33.22], [-91.08, 33.22], [-91.07, 33.23], [-91.05, 33.25], [-91.04, 33.27], [-91.05, 33.28], [-91.06, 33.29], [-91.08, 33.28], [-91.08, 33.28], [-91.09, 33.26], [-91.1, 33.24], [-91.11, 33.25], [-91.12, 33.26], [-91.13, 33.27], [-91.13, 33.28], [-91.14, 33.3], [-91.14, 33.33], [-91.14, 33.34], [-91.14, 33.35], [-91.12, 33.36], [-91.11, 33.38], [-91.1, 33.39], [-91.08, 33.41], [-91.06, 33.43], [-91.06, 33.45], [-91.07, 33.46], [-91.08, 33.46], [-91.09, 33.45], [-91.09, 33.44], [-91.1, 33.43], [-91.09, 33.42], [-91.1, 33.41], [-91.11, 33.4], [-91.12, 33.39], [-91.14, 33.38], [-91.17, 33.38], [-91.19, 33.39], [-91.21, 33.4], [-91.2, 33.42], [-91.18, 33.42], [-91.15, 33.43], [-91.13, 33.43], [-91.12, 33.44], [-91.12, 33.45], [-91.13, 33.47], [-91.14, 33.48], [-91.16, 33.5], [-91.17, 33.5], [-91.18, 33.48], [-91.18, 33.47], [-91.17, 33.45], [-91.18, 33.44], [-91.2, 33.43], [-91.22, 33.43], [-91.24, 33.44], [-91.23, 33.46], [-91.21, 33.47], [-91.2, 33.49], [-91.18, 33.5], [-91.19, 33.51], [-91.22, 33.53], [-91.18, 33.53], [-90.88, 33.53], [-90.88, 33.53], [-90.83, 33.53], [-90.76, 33.53], [-90.76, 33.62], [-90.66, 33.62], [-90.66, 33.69], [-90.66, 33.72], [-90.66, 33.85], [-90.66, 33.94], [-90.66, 33.99], [-90.54, 33.99], [-90.45, 33.99], [-90.45, 33.94], [-90.45, 33.81], [-90.29, 33.81], [-90.25, 33.81], [-90.18, 33.81], [-90.18, 33.8], [-90.17, 33.79], [-90.18, 33.78], [-90.19, 33.77], [-90.2, 33.76], [-90.23, 33.76], [-90.24, 33.77], [-90.25, 33.76], [-90.29, 33.75], [-90.3, 33.74], [-90.31, 33.73], [-90.31, 33.72], [-90.3, 33.7], [-90.28, 33.69], [-90.27, 33.7], [-90.26, 33.7], [-90.26, 33.71], [-90.25, 33.73], [-90.24, 33.74], [-90.23, 33.74], [-90.22, 33.72], [-90.14, 33.72]]]}}, {"type": "Feature", "properties": {"STATE": "Mississippi", "STATE_FIPS": "28", "CD_2DIG": "05", "STATE_CODE": 22, "CLIMDIV": 2205, "ID": 2205, "CD_NEW": 5, "FIPS_CD": "2805", "NCDC_GEO_I": 151.0, "NAME": "CENTRAL", "ST_ABBRV": "MS", "SHAPE_AREA": 0.0, "SHAPE_LEN": 0.0}, "geometry": {"type": "Polygon", "coordinates": [[[-89.32, 32.58], [-89.32, 32.57], [-89.32, 32.41], [-89.32, 32.22], [-89.38, 32.22], [-89.51, 32.22], [-89.7, 32.22], [-89.73, 32.22], [-89.73, 32.13], [-89.73, 32.13], [-89.73, 32.05], [-89.94, 32.05], [-89.94, 32.05], [-90.09, 32.05], [-90.23, 32.05], [-90.23, 32.08], [-90.24, 32.09], [-90.25, 32.09], [-90.25, 32.11], [-90.24, 32.13], [-90.25, 32.14], [-90.24, 32.16], [-90.25, 32.17], [-90.23, 32.17], [-90.23, 32.18], [-90.21, 32.18], [-90.2, 32.19], [-90.2, 32.2], [-90.19, 32.2], [-90.19, 32.21], [-90.19, 32.22], [-90.21, 32.23], [-90.2, 32.25], [-90.19, 32.26], [-90.19, 32.27], [-90.18, 32.28], [-90.18, 32.29], [-90.16, 32.29], [-90.16, 32.3], [-90.16, 32.31], [-90.15, 32.32], [-90.14, 32.33], [-90.11, 32.34], [-90.11, 32.35], [-90.1, 32.38], [-90.09, 32.39], [-90.09, 32.39], [-90.08, 32.39], [-90.07, 32.39], [-90.07, 32.4], [-90.14, 32.4], [-90.16, 32.4], [-90.24, 32.4], [-90.24, 32.49], [-90.34, 32.49], [-90.45, 32.49], [-90.45, 32.57], [-90.44, 32.58], [-90.43, 32.59], [-90.4, 32.57], [-90.39, 32.58], [-90.38, 32.6], [-90.37, 32.6], [-90.35, 32.6], [-90.34, 32.61], [-90.32, 32.63], [-90.31, 32.64], [-90.3, 32.65], [-90.29, 32.64], [-90.28, 32.66], [-90.27, 32.66], [-90.26, 32.66], [-90.25, 32.66], [-90.24, 32.67], [-90.23, 32.67], [-90.22, 32.66], [-90.21, 32.67], [-90.19, 32.67], [-90.18, 32.68], [-90.16, 32.69], [-90.14, 32.69], [-90.14, 32.7], [-90.12, 32.7], [-90.09, 32.7], [-90.08, 32.72], [-90.08, 32.73], [-90.07, 32.73], [-90.05, 32.74], [-90.04, 32.75], [-90.04, 32.76], [-90.03, 32.77], [-90.03, 32.77], [-90.02, 32.79], [-90.02, 32.81], [-90.02, 32.81], [-90.02, 32.83], [-90.0, 32.83], [-89.99, 32.85], [-89.98, 32.86], [-89.97, 32.87], [-89.97, 32.88], [-90.13, 32.94], [-90.27, 32.99], [-90.29, 33.0], [-90.34, 33.01], [-90.34, 33.02], [-90.35, 33.02], [-90.36, 33.01], [-90.36, 33.01], [-90.38, 33.02], [-90.38, 33.03], [-90.38, 33.04], [-90.39, 33.05], [-90.4, 33.05], [-90.42, 33.05], [-90.43, 33.06], [-90.43, 33.1], [-90.42, 33.1], [-90.43, 33.11], [-90.42, 33.11], [-90.42, 33.1], [-90.4, 33.11], [-90.39, 33.1], [-90.38, 33.09], [-90.37, 33.08], [-90.37, 33.09], [-90.37, 33.1], [-90.38, 33.11], [-90.39, 33.11], [-90.38, 33.13], [-90.37, 33.12], [-90.37, 33.1], [-90.36, 33.09], [-90.35, 33.1], [-90.36, 33.11], [-90.35, 33.12], [-90.35, 33.13], [-90.33, 33.14], [-90.33, 33.25], [-90.33, 33.3], [-90.33, 33.31], [-90.32, 33.32], [-90.29, 33.32], [-90.29, 33.33], [-90.28, 33.34], [-90.29, 33.36], [-90.3, 33.36], [-90.32, 33.36], [-90.32, 33.37], [-90.17, 33.33], [-90.17, 33.42], [-90.14, 33.42], [-90.14, 33.46], [-90.1, 33.46], [-90.1, 33.53], [-90.1, 33.56], [-90.1, 33.6], [-90.11, 33.61], [-90.1, 33.62], [-90.11, 33.63], [-90.1, 33.65], [-90.11, 33.66], [-90.12, 33.66], [-90.12, 33.67], [-90.13, 33.68], [-90.0, 33.68], [-89.82, 33.68], [-89.66, 33.68], [-89.62, 33.68], [-89.51, 33.68], [-89.51, 33.72], [-89.37, 33.72], [-89.25, 33.72], [-89.19, 33.72], [-89.19, 33.74], [-89.03, 33.74], [-89.03, 33.64], [-89.02, 33.64], [-89.02, 33.56], [-89.09, 33.56], [-89.09, 33.47], [-89.09, 33.29], [-89.11, 33.29], [-89.11, 33.2], [-89.21, 33.2], [-89.21, 33.11], [-89.32, 33.11], [-89.32, 32.99], [-89.32, 32.88], [-89.32, 32.87], [-89.32, 32.79], [-89.32, 32.58], [-89.32, 32.58]]]}}, {"type": "Feature", "properties": {"STATE": "Mississippi", "STATE_FIPS": "28", "CD_2DIG": "06", "STATE_CODE": 22, "CLIMDIV": 2206, "ID": 2206, "CD_NEW": 6, "FIPS_CD": "2806", "NCDC_GEO_I": 152.0, "NAME": "EAST CENTRAL", "ST_ABBRV": "MS", "SHAPE_AREA": 0.0, "SHAPE_LEN": 0.0}, "geometry": {"type": "Polygon", "coordinates": [[[-88.2, 34.09], [-88.21, 34.03], [-88.22, 33.94], [-88.23, 33.87], [-88.25, 33.72], [-88.27, 33.59], [-88.28, 33.5], [-88.29, 33.37], [-88.32, 33.18], [-88.33, 33.07], [-88.34, 32.99], [-88.35, 32.88], [-88.37, 32.75], [-88.39, 32.58], [-88.55, 32.58], [-88.63, 32.58], [-88.74, 32.58], [-88.75, 32.58], [-88.88, 32.58], [-89.1, 32.58], [-89.25, 32.58], [-89.32, 32.58], [-89.32, 32.58], [-89.32, 32.79], [-89.32, 32.87], [-89.32, 32.88], [-89.32, 32.99], [-89.32, 33.11], [-89.21, 33.11], [-89.21, 33.2], [-89.11, 33.2], [-89.11, 33.29], [-89.09, 33.29], [-89.09, 33.47], [-89.09, 33.56], [-89.02, 33.56], [-89.02, 33.64], [-89.03, 33.64], [-89.03, 33.74], [-89.19, 33.74], [-89.19, 33.81], [-89.14, 33.81], [-89.14, 33.88], [-89.14, 33.89], [-89.14, 34.07], [-88.88, 34.08], [-88.73, 34.07], [-88.72, 34.07], [-88.72, 34.09], [-88.49, 34.09], [-88.4, 34.09], [-88.37, 34.09], [-88.2, 34.09]]]}}, {"type": "Feature", "properties": {"STATE": "Mississippi", "STATE_FIPS": "28", "CD_2DIG": "07", "STATE_CODE": 22, "CLIMDIV": 2207, "ID": 2207, "CD_NEW": 7, "FIPS_CD": "2807", "NCDC_GEO_I": 153.0, "NAME": "SOUTHWEST", "ST_ABBRV": "MS", "SHAPE_AREA": 0.0, "SHAPE_LEN": 0.0}, "geometry": {"type": "Polygon", "coordinates": [[[-90.45, 32.57], [-90.45, 32.49], [-90.34, 32.49], [-90.24, 32.49], [-90.24, 32.4], [-90.16, 32.4], [-90.14, 32.4], [-90.07, 32.4], [-90.07, 32.39], [-90.08, 32.39], [-90.09, 32.39], [-90.09, 32.39], [-90.1, 32.38], [-90.11, 32.35], [-90.11, 32.34], [-90.14, 32.33], [-90.15, 32.32], [-90.16, 32.31], [-90.16, 32.3], [-90.16, 32.29], [-90.18, 32.29], [-90.18, 32.28], [-90.19, 32.27], [-90.19, 32.26], [-90.2, 32.25], [-90.21, 32.23], [-90.19, 32.22], [-90.19, 32.21], [-90.19, 32.2], [-90.2, 32.2], [-90.2, 32.19], [-90.21, 32.18], [-90.23, 32.18], [-90.23, 32.17], [-90.25, 32.17], [-90.24, 32.16], [-90.25, 32.14], [-90.24, 32.13], [-90.25, 32.11], [-90.25, 32.09], [-90.24, 32.09], [-90.23, 32.08], [-90.23, 32.05], [-90.24, 32.04], [-90.25, 32.03], [-90.24, 32.02], [-90.22, 32.01], [-90.23, 32.01], [-90.22, 32.0], [-90.22, 31.99], [-90.21, 31.99], [-90.21, 31.98], [-90.2, 31.96], [-90.2, 31.96], [-90.19, 31.94], [-90.18, 31.94], [-90.17, 31.93], [-90.17, 31.9], [-90.15, 31.89], [-90.14, 31.89], [-90.13, 31.86], [-90.14, 31.85], [-90.16, 31.84], [-90.15, 31.83], [-90.14, 31.83], [-90.14, 31.82], [-90.15, 31.81], [-90.15, 31.8], [-90.14, 31.79], [-90.11, 31.79], [-90.11, 31.78], [-90.11, 31.77], [-90.13, 31.77], [-90.13, 31.76], [-90.14, 31.75], [-90.15, 31.75], [-90.17, 31.74], [-90.18, 31.73], [-90.21, 31.73], [-90.23, 31.72], [-90.25, 31.72], [-90.24, 31.55], [-90.24, 31.42], [-90.24, 31.35], [-90.32, 31.35], [-90.46, 31.35], [-90.55, 31.35], [-90.55, 31.23], [-90.55, 31.0], [-90.73, 31.0], [-90.87, 31.0], [-90.88, 31.0], [-91.0, 31.0], [-91.1, 31.0], [-91.25, 31.0], [-91.38, 31.0], [-91.5, 31.0], [-91.64, 31.0], [-91.63, 31.01], [-91.59, 31.02], [-91.58, 31.02], [-91.56, 31.04], [-91.56, 31.05], [-91.56, 31.07], [-91.59, 31.09], [-91.61, 31.1], [-91.63, 31.12], [-91.62, 31.13], [-91.6, 31.16], [-91.59, 31.18], [-91.59, 31.19], [-91.6, 31.2], [-91.61, 31.21], [-91.63, 31.23], [-91.64, 31.23], [-91.65, 31.24], [-91.65, 31.26], [-91.64, 31.27], [-91.62, 31.27], [-91.57, 31.26], [-91.56, 31.26], [-91.53, 31.27], [-91.52, 31.28], [-91.51, 31.29], [-91.51, 31.31], [-91.51, 31.32], [-91.53, 31.33], [-91.53, 31.34], [-91.55, 31.35], [-91.55, 31.36], [-91.55, 31.38], [-91.56, 31.39], [-91.57, 31.38], [-91.58, 31.4], [-91.58, 31.41], [-91.57, 31.42], [-91.55, 31.43], [-91.54, 31.42], [-91.54, 31.41], [-91.53, 31.39], [-91.52, 31.37], [-91.5, 31.36], [-91.48, 31.36], [-91.47, 31.38], [-91.47, 31.38], [-91.47, 31.4], [-91.48, 31.41], [-91.5, 31.43], [-91.51, 31.44], [-91.52, 31.45], [-91.52, 31.48], [-91.51, 31.51], [-91.52, 31.52], [-91.51, 31.53], [-91.49, 31.53], [-91.48, 31.53], [-91.44, 31.54], [-91.41, 31.56], [-91.41, 31.57], [-91.4, 31.59], [-91.42, 31.6], [-91.44, 31.59], [-91.46, 31.59], [-91.49, 31.59], [-91.5, 31.6], [-91.52, 31.61], [-91.52, 31.63], [-91.51, 31.63], [-91.5, 31.65], [-91.49, 31.64], [-91.48, 31.63], [-91.46, 31.62], [-91.44, 31.61], [-91.42, 31.61], [-91.4, 31.62], [-91.4, 31.64], [-91.4, 31.69], [-91.4, 31.71], [-91.38, 31.73], [-91.37, 31.75], [-91.35, 31.75], [-91.32, 31.75], [-91.29, 31.75], [-91.28, 31.74], [-91.27, 31.75], [-91.26, 31.76], [-91.26, 31.77], [-91.27, 31.77], [-91.29, 31.77], [-91.3, 31.77], [-91.35, 31.76], [-91.37, 31.76], [-91.36, 31.78], [-91.35, 31.84], [-91.34, 31.85], [-91.33, 31.85], [-91.31, 31.86], [-91.29, 31.86], [-91.29, 31.85], [-91.29, 31.83], [-91.28, 31.82], [-91.27, 31.81], [-91.26, 31.81], [-91.25, 31.81], [-91.25, 31.82], [-91.25, 31.83], [-91.27, 31.85], [-91.27, 31.86], [-91.25, 31.87], [-91.23, 31.88], [-91.2, 31.91], [-91.19, 31.91], [-91.18, 31.92], [-91.18, 31.92], [-91.18, 31.93], [-91.19, 31.94], [-91.19, 31.96], [-91.18, 31.97], [-91.16, 31.98], [-91.12, 31.99], [-91.11, 31.99], [-91.09, 32.0], [-91.08, 32.02], [-91.08, 32.03], [-91.09, 32.04], [-91.14, 32.05], [-91.16, 32.05], [-91.16, 32.07], [-91.15, 32.08], [-91.14, 32.08], [-91.13, 32.08], [-91.11, 32.06], [-91.1, 32.05], [-91.08, 32.05], [-91.08, 32.05], [-91.08, 32.08], [-91.08, 32.08], [-91.04, 32.1], [-91.03, 32.11], [-91.03, 32.12], [-91.02, 32.12], [-91.01, 32.13], [-91.01, 32.14], [-91.0, 32.16], [-91.02, 32.16], [-91.04, 32.17], [-91.06, 32.18], [-91.06, 32.17], [-91.05, 32.16], [-91.05, 32.13], [-91.08, 32.13], [-91.1, 32.13], [-91.11, 32.12], [-91.13, 32.13], [-91.14, 32.13], [-91.16, 32.13], [-91.17, 32.15], [-91.17, 32.16], [-91.17, 32.18], [-91.16, 32.2], [-91.16, 32.2], [-91.13, 32.21], [-91.12, 32.21], [-91.11, 32.21], [-91.1, 32.22], [-91.08, 32.23], [-91.07, 32.23], [-91.06, 32.22], [-91.05, 32.23], [-91.05, 32.24], [-91.03, 32.24], [-91.02, 32.24], [-91.0, 32.22], [-91.01, 32.21], [-91.0, 32.2], [-90.99, 32.19], [-90.98, 32.21], [-90.98, 32.23], [-90.98, 32.24], [-90.97, 32.25], [-90.98, 32.27], [-90.98, 32.28], [-90.98, 32.3], [-90.96, 32.3], [-90.96, 32.29], [-90.95, 32.28], [-90.93, 32.29], [-90.92, 32.3], [-90.91, 32.32], [-90.9, 32.33], [-90.89, 32.35], [-90.88, 32.37], [-90.88, 32.37], [-90.89, 32.37], [-90.9, 32.35], [-90.91, 32.34], [-90.93, 32.34], [-90.95, 32.35], [-90.99, 32.35], [-91.0, 32.36], [-91.0, 32.37], [-91.0, 32.39], [-90.99, 32.4], [-90.98, 32.41], [-90.97, 32.42], [-90.97, 32.44], [-90.98, 32.45], [-90.99, 32.45], [-91.03, 32.43], [-91.05, 32.44], [-91.08, 32.45], [-91.09, 32.46], [-91.11, 32.48], [-91.12, 32.48], [-91.12, 32.5], [-91.1, 32.53], [-91.1, 32.54], [-91.09, 32.55], [-91.08, 32.53], [-91.05, 32.5], [-91.04, 32.49], [-91.02, 32.49], [-91.0, 32.48], [-90.99, 32.49], [-90.99, 32.5], [-90.99, 32.51], [-91.02, 32.52], [-91.05, 32.53], [-91.08, 32.55], [-91.08, 32.56], [-91.04, 32.58], [-90.96, 32.58], [-90.96, 32.5], [-90.96, 32.41], [-90.95, 32.44], [-90.94, 32.45], [-90.93, 32.45], [-90.92, 32.44], [-90.89, 32.45], [-90.88, 32.44], [-90.87, 32.45], [-90.86, 32.44], [-90.86, 32.58], [-90.77, 32.57], [-90.76, 32.58], [-90.75, 32.57], [-90.74, 32.57], [-90.73, 32.57], [-90.73, 32.57], [-90.73, 32.58], [-90.73, 32.59], [-90.72, 32.59], [-90.72, 32.61], [-90.72, 32.62], [-90.69, 32.62], [-90.69, 32.59], [-90.66, 32.59], [-90.65, 32.55], [-90.59, 32.55], [-90.59, 32.53], [-90.55, 32.53], [-90.55, 32.51], [-90.55, 32.51], [-90.54, 32.51], [-90.53, 32.51], [-90.52, 32.51], [-90.52, 32.52], [-90.51, 32.53], [-90.51, 32.52], [-90.49, 32.53], [-90.48, 32.54], [-90.47, 32.54], [-90.47, 32.55], [-90.46, 32.56], [-90.45, 32.56], [-90.45, 32.57]]]}}, {"type": "Feature", "properties": {"STATE": "Mississippi", "STATE_FIPS": "28", "CD_2DIG": "08", "STATE_CODE": 22, "CLIMDIV": 2208, "ID": 2208, "CD_NEW": 8, "FIPS_CD": "2808", "NCDC_GEO_I": 154.0, "NAME": "SOUTH CENTRAL", "ST_ABBRV": "MS", "SHAPE_AREA": 0.0, "SHAPE_LEN": 0.0}, "geometry": {"type": "Polygon", "coordinates": [[[-89.32, 32.22], [-89.32, 32.11], [-89.32, 31.93], [-89.32, 31.87], [-89.32, 31.87], [-89.32, 31.8], [-89.4, 31.8], [-89.4, 31.74], [-89.4, 31.54], [-89.4, 31.43], [-89.45, 31.43], [-89.45, 31.35], [-89.37, 31.35], [-89.35, 31.35], [-89.35, 31.28], [-89.35, 31.19], [-89.35, 31.01], [-89.42, 31.01], [-89.43, 30.98], [-89.48, 30.98], [-89.48, 31.0], [-89.5, 31.0], [-89.5, 31.01], [-89.55, 31.01], [-89.55, 31.0], [-89.63, 31.0], [-89.73, 31.0], [-89.75, 31.0], [-89.86, 31.0], [-89.92, 31.0], [-90.21, 31.0], [-90.37, 31.0], [-90.45, 31.0], [-90.55, 31.0], [-90.55, 31.23], [-90.55, 31.35], [-90.46, 31.35], [-90.32, 31.35], [-90.24, 31.35], [-90.24, 31.42], [-90.24, 31.55], [-90.25, 31.72], [-90.23, 31.72], [-90.21, 31.73], [-90.18, 31.73], [-90.17, 31.74], [-90.15, 31.75], [-90.14, 31.75], [-90.13, 31.76], [-90.13, 31.77], [-90.11, 31.77], [-90.11, 31.78], [-90.11, 31.79], [-90.14, 31.79], [-90.15, 31.8], [-90.15, 31.81], [-90.14, 31.82], [-90.14, 31.83], [-90.15, 31.83], [-90.16, 31.84], [-90.14, 31.85], [-90.13, 31.86], [-90.14, 31.89], [-90.15, 31.89], [-90.17, 31.9], [-90.17, 31.93], [-90.18, 31.94], [-90.19, 31.94], [-90.2, 31.96], [-90.2, 31.96], [-90.21, 31.98], [-90.21, 31.99], [-90.22, 31.99], [-90.22, 32.0], [-90.23, 32.01], [-90.22, 32.01], [-90.24, 32.02], [-90.25, 32.03], [-90.24, 32.04], [-90.23, 32.05], [-90.09, 32.05], [-89.94, 32.05], [-89.94, 32.05], [-89.73, 32.05], [-89.73, 32.13], [-89.73, 32.13], [-89.73, 32.22], [-89.7, 32.22], [-89.51, 32.22], [-89.38, 32.22], [-89.32, 32.22]]]}}, {"type": "Feature", "properties": {"STATE": "Mississippi", "STATE_FIPS": "28", "CD_2DIG": "09", "STATE_CODE": 22, "CLIMDIV": 2209, "ID": 2209, "CD_NEW": 9, "FIPS_CD": "2809", "NCDC_GEO_I": 155.0, "NAME": "SOUTHEAST", "ST_ABBRV": "MS", "SHAPE_AREA": 0.0, "SHAPE_LEN": 0.0}, "geometry": {"type": "Polygon", "coordinates": [[[-88.39, 32.58], [-88.41, 32.38], [-88.42, 32.31], [-88.43, 32.25], [-88.45, 32.12], [-88.47, 31.95], [-88.47, 31.89], [-88.46, 31.71], [-88.46, 31.62], [-88.45, 31.49], [-88.45, 31.37], [-88.44, 31.28], [-88.43, 31.15], [-88.43, 31.11], [-88.43, 31.0], [-88.51, 31.0], [-88.62, 31.0], [-88.72, 31.0], [-88.76, 31.0], [-88.83, 31.0], [-88.83, 30.91], [-88.89, 30.91], [-89.0, 30.91], [-89.17, 30.91], [-89.34, 30.91], [-89.34, 31.0], [-89.35, 31.0], [-89.35, 31.01], [-89.35, 31.19], [-89.35, 31.28], [-89.35, 31.35], [-89.37, 31.35], [-89.45, 31.35], [-89.45, 31.43], [-89.4, 31.43], [-89.4, 31.54], [-89.4, 31.74], [-89.4, 31.8], [-89.32, 31.8], [-89.32, 31.87], [-89.32, 31.87], [-89.32, 31.93], [-89.32, 32.11], [-89.32, 32.22], [-89.32, 32.41], [-89.32, 32.57], [-89.32, 32.58], [-89.25, 32.58], [-89.1, 32.58], [-88.88, 32.58], [-88.75, 32.58], [-88.74, 32.58], [-88.63, 32.58], [-88.55, 32.58], [-88.39, 32.58]]]}}, {"type": "Feature", "properties": {"STATE": "Mississippi", "STATE_FIPS": "28", "CD_2DIG": "10", "STATE_CODE": 22, "CLIMDIV": 2210, "ID": 2210, "CD_NEW": 10, "FIPS_CD": "2810", "NCDC_GEO_I": 156.0, "NAME": "COASTAL", "ST_ABBRV": "MS", "SHAPE_AREA": 0.0, "SHAPE_LEN": 0.0}, "geometry": {"type": "MultiPolygon", "coordinates": [[[[-89.35, 31.01], [-89.35, 31.0], [-89.34, 31.0], [-89.34, 30.91], [-89.17, 30.91], [-89.0, 30.91], [-88.89, 30.91], [-88.83, 30.91], [-88.83, 31.0], [-88.76, 31.0], [-88.72, 31.0], [-88.62, 31.0], [-88.51, 31.0], [-88.43, 31.0], [-88.42, 30.88], [-88.41, 30.72], [-88.41, 30.61], [-88.4, 30.53], [-88.4, 30.39], [-88.41, 30.38], [-88.41, 30.37], [-88.4, 30.37], [-88.39, 30.35], [-88.41, 30.34], [-88.42, 30.35], [-88.44, 30.35], [-88.45, 30.34], [-88.46, 30.33], [-88.48, 30.32], [-88.5, 30.32], [-88.52, 30.34], [-88.54, 30.34], [-88.57, 30.34], [-88.58, 30.35], [-88.59, 30.36], [-88.58, 30.37], [-88.61, 30.38], [-88.63, 30.37], [-88.64, 30.36], [-88.67, 30.36], [-88.68, 30.36], [-88.7, 30.34], [-88.72, 30.34], [-88.74, 30.35], [-88.77, 30.37], [-88.81, 30.39], [-88.81, 30.39], [-88.82, 30.4], [-88.84, 30.41], [-88.84, 30.42], [-88.84, 30.42], [-88.85, 30.43], [-88.86, 30.43], [-88.87, 30.42], [-88.87, 30.41], [-88.86, 30.41], [-88.86, 30.39], [-88.88, 30.39], [-88.92, 30.39], [-88.97, 30.39], [-89.0, 30.39], [-89.06, 30.37], [-89.08, 30.37], [-89.12, 30.35], [-89.14, 30.35], [-89.18, 30.33], [-89.22, 30.32], [-89.27, 30.31], [-89.29, 30.3], [-89.29, 30.31], [-89.29, 30.32], [-89.29, 30.32], [-89.29, 30.33], [-89.27, 30.33], [-89.27, 30.34], [-89.29, 30.35], [-89.28, 30.36], [-89.3, 30.37], [-89.32, 30.38], [-89.34, 30.37], [-89.35, 30.37], [-89.36, 30.36], [-89.37, 30.35], [-89.36, 30.34], [-89.35, 30.34], [-89.33, 30.34], [-89.32, 30.31], [-89.33, 30.3], [-89.34, 30.29], [-89.37, 30.28], [-89.38, 30.27], [-89.4, 30.26], [-89.42, 30.25], [-89.42, 30.24], [-89.42, 30.23], [-89.43, 30.22], [-89.45, 30.2], [-89.45, 30.19], [-89.46, 30.17], [-89.46, 30.19], [-89.47, 30.19], [-89.48, 30.19], [-89.5, 30.18], [-89.51, 30.18], [-89.52, 30.18], [-89.53, 30.2], [-89.54, 30.2], [-89.56, 30.19], [-89.57, 30.18], [-89.58, 30.19], [-89.6, 30.21], [-89.61, 30.22], [-89.62, 30.23], [-89.62, 30.25], [-89.63, 30.26], [-89.63, 30.27], [-89.63, 30.27], [-89.63, 30.28], [-89.65, 30.29], [-89.64, 30.3], [-89.64, 30.31], [-89.63, 30.31], [-89.63, 30.33], [-89.63, 30.34], [-89.63, 30.34], [-89.66, 30.36], [-89.66, 30.37], [-89.67, 30.38], [-89.67, 30.39], [-89.68, 30.41], [-89.68, 30.41], [-89.68, 30.45], [-89.69, 30.46], [-89.7, 30.47], [-89.71, 30.48], [-89.72, 30.48], [-89.72, 30.49], [-89.74, 30.5], [-89.75, 30.5], [-89.76, 30.51], [-89.77, 30.51], [-89.77, 30.53], [-89.78, 30.53], [-89.78, 30.54], [-89.79, 30.54], [-89.79, 30.56], [-89.79, 30.57], [-89.81, 30.57], [-89.81, 30.57], [-89.82, 30.59], [-89.82, 30.61], [-89.82, 30.63], [-89.82, 30.64], [-89.83, 30.65], [-89.83, 30.66], [-89.84, 30.66], [-89.84, 30.68], [-89.84, 30.69], [-89.84, 30.72], [-89.83, 30.72], [-89.84, 30.73], [-89.82, 30.74], [-89.83, 30.75], [-89.83, 30.76], [-89.83, 30.77], [-89.82, 30.78], [-89.82, 30.79], [-89.8, 30.8], [-89.8, 30.81], [-89.8, 30.82], [-89.79, 30.82], [-89.79, 30.83], [-89.78, 30.85], [-89.77, 30.86], [-89.77, 30.87], [-89.78, 30.87], [-89.77, 30.9], [-89.76, 30.9], [-89.76, 30.9], [-89.76, 30.91], [-89.75, 30.91], [-89.74, 30.92], [-89.75, 30.93], [-89.75, 30.93], [-89.76, 30.94], [-89.74, 30.97], [-89.73, 30.97], [-89.73, 30.98], [-89.73, 31.0], [-89.63, 31.0], [-89.55, 31.0], [-89.55, 31.01], [-89.5, 31.01], [-89.5, 31.0], [-89.48, 31.0], [-89.48, 30.98], [-89.43, 30.98], [-89.42, 31.01], [-89.35, 31.01]]], [[[-88.57, 30.34], [-88.57, 30.33], [-88.58, 30.33], [-88.58, 30.34], [-88.57, 30.34]]]]}}]}