{"type": "FeatureCollection", "features": [{"type": "Feature", "properties": {"STATE": "Montana", "STATE_FIPS": "30", "CD_2DIG": "01", "STATE_CODE": 24, "CLIMDIV": 2401, "ID": 2401, "CD_NEW": 1, "FIPS_CD": "3001", "NCDC_GEO_I": 163.0, "NAME": "WESTERN", "ST_ABBRV": "MT", "SHAPE_AREA": 0.0, "SHAPE_LEN": 0.0}, "geometry": {"type": "Polygon", "coordinates": [[[-114.07, 49.0], [-114.06, 48.99], [-114.06, 48.98], [-114.05, 48.96], [-114.03, 48.96], [-114.02, 48.96], [-114.04, 48.95], [-114.05, 48.94], [-114.04, 48.93], [-114.02, 48.93], [-114.01, 48.93], [-114.01, 48.91], [-114.02, 48.9], [-114.04, 48.9], [-114.06, 48.9], [-114.06, 48.89], [-114.03, 48.88], [-114.02, 48.87], [-114.01, 48.86], [-113.99, 48.85], [-113.99, 48.85], [-114.0, 48.83], [-113.97, 48.82], [-113.95, 48.82], [-113.93, 48.83], [-113.91, 48.85], [-113.89, 48.85], [-113.88, 48.84], [-113.87, 48.85], [-113.85, 48.85], [-113.82, 48.85], [-113.81, 48.84], [-113.79, 48.85], [-113.79, 48.83], [-113.77, 48.82], [-113.76, 48.82], [-113.76, 48.8], [-113.77, 48.8], [-113.77, 48.79], [-113.76, 48.77], [-113.74, 48.76], [-113.74, 48.75], [-113.73, 48.75], [-113.71, 48.74], [-113.7, 48.72], [-113.71, 48.7], [-113.74, 48.69], [-113.73, 48.67], [-113.74, 48.66], [-113.75, 48.65], [-113.75, 48.64], [-113.74, 48.64], [-113.75, 48.62], [-113.75, 48.61], [-113.73, 48.61], [-113.71, 48.59], [-113.68, 48.59], [-113.66, 48.59], [-113.64, 48.6], [-113.63, 48.6], [-113.62, 48.59], [-113.61, 48.58], [-113.6, 48.58], [-113.59, 48.58], [-113.57, 48.58], [-113.54, 48.59], [-113.53, 48.58], [-113.52, 48.57], [-113.51, 48.56], [-113.49, 48.55], [-113.47, 48.55], [-113.47, 48.55], [-113.47, 48.53], [-113.47, 48.52], [-113.47, 48.5], [-113.47, 48.5], [-113.47, 48.49], [-113.47, 48.47], [-113.48, 48.46], [-113.48, 48.45], [-113.46, 48.45], [-113.45, 48.45], [-113.44, 48.43], [-113.43, 48.43], [-113.41, 48.42], [-113.39, 48.42], [-113.36, 48.42], [-113.35, 48.41], [-113.35, 48.41], [-113.35, 48.39], [-113.33, 48.39], [-113.34, 48.37], [-113.35, 48.36], [-113.37, 48.35], [-113.38, 48.34], [-113.37, 48.33], [-113.37, 48.32], [-113.35, 48.32], [-113.35, 48.3], [-113.34, 48.3], [-113.33, 48.29], [-113.3, 48.28], [-113.29, 48.27], [-113.26, 48.25], [-113.25, 48.26], [-113.24, 48.25], [-113.23, 48.24], [-113.23, 48.23], [-113.24, 48.22], [-113.24, 48.21], [-113.23, 48.18], [-113.23, 48.17], [-113.21, 48.16], [-113.2, 48.17], [-113.18, 48.17], [-113.17, 48.17], [-113.15, 48.15], [-113.14, 48.15], [-113.13, 48.14], [-113.09, 48.14], [-113.06, 48.15], [-113.05, 48.14], [-113.06, 48.12], [-113.05, 48.12], [-113.04, 48.13], [-113.02, 48.13], [-113.0, 48.13], [-112.98, 48.12], [-112.99, 48.12], [-112.99, 48.1], [-112.98, 48.09], [-112.98, 48.07], [-112.97, 48.08], [-112.94, 48.06], [-112.95, 48.05], [-112.95, 48.03], [-112.94, 48.03], [-112.91, 48.03], [-112.9, 48.02], [-112.9, 48.01], [-112.88, 47.98], [-112.88, 47.98], [-112.89, 47.98], [-112.9, 47.97], [-112.91, 47.95], [-112.95, 47.94], [-112.96, 47.95], [-112.98, 47.95], [-113.0, 47.94], [-113.01, 47.94], [-113.02, 47.93], [-113.03, 47.93], [-113.05, 47.93], [-113.08, 47.92], [-113.09, 47.91], [-113.09, 47.89], [-113.08, 47.89], [-113.06, 47.88], [-113.06, 47.87], [-113.06, 47.86], [-113.06, 47.84], [-113.07, 47.84], [-113.07, 47.83], [-113.06, 47.82], [-113.06, 47.81], [-113.07, 47.8], [-113.06, 47.79], [-113.07, 47.77], [-113.08, 47.77], [-113.08, 47.75], [-113.09, 47.74], [-113.12, 47.74], [-113.14, 47.74], [-113.15, 47.74], [-113.16, 47.73], [-113.17, 47.72], [-113.16, 47.7], [-113.15, 47.69], [-113.15, 47.68], [-113.14, 47.66], [-113.13, 47.66], [-113.13, 47.65], [-113.13, 47.64], [-113.14, 47.64], [-113.14, 47.62], [-113.14, 47.62], [-113.15, 47.61], [-113.14, 47.59], [-113.13, 47.59], [-113.13, 47.58], [-113.12, 47.57], [-113.12, 47.56], [-113.13, 47.54], [-113.12, 47.52], [-113.12, 47.52], [-113.12, 47.51], [-113.11, 47.49], [-113.09, 47.48], [-113.08, 47.49], [-113.06, 47.48], [-113.06, 47.49], [-113.06, 47.3], [-113.06, 47.18], [-113.05, 47.18], [-112.8, 47.18], [-112.8, 47.11], [-112.8, 47.01], [-112.8, 46.87], [-112.8, 46.83], [-112.67, 46.83], [-112.67, 46.83], [-112.54, 46.83], [-112.54, 46.7], [-112.44, 46.7], [-112.43, 46.7], [-112.43, 46.69], [-112.41, 46.7], [-112.41, 46.66], [-112.38, 46.66], [-112.32, 46.66], [-112.31, 46.63], [-112.3, 46.63], [-112.3, 46.61], [-112.29, 46.61], [-112.32, 46.58], [-112.31, 46.56], [-112.31, 46.55], [-112.29, 46.53], [-112.3, 46.52], [-112.31, 46.51], [-112.3, 46.49], [-112.31, 46.48], [-112.31, 46.46], [-112.31, 46.45], [-112.32, 46.44], [-112.32, 46.42], [-112.31, 46.42], [-112.34, 46.4], [-112.34, 46.39], [-112.35, 46.39], [-112.38, 46.39], [-112.39, 46.38], [-112.4, 46.39], [-112.41, 46.38], [-112.41, 46.37], [-112.43, 46.37], [-112.43, 46.36], [-112.45, 46.35], [-112.45, 46.33], [-112.45, 46.33], [-112.47, 46.33], [-112.47, 46.34], [-112.5, 46.34], [-112.5, 46.33], [-112.53, 46.33], [-112.56, 46.31], [-112.57, 46.31], [-112.57, 46.3], [-112.56, 46.28], [-112.56, 46.27], [-112.58, 46.24], [-112.6, 46.24], [-112.59, 46.23], [-112.58, 46.22], [-112.57, 46.21], [-112.58, 46.2], [-112.58, 46.19], [-112.58, 46.18], [-112.59, 46.17], [-112.61, 46.17], [-112.63, 46.17], [-112.64, 46.17], [-112.66, 46.15], [-112.68, 46.14], [-112.68, 46.14], [-112.78, 46.14], [-112.78, 46.05], [-112.85, 46.05], [-112.86, 46.04], [-112.87, 46.03], [-112.87, 46.01], [-112.88, 46.0], [-112.9, 46.0], [-112.92, 46.0], [-112.94, 45.99], [-112.94, 45.97], [-112.93, 45.96], [-112.93, 45.95], [-112.92, 45.94], [-112.93, 45.93], [-112.95, 45.93], [-112.97, 45.92], [-112.97, 45.91], [-113.01, 45.88], [-113.02, 45.87], [-113.07, 45.87], [-113.08, 45.86], [-113.09, 45.88], [-113.1, 45.88], [-113.13, 45.88], [-113.14, 45.88], [-113.16, 45.89], [-113.18, 45.88], [-113.2, 45.87], [-113.21, 45.88], [-113.23, 45.87], [-113.24, 45.85], [-113.25, 45.85], [-113.25, 45.84], [-113.26, 45.83], [-113.28, 45.82], [-113.3, 45.82], [-113.31, 45.81], [-113.32, 45.81], [-113.33, 45.81], [-113.35, 45.8], [-113.35, 45.78], [-113.36, 45.77], [-113.36, 45.76], [-113.38, 45.76], [-113.4, 45.77], [-113.41, 45.78], [-113.42, 45.79], [-113.43, 45.81], [-113.43, 45.82], [-113.43, 45.83], [-113.44, 45.84], [-113.44, 45.86], [-113.46, 45.87], [-113.47, 45.9], [-113.48, 45.91], [-113.49, 45.94], [-113.5, 45.94], [-113.52, 45.94], [-113.54, 45.91], [-113.54, 45.9], [-113.53, 45.89], [-113.53, 45.88], [-113.57, 45.87], [-113.58, 45.87], [-113.59, 45.86], [-113.6, 45.85], [-113.61, 45.85], [-113.62, 45.84], [-113.66, 45.84], [-113.67, 45.84], [-113.67, 45.84], [-113.69, 45.84], [-113.7, 45.84], [-113.71, 45.84], [-113.72, 45.83], [-113.73, 45.83], [-113.73, 45.82], [-113.74, 45.82], [-113.76, 45.8], [-113.77, 45.8], [-113.78, 45.79], [-113.79, 45.78], [-113.8, 45.77], [-113.8, 45.76], [-113.82, 45.76], [-113.83, 45.75], [-113.85, 45.75], [-113.85, 45.77], [-113.87, 45.78], [-113.88, 45.78], [-113.9, 45.77], [-113.9, 45.76], [-113.92, 45.74], [-113.9, 45.73], [-113.9, 45.72], [-113.91, 45.72], [-113.91, 45.7], [-113.92, 45.7], [-113.94, 45.7], [-113.96, 45.69], [-113.97, 45.69], [-113.97, 45.7], [-113.99, 45.71], [-114.0, 45.7], [-114.02, 45.69], [-114.01, 45.68], [-114.03, 45.68], [-114.02, 45.67], [-114.01, 45.66], [-114.02, 45.65], [-114.03, 45.65], [-114.05, 45.64], [-114.07, 45.63], [-114.07, 45.61], [-114.08, 45.61], [-114.08, 45.6], [-114.09, 45.59], [-114.11, 45.59], [-114.12, 45.58], [-114.13, 45.57], [-114.13, 45.57], [-114.14, 45.56], [-114.15, 45.56], [-114.15, 45.55], [-114.18, 45.55], [-114.19, 45.54], [-114.21, 45.54], [-114.23, 45.55], [-114.25, 45.55], [-114.25, 45.52], [-114.26, 45.51], [-114.26, 45.5], [-114.28, 45.48], [-114.29, 45.48], [-114.3, 45.47], [-114.32, 45.47], [-114.33, 45.46], [-114.35, 45.46], [-114.35, 45.47], [-114.36, 45.47], [-114.37, 45.49], [-114.39, 45.5], [-114.41, 45.51], [-114.42, 45.51], [-114.43, 45.52], [-114.43, 45.53], [-114.45, 45.54], [-114.46, 45.55], [-114.47, 45.56], [-114.47, 45.57], [-114.5, 45.56], [-114.52, 45.57], [-114.55, 45.56], [-114.56, 45.57], [-114.55, 45.58], [-114.56, 45.59], [-114.55, 45.6], [-114.54, 45.61], [-114.54, 45.62], [-114.55, 45.62], [-114.56, 45.63], [-114.56, 45.64], [-114.54, 45.64], [-114.54, 45.65], [-114.53, 45.65], [-114.52, 45.65], [-114.51, 45.66], [-114.5, 45.67], [-114.5, 45.68], [-114.52, 45.68], [-114.5, 45.69], [-114.5, 45.7], [-114.5, 45.72], [-114.52, 45.73], [-114.53, 45.73], [-114.54, 45.74], [-114.55, 45.74], [-114.55, 45.76], [-114.56, 45.76], [-114.57, 45.77], [-114.56, 45.79], [-114.54, 45.79], [-114.55, 45.8], [-114.53, 45.81], [-114.53, 45.82], [-114.51, 45.83], [-114.52, 45.84], [-114.51, 45.85], [-114.49, 45.85], [-114.48, 45.85], [-114.47, 45.85], [-114.44, 45.86], [-114.41, 45.85], [-114.41, 45.87], [-114.4, 45.87], [-114.39, 45.88], [-114.4, 45.9], [-114.4, 45.9], [-114.41, 45.91], [-114.41, 45.92], [-114.43, 45.94], [-114.42, 45.94], [-114.4, 45.96], [-114.4, 45.96], [-114.41, 45.98], [-114.44, 45.99], [-114.45, 45.99], [-114.46, 46.0], [-114.48, 45.99], [-114.48, 46.0], [-114.49, 46.0], [-114.47, 46.01], [-114.48, 46.03], [-114.49, 46.03], [-114.5, 46.03], [-114.51, 46.04], [-114.49, 46.05], [-114.49, 46.05], [-114.48, 46.06], [-114.47, 46.07], [-114.47, 46.07], [-114.46, 46.08], [-114.46, 46.09], [-114.47, 46.11], [-114.49, 46.11], [-114.52, 46.13], [-114.52, 46.13], [-114.53, 46.15], [-114.51, 46.15], [-114.52, 46.17], [-114.49, 46.17], [-114.48, 46.16], [-114.46, 46.17], [-114.45, 46.17], [-114.44, 46.2], [-114.45, 46.21], [-114.45, 46.22], [-114.45, 46.24], [-114.47, 46.25], [-114.47, 46.26], [-114.47, 46.27], [-114.45, 46.27], [-114.44, 46.28], [-114.43, 46.28], [-114.43, 46.31], [-114.42, 46.33], [-114.41, 46.34], [-114.41, 46.37], [-114.42, 46.39], [-114.38, 46.41], [-114.38, 46.43], [-114.37, 46.44], [-114.38, 46.45], [-114.38, 46.46], [-114.38, 46.47], [-114.39, 46.47], [-114.4, 46.48], [-114.4, 46.5], [-114.38, 46.51], [-114.37, 46.5], [-114.35, 46.51], [-114.34, 46.52], [-114.35, 46.53], [-114.34, 46.54], [-114.35, 46.55], [-114.33, 46.58], [-114.34, 46.59], [-114.32, 46.61], [-114.33, 46.62], [-114.32, 46.63], [-114.32, 46.65], [-114.34, 46.66], [-114.35, 46.66], [-114.36, 46.67], [-114.39, 46.66], [-114.41, 46.66], [-114.42, 46.66], [-114.45, 46.65], [-114.45, 46.64], [-114.47, 46.63], [-114.49, 46.63], [-114.5, 46.64], [-114.51, 46.64], [-114.53, 46.64], [-114.54, 46.65], [-114.55, 46.64], [-114.57, 46.64], [-114.58, 46.63], [-114.59, 46.63], [-114.62, 46.64], [-114.61, 46.65], [-114.64, 46.66], [-114.64, 46.68], [-114.62, 46.69], [-114.62, 46.71], [-114.64, 46.72], [-114.65, 46.73], [-114.66, 46.73], [-114.7, 46.74], [-114.71, 46.73], [-114.71, 46.72], [-114.72, 46.71], [-114.74, 46.71], [-114.75, 46.7], [-114.77, 46.7], [-114.77, 46.7], [-114.79, 46.71], [-114.78, 46.73], [-114.77, 46.74], [-114.77, 46.76], [-114.78, 46.77], [-114.79, 46.78], [-114.8, 46.78], [-114.81, 46.78], [-114.83, 46.78], [-114.84, 46.79], [-114.86, 46.8], [-114.87, 46.81], [-114.88, 46.81], [-114.9, 46.8], [-114.9, 46.81], [-114.89, 46.82], [-114.92, 46.83], [-114.93, 46.84], [-114.92, 46.85], [-114.93, 46.85], [-114.95, 46.86], [-114.94, 46.87], [-114.93, 46.88], [-114.94, 46.9], [-114.93, 46.92], [-114.96, 46.93], [-114.96, 46.93], [-114.97, 46.94], [-115.0, 46.97], [-115.0, 46.97], [-115.03, 46.98], [-115.03, 46.97], [-115.05, 46.97], [-115.05, 46.98], [-115.06, 46.98], [-115.07, 47.01], [-115.07, 47.02], [-115.08, 47.03], [-115.09, 47.05], [-115.11, 47.05], [-115.12, 47.06], [-115.14, 47.08], [-115.14, 47.1], [-115.14, 47.1], [-115.16, 47.1], [-115.17, 47.11], [-115.17, 47.11], [-115.19, 47.13], [-115.22, 47.15], [-115.25, 47.15], [-115.26, 47.16], [-115.26, 47.17], [-115.26, 47.18], [-115.29, 47.18], [-115.3, 47.19], [-115.3, 47.19], [-115.29, 47.21], [-115.3, 47.23], [-115.32, 47.23], [-115.32, 47.25], [-115.32, 47.26], [-115.34, 47.26], [-115.36, 47.26], [-115.37, 47.27], [-115.41, 47.26], [-115.42, 47.27], [-115.43, 47.28], [-115.46, 47.28], [-115.47, 47.29], [-115.48, 47.28], [-115.49, 47.29], [-115.51, 47.29], [-115.53, 47.3], [-115.53, 47.31], [-115.55, 47.33], [-115.55, 47.35], [-115.58, 47.36], [-115.58, 47.37], [-115.6, 47.37], [-115.6, 47.38], [-115.62, 47.38], [-115.64, 47.38], [-115.65, 47.39], [-115.66, 47.4], [-115.68, 47.4], [-115.68, 47.41], [-115.69, 47.42], [-115.71, 47.42], [-115.72, 47.43], [-115.74, 47.43], [-115.76, 47.42], [-115.75, 47.44], [-115.74, 47.44], [-115.72, 47.45], [-115.71, 47.45], [-115.69, 47.46], [-115.68, 47.45], [-115.65, 47.46], [-115.64, 47.46], [-115.63, 47.48], [-115.65, 47.48], [-115.67, 47.49], [-115.69, 47.49], [-115.69, 47.5], [-115.7, 47.5], [-115.71, 47.52], [-115.71, 47.52], [-115.7, 47.53], [-115.71, 47.53], [-115.75, 47.54], [-115.76, 47.55], [-115.72, 47.58], [-115.71, 47.58], [-115.71, 47.58], [-115.69, 47.6], [-115.7, 47.61], [-115.69, 47.62], [-115.71, 47.64], [-115.73, 47.64], [-115.74, 47.65], [-115.73, 47.67], [-115.73, 47.68], [-115.72, 47.7], [-115.73, 47.71], [-115.76, 47.72], [-115.77, 47.72], [-115.78, 47.73], [-115.78, 47.74], [-115.8, 47.76], [-115.82, 47.75], [-115.84, 47.76], [-115.84, 47.77], [-115.85, 47.78], [-115.85, 47.81], [-115.85, 47.81], [-115.85, 47.83], [-115.87, 47.83], [-115.88, 47.85], [-115.9, 47.84], [-115.91, 47.85], [-115.92, 47.85], [-115.93, 47.87], [-115.95, 47.89], [-115.97, 47.9], [-115.97, 47.91], [-115.98, 47.92], [-115.99, 47.93], [-116.0, 47.94], [-116.01, 47.95], [-116.03, 47.97], [-116.05, 47.98], [-116.05, 48.12], [-116.05, 48.24], [-116.05, 48.31], [-116.05, 48.41], [-116.05, 48.48], [-116.05, 48.71], [-116.05, 48.85], [-116.05, 49.0], [-115.88, 49.0], [-115.62, 49.0], [-115.5, 49.0], [-115.38, 49.0], [-115.21, 49.0], [-115.01, 49.0], [-114.9, 49.0], [-114.54, 49.0], [-114.38, 49.0], [-114.25, 49.0], [-114.2, 49.0], [-114.18, 49.0], [-114.07, 49.0]]]}}, {"type": "Feature", "properties": {"STATE": "Montana", "STATE_FIPS": "30", "CD_2DIG": "03", "STATE_CODE": 24, "CLIMDIV": 2403, "ID": 2403, "CD_NEW": 3, "FIPS_CD": "3003", "NCDC_GEO_I": 164.0, "NAME": "NORTH CENTRAL", "ST_ABBRV": "MT", "SHAPE_AREA": 0.0, "SHAPE_LEN": 0.0}, "geometry": {"type": "Polygon", "coordinates": [[[-107.18, 49.0], [-107.18, 48.91], [-107.21, 48.91], [-107.21, 48.75], [-107.21, 48.6], [-107.21, 48.57], [-107.19, 48.57], [-107.19, 48.51], [-107.22, 48.51], [-107.23, 48.52], [-107.26, 48.51], [-107.26, 48.48], [-107.3, 48.48], [-107.3, 48.39], [-107.26, 48.39], [-107.26, 48.3], [-107.37, 48.31], [-107.37, 48.22], [-107.4, 48.22], [-107.4, 48.01], [-107.4, 47.87], [-107.41, 47.87], [-107.41, 47.75], [-107.41, 47.69], [-107.43, 47.68], [-107.43, 47.67], [-107.42, 47.66], [-107.43, 47.65], [-107.44, 47.65], [-107.43, 47.63], [-107.45, 47.62], [-107.5, 47.62], [-107.51, 47.63], [-107.52, 47.64], [-107.55, 47.65], [-107.57, 47.64], [-107.6, 47.65], [-107.61, 47.65], [-107.62, 47.63], [-107.64, 47.65], [-107.65, 47.65], [-107.65, 47.64], [-107.65, 47.63], [-107.66, 47.62], [-107.67, 47.63], [-107.7, 47.63], [-107.7, 47.62], [-107.71, 47.61], [-107.71, 47.6], [-107.72, 47.59], [-107.73, 47.59], [-107.73, 47.57], [-107.76, 47.56], [-107.76, 47.55], [-107.78, 47.54], [-107.79, 47.55], [-107.8, 47.54], [-107.82, 47.54], [-107.84, 47.53], [-107.85, 47.52], [-107.86, 47.52], [-107.86, 47.51], [-107.86, 47.5], [-107.85, 47.49], [-107.87, 47.48], [-107.87, 47.47], [-107.86, 47.47], [-107.86, 47.46], [-107.91, 47.45], [-107.91, 47.47], [-107.9, 47.47], [-107.91, 47.49], [-107.9, 47.5], [-107.9, 47.51], [-107.91, 47.51], [-107.92, 47.52], [-107.92, 47.54], [-107.93, 47.54], [-107.92, 47.56], [-107.93, 47.57], [-107.94, 47.57], [-107.96, 47.57], [-107.97, 47.58], [-107.98, 47.59], [-107.99, 47.59], [-108.0, 47.58], [-108.02, 47.58], [-108.05, 47.59], [-108.07, 47.6], [-108.08, 47.59], [-108.09, 47.59], [-108.11, 47.59], [-108.12, 47.59], [-108.14, 47.59], [-108.15, 47.58], [-108.18, 47.58], [-108.2, 47.59], [-108.22, 47.58], [-108.24, 47.58], [-108.25, 47.59], [-108.28, 47.58], [-108.31, 47.58], [-108.32, 47.59], [-108.33, 47.58], [-108.32, 47.57], [-108.35, 47.57], [-108.35, 47.58], [-108.38, 47.58], [-108.39, 47.59], [-108.4, 47.6], [-108.41, 47.59], [-108.42, 47.58], [-108.42, 47.6], [-108.44, 47.61], [-108.46, 47.62], [-108.46, 47.61], [-108.47, 47.6], [-108.51, 47.6], [-108.51, 47.61], [-108.53, 47.62], [-108.53, 47.62], [-108.57, 47.61], [-108.58, 47.62], [-108.59, 47.61], [-108.61, 47.62], [-108.63, 47.62], [-108.66, 47.62], [-108.67, 47.62], [-108.69, 47.63], [-108.71, 47.63], [-108.71, 47.64], [-108.73, 47.65], [-108.75, 47.65], [-108.76, 47.64], [-108.77, 47.65], [-108.79, 47.66], [-108.79, 47.66], [-108.78, 47.68], [-108.78, 47.68], [-108.81, 47.7], [-108.82, 47.71], [-108.85, 47.72], [-108.89, 47.74], [-108.92, 47.74], [-108.94, 47.73], [-108.95, 47.74], [-108.95, 47.74], [-108.92, 47.75], [-108.92, 47.76], [-108.95, 47.77], [-108.94, 47.79], [-108.94, 47.79], [-108.96, 47.79], [-108.97, 47.8], [-109.0, 47.8], [-109.02, 47.8], [-109.03, 47.79], [-109.04, 47.79], [-109.07, 47.8], [-109.11, 47.79], [-109.13, 47.78], [-109.16, 47.78], [-109.19, 47.79], [-109.21, 47.79], [-109.23, 47.79], [-109.28, 47.79], [-109.28, 47.79], [-109.28, 47.78], [-109.3, 47.77], [-109.31, 47.76], [-109.35, 47.75], [-109.37, 47.74], [-109.39, 47.74], [-109.39, 47.74], [-109.41, 47.72], [-109.43, 47.72], [-109.44, 47.73], [-109.46, 47.73], [-109.47, 47.73], [-109.49, 47.73], [-109.51, 47.74], [-109.51, 47.74], [-109.52, 47.75], [-109.54, 47.74], [-109.55, 47.74], [-109.59, 47.75], [-109.61, 47.73], [-109.63, 47.74], [-109.65, 47.74], [-109.67, 47.74], [-109.69, 47.73], [-109.7, 47.72], [-109.72, 47.7], [-109.76, 47.7], [-109.77, 47.71], [-109.78, 47.71], [-109.8, 47.71], [-109.81, 47.71], [-109.82, 47.72], [-109.84, 47.71], [-109.84, 47.69], [-109.83, 47.69], [-109.84, 47.67], [-109.83, 47.67], [-109.84, 47.65], [-109.83, 47.64], [-109.84, 47.64], [-109.84, 47.63], [-109.84, 47.6], [-109.85, 47.59], [-109.84, 47.56], [-109.85, 47.55], [-109.84, 47.55], [-109.86, 47.54], [-109.87, 47.53], [-109.9, 47.52], [-109.94, 47.51], [-109.94, 47.5], [-109.96, 47.5], [-109.99, 47.48], [-110.0, 47.48], [-110.01, 47.47], [-110.03, 47.48], [-110.03, 47.48], [-110.05, 47.47], [-110.08, 47.45], [-110.1, 47.44], [-110.13, 47.44], [-110.13, 47.43], [-110.15, 47.43], [-110.16, 47.42], [-110.38, 47.42], [-110.5, 47.42], [-110.64, 47.42], [-110.64, 47.45], [-110.77, 47.45], [-110.77, 47.52], [-110.86, 47.53], [-110.87, 47.54], [-110.89, 47.54], [-110.89, 47.55], [-110.91, 47.54], [-110.92, 47.54], [-110.95, 47.55], [-110.95, 47.56], [-110.97, 47.56], [-110.98, 47.57], [-111.0, 47.57], [-111.03, 47.58], [-111.03, 47.59], [-111.05, 47.6], [-111.05, 47.61], [-111.04, 47.61], [-111.04, 47.63], [-111.03, 47.63], [-111.02, 47.66], [-111.01, 47.66], [-111.0, 47.67], [-110.99, 47.68], [-110.98, 47.68], [-110.98, 47.69], [-110.98, 47.7], [-111.22, 47.7], [-111.38, 47.7], [-111.54, 47.7], [-111.67, 47.7], [-111.67, 47.61], [-111.75, 47.61], [-111.84, 47.61], [-111.92, 47.61], [-111.92, 47.5], [-111.93, 47.5], [-111.94, 47.51], [-111.96, 47.51], [-111.97, 47.51], [-112.0, 47.51], [-112.03, 47.52], [-112.05, 47.51], [-112.06, 47.52], [-112.07, 47.51], [-112.08, 47.52], [-112.11, 47.51], [-112.15, 47.52], [-112.16, 47.51], [-112.18, 47.51], [-112.21, 47.5], [-112.22, 47.51], [-112.24, 47.51], [-112.25, 47.51], [-112.28, 47.51], [-112.29, 47.52], [-112.31, 47.53], [-112.32, 47.54], [-112.34, 47.54], [-112.35, 47.55], [-112.37, 47.55], [-112.38, 47.55], [-112.41, 47.55], [-112.4, 47.57], [-112.42, 47.59], [-112.42, 47.6], [-112.46, 47.61], [-112.47, 47.61], [-112.49, 47.61], [-112.5, 47.62], [-112.51, 47.62], [-112.52, 47.64], [-112.54, 47.64], [-112.55, 47.65], [-112.57, 47.64], [-112.58, 47.63], [-112.59, 47.64], [-112.6, 47.63], [-112.62, 47.64], [-112.65, 47.62], [-112.67, 47.62], [-112.69, 47.61], [-112.7, 47.62], [-112.71, 47.62], [-112.73, 47.62], [-112.75, 47.61], [-112.76, 47.61], [-112.77, 47.6], [-112.78, 47.6], [-112.79, 47.6], [-112.8, 47.61], [-112.81, 47.61], [-112.83, 47.62], [-112.85, 47.63], [-112.85, 47.63], [-112.86, 47.64], [-112.87, 47.64], [-112.88, 47.66], [-112.89, 47.67], [-112.91, 47.7], [-112.9, 47.72], [-112.9, 47.73], [-112.91, 47.74], [-112.92, 47.75], [-112.93, 47.76], [-112.92, 47.77], [-112.92, 47.81], [-112.92, 47.82], [-112.91, 47.83], [-112.92, 47.84], [-112.93, 47.85], [-112.93, 47.86], [-112.94, 47.87], [-112.95, 47.89], [-112.95, 47.9], [-112.97, 47.91], [-112.98, 47.95], [-112.98, 47.95], [-112.96, 47.95], [-112.95, 47.94], [-112.91, 47.95], [-112.9, 47.97], [-112.89, 47.98], [-112.88, 47.98], [-112.88, 47.98], [-112.9, 48.01], [-112.9, 48.02], [-112.91, 48.03], [-112.94, 48.03], [-112.95, 48.03], [-112.95, 48.05], [-112.94, 48.06], [-112.97, 48.08], [-112.98, 48.07], [-112.98, 48.09], [-112.99, 48.1], [-112.99, 48.12], [-112.98, 48.12], [-113.0, 48.13], [-113.02, 48.13], [-113.04, 48.13], [-113.05, 48.12], [-113.06, 48.12], [-113.05, 48.14], [-113.06, 48.15], [-113.09, 48.14], [-113.13, 48.14], [-113.14, 48.15], [-113.15, 48.15], [-113.17, 48.17], [-113.18, 48.17], [-113.2, 48.17], [-113.21, 48.16], [-113.23, 48.17], [-113.23, 48.18], [-113.24, 48.21], [-113.24, 48.22], [-113.23, 48.23], [-113.23, 48.24], [-113.24, 48.25], [-113.25, 48.26], [-113.26, 48.25], [-113.29, 48.27], [-113.3, 48.28], [-113.33, 48.29], [-113.34, 48.3], [-113.35, 48.3], [-113.35, 48.32], [-113.37, 48.32], [-113.37, 48.33], [-113.38, 48.34], [-113.37, 48.35], [-113.35, 48.36], [-113.34, 48.37], [-113.33, 48.39], [-113.35, 48.39], [-113.35, 48.41], [-113.35, 48.41], [-113.36, 48.42], [-113.39, 48.42], [-113.41, 48.42], [-113.43, 48.43], [-113.44, 48.43], [-113.45, 48.45], [-113.46, 48.45], [-113.48, 48.45], [-113.48, 48.46], [-113.47, 48.47], [-113.47, 48.49], [-113.47, 48.5], [-113.47, 48.5], [-113.47, 48.52], [-113.47, 48.53], [-113.47, 48.55], [-113.47, 48.55], [-113.49, 48.55], [-113.51, 48.56], [-113.52, 48.57], [-113.53, 48.58], [-113.54, 48.59], [-113.57, 48.58], [-113.59, 48.58], [-113.6, 48.58], [-113.61, 48.58], [-113.62, 48.59], [-113.63, 48.6], [-113.64, 48.6], [-113.66, 48.59], [-113.68, 48.59], [-113.71, 48.59], [-113.73, 48.61], [-113.75, 48.61], [-113.75, 48.62], [-113.74, 48.64], [-113.75, 48.64], [-113.75, 48.65], [-113.74, 48.66], [-113.73, 48.67], [-113.74, 48.69], [-113.71, 48.7], [-113.7, 48.72], [-113.71, 48.74], [-113.73, 48.75], [-113.74, 48.75], [-113.74, 48.76], [-113.76, 48.77], [-113.77, 48.79], [-113.77, 48.8], [-113.76, 48.8], [-113.76, 48.82], [-113.77, 48.82], [-113.79, 48.83], [-113.79, 48.85], [-113.81, 48.84], [-113.82, 48.85], [-113.85, 48.85], [-113.87, 48.85], [-113.88, 48.84], [-113.89, 48.85], [-113.91, 48.85], [-113.93, 48.83], [-113.95, 48.82], [-113.97, 48.82], [-114.0, 48.83], [-113.99, 48.85], [-113.99, 48.85], [-114.01, 48.86], [-114.02, 48.87], [-114.03, 48.88], [-114.06, 48.89], [-114.06, 48.9], [-114.04, 48.9], [-114.02, 48.9], [-114.01, 48.91], [-114.01, 48.93], [-114.02, 48.93], [-114.04, 48.93], [-114.05, 48.94], [-114.04, 48.95], [-114.02, 48.96], [-114.03, 48.96], [-114.05, 48.96], [-114.06, 48.98], [-114.06, 48.99], [-114.07, 49.0], [-113.88, 49.0], [-113.86, 49.0], [-113.69, 49.0], [-113.57, 49.0], [-113.5, 49.0], [-113.25, 49.0], [-113.19, 49.0], [-113.14, 49.0], [-112.86, 49.0], [-112.7, 49.0], [-112.38, 49.0], [-112.13, 49.0], [-111.75, 49.0], [-111.5, 49.0], [-111.34, 49.0], [-111.13, 49.0], [-110.87, 49.0], [-110.71, 49.0], [-110.58, 49.0], [-110.53, 49.0], [-110.43, 49.0], [-110.23, 49.0], [-109.97, 49.0], [-109.73, 49.0], [-109.5, 49.0], [-109.29, 49.0], [-109.18, 49.0], [-108.99, 49.0], [-108.75, 49.0], [-108.63, 49.0], [-108.38, 49.0], [-108.24, 49.0], [-108.05, 49.0], [-107.88, 49.0], [-107.61, 49.0], [-107.44, 49.0], [-107.36, 49.0], [-107.18, 49.0]]]}}, {"type": "Feature", "properties": {"STATE": "Montana", "STATE_FIPS": "30", "CD_2DIG": "06", "STATE_CODE": 24, "CLIMDIV": 2406, "ID": 2406, "CD_NEW": 6, "FIPS_CD": "3006", "NCDC_GEO_I": 165.0, "NAME": "NORTHEASTERN", "ST_ABBRV": "MT", "SHAPE_AREA": 0.0, "SHAPE_LEN": 0.0}, "geometry": {"type": "Polygon", "coordinates": [[[-104.05, 49.0], [-104.05, 48.87], [-104.05, 48.75], [-104.05, 48.63], [-104.05, 48.6], [-104.05, 48.38], [-104.05, 48.13], [-104.04, 48.0], [-104.04, 47.86], [-104.04, 47.75], [-104.04, 47.6], [-104.04, 47.5], [-104.05, 47.4], [-104.13, 47.4], [-104.13, 47.35], [-104.25, 47.35], [-104.39, 47.35], [-104.42, 47.35], [-104.42, 47.34], [-104.44, 47.33], [-104.45, 47.32], [-104.43, 47.32], [-104.39, 47.29], [-104.39, 47.27], [-104.38, 47.27], [-104.38, 47.26], [-104.36, 47.26], [-104.36, 47.25], [-104.35, 47.25], [-104.34, 47.25], [-104.34, 47.22], [-104.33, 47.22], [-104.33, 47.19], [-104.32, 47.19], [-104.32, 47.18], [-104.32, 47.14], [-104.31, 47.14], [-104.31, 47.04], [-104.33, 47.04], [-104.33, 47.01], [-104.34, 47.01], [-104.34, 46.99], [-104.35, 46.99], [-104.35, 46.98], [-104.36, 46.98], [-104.36, 46.96], [-104.37, 46.96], [-104.37, 46.95], [-104.38, 46.95], [-104.4, 46.93], [-104.4, 46.92], [-104.41, 46.92], [-104.41, 46.9], [-104.43, 46.9], [-104.43, 46.89], [-104.45, 46.89], [-104.46, 46.88], [-104.47, 46.88], [-104.49, 46.88], [-104.5, 46.86], [-104.73, 46.86], [-104.76, 46.86], [-105.03, 46.86], [-105.03, 46.89], [-105.05, 46.89], [-105.05, 46.91], [-105.07, 46.91], [-105.07, 46.92], [-105.2, 46.92], [-105.2, 46.98], [-105.32, 46.98], [-105.32, 47.18], [-105.49, 47.18], [-105.75, 47.18], [-105.83, 47.18], [-105.83, 47.09], [-105.88, 47.09], [-105.96, 47.09], [-105.96, 47.18], [-106.09, 47.18], [-106.09, 47.06], [-106.09, 46.88], [-106.09, 46.85], [-106.23, 46.85], [-106.3, 46.85], [-106.49, 46.85], [-106.72, 46.85], [-106.72, 46.86], [-106.88, 46.86], [-107.04, 46.86], [-107.13, 46.86], [-107.25, 46.86], [-107.25, 46.86], [-107.43, 46.86], [-107.47, 46.86], [-107.47, 46.85], [-107.63, 46.85], [-107.89, 46.85], [-107.91, 46.86], [-107.9, 46.86], [-107.91, 46.87], [-107.93, 46.88], [-107.94, 46.87], [-107.94, 46.88], [-107.94, 46.89], [-107.93, 46.9], [-107.93, 46.91], [-107.93, 46.92], [-107.92, 46.92], [-107.93, 46.93], [-107.93, 46.93], [-107.92, 46.94], [-107.91, 46.95], [-107.91, 46.97], [-107.88, 46.98], [-107.9, 47.01], [-107.91, 47.01], [-107.92, 47.02], [-107.91, 47.03], [-107.91, 47.04], [-107.92, 47.05], [-107.92, 47.06], [-107.93, 47.07], [-107.92, 47.08], [-107.93, 47.08], [-107.93, 47.1], [-107.94, 47.1], [-107.94, 47.11], [-107.94, 47.12], [-107.95, 47.12], [-107.96, 47.13], [-107.94, 47.13], [-107.95, 47.14], [-107.95, 47.15], [-107.96, 47.16], [-107.94, 47.16], [-107.93, 47.17], [-107.94, 47.19], [-107.94, 47.2], [-107.94, 47.22], [-107.96, 47.24], [-107.95, 47.25], [-107.97, 47.25], [-107.96, 47.26], [-107.96, 47.28], [-107.95, 47.29], [-107.96, 47.29], [-107.95, 47.32], [-107.96, 47.33], [-107.96, 47.34], [-107.96, 47.35], [-107.96, 47.35], [-107.96, 47.36], [-107.94, 47.37], [-107.92, 47.39], [-107.93, 47.4], [-107.91, 47.4], [-107.91, 47.42], [-107.92, 47.43], [-107.91, 47.45], [-107.86, 47.46], [-107.86, 47.47], [-107.87, 47.47], [-107.87, 47.48], [-107.85, 47.49], [-107.86, 47.5], [-107.86, 47.51], [-107.86, 47.52], [-107.85, 47.52], [-107.84, 47.53], [-107.82, 47.54], [-107.8, 47.54], [-107.79, 47.55], [-107.78, 47.54], [-107.76, 47.55], [-107.76, 47.56], [-107.73, 47.57], [-107.73, 47.59], [-107.72, 47.59], [-107.71, 47.6], [-107.71, 47.61], [-107.7, 47.62], [-107.7, 47.63], [-107.67, 47.63], [-107.66, 47.62], [-107.65, 47.63], [-107.65, 47.64], [-107.65, 47.65], [-107.64, 47.65], [-107.62, 47.63], [-107.61, 47.65], [-107.6, 47.65], [-107.57, 47.64], [-107.55, 47.65], [-107.52, 47.64], [-107.51, 47.63], [-107.5, 47.62], [-107.45, 47.62], [-107.43, 47.63], [-107.44, 47.65], [-107.43, 47.65], [-107.42, 47.66], [-107.43, 47.67], [-107.43, 47.68], [-107.41, 47.69], [-107.41, 47.75], [-107.41, 47.87], [-107.4, 47.87], [-107.4, 48.01], [-107.4, 48.22], [-107.37, 48.22], [-107.37, 48.31], [-107.26, 48.3], [-107.26, 48.39], [-107.3, 48.39], [-107.3, 48.48], [-107.26, 48.48], [-107.26, 48.51], [-107.23, 48.52], [-107.22, 48.51], [-107.19, 48.51], [-107.19, 48.57], [-107.21, 48.57], [-107.21, 48.6], [-107.21, 48.75], [-107.21, 48.91], [-107.18, 48.91], [-107.18, 49.0], [-107.02, 49.0], [-106.75, 49.0], [-106.48, 49.0], [-106.36, 49.0], [-106.28, 49.0], [-106.13, 49.0], [-106.11, 49.0], [-105.96, 49.0], [-105.67, 49.0], [-105.45, 49.0], [-105.34, 49.0], [-105.27, 49.0], [-105.06, 49.0], [-104.89, 49.0], [-104.66, 49.0], [-104.54, 49.0], [-104.38, 49.0], [-104.05, 49.0]]]}}, {"type": "Feature", "properties": {"STATE": "Montana", "STATE_FIPS": "30", "CD_2DIG": "04", "STATE_CODE": 24, "CLIMDIV": 2404, "ID": 2404, "CD_NEW": 4, "FIPS_CD": "3004", "NCDC_GEO_I": 166.0, "NAME": "CENTRAL", "ST_ABBRV": "MT", "SHAPE_AREA": 0.0, "SHAPE_LEN": 0.0}, "geometry": {"type": "Polygon", "coordinates": [[[-107.91, 47.45], [-107.92, 47.43], [-107.91, 47.42], [-107.91, 47.4], [-107.93, 47.4], [-107.92, 47.39], [-107.94, 47.37], [-107.96, 47.36], [-107.96, 47.35], [-107.96, 47.35], [-107.96, 47.34], [-107.96, 47.33], [-107.95, 47.32], [-107.96, 47.29], [-107.95, 47.29], [-107.96, 47.28], [-107.96, 47.26], [-107.97, 47.25], [-107.95, 47.25], [-107.96, 47.24], [-107.94, 47.22], [-107.94, 47.2], [-107.94, 47.19], [-107.93, 47.17], [-107.94, 47.16], [-107.96, 47.16], [-107.95, 47.15], [-107.95, 47.14], [-107.94, 47.13], [-107.96, 47.13], [-107.95, 47.12], [-107.94, 47.12], [-107.94, 47.11], [-107.94, 47.1], [-107.93, 47.1], [-107.93, 47.08], [-107.92, 47.08], [-107.93, 47.07], [-107.92, 47.06], [-107.92, 47.05], [-107.91, 47.04], [-107.91, 47.03], [-107.92, 47.02], [-107.91, 47.01], [-107.9, 47.01], [-107.88, 46.98], [-107.91, 46.97], [-107.91, 46.95], [-107.92, 46.94], [-107.93, 46.93], [-107.93, 46.93], [-107.92, 46.92], [-107.93, 46.92], [-107.93, 46.91], [-107.93, 46.9], [-107.94, 46.89], [-107.94, 46.88], [-107.94, 46.87], [-107.93, 46.88], [-107.91, 46.87], [-107.9, 46.86], [-107.91, 46.86], [-107.89, 46.85], [-107.89, 46.84], [-107.88, 46.84], [-107.87, 46.84], [-107.86, 46.82], [-107.85, 46.81], [-107.84, 46.8], [-107.84, 46.79], [-107.85, 46.77], [-107.84, 46.77], [-107.84, 46.76], [-107.83, 46.76], [-107.83, 46.75], [-107.81, 46.74], [-107.81, 46.73], [-107.83, 46.73], [-107.82, 46.7], [-107.79, 46.68], [-107.8, 46.67], [-107.8, 46.67], [-107.81, 46.66], [-107.82, 46.64], [-107.81, 46.64], [-107.81, 46.63], [-107.82, 46.62], [-107.82, 46.61], [-107.84, 46.6], [-107.8, 46.6], [-107.8, 46.55], [-107.8, 46.5], [-107.78, 46.5], [-107.78, 46.4], [-107.93, 46.4], [-107.93, 46.38], [-107.95, 46.38], [-107.95, 46.37], [-107.97, 46.37], [-107.97, 46.35], [-107.99, 46.35], [-107.99, 46.34], [-108.01, 46.34], [-108.01, 46.31], [-108.03, 46.31], [-108.03, 46.26], [-108.16, 46.26], [-108.17, 46.26], [-108.19, 46.26], [-108.28, 46.26], [-108.32, 46.26], [-108.32, 46.25], [-108.36, 46.25], [-108.36, 46.24], [-108.4, 46.24], [-108.4, 46.13], [-108.63, 46.13], [-108.88, 46.13], [-109.01, 46.13], [-109.29, 46.13], [-109.42, 46.13], [-109.42, 46.04], [-109.6, 46.05], [-109.6, 46.13], [-109.65, 46.13], [-109.65, 46.22], [-109.78, 46.22], [-110.05, 46.22], [-110.28, 46.22], [-110.28, 46.18], [-110.41, 46.18], [-110.41, 46.19], [-110.58, 46.19], [-110.63, 46.19], [-110.78, 46.19], [-111.0, 46.19], [-111.16, 46.19], [-111.16, 46.19], [-111.28, 46.19], [-111.35, 46.19], [-111.35, 46.14], [-111.35, 46.12], [-111.38, 46.11], [-111.38, 46.1], [-111.4, 46.1], [-111.39, 46.09], [-111.41, 46.08], [-111.42, 46.06], [-111.42, 46.04], [-111.42, 46.03], [-111.43, 46.02], [-111.42, 46.0], [-111.43, 45.99], [-111.44, 45.99], [-111.46, 46.0], [-111.47, 45.98], [-111.46, 45.97], [-111.47, 45.96], [-111.51, 45.93], [-111.53, 45.92], [-111.54, 45.92], [-111.54, 45.91], [-111.57, 45.9], [-111.57, 45.9], [-111.58, 45.89], [-111.59, 45.9], [-111.61, 45.89], [-111.61, 45.87], [-111.63, 45.86], [-111.64, 45.86], [-111.64, 45.85], [-111.66, 45.84], [-111.66, 45.87], [-111.66, 45.99], [-111.66, 46.05], [-111.78, 46.05], [-111.78, 46.12], [-111.79, 46.14], [-111.79, 46.37], [-111.79, 46.49], [-111.79, 46.49], [-111.79, 46.57], [-111.92, 46.57], [-112.03, 46.57], [-112.03, 46.56], [-112.03, 46.54], [-112.04, 46.53], [-112.06, 46.52], [-112.08, 46.52], [-112.12, 46.51], [-112.13, 46.52], [-112.14, 46.52], [-112.15, 46.51], [-112.18, 46.51], [-112.19, 46.5], [-112.2, 46.5], [-112.2, 46.48], [-112.19, 46.48], [-112.18, 46.47], [-112.18, 46.46], [-112.19, 46.45], [-112.22, 46.45], [-112.22, 46.44], [-112.24, 46.42], [-112.26, 46.42], [-112.27, 46.41], [-112.29, 46.42], [-112.31, 46.42], [-112.32, 46.42], [-112.32, 46.44], [-112.31, 46.45], [-112.31, 46.46], [-112.31, 46.48], [-112.3, 46.49], [-112.31, 46.51], [-112.3, 46.52], [-112.29, 46.53], [-112.31, 46.55], [-112.31, 46.56], [-112.32, 46.58], [-112.29, 46.61], [-112.3, 46.61], [-112.3, 46.63], [-112.31, 46.63], [-112.32, 46.66], [-112.38, 46.66], [-112.41, 46.66], [-112.41, 46.7], [-112.43, 46.69], [-112.43, 46.7], [-112.44, 46.7], [-112.54, 46.7], [-112.54, 46.83], [-112.67, 46.83], [-112.67, 46.83], [-112.8, 46.83], [-112.8, 46.87], [-112.8, 47.01], [-112.8, 47.11], [-112.8, 47.18], [-113.05, 47.18], [-113.06, 47.18], [-113.06, 47.3], [-113.06, 47.49], [-113.06, 47.48], [-113.08, 47.49], [-113.09, 47.48], [-113.11, 47.49], [-113.12, 47.51], [-113.12, 47.52], [-113.12, 47.52], [-113.13, 47.54], [-113.12, 47.56], [-113.12, 47.57], [-113.13, 47.58], [-113.13, 47.59], [-113.14, 47.59], [-113.15, 47.61], [-113.14, 47.62], [-113.14, 47.62], [-113.14, 47.64], [-113.13, 47.64], [-113.13, 47.65], [-113.13, 47.66], [-113.14, 47.66], [-113.15, 47.68], [-113.15, 47.69], [-113.16, 47.7], [-113.17, 47.72], [-113.16, 47.73], [-113.15, 47.74], [-113.14, 47.74], [-113.12, 47.74], [-113.09, 47.74], [-113.08, 47.75], [-113.08, 47.77], [-113.07, 47.77], [-113.06, 47.79], [-113.07, 47.8], [-113.06, 47.81], [-113.06, 47.82], [-113.07, 47.83], [-113.07, 47.84], [-113.06, 47.84], [-113.06, 47.86], [-113.06, 47.87], [-113.06, 47.88], [-113.08, 47.89], [-113.09, 47.89], [-113.09, 47.91], [-113.08, 47.92], [-113.05, 47.93], [-113.03, 47.93], [-113.02, 47.93], [-113.01, 47.94], [-113.0, 47.94], [-112.98, 47.95], [-112.98, 47.95], [-112.97, 47.91], [-112.95, 47.9], [-112.95, 47.89], [-112.94, 47.87], [-112.93, 47.86], [-112.93, 47.85], [-112.92, 47.84], [-112.91, 47.83], [-112.92, 47.82], [-112.92, 47.81], [-112.92, 47.77], [-112.93, 47.76], [-112.92, 47.75], [-112.91, 47.74], [-112.9, 47.73], [-112.9, 47.72], [-112.91, 47.7], [-112.89, 47.67], [-112.88, 47.66], [-112.87, 47.64], [-112.86, 47.64], [-112.85, 47.63], [-112.85, 47.63], [-112.83, 47.62], [-112.81, 47.61], [-112.8, 47.61], [-112.79, 47.6], [-112.78, 47.6], [-112.77, 47.6], [-112.76, 47.61], [-112.75, 47.61], [-112.73, 47.62], [-112.71, 47.62], [-112.7, 47.62], [-112.69, 47.61], [-112.67, 47.62], [-112.65, 47.62], [-112.62, 47.64], [-112.6, 47.63], [-112.59, 47.64], [-112.58, 47.63], [-112.57, 47.64], [-112.55, 47.65], [-112.54, 47.64], [-112.52, 47.64], [-112.51, 47.62], [-112.5, 47.62], [-112.49, 47.61], [-112.47, 47.61], [-112.46, 47.61], [-112.42, 47.6], [-112.42, 47.59], [-112.4, 47.57], [-112.41, 47.55], [-112.38, 47.55], [-112.37, 47.55], [-112.35, 47.55], [-112.34, 47.54], [-112.32, 47.54], [-112.31, 47.53], [-112.29, 47.52], [-112.28, 47.51], [-112.25, 47.51], [-112.24, 47.51], [-112.22, 47.51], [-112.21, 47.5], [-112.18, 47.51], [-112.16, 47.51], [-112.15, 47.52], [-112.11, 47.51], [-112.08, 47.52], [-112.07, 47.51], [-112.06, 47.52], [-112.05, 47.51], [-112.03, 47.52], [-112.0, 47.51], [-111.97, 47.51], [-111.96, 47.51], [-111.94, 47.51], [-111.93, 47.5], [-111.92, 47.5], [-111.92, 47.61], [-111.84, 47.61], [-111.75, 47.61], [-111.67, 47.61], [-111.67, 47.7], [-111.54, 47.7], [-111.38, 47.7], [-111.22, 47.7], [-110.98, 47.7], [-110.98, 47.69], [-110.98, 47.68], [-110.99, 47.68], [-111.0, 47.67], [-111.01, 47.66], [-111.02, 47.66], [-111.03, 47.63], [-111.04, 47.63], [-111.04, 47.61], [-111.05, 47.61], [-111.05, 47.6], [-111.03, 47.59], [-111.03, 47.58], [-111.0, 47.57], [-110.98, 47.57], [-110.97, 47.56], [-110.95, 47.56], [-110.95, 47.55], [-110.92, 47.54], [-110.91, 47.54], [-110.89, 47.55], [-110.89, 47.54], [-110.87, 47.54], [-110.86, 47.53], [-110.77, 47.52], [-110.77, 47.45], [-110.64, 47.45], [-110.64, 47.42], [-110.5, 47.42], [-110.38, 47.42], [-110.16, 47.42], [-110.15, 47.43], [-110.13, 47.43], [-110.13, 47.44], [-110.1, 47.44], [-110.08, 47.45], [-110.05, 47.47], [-110.03, 47.48], [-110.03, 47.48], [-110.01, 47.47], [-110.0, 47.48], [-109.99, 47.48], [-109.96, 47.5], [-109.94, 47.5], [-109.94, 47.51], [-109.9, 47.52], [-109.87, 47.53], [-109.86, 47.54], [-109.84, 47.55], [-109.85, 47.55], [-109.84, 47.56], [-109.85, 47.59], [-109.84, 47.6], [-109.84, 47.63], [-109.84, 47.64], [-109.83, 47.64], [-109.84, 47.65], [-109.83, 47.67], [-109.84, 47.67], [-109.83, 47.69], [-109.84, 47.69], [-109.84, 47.71], [-109.82, 47.72], [-109.81, 47.71], [-109.8, 47.71], [-109.78, 47.71], [-109.77, 47.71], [-109.76, 47.7], [-109.72, 47.7], [-109.7, 47.72], [-109.69, 47.73], [-109.67, 47.74], [-109.65, 47.74], [-109.63, 47.74], [-109.61, 47.73], [-109.59, 47.75], [-109.55, 47.74], [-109.54, 47.74], [-109.52, 47.75], [-109.51, 47.74], [-109.51, 47.74], [-109.49, 47.73], [-109.47, 47.73], [-109.46, 47.73], [-109.44, 47.73], [-109.43, 47.72], [-109.41, 47.72], [-109.39, 47.74], [-109.39, 47.74], [-109.37, 47.74], [-109.35, 47.75], [-109.31, 47.76], [-109.3, 47.77], [-109.28, 47.78], [-109.28, 47.79], [-109.28, 47.79], [-109.23, 47.79], [-109.21, 47.79], [-109.19, 47.79], [-109.16, 47.78], [-109.13, 47.78], [-109.11, 47.79], [-109.07, 47.8], [-109.04, 47.79], [-109.03, 47.79], [-109.02, 47.8], [-109.0, 47.8], [-108.97, 47.8], [-108.96, 47.79], [-108.94, 47.79], [-108.94, 47.79], [-108.95, 47.77], [-108.92, 47.76], [-108.92, 47.75], [-108.95, 47.74], [-108.95, 47.74], [-108.94, 47.73], [-108.92, 47.74], [-108.89, 47.74], [-108.85, 47.72], [-108.82, 47.71], [-108.81, 47.7], [-108.78, 47.68], [-108.78, 47.68], [-108.79, 47.66], [-108.79, 47.66], [-108.77, 47.65], [-108.76, 47.64], [-108.75, 47.65], [-108.73, 47.65], [-108.71, 47.64], [-108.71, 47.63], [-108.69, 47.63], [-108.67, 47.62], [-108.66, 47.62], [-108.63, 47.62], [-108.61, 47.62], [-108.59, 47.61], [-108.58, 47.62], [-108.57, 47.61], [-108.53, 47.62], [-108.53, 47.62], [-108.51, 47.61], [-108.51, 47.6], [-108.47, 47.6], [-108.46, 47.61], [-108.46, 47.62], [-108.44, 47.61], [-108.42, 47.6], [-108.42, 47.58], [-108.41, 47.59], [-108.4, 47.6], [-108.39, 47.59], [-108.38, 47.58], [-108.35, 47.58], [-108.35, 47.57], [-108.32, 47.57], [-108.33, 47.58], [-108.32, 47.59], [-108.31, 47.58], [-108.28, 47.58], [-108.25, 47.59], [-108.24, 47.58], [-108.22, 47.58], [-108.2, 47.59], [-108.18, 47.58], [-108.15, 47.58], [-108.14, 47.59], [-108.12, 47.59], [-108.11, 47.59], [-108.09, 47.59], [-108.08, 47.59], [-108.07, 47.6], [-108.05, 47.59], [-108.02, 47.58], [-108.0, 47.58], [-107.99, 47.59], [-107.98, 47.59], [-107.97, 47.58], [-107.96, 47.57], [-107.94, 47.57], [-107.93, 47.57], [-107.92, 47.56], [-107.93, 47.54], [-107.92, 47.54], [-107.92, 47.52], [-107.91, 47.51], [-107.9, 47.51], [-107.9, 47.5], [-107.91, 47.49], [-107.9, 47.47], [-107.91, 47.47], [-107.91, 47.45]]]}}, {"type": "Feature", "properties": {"STATE": "Montana", "STATE_FIPS": "30", "CD_2DIG": "02", "STATE_CODE": 24, "CLIMDIV": 2402, "ID": 2402, "CD_NEW": 2, "FIPS_CD": "3002", "NCDC_GEO_I": 167.0, "NAME": "SOUTHWESTERN", "ST_ABBRV": "MT", "SHAPE_AREA": 0.0, "SHAPE_LEN": 0.0}, "geometry": {"type": "Polygon", "coordinates": [[[-110.78, 46.19], [-110.78, 46.14], [-110.79, 46.14], [-110.79, 46.06], [-110.79, 45.99], [-110.79, 45.96], [-110.79, 45.9], [-110.79, 45.79], [-110.8, 45.79], [-110.8, 45.69], [-110.79, 45.59], [-110.81, 45.59], [-110.86, 45.59], [-110.86, 45.53], [-110.92, 45.53], [-110.92, 45.44], [-110.92, 45.35], [-111.04, 45.35], [-111.04, 45.25], [-111.04, 45.18], [-111.05, 45.18], [-111.05, 45.1], [-111.05, 45.09], [-111.05, 45.06], [-111.04, 45.0], [-111.06, 45.0], [-111.06, 45.0], [-111.06, 44.94], [-111.06, 44.94], [-111.06, 44.93], [-111.06, 44.93], [-111.06, 44.93], [-111.06, 44.87], [-111.06, 44.87], [-111.06, 44.75], [-111.06, 44.73], [-111.06, 44.62], [-111.05, 44.62], [-111.05, 44.56], [-111.05, 44.55], [-111.05, 44.54], [-111.05, 44.53], [-111.05, 44.5], [-111.05, 44.49], [-111.05, 44.48], [-111.05, 44.47], [-111.05, 44.47], [-111.05, 44.48], [-111.06, 44.48], [-111.06, 44.48], [-111.1, 44.49], [-111.13, 44.5], [-111.14, 44.52], [-111.13, 44.53], [-111.15, 44.53], [-111.16, 44.55], [-111.17, 44.55], [-111.18, 44.55], [-111.18, 44.57], [-111.2, 44.58], [-111.22, 44.58], [-111.23, 44.58], [-111.23, 44.6], [-111.24, 44.61], [-111.22, 44.62], [-111.26, 44.65], [-111.27, 44.65], [-111.28, 44.66], [-111.27, 44.67], [-111.28, 44.68], [-111.3, 44.69], [-111.29, 44.7], [-111.32, 44.72], [-111.32, 44.73], [-111.34, 44.73], [-111.35, 44.73], [-111.36, 44.73], [-111.37, 44.75], [-111.39, 44.76], [-111.39, 44.75], [-111.4, 44.74], [-111.4, 44.72], [-111.41, 44.71], [-111.43, 44.72], [-111.47, 44.71], [-111.49, 44.7], [-111.48, 44.69], [-111.48, 44.68], [-111.47, 44.66], [-111.49, 44.65], [-111.52, 44.64], [-111.5, 44.63], [-111.52, 44.62], [-111.53, 44.61], [-111.52, 44.58], [-111.5, 44.57], [-111.51, 44.56], [-111.49, 44.56], [-111.48, 44.56], [-111.47, 44.56], [-111.47, 44.54], [-111.5, 44.54], [-111.52, 44.54], [-111.52, 44.55], [-111.54, 44.55], [-111.55, 44.56], [-111.56, 44.55], [-111.59, 44.56], [-111.6, 44.55], [-111.62, 44.55], [-111.66, 44.55], [-111.68, 44.56], [-111.69, 44.56], [-111.7, 44.56], [-111.72, 44.54], [-111.74, 44.54], [-111.78, 44.52], [-111.8, 44.53], [-111.81, 44.51], [-111.82, 44.51], [-111.83, 44.52], [-111.84, 44.53], [-111.85, 44.54], [-111.86, 44.55], [-111.87, 44.56], [-111.91, 44.56], [-111.92, 44.56], [-111.95, 44.56], [-111.96, 44.55], [-111.97, 44.54], [-111.98, 44.54], [-112.0, 44.54], [-112.03, 44.55], [-112.04, 44.53], [-112.07, 44.54], [-112.09, 44.53], [-112.1, 44.52], [-112.13, 44.53], [-112.14, 44.54], [-112.15, 44.54], [-112.16, 44.54], [-112.18, 44.53], [-112.2, 44.54], [-112.22, 44.54], [-112.23, 44.55], [-112.23, 44.56], [-112.24, 44.57], [-112.26, 44.57], [-112.28, 44.57], [-112.29, 44.57], [-112.3, 44.56], [-112.31, 44.55], [-112.32, 44.54], [-112.35, 44.54], [-112.36, 44.53], [-112.36, 44.49], [-112.36, 44.48], [-112.37, 44.47], [-112.38, 44.46], [-112.39, 44.45], [-112.41, 44.46], [-112.42, 44.45], [-112.43, 44.45], [-112.44, 44.46], [-112.47, 44.48], [-112.49, 44.47], [-112.5, 44.46], [-112.51, 44.47], [-112.52, 44.48], [-112.54, 44.48], [-112.55, 44.48], [-112.57, 44.48], [-112.59, 44.48], [-112.6, 44.49], [-112.63, 44.48], [-112.63, 44.49], [-112.66, 44.49], [-112.67, 44.49], [-112.69, 44.49], [-112.69, 44.5], [-112.72, 44.5], [-112.73, 44.5], [-112.74, 44.49], [-112.78, 44.48], [-112.8, 44.46], [-112.82, 44.45], [-112.83, 44.44], [-112.83, 44.43], [-112.84, 44.43], [-112.81, 44.4], [-112.81, 44.38], [-112.83, 44.37], [-112.84, 44.36], [-112.86, 44.36], [-112.86, 44.37], [-112.88, 44.38], [-112.89, 44.41], [-112.9, 44.4], [-112.92, 44.4], [-112.92, 44.41], [-112.95, 44.42], [-112.98, 44.44], [-112.99, 44.44], [-113.0, 44.45], [-113.01, 44.47], [-113.01, 44.47], [-113.02, 44.48], [-113.03, 44.5], [-113.01, 44.51], [-113.02, 44.52], [-113.01, 44.52], [-113.01, 44.53], [-113.02, 44.54], [-113.03, 44.54], [-113.05, 44.54], [-113.05, 44.56], [-113.04, 44.56], [-113.04, 44.57], [-113.07, 44.58], [-113.06, 44.59], [-113.09, 44.6], [-113.07, 44.61], [-113.06, 44.62], [-113.05, 44.63], [-113.05, 44.64], [-113.07, 44.65], [-113.07, 44.67], [-113.07, 44.68], [-113.08, 44.68], [-113.08, 44.69], [-113.1, 44.7], [-113.1, 44.73], [-113.11, 44.73], [-113.12, 44.75], [-113.13, 44.75], [-113.14, 44.76], [-113.13, 44.77], [-113.18, 44.79], [-113.19, 44.8], [-113.21, 44.81], [-113.24, 44.81], [-113.25, 44.82], [-113.28, 44.81], [-113.34, 44.78], [-113.35, 44.79], [-113.35, 44.8], [-113.36, 44.82], [-113.38, 44.83], [-113.38, 44.84], [-113.39, 44.84], [-113.42, 44.84], [-113.43, 44.85], [-113.44, 44.86], [-113.45, 44.87], [-113.46, 44.89], [-113.48, 44.89], [-113.47, 44.9], [-113.48, 44.92], [-113.49, 44.92], [-113.5, 44.94], [-113.49, 44.95], [-113.48, 44.95], [-113.47, 44.95], [-113.45, 44.95], [-113.44, 44.96], [-113.45, 45.0], [-113.44, 45.01], [-113.45, 45.02], [-113.45, 45.03], [-113.45, 45.04], [-113.45, 45.05], [-113.45, 45.06], [-113.46, 45.06], [-113.47, 45.06], [-113.49, 45.07], [-113.49, 45.07], [-113.52, 45.09], [-113.51, 45.11], [-113.51, 45.12], [-113.56, 45.12], [-113.58, 45.13], [-113.57, 45.14], [-113.59, 45.16], [-113.59, 45.17], [-113.59, 45.18], [-113.59, 45.18], [-113.61, 45.19], [-113.62, 45.21], [-113.64, 45.21], [-113.65, 45.23], [-113.65, 45.23], [-113.67, 45.25], [-113.68, 45.25], [-113.69, 45.26], [-113.69, 45.27], [-113.68, 45.28], [-113.69, 45.29], [-113.7, 45.29], [-113.71, 45.3], [-113.72, 45.32], [-113.73, 45.32], [-113.74, 45.33], [-113.74, 45.35], [-113.73, 45.36], [-113.74, 45.37], [-113.73, 45.37], [-113.73, 45.39], [-113.75, 45.4], [-113.77, 45.41], [-113.78, 45.42], [-113.76, 45.42], [-113.76, 45.43], [-113.78, 45.44], [-113.78, 45.45], [-113.78, 45.45], [-113.78, 45.46], [-113.78, 45.47], [-113.76, 45.48], [-113.76, 45.5], [-113.77, 45.51], [-113.77, 45.52], [-113.8, 45.52], [-113.83, 45.52], [-113.82, 45.55], [-113.82, 45.56], [-113.82, 45.57], [-113.81, 45.58], [-113.8, 45.58], [-113.81, 45.6], [-113.82, 45.61], [-113.84, 45.61], [-113.85, 45.62], [-113.86, 45.62], [-113.89, 45.62], [-113.9, 45.62], [-113.9, 45.64], [-113.9, 45.64], [-113.91, 45.65], [-113.92, 45.66], [-113.92, 45.66], [-113.93, 45.67], [-113.93, 45.69], [-113.94, 45.7], [-113.92, 45.7], [-113.91, 45.7], [-113.91, 45.72], [-113.9, 45.72], [-113.9, 45.73], [-113.92, 45.74], [-113.9, 45.76], [-113.9, 45.77], [-113.88, 45.78], [-113.87, 45.78], [-113.85, 45.77], [-113.85, 45.75], [-113.83, 45.75], [-113.82, 45.76], [-113.8, 45.76], [-113.8, 45.77], [-113.79, 45.78], [-113.78, 45.79], [-113.77, 45.8], [-113.76, 45.8], [-113.74, 45.82], [-113.73, 45.82], [-113.73, 45.83], [-113.72, 45.83], [-113.71, 45.84], [-113.7, 45.84], [-113.69, 45.84], [-113.67, 45.84], [-113.67, 45.84], [-113.66, 45.84], [-113.62, 45.84], [-113.61, 45.85], [-113.6, 45.85], [-113.59, 45.86], [-113.58, 45.87], [-113.57, 45.87], [-113.53, 45.88], [-113.53, 45.89], [-113.54, 45.9], [-113.54, 45.91], [-113.52, 45.94], [-113.5, 45.94], [-113.49, 45.94], [-113.48, 45.91], [-113.47, 45.9], [-113.46, 45.87], [-113.44, 45.86], [-113.44, 45.84], [-113.43, 45.83], [-113.43, 45.82], [-113.43, 45.81], [-113.42, 45.79], [-113.41, 45.78], [-113.4, 45.77], [-113.38, 45.76], [-113.36, 45.76], [-113.36, 45.77], [-113.35, 45.78], [-113.35, 45.8], [-113.33, 45.81], [-113.32, 45.81], [-113.31, 45.81], [-113.3, 45.82], [-113.28, 45.82], [-113.26, 45.83], [-113.25, 45.84], [-113.25, 45.85], [-113.24, 45.85], [-113.23, 45.87], [-113.21, 45.88], [-113.2, 45.87], [-113.18, 45.88], [-113.16, 45.89], [-113.14, 45.88], [-113.13, 45.88], [-113.1, 45.88], [-113.09, 45.88], [-113.08, 45.86], [-113.07, 45.87], [-113.02, 45.87], [-113.01, 45.88], [-112.97, 45.91], [-112.97, 45.92], [-112.95, 45.93], [-112.93, 45.93], [-112.92, 45.94], [-112.93, 45.95], [-112.93, 45.96], [-112.94, 45.97], [-112.94, 45.99], [-112.92, 46.0], [-112.9, 46.0], [-112.88, 46.0], [-112.87, 46.01], [-112.87, 46.03], [-112.86, 46.04], [-112.85, 46.05], [-112.78, 46.05], [-112.78, 46.14], [-112.68, 46.14], [-112.68, 46.14], [-112.66, 46.15], [-112.64, 46.17], [-112.63, 46.17], [-112.61, 46.17], [-112.59, 46.17], [-112.58, 46.18], [-112.58, 46.19], [-112.58, 46.2], [-112.57, 46.21], [-112.58, 46.22], [-112.59, 46.23], [-112.6, 46.24], [-112.58, 46.24], [-112.56, 46.27], [-112.56, 46.28], [-112.57, 46.3], [-112.57, 46.31], [-112.56, 46.31], [-112.53, 46.33], [-112.5, 46.33], [-112.5, 46.34], [-112.47, 46.34], [-112.47, 46.33], [-112.45, 46.33], [-112.45, 46.33], [-112.45, 46.35], [-112.43, 46.36], [-112.43, 46.37], [-112.41, 46.37], [-112.41, 46.38], [-112.4, 46.39], [-112.39, 46.38], [-112.38, 46.39], [-112.35, 46.39], [-112.34, 46.39], [-112.34, 46.4], [-112.31, 46.42], [-112.29, 46.42], [-112.27, 46.41], [-112.26, 46.42], [-112.24, 46.42], [-112.22, 46.44], [-112.22, 46.45], [-112.19, 46.45], [-112.18, 46.46], [-112.18, 46.47], [-112.19, 46.48], [-112.2, 46.48], [-112.2, 46.5], [-112.19, 46.5], [-112.18, 46.51], [-112.15, 46.51], [-112.14, 46.52], [-112.13, 46.52], [-112.12, 46.51], [-112.08, 46.52], [-112.06, 46.52], [-112.04, 46.53], [-112.03, 46.54], [-112.03, 46.56], [-112.03, 46.57], [-111.92, 46.57], [-111.79, 46.57], [-111.79, 46.49], [-111.79, 46.49], [-111.79, 46.37], [-111.79, 46.14], [-111.78, 46.12], [-111.78, 46.05], [-111.66, 46.05], [-111.66, 45.99], [-111.66, 45.87], [-111.66, 45.84], [-111.64, 45.85], [-111.64, 45.86], [-111.63, 45.86], [-111.61, 45.87], [-111.61, 45.89], [-111.59, 45.9], [-111.58, 45.89], [-111.57, 45.9], [-111.57, 45.9], [-111.54, 45.91], [-111.54, 45.92], [-111.53, 45.92], [-111.51, 45.93], [-111.47, 45.96], [-111.46, 45.97], [-111.47, 45.98], [-111.46, 46.0], [-111.44, 45.99], [-111.43, 45.99], [-111.42, 46.0], [-111.43, 46.02], [-111.42, 46.03], [-111.42, 46.04], [-111.42, 46.06], [-111.41, 46.08], [-111.39, 46.09], [-111.4, 46.1], [-111.38, 46.1], [-111.38, 46.11], [-111.35, 46.12], [-111.35, 46.14], [-111.35, 46.19], [-111.28, 46.19], [-111.16, 46.19], [-111.16, 46.19], [-111.0, 46.19], [-110.78, 46.19]]]}}, {"type": "Feature", "properties": {"STATE": "Montana", "STATE_FIPS": "30", "CD_2DIG": "05", "STATE_CODE": 24, "CLIMDIV": 2405, "ID": 2405, "CD_NEW": 5, "FIPS_CD": "3005", "NCDC_GEO_I": 168.0, "NAME": "SOUTH CENTRAL", "ST_ABBRV": "MT", "SHAPE_AREA": 0.0, "SHAPE_LEN": 0.0}, "geometry": {"type": "Polygon", "coordinates": [[[-106.26, 44.99], [-106.42, 44.99], [-106.63, 44.99], [-106.87, 45.0], [-107.0, 45.0], [-107.06, 45.0], [-107.07, 45.0], [-107.08, 45.0], [-107.08, 45.0], [-107.08, 45.0], [-107.08, 45.0], [-107.09, 45.0], [-107.09, 45.0], [-107.09, 45.0], [-107.1, 45.0], [-107.11, 45.0], [-107.16, 45.0], [-107.24, 45.0], [-107.25, 45.0], [-107.28, 45.0], [-107.3, 45.0], [-107.3, 45.0], [-107.31, 45.0], [-107.32, 45.0], [-107.32, 45.0], [-107.33, 45.0], [-107.35, 45.0], [-107.38, 45.0], [-107.41, 45.0], [-107.5, 45.0], [-107.5, 45.0], [-107.5, 45.0], [-107.51, 45.0], [-107.54, 45.0], [-107.55, 45.0], [-107.56, 45.0], [-107.61, 45.0], [-107.63, 45.0], [-107.63, 45.0], [-107.64, 45.0], [-107.67, 45.0], [-107.7, 45.0], [-107.71, 45.0], [-107.72, 45.0], [-107.74, 45.0], [-107.75, 45.0], [-108.0, 45.0], [-108.0, 45.0], [-108.15, 45.0], [-108.23, 45.0], [-108.25, 45.0], [-108.26, 45.0], [-108.26, 45.0], [-108.27, 45.0], [-108.3, 45.0], [-108.33, 45.0], [-108.33, 45.0], [-108.35, 45.0], [-108.38, 45.0], [-108.5, 45.0], [-108.57, 45.0], [-108.58, 45.0], [-108.59, 45.0], [-108.6, 45.0], [-108.61, 45.0], [-108.62, 45.0], [-108.63, 45.0], [-108.66, 45.0], [-108.68, 45.0], [-108.68, 45.0], [-108.69, 45.0], [-108.7, 45.0], [-108.74, 45.0], [-108.79, 45.0], [-108.91, 45.0], [-108.98, 45.0], [-109.06, 45.0], [-109.06, 45.0], [-109.07, 45.0], [-109.08, 45.0], [-109.08, 45.0], [-109.09, 45.0], [-109.1, 45.01], [-109.39, 45.0], [-109.57, 45.0], [-109.66, 45.0], [-109.75, 45.0], [-109.88, 45.0], [-110.0, 45.0], [-110.11, 45.0], [-110.2, 45.0], [-110.28, 45.0], [-110.36, 45.0], [-110.4, 44.99], [-110.49, 44.99], [-110.63, 44.99], [-110.71, 44.99], [-110.79, 45.0], [-110.88, 45.0], [-111.0, 45.0], [-111.04, 45.0], [-111.05, 45.06], [-111.05, 45.09], [-111.05, 45.1], [-111.05, 45.18], [-111.04, 45.18], [-111.04, 45.25], [-111.04, 45.35], [-110.92, 45.35], [-110.92, 45.44], [-110.92, 45.53], [-110.86, 45.53], [-110.86, 45.59], [-110.81, 45.59], [-110.79, 45.59], [-110.8, 45.69], [-110.8, 45.79], [-110.79, 45.79], [-110.79, 45.9], [-110.79, 45.96], [-110.79, 45.99], [-110.79, 46.06], [-110.79, 46.14], [-110.78, 46.14], [-110.78, 46.19], [-110.63, 46.19], [-110.58, 46.19], [-110.41, 46.19], [-110.41, 46.18], [-110.28, 46.18], [-110.28, 46.22], [-110.05, 46.22], [-109.78, 46.22], [-109.65, 46.22], [-109.65, 46.13], [-109.6, 46.13], [-109.6, 46.05], [-109.42, 46.04], [-109.42, 46.13], [-109.29, 46.13], [-109.01, 46.13], [-108.88, 46.13], [-108.63, 46.13], [-108.4, 46.13], [-108.4, 46.24], [-108.36, 46.24], [-108.36, 46.25], [-108.32, 46.25], [-108.32, 46.26], [-108.28, 46.26], [-108.19, 46.26], [-108.17, 46.26], [-108.16, 46.26], [-108.03, 46.26], [-108.03, 46.31], [-108.01, 46.31], [-108.01, 46.34], [-107.99, 46.34], [-107.99, 46.35], [-107.97, 46.35], [-107.97, 46.37], [-107.95, 46.37], [-107.95, 46.38], [-107.93, 46.38], [-107.93, 46.4], [-107.78, 46.4], [-107.78, 46.5], [-107.76, 46.5], [-107.76, 46.48], [-107.69, 46.48], [-107.52, 46.48], [-107.25, 46.48], [-107.17, 46.48], [-107.17, 46.47], [-107.15, 46.47], [-107.15, 46.4], [-107.03, 46.4], [-107.03, 46.31], [-107.01, 46.31], [-107.01, 46.23], [-107.01, 46.14], [-106.94, 46.14], [-106.94, 46.04], [-106.94, 45.83], [-106.88, 45.83], [-106.88, 45.79], [-106.91, 45.79], [-106.91, 45.68], [-106.85, 45.68], [-106.85, 45.68], [-106.73, 45.68], [-106.73, 45.67], [-106.73, 45.5], [-106.73, 45.35], [-106.77, 45.35], [-106.77, 45.18], [-106.73, 45.18], [-106.61, 45.18], [-106.52, 45.18], [-106.52, 45.18], [-106.4, 45.18], [-106.4, 45.18], [-106.26, 45.18], [-106.26, 44.99]]]}}, {"type": "Feature", "properties": {"STATE": "Montana", "STATE_FIPS": "30", "CD_2DIG": "07", "STATE_CODE": 24, "CLIMDIV": 2407, "ID": 2407, "CD_NEW": 7, "FIPS_CD": "3007", "NCDC_GEO_I": 169.0, "NAME": "SOUTHEASTERN", "ST_ABBRV": "MT", "SHAPE_AREA": 0.0, "SHAPE_LEN": 0.0}, "geometry": {"type": "Polygon", "coordinates": [[[-104.05, 47.4], [-104.05, 47.33], [-104.05, 47.22], [-104.04, 47.13], [-104.05, 47.08], [-104.05, 46.89], [-104.05, 46.71], [-104.05, 46.51], [-104.05, 46.42], [-104.05, 46.28], [-104.05, 46.13], [-104.05, 46.12], [-104.05, 46.0], [-104.05, 46.0], [-104.05, 45.97], [-104.05, 45.96], [-104.05, 45.95], [-104.05, 45.93], [-104.04, 45.92], [-104.04, 45.9], [-104.04, 45.89], [-104.04, 45.88], [-104.04, 45.88], [-104.04, 45.75], [-104.04, 45.61], [-104.04, 45.5], [-104.04, 45.37], [-104.04, 45.25], [-104.04, 45.12], [-104.04, 45.0], [-104.04, 45.0], [-104.05, 45.0], [-104.05, 45.0], [-104.06, 45.0], [-104.06, 45.0], [-104.07, 45.0], [-104.11, 45.0], [-104.12, 45.0], [-104.37, 45.0], [-104.57, 45.0], [-104.72, 45.0], [-104.77, 45.0], [-104.88, 45.0], [-105.0, 45.0], [-105.25, 45.0], [-105.49, 45.0], [-105.72, 45.0], [-105.85, 45.0], [-105.88, 45.0], [-105.9, 45.0], [-105.9, 45.0], [-105.91, 45.0], [-105.91, 45.0], [-105.91, 45.0], [-105.92, 45.0], [-105.93, 44.99], [-105.95, 44.99], [-105.96, 44.99], [-105.98, 44.99], [-106.0, 44.99], [-106.01, 44.99], [-106.01, 44.99], [-106.02, 44.99], [-106.04, 44.99], [-106.1, 44.99], [-106.13, 44.99], [-106.13, 44.99], [-106.14, 44.99], [-106.16, 44.99], [-106.17, 44.99], [-106.18, 44.99], [-106.2, 44.99], [-106.22, 44.99], [-106.23, 44.99], [-106.25, 44.99], [-106.26, 44.99], [-106.26, 45.18], [-106.4, 45.18], [-106.4, 45.18], [-106.52, 45.18], [-106.52, 45.18], [-106.61, 45.18], [-106.73, 45.18], [-106.77, 45.18], [-106.77, 45.35], [-106.73, 45.35], [-106.73, 45.5], [-106.73, 45.67], [-106.73, 45.68], [-106.85, 45.68], [-106.85, 45.68], [-106.91, 45.68], [-106.91, 45.79], [-106.88, 45.79], [-106.88, 45.83], [-106.94, 45.83], [-106.94, 46.04], [-106.94, 46.14], [-107.01, 46.14], [-107.01, 46.23], [-107.01, 46.31], [-107.03, 46.31], [-107.03, 46.4], [-107.15, 46.4], [-107.15, 46.47], [-107.17, 46.47], [-107.17, 46.48], [-107.25, 46.48], [-107.52, 46.48], [-107.69, 46.48], [-107.76, 46.48], [-107.76, 46.5], [-107.78, 46.5], [-107.8, 46.5], [-107.8, 46.55], [-107.8, 46.6], [-107.84, 46.6], [-107.82, 46.61], [-107.82, 46.62], [-107.81, 46.63], [-107.81, 46.64], [-107.82, 46.64], [-107.81, 46.66], [-107.8, 46.67], [-107.8, 46.67], [-107.79, 46.68], [-107.82, 46.7], [-107.83, 46.73], [-107.81, 46.73], [-107.81, 46.74], [-107.83, 46.75], [-107.83, 46.76], [-107.84, 46.76], [-107.84, 46.77], [-107.85, 46.77], [-107.84, 46.79], [-107.84, 46.8], [-107.85, 46.81], [-107.86, 46.82], [-107.87, 46.84], [-107.88, 46.84], [-107.89, 46.84], [-107.89, 46.85], [-107.63, 46.85], [-107.47, 46.85], [-107.47, 46.86], [-107.43, 46.86], [-107.25, 46.86], [-107.25, 46.86], [-107.13, 46.86], [-107.04, 46.86], [-106.88, 46.86], [-106.72, 46.86], [-106.72, 46.85], [-106.49, 46.85], [-106.3, 46.85], [-106.23, 46.85], [-106.09, 46.85], [-106.09, 46.88], [-106.09, 47.06], [-106.09, 47.18], [-105.96, 47.18], [-105.96, 47.09], [-105.88, 47.09], [-105.83, 47.09], [-105.83, 47.18], [-105.75, 47.18], [-105.49, 47.18], [-105.32, 47.18], [-105.32, 46.98], [-105.2, 46.98], [-105.2, 46.92], [-105.07, 46.92], [-105.07, 46.91], [-105.05, 46.91], [-105.05, 46.89], [-105.03, 46.89], [-105.03, 46.86], [-104.76, 46.86], [-104.73, 46.86], [-104.5, 46.86], [-104.49, 46.88], [-104.47, 46.88], [-104.46, 46.88], [-104.45, 46.89], [-104.43, 46.89], [-104.43, 46.9], [-104.41, 46.9], [-104.41, 46.92], [-104.4, 46.92], [-104.4, 46.93], [-104.38, 46.95], [-104.37, 46.95], [-104.37, 46.96], [-104.36, 46.96], [-104.36, 46.98], [-104.35, 46.98], [-104.35, 46.99], [-104.34, 46.99], [-104.34, 47.01], [-104.33, 47.01], [-104.33, 47.04], [-104.31, 47.04], [-104.31, 47.14], [-104.32, 47.14], [-104.32, 47.18], [-104.32, 47.19], [-104.33, 47.19], [-104.33, 47.22], [-104.34, 47.22], [-104.34, 47.25], [-104.35, 47.25], [-104.36, 47.25], [-104.36, 47.26], [-104.38, 47.26], [-104.38, 47.27], [-104.39, 47.27], [-104.39, 47.29], [-104.43, 47.32], [-104.45, 47.32], [-104.44, 47.33], [-104.42, 47.34], [-104.42, 47.35], [-104.39, 47.35], [-104.25, 47.35], [-104.13, 47.35], [-104.13, 47.4], [-104.05, 47.4]]]}}]}