{"type": "FeatureCollection", "features": [{"type": "Feature", "properties": {"STATE": "Nebraska", "STATE_FIPS": "31", "CD_2DIG": "01", "STATE_CODE": 25, "CLIMDIV": 2501, "ID": 2501, "CD_NEW": 1, "FIPS_CD": "3101", "NCDC_GEO_I": 179.0, "NAME": "PANHANDLE", "ST_ABBRV": "NE", "SHAPE_AREA": 0.0, "SHAPE_LEN": 0.0}, "geometry": {"type": "Polygon", "coordinates": [[[-101.98, 41.39], [-102.0, 41.39], [-102.0, 41.39], [-102.0, 41.39], [-102.06, 41.4], [-102.05, 41.37], [-102.06, 41.31], [-102.06, 41.09], [-102.06, 41.05], [-102.05, 41.05], [-102.05, 41.03], [-102.05, 41.01], [-102.05, 41.01], [-102.05, 41.0], [-102.05, 41.0], [-102.27, 41.0], [-102.29, 41.0], [-102.29, 41.0], [-102.29, 41.0], [-102.29, 41.0], [-102.36, 41.0], [-102.43, 41.0], [-102.47, 41.0], [-102.57, 41.0], [-102.62, 41.0], [-102.73, 41.0], [-102.83, 41.0], [-102.87, 41.0], [-103.0, 41.0], [-103.14, 41.0], [-103.37, 41.0], [-103.49, 41.0], [-103.53, 41.0], [-103.56, 41.0], [-103.57, 41.0], [-103.59, 41.0], [-103.61, 41.0], [-103.62, 41.0], [-103.62, 41.0], [-103.62, 41.0], [-103.63, 41.0], [-103.65, 41.0], [-103.73, 41.0], [-103.75, 41.0], [-103.76, 41.0], [-103.78, 41.0], [-103.86, 41.0], [-103.89, 41.0], [-103.9, 41.0], [-103.91, 41.0], [-103.95, 41.0], [-103.97, 41.0], [-104.02, 41.0], [-104.05, 41.0], [-104.05, 41.05], [-104.05, 41.08], [-104.05, 41.09], [-104.05, 41.09], [-104.05, 41.09], [-104.05, 41.11], [-104.05, 41.11], [-104.05, 41.12], [-104.05, 41.16], [-104.05, 41.25], [-104.05, 41.26], [-104.05, 41.27], [-104.05, 41.28], [-104.05, 41.29], [-104.05, 41.32], [-104.05, 41.4], [-104.05, 41.47], [-104.05, 41.48], [-104.05, 41.48], [-104.05, 41.49], [-104.05, 41.49], [-104.05, 41.51], [-104.05, 41.52], [-104.05, 41.55], [-104.05, 41.58], [-104.05, 41.59], [-104.05, 41.64], [-104.05, 41.75], [-104.05, 41.78], [-104.05, 41.78], [-104.05, 41.81], [-104.05, 41.81], [-104.05, 41.83], [-104.05, 41.83], [-104.05, 41.84], [-104.05, 41.84], [-104.05, 41.86], [-104.05, 41.86], [-104.05, 41.87], [-104.05, 41.91], [-104.05, 41.96], [-104.05, 41.98], [-104.05, 41.99], [-104.05, 41.99], [-104.05, 42.02], [-104.05, 42.02], [-104.05, 42.03], [-104.05, 42.12], [-104.05, 42.13], [-104.05, 42.13], [-104.05, 42.14], [-104.05, 42.15], [-104.05, 42.15], [-104.05, 42.23], [-104.05, 42.25], [-104.05, 42.25], [-104.05, 42.3], [-104.05, 42.33], [-104.05, 42.35], [-104.05, 42.36], [-104.05, 42.37], [-104.05, 42.47], [-104.05, 42.5], [-104.05, 42.61], [-104.05, 42.61], [-104.05, 42.61], [-104.05, 42.61], [-104.05, 42.62], [-104.05, 42.64], [-104.05, 42.65], [-104.05, 42.65], [-104.05, 42.66], [-104.05, 42.66], [-104.05, 42.68], [-104.05, 42.69], [-104.05, 42.7], [-104.05, 42.7], [-104.05, 42.7], [-104.05, 42.71], [-104.05, 42.72], [-104.05, 42.73], [-104.05, 42.74], [-104.05, 42.74], [-104.05, 42.75], [-104.05, 42.82], [-104.05, 42.83], [-104.05, 42.84], [-104.05, 42.85], [-104.05, 42.86], [-104.05, 42.87], [-104.05, 42.87], [-104.05, 42.88], [-104.05, 42.89], [-104.05, 42.89], [-104.05, 42.89], [-104.05, 42.9], [-104.05, 42.93], [-104.05, 42.93], [-104.05, 42.94], [-104.05, 42.95], [-104.05, 42.97], [-104.05, 42.97], [-104.05, 43.0], [-104.05, 43.0], [-103.99, 43.0], [-103.92, 43.0], [-103.81, 43.0], [-103.76, 43.0], [-103.72, 43.0], [-103.69, 43.0], [-103.69, 43.0], [-103.68, 43.0], [-103.68, 43.0], [-103.67, 43.0], [-103.66, 43.0], [-103.66, 43.0], [-103.66, 43.0], [-103.65, 43.0], [-103.65, 43.0], [-103.65, 43.0], [-103.65, 43.0], [-103.6, 43.0], [-103.55, 43.0], [-103.48, 43.0], [-103.27, 43.0], [-103.17, 43.0], [-103.08, 43.0], [-103.02, 43.0], [-102.98, 43.0], [-102.93, 43.0], [-102.91, 43.0], [-102.9, 43.0], [-102.88, 43.0], [-102.88, 43.0], [-102.88, 43.0], [-102.87, 43.0], [-102.79, 43.0], [-102.77, 43.0], [-102.73, 43.0], [-102.49, 43.0], [-102.25, 43.0], [-102.13, 43.0], [-102.1, 43.0], [-102.08, 43.0], [-102.08, 43.0], [-102.08, 43.0], [-102.08, 42.98], [-102.08, 42.96], [-102.08, 42.93], [-102.08, 42.87], [-102.08, 42.79], [-102.07, 42.79], [-102.07, 42.71], [-102.07, 42.61], [-102.07, 42.44], [-102.04, 42.44], [-102.04, 42.22], [-102.04, 42.1], [-102.01, 42.1], [-102.01, 42.06], [-102.01, 42.04], [-102.01, 42.01], [-102.03, 42.01], [-102.04, 42.01], [-102.06, 42.01], [-102.06, 42.01], [-102.06, 42.01], [-102.07, 42.01], [-102.07, 42.01], [-102.07, 42.0], [-102.07, 41.87], [-102.07, 41.82], [-102.07, 41.8], [-102.07, 41.79], [-102.07, 41.77], [-102.07, 41.76], [-102.07, 41.75], [-102.07, 41.75], [-102.07, 41.74], [-102.06, 41.74], [-102.04, 41.74], [-102.02, 41.74], [-102.02, 41.74], [-102.01, 41.74], [-102.0, 41.74], [-101.99, 41.74], [-101.99, 41.74], [-101.98, 41.62], [-101.99, 41.56], [-101.98, 41.5], [-101.98, 41.39]]]}}, {"type": "Feature", "properties": {"STATE": "Nebraska", "STATE_FIPS": "31", "CD_2DIG": "02", "STATE_CODE": 25, "CLIMDIV": 2502, "ID": 2502, "CD_NEW": 2, "FIPS_CD": "3102", "NCDC_GEO_I": 180.0, "NAME": "NORTH CENTRAL", "ST_ABBRV": "NE", "SHAPE_AREA": 0.0, "SHAPE_LEN": 0.0}, "geometry": {"type": "Polygon", "coordinates": [[[-100.87, 43.0], [-100.63, 43.0], [-100.63, 43.0], [-100.53, 43.0], [-100.5, 43.0], [-100.48, 43.0], [-100.47, 43.0], [-100.45, 43.0], [-100.44, 43.0], [-100.43, 43.0], [-100.42, 43.0], [-100.38, 43.0], [-100.35, 43.0], [-100.25, 43.0], [-100.23, 43.0], [-100.22, 43.0], [-100.22, 43.0], [-100.22, 43.0], [-100.2, 43.0], [-100.15, 43.0], [-100.15, 43.0], [-100.14, 43.0], [-100.13, 43.0], [-100.13, 43.0], [-100.13, 43.0], [-100.12, 43.0], [-100.09, 43.0], [-100.07, 43.0], [-100.05, 43.0], [-99.92, 43.0], [-99.79, 43.0], [-99.79, 43.0], [-99.79, 43.0], [-99.78, 43.0], [-99.77, 43.0], [-99.77, 43.0], [-99.77, 43.0], [-99.75, 43.0], [-99.72, 43.0], [-99.71, 43.0], [-99.71, 43.0], [-99.7, 43.0], [-99.7, 43.0], [-99.69, 43.0], [-99.68, 43.0], [-99.67, 43.0], [-99.65, 43.0], [-99.65, 43.0], [-99.64, 43.0], [-99.64, 43.0], [-99.64, 43.0], [-99.63, 43.0], [-99.62, 43.0], [-99.61, 43.0], [-99.58, 43.0], [-99.54, 43.0], [-99.5, 43.0], [-99.2, 43.0], [-99.17, 43.0], [-99.16, 43.0], [-99.16, 43.0], [-99.16, 43.0], [-99.16, 43.0], [-99.15, 43.0], [-99.15, 43.0], [-99.12, 43.0], [-99.1, 43.0], [-99.1, 43.0], [-99.08, 43.0], [-99.08, 43.0], [-99.08, 43.0], [-99.08, 43.0], [-99.06, 43.0], [-99.06, 43.0], [-99.06, 43.0], [-99.06, 43.0], [-99.06, 43.0], [-99.05, 43.0], [-99.04, 43.0], [-99.02, 43.0], [-99.02, 43.0], [-98.96, 43.0], [-98.96, 43.0], [-98.94, 43.0], [-98.94, 43.0], [-98.94, 43.0], [-98.92, 43.0], [-98.92, 43.0], [-98.9, 43.0], [-98.9, 43.0], [-98.89, 43.0], [-98.86, 43.0], [-98.86, 43.0], [-98.84, 43.0], [-98.82, 43.0], [-98.8, 43.0], [-98.8, 43.0], [-98.79, 43.0], [-98.78, 43.0], [-98.76, 43.0], [-98.76, 43.0], [-98.75, 43.0], [-98.75, 43.0], [-98.74, 43.0], [-98.74, 43.0], [-98.74, 43.0], [-98.73, 43.0], [-98.71, 43.0], [-98.7, 43.0], [-98.69, 43.0], [-98.63, 43.0], [-98.61, 43.0], [-98.6, 43.0], [-98.6, 43.0], [-98.59, 43.0], [-98.59, 43.0], [-98.57, 43.0], [-98.56, 43.0], [-98.56, 43.0], [-98.55, 43.0], [-98.53, 43.0], [-98.52, 43.0], [-98.51, 43.0], [-98.5, 43.0], [-98.5, 43.0], [-98.5, 43.0], [-98.5, 42.99], [-98.5, 42.99], [-98.49, 42.98], [-98.47, 42.95], [-98.46, 42.94], [-98.45, 42.94], [-98.45, 42.93], [-98.44, 42.93], [-98.44, 42.93], [-98.44, 42.93], [-98.43, 42.93], [-98.43, 42.93], [-98.43, 42.93], [-98.42, 42.93], [-98.42, 42.93], [-98.42, 42.93], [-98.41, 42.93], [-98.34, 42.9], [-98.33, 42.89], [-98.31, 42.88], [-98.31, 42.87], [-98.31, 42.78], [-98.31, 42.78], [-98.31, 42.69], [-98.31, 42.44], [-98.3, 42.44], [-98.3, 42.31], [-98.3, 42.16], [-98.3, 42.11], [-98.3, 42.1], [-98.3, 42.09], [-98.3, 42.09], [-98.3, 42.09], [-98.3, 42.09], [-98.3, 42.08], [-98.3, 42.08], [-98.3, 42.08], [-98.3, 42.07], [-98.3, 42.06], [-98.3, 41.99], [-98.3, 41.88], [-98.3, 41.74], [-98.44, 41.74], [-98.51, 41.74], [-98.55, 41.74], [-98.56, 41.74], [-98.57, 41.74], [-98.58, 41.74], [-98.59, 41.74], [-98.73, 41.74], [-98.89, 41.74], [-99.2, 41.74], [-99.23, 41.74], [-99.25, 41.74], [-99.25, 41.74], [-99.25, 41.74], [-99.25, 41.74], [-99.26, 41.74], [-99.28, 41.74], [-99.54, 41.74], [-99.55, 41.74], [-99.6, 41.74], [-99.61, 41.74], [-99.61, 41.74], [-99.62, 41.74], [-99.63, 41.74], [-99.64, 41.74], [-99.66, 41.74], [-99.67, 41.74], [-99.69, 41.74], [-99.69, 41.74], [-99.73, 41.74], [-99.73, 41.74], [-99.73, 41.74], [-99.73, 41.74], [-99.73, 41.74], [-99.74, 41.74], [-99.74, 41.74], [-99.75, 41.74], [-99.84, 41.74], [-99.92, 41.74], [-99.96, 41.74], [-99.99, 41.74], [-100.0, 41.74], [-100.0, 41.74], [-100.0, 41.74], [-100.11, 41.74], [-100.19, 41.74], [-100.23, 41.74], [-100.25, 41.74], [-100.25, 41.74], [-100.25, 41.62], [-100.25, 41.46], [-100.25, 41.45], [-100.25, 41.39], [-100.29, 41.39], [-100.31, 41.39], [-100.34, 41.39], [-100.52, 41.39], [-100.75, 41.39], [-100.9, 41.39], [-101.02, 41.39], [-101.08, 41.4], [-101.09, 41.4], [-101.1, 41.4], [-101.11, 41.4], [-101.13, 41.4], [-101.25, 41.39], [-101.25, 41.39], [-101.28, 41.39], [-101.31, 41.4], [-101.34, 41.4], [-101.36, 41.4], [-101.37, 41.4], [-101.38, 41.4], [-101.39, 41.4], [-101.39, 41.4], [-101.42, 41.4], [-101.44, 41.4], [-101.46, 41.4], [-101.59, 41.4], [-101.61, 41.4], [-101.62, 41.4], [-101.63, 41.4], [-101.73, 41.4], [-101.87, 41.39], [-101.92, 41.39], [-101.96, 41.39], [-101.97, 41.39], [-101.98, 41.39], [-101.98, 41.39], [-101.98, 41.4], [-101.98, 41.42], [-101.98, 41.46], [-101.98, 41.5], [-101.99, 41.56], [-101.98, 41.62], [-101.99, 41.74], [-101.99, 41.74], [-102.0, 41.74], [-102.01, 41.74], [-102.02, 41.74], [-102.04, 41.74], [-102.05, 41.74], [-102.06, 41.74], [-102.07, 41.74], [-102.07, 41.77], [-102.07, 41.79], [-102.07, 41.8], [-102.07, 41.82], [-102.07, 41.87], [-102.07, 42.0], [-102.07, 42.01], [-102.06, 42.01], [-102.06, 42.01], [-102.06, 42.01], [-102.04, 42.01], [-102.03, 42.01], [-102.01, 42.01], [-102.01, 42.04], [-102.01, 42.06], [-102.01, 42.1], [-102.04, 42.1], [-102.04, 42.22], [-102.04, 42.44], [-102.07, 42.44], [-102.07, 42.61], [-102.07, 42.71], [-102.07, 42.79], [-102.08, 42.79], [-102.08, 42.87], [-102.08, 42.93], [-102.08, 42.96], [-102.08, 42.98], [-102.08, 43.0], [-102.08, 43.0], [-102.08, 43.0], [-102.08, 43.0], [-102.04, 43.0], [-101.94, 43.0], [-101.85, 43.0], [-101.83, 43.0], [-101.81, 43.0], [-101.76, 43.0], [-101.75, 43.0], [-101.71, 43.0], [-101.67, 43.0], [-101.63, 43.0], [-101.62, 43.0], [-101.59, 43.0], [-101.57, 43.0], [-101.5, 43.0], [-101.49, 43.0], [-101.48, 43.0], [-101.46, 43.0], [-101.44, 43.0], [-101.38, 43.0], [-101.37, 43.0], [-101.32, 43.0], [-101.28, 43.0], [-101.23, 43.0], [-101.23, 43.0], [-101.19, 43.0], [-101.18, 43.0], [-101.17, 43.0], [-101.1, 43.0], [-100.98, 43.0], [-100.87, 43.0]]]}}, {"type": "Feature", "properties": {"STATE": "Nebraska", "STATE_FIPS": "31", "CD_2DIG": "03", "STATE_CODE": 25, "CLIMDIV": 2503, "ID": 2503, "CD_NEW": 3, "FIPS_CD": "3103", "NCDC_GEO_I": 181.0, "NAME": "NORTHEAST", "ST_ABBRV": "NE", "SHAPE_AREA": 0.0, "SHAPE_LEN": 0.0}, "geometry": {"type": "Polygon", "coordinates": [[[-96.44, 42.49], [-96.41, 42.49], [-96.4, 42.48], [-96.39, 42.47], [-96.38, 42.46], [-96.38, 42.45], [-96.39, 42.43], [-96.41, 42.41], [-96.42, 42.4], [-96.41, 42.38], [-96.42, 42.36], [-96.42, 42.35], [-96.41, 42.34], [-96.38, 42.33], [-96.37, 42.31], [-96.37, 42.29], [-96.36, 42.28], [-96.34, 42.27], [-96.33, 42.26], [-96.33, 42.25], [-96.33, 42.24], [-96.32, 42.23], [-96.33, 42.22], [-96.36, 42.22], [-96.36, 42.21], [-96.35, 42.19], [-96.35, 42.18], [-96.35, 42.17], [-96.34, 42.16], [-96.32, 42.15], [-96.31, 42.14], [-96.3, 42.13], [-96.28, 42.13], [-96.27, 42.12], [-96.27, 42.11], [-96.27, 42.1], [-96.28, 42.07], [-96.28, 42.06], [-96.27, 42.04], [-96.26, 42.04], [-96.24, 42.04], [-96.23, 42.04], [-96.22, 42.03], [-96.23, 42.02], [-96.24, 42.01], [-96.24, 42.0], [-96.23, 41.99], [-96.22, 42.01], [-96.21, 42.01], [-96.19, 42.01], [-96.18, 42.0], [-96.19, 41.99], [-96.18, 41.98], [-96.16, 41.98], [-96.13, 41.97], [-96.13, 41.97], [-96.14, 41.95], [-96.14, 41.95], [-96.14, 41.94], [-96.14, 41.93], [-96.14, 41.92], [-96.16, 41.91], [-96.16, 41.9], [-96.15, 41.89], [-96.14, 41.87], [-96.14, 41.86], [-96.12, 41.85], [-96.11, 41.84], [-96.11, 41.83], [-96.11, 41.82], [-96.09, 41.81], [-96.08, 41.81], [-96.07, 41.8], [-96.07, 41.79], [-96.08, 41.78], [-96.08, 41.76], [-96.08, 41.75], [-96.1, 41.75], [-96.11, 41.74], [-96.1, 41.73], [-96.08, 41.72], [-96.07, 41.71], [-96.08, 41.7], [-96.09, 41.7], [-96.11, 41.7], [-96.12, 41.69], [-96.12, 41.68], [-96.24, 41.68], [-96.37, 41.68], [-96.44, 41.68], [-96.44, 41.74], [-96.72, 41.74], [-96.91, 41.74], [-97.11, 41.74], [-97.25, 41.74], [-97.44, 41.74], [-97.62, 41.74], [-97.83, 41.74], [-97.83, 41.66], [-97.83, 41.59], [-97.83, 41.53], [-97.89, 41.53], [-97.89, 41.51], [-98.04, 41.51], [-98.04, 41.5], [-98.1, 41.5], [-98.1, 41.48], [-98.18, 41.48], [-98.29, 41.48], [-98.29, 41.57], [-98.29, 41.74], [-98.3, 41.74], [-98.3, 41.88], [-98.3, 41.99], [-98.3, 42.06], [-98.3, 42.07], [-98.3, 42.09], [-98.3, 42.09], [-98.3, 42.09], [-98.3, 42.09], [-98.3, 42.09], [-98.3, 42.1], [-98.3, 42.11], [-98.3, 42.16], [-98.3, 42.31], [-98.3, 42.44], [-98.31, 42.44], [-98.31, 42.69], [-98.31, 42.78], [-98.31, 42.78], [-98.31, 42.87], [-98.31, 42.88], [-98.28, 42.87], [-98.26, 42.87], [-98.23, 42.86], [-98.22, 42.85], [-98.19, 42.84], [-98.17, 42.84], [-98.15, 42.84], [-98.14, 42.83], [-98.13, 42.82], [-98.11, 42.81], [-98.1, 42.8], [-98.08, 42.79], [-98.06, 42.78], [-98.06, 42.77], [-98.04, 42.76], [-98.01, 42.76], [-97.99, 42.77], [-97.98, 42.77], [-97.96, 42.77], [-97.95, 42.77], [-97.94, 42.78], [-97.91, 42.8], [-97.89, 42.82], [-97.88, 42.85], [-97.88, 42.86], [-97.85, 42.87], [-97.83, 42.87], [-97.82, 42.86], [-97.77, 42.85], [-97.72, 42.85], [-97.69, 42.84], [-97.67, 42.84], [-97.65, 42.85], [-97.62, 42.86], [-97.6, 42.86], [-97.59, 42.85], [-97.56, 42.85], [-97.54, 42.85], [-97.52, 42.85], [-97.5, 42.86], [-97.48, 42.85], [-97.46, 42.85], [-97.45, 42.85], [-97.44, 42.85], [-97.42, 42.87], [-97.38, 42.87], [-97.36, 42.86], [-97.34, 42.86], [-97.31, 42.87], [-97.29, 42.86], [-97.27, 42.85], [-97.25, 42.86], [-97.22, 42.85], [-97.22, 42.83], [-97.21, 42.81], [-97.2, 42.81], [-97.16, 42.8], [-97.15, 42.8], [-97.14, 42.78], [-97.13, 42.77], [-97.1, 42.77], [-97.07, 42.77], [-97.05, 42.77], [-97.03, 42.76], [-96.99, 42.76], [-96.98, 42.76], [-96.97, 42.75], [-96.96, 42.74], [-96.97, 42.73], [-96.96, 42.72], [-96.95, 42.72], [-96.92, 42.73], [-96.91, 42.73], [-96.89, 42.72], [-96.86, 42.72], [-96.84, 42.71], [-96.81, 42.7], [-96.8, 42.7], [-96.8, 42.67], [-96.79, 42.67], [-96.76, 42.66], [-96.75, 42.67], [-96.73, 42.67], [-96.7, 42.66], [-96.69, 42.65], [-96.69, 42.64], [-96.71, 42.63], [-96.71, 42.61], [-96.71, 42.6], [-96.68, 42.58], [-96.66, 42.57], [-96.64, 42.56], [-96.64, 42.55], [-96.63, 42.52], [-96.63, 42.51], [-96.61, 42.51], [-96.59, 42.51], [-96.57, 42.52], [-96.55, 42.52], [-96.53, 42.52], [-96.53, 42.51], [-96.52, 42.49], [-96.5, 42.48], [-96.48, 42.48], [-96.44, 42.49]]]}}, {"type": "Feature", "properties": {"STATE": "Nebraska", "STATE_FIPS": "31", "CD_2DIG": "07", "STATE_CODE": 25, "CLIMDIV": 2507, "ID": 2507, "CD_NEW": 7, "FIPS_CD": "3107", "NCDC_GEO_I": 182.0, "NAME": "SOUTHWEST", "ST_ABBRV": "NE", "SHAPE_AREA": 0.0, "SHAPE_LEN": 0.0}, "geometry": {"type": "Polygon", "coordinates": [[[-100.25, 41.39], [-100.24, 41.39], [-100.24, 41.32], [-100.23, 41.31], [-100.23, 41.26], [-100.24, 41.18], [-100.24, 41.16], [-100.24, 41.05], [-100.22, 41.05], [-100.22, 40.88], [-100.22, 40.7], [-99.98, 40.7], [-99.98, 40.51], [-99.98, 40.44], [-100.1, 40.44], [-100.09, 40.35], [-100.2, 40.35], [-100.2, 40.28], [-100.19, 40.17], [-100.19, 40.04], [-100.19, 40.0], [-100.44, 40.0], [-100.51, 40.0], [-100.77, 40.0], [-100.93, 40.0], [-101.18, 40.0], [-101.46, 40.0], [-101.61, 40.0], [-101.84, 40.0], [-101.99, 40.0], [-102.05, 40.0], [-102.05, 40.09], [-102.05, 40.11], [-102.05, 40.13], [-102.05, 40.15], [-102.05, 40.17], [-102.05, 40.18], [-102.05, 40.19], [-102.05, 40.19], [-102.05, 40.2], [-102.05, 40.21], [-102.05, 40.21], [-102.05, 40.21], [-102.05, 40.22], [-102.05, 40.22], [-102.05, 40.23], [-102.05, 40.24], [-102.05, 40.34], [-102.05, 40.36], [-102.05, 40.39], [-102.05, 40.4], [-102.05, 40.41], [-102.05, 40.42], [-102.05, 40.43], [-102.05, 40.44], [-102.05, 40.47], [-102.05, 40.49], [-102.05, 40.49], [-102.05, 40.5], [-102.05, 40.57], [-102.05, 40.62], [-102.05, 40.63], [-102.05, 40.64], [-102.05, 40.64], [-102.05, 40.67], [-102.05, 40.75], [-102.05, 40.76], [-102.05, 40.78], [-102.05, 40.79], [-102.05, 40.8], [-102.05, 40.81], [-102.05, 40.82], [-102.05, 40.83], [-102.05, 40.84], [-102.05, 40.84], [-102.05, 40.85], [-102.05, 40.88], [-102.05, 40.93], [-102.05, 40.97], [-102.05, 40.98], [-102.05, 41.0], [-102.05, 41.0], [-102.05, 41.0], [-102.05, 41.01], [-102.05, 41.01], [-102.05, 41.03], [-102.05, 41.05], [-102.06, 41.05], [-102.06, 41.09], [-102.06, 41.31], [-102.05, 41.37], [-102.06, 41.4], [-102.0, 41.39], [-102.0, 41.39], [-102.0, 41.39], [-101.98, 41.39], [-101.98, 41.39], [-101.87, 41.39], [-101.73, 41.4], [-101.68, 41.4], [-101.64, 41.4], [-101.63, 41.4], [-101.62, 41.4], [-101.61, 41.4], [-101.59, 41.4], [-101.5, 41.4], [-101.48, 41.4], [-101.47, 41.4], [-101.46, 41.4], [-101.42, 41.4], [-101.39, 41.4], [-101.39, 41.4], [-101.38, 41.4], [-101.37, 41.4], [-101.36, 41.4], [-101.34, 41.4], [-101.31, 41.4], [-101.28, 41.39], [-101.27, 41.39], [-101.25, 41.39], [-101.25, 41.39], [-101.13, 41.4], [-101.11, 41.4], [-101.09, 41.4], [-101.08, 41.4], [-101.02, 41.39], [-100.9, 41.39], [-100.75, 41.39], [-100.52, 41.39], [-100.34, 41.39], [-100.33, 41.39], [-100.32, 41.39], [-100.31, 41.39], [-100.31, 41.39], [-100.25, 41.39]]]}}, {"type": "Feature", "properties": {"STATE": "Nebraska", "STATE_FIPS": "31", "CD_2DIG": "05", "STATE_CODE": 25, "CLIMDIV": 2505, "ID": 2505, "CD_NEW": 5, "FIPS_CD": "3105", "NCDC_GEO_I": 183.0, "NAME": "CENTRAL", "ST_ABBRV": "NE", "SHAPE_AREA": 0.0, "SHAPE_LEN": 0.0}, "geometry": {"type": "Polygon", "coordinates": [[[-98.3, 41.74], [-98.29, 41.74], [-98.29, 41.57], [-98.29, 41.48], [-98.29, 41.39], [-98.29, 41.39], [-98.29, 41.32], [-98.29, 41.14], [-98.29, 41.05], [-98.28, 41.05], [-98.28, 40.88], [-98.28, 40.7], [-98.37, 40.7], [-98.61, 40.7], [-98.72, 40.7], [-98.72, 40.69], [-98.73, 40.69], [-98.75, 40.69], [-98.76, 40.68], [-98.79, 40.68], [-98.8, 40.68], [-98.83, 40.67], [-98.87, 40.66], [-98.88, 40.66], [-98.89, 40.65], [-98.91, 40.65], [-98.94, 40.65], [-98.98, 40.66], [-99.0, 40.65], [-99.0, 40.65], [-99.03, 40.65], [-99.08, 40.66], [-99.11, 40.65], [-99.15, 40.66], [-99.16, 40.66], [-99.17, 40.66], [-99.18, 40.66], [-99.24, 40.66], [-99.26, 40.66], [-99.28, 40.66], [-99.3, 40.66], [-99.33, 40.67], [-99.35, 40.67], [-99.38, 40.66], [-99.4, 40.67], [-99.41, 40.67], [-99.42, 40.67], [-99.44, 40.68], [-99.47, 40.67], [-99.5, 40.67], [-99.51, 40.68], [-99.53, 40.68], [-99.54, 40.68], [-99.56, 40.68], [-99.58, 40.68], [-99.6, 40.68], [-99.62, 40.69], [-99.64, 40.68], [-99.66, 40.69], [-99.67, 40.69], [-99.7, 40.7], [-99.98, 40.7], [-100.22, 40.7], [-100.22, 40.88], [-100.22, 41.05], [-100.24, 41.05], [-100.24, 41.16], [-100.24, 41.18], [-100.23, 41.26], [-100.23, 41.31], [-100.24, 41.32], [-100.24, 41.39], [-100.25, 41.39], [-100.25, 41.45], [-100.25, 41.46], [-100.25, 41.62], [-100.25, 41.74], [-100.25, 41.74], [-100.25, 41.74], [-100.23, 41.74], [-100.19, 41.74], [-100.11, 41.74], [-100.09, 41.74], [-100.0, 41.74], [-100.0, 41.74], [-100.0, 41.74], [-99.99, 41.74], [-99.96, 41.74], [-99.92, 41.74], [-99.84, 41.74], [-99.81, 41.74], [-99.81, 41.74], [-99.77, 41.74], [-99.77, 41.74], [-99.75, 41.74], [-99.75, 41.74], [-99.74, 41.74], [-99.74, 41.74], [-99.73, 41.74], [-99.73, 41.74], [-99.73, 41.74], [-99.73, 41.74], [-99.73, 41.74], [-99.7, 41.74], [-99.7, 41.74], [-99.69, 41.74], [-99.69, 41.74], [-99.66, 41.74], [-99.65, 41.74], [-99.64, 41.74], [-99.63, 41.74], [-99.6, 41.74], [-99.54, 41.74], [-99.28, 41.74], [-99.26, 41.74], [-99.25, 41.74], [-99.25, 41.74], [-99.25, 41.74], [-99.2, 41.74], [-98.89, 41.74], [-98.73, 41.74], [-98.63, 41.74], [-98.6, 41.74], [-98.59, 41.74], [-98.59, 41.74], [-98.59, 41.74], [-98.44, 41.74], [-98.3, 41.74]]]}}, {"type": "Feature", "properties": {"STATE": "Nebraska", "STATE_FIPS": "31", "CD_2DIG": "06", "STATE_CODE": 25, "CLIMDIV": 2506, "ID": 2506, "CD_NEW": 6, "FIPS_CD": "3106", "NCDC_GEO_I": 184.0, "NAME": "EAST CENTRAL", "ST_ABBRV": "NE", "SHAPE_AREA": 0.0, "SHAPE_LEN": 0.0}, "geometry": {"type": "Polygon", "coordinates": [[[-96.12, 41.68], [-96.11, 41.67], [-96.1, 41.66], [-96.1, 41.65], [-96.1, 41.64], [-96.12, 41.62], [-96.12, 41.61], [-96.11, 41.6], [-96.08, 41.58], [-96.08, 41.57], [-96.09, 41.56], [-96.1, 41.55], [-96.09, 41.53], [-96.07, 41.53], [-96.06, 41.51], [-96.04, 41.51], [-96.03, 41.51], [-96.03, 41.54], [-96.02, 41.55], [-96.0, 41.54], [-95.99, 41.52], [-96.0, 41.51], [-96.02, 41.49], [-96.02, 41.49], [-96.0, 41.47], [-95.98, 41.47], [-95.96, 41.46], [-95.94, 41.47], [-95.93, 41.46], [-95.92, 41.44], [-95.93, 41.43], [-95.93, 41.41], [-95.94, 41.4], [-95.94, 41.38], [-95.93, 41.37], [-95.93, 41.36], [-95.96, 41.35], [-95.95, 41.34], [-95.94, 41.33], [-95.93, 41.32], [-95.91, 41.32], [-95.89, 41.32], [-95.88, 41.31], [-95.87, 41.3], [-95.88, 41.28], [-95.9, 41.27], [-95.91, 41.28], [-95.9, 41.29], [-95.91, 41.3], [-95.93, 41.3], [-95.93, 41.28], [-95.91, 41.27], [-95.92, 41.27], [-95.92, 41.26], [-95.91, 41.24], [-95.92, 41.22], [-95.93, 41.21], [-95.93, 41.2], [-95.92, 41.19], [-95.91, 41.18], [-95.86, 41.19], [-95.85, 41.18], [-95.84, 41.17], [-95.85, 41.17], [-95.87, 41.17], [-95.88, 41.15], [-95.88, 41.14], [-95.87, 41.12], [-95.87, 41.1], [-95.86, 41.09], [-95.87, 41.08], [-95.88, 41.07], [-95.88, 41.06], [-95.86, 41.04], [-95.86, 41.03], [-95.87, 41.01], [-95.86, 41.0], [-95.84, 40.99], [-95.83, 40.98], [-95.83, 40.96], [-95.84, 40.95], [-95.84, 40.94], [-95.84, 40.92], [-95.81, 40.9], [-95.81, 40.9], [-95.81, 40.88], [-95.82, 40.88], [-95.84, 40.87], [-95.85, 40.86], [-95.85, 40.85], [-95.84, 40.84], [-95.84, 40.82], [-95.84, 40.8], [-95.83, 40.78], [-96.09, 40.78], [-96.32, 40.78], [-96.46, 40.78], [-96.46, 40.67], [-96.46, 40.52], [-96.57, 40.52], [-96.7, 40.52], [-96.82, 40.52], [-96.91, 40.52], [-96.91, 40.57], [-96.91, 40.61], [-96.91, 40.7], [-97.11, 40.7], [-97.25, 40.7], [-97.53, 40.7], [-97.69, 40.7], [-97.96, 40.7], [-98.15, 40.7], [-98.28, 40.7], [-98.28, 40.7], [-98.28, 40.88], [-98.28, 41.05], [-98.29, 41.05], [-98.29, 41.14], [-98.29, 41.32], [-98.29, 41.39], [-98.29, 41.39], [-98.29, 41.48], [-98.18, 41.48], [-98.1, 41.48], [-98.1, 41.5], [-98.04, 41.5], [-98.04, 41.51], [-97.89, 41.51], [-97.89, 41.53], [-97.83, 41.53], [-97.83, 41.59], [-97.83, 41.66], [-97.83, 41.74], [-97.62, 41.74], [-97.44, 41.74], [-97.25, 41.74], [-97.11, 41.74], [-96.91, 41.74], [-96.72, 41.74], [-96.44, 41.74], [-96.44, 41.68], [-96.37, 41.68], [-96.24, 41.68], [-96.12, 41.68]]]}}, {"type": "Feature", "properties": {"STATE": "Nebraska", "STATE_FIPS": "31", "CD_2DIG": "08", "STATE_CODE": 25, "CLIMDIV": 2508, "ID": 2508, "CD_NEW": 8, "FIPS_CD": "3108", "NCDC_GEO_I": 185.0, "NAME": "SOUTH CENTRAL", "ST_ABBRV": "NE", "SHAPE_AREA": 0.0, "SHAPE_LEN": 0.0}, "geometry": {"type": "Polygon", "coordinates": [[[-98.28, 40.7], [-98.28, 40.7], [-98.28, 40.61], [-98.28, 40.47], [-98.28, 40.35], [-98.27, 40.35], [-98.27, 40.21], [-98.27, 40.0], [-98.53, 40.0], [-98.72, 40.0], [-98.97, 40.0], [-99.14, 40.0], [-99.29, 40.0], [-99.44, 40.0], [-99.63, 40.0], [-99.8, 40.0], [-100.08, 40.0], [-100.19, 40.0], [-100.19, 40.04], [-100.19, 40.17], [-100.2, 40.28], [-100.2, 40.35], [-100.09, 40.35], [-100.1, 40.44], [-99.98, 40.44], [-99.98, 40.51], [-99.98, 40.7], [-99.7, 40.7], [-99.67, 40.69], [-99.66, 40.69], [-99.64, 40.68], [-99.62, 40.69], [-99.6, 40.68], [-99.58, 40.68], [-99.56, 40.68], [-99.54, 40.68], [-99.53, 40.68], [-99.51, 40.68], [-99.5, 40.67], [-99.47, 40.67], [-99.44, 40.68], [-99.42, 40.67], [-99.41, 40.67], [-99.4, 40.67], [-99.38, 40.66], [-99.35, 40.67], [-99.33, 40.67], [-99.3, 40.66], [-99.28, 40.66], [-99.26, 40.66], [-99.24, 40.66], [-99.18, 40.66], [-99.17, 40.66], [-99.16, 40.66], [-99.15, 40.66], [-99.11, 40.65], [-99.08, 40.66], [-99.03, 40.65], [-99.0, 40.65], [-99.0, 40.65], [-98.98, 40.66], [-98.94, 40.65], [-98.91, 40.65], [-98.89, 40.65], [-98.88, 40.66], [-98.87, 40.66], [-98.83, 40.67], [-98.8, 40.68], [-98.79, 40.68], [-98.76, 40.68], [-98.75, 40.69], [-98.73, 40.69], [-98.72, 40.69], [-98.72, 40.7], [-98.61, 40.7], [-98.37, 40.7], [-98.28, 40.7]]]}}, {"type": "Feature", "properties": {"STATE": "Nebraska", "STATE_FIPS": "31", "CD_2DIG": "09", "STATE_CODE": 25, "CLIMDIV": 2509, "ID": 2509, "CD_NEW": 9, "FIPS_CD": "3109", "NCDC_GEO_I": 186.0, "NAME": "SOUTHEAST", "ST_ABBRV": "NE", "SHAPE_AREA": 0.0, "SHAPE_LEN": 0.0}, "geometry": {"type": "Polygon", "coordinates": [[[-95.83, 40.78], [-95.84, 40.78], [-95.85, 40.77], [-95.87, 40.76], [-95.88, 40.75], [-95.89, 40.73], [-95.88, 40.72], [-95.86, 40.71], [-95.85, 40.7], [-95.84, 40.68], [-95.82, 40.67], [-95.81, 40.67], [-95.79, 40.66], [-95.78, 40.65], [-95.77, 40.64], [-95.77, 40.62], [-95.75, 40.61], [-95.75, 40.6], [-95.75, 40.59], [-95.77, 40.59], [-95.77, 40.58], [-95.77, 40.57], [-95.76, 40.55], [-95.77, 40.54], [-95.76, 40.53], [-95.74, 40.52], [-95.72, 40.53], [-95.71, 40.52], [-95.7, 40.53], [-95.69, 40.56], [-95.67, 40.56], [-95.65, 40.54], [-95.66, 40.52], [-95.66, 40.52], [-95.7, 40.51], [-95.69, 40.5], [-95.68, 40.49], [-95.7, 40.48], [-95.69, 40.47], [-95.67, 40.46], [-95.66, 40.46], [-95.64, 40.46], [-95.65, 40.44], [-95.64, 40.43], [-95.66, 40.42], [-95.66, 40.41], [-95.64, 40.39], [-95.64, 40.37], [-95.63, 40.36], [-95.62, 40.34], [-95.63, 40.33], [-95.65, 40.32], [-95.66, 40.31], [-95.65, 40.31], [-95.62, 40.31], [-95.6, 40.31], [-95.58, 40.3], [-95.57, 40.3], [-95.55, 40.29], [-95.55, 40.28], [-95.56, 40.27], [-95.55, 40.26], [-95.52, 40.25], [-95.49, 40.25], [-95.47, 40.24], [-95.47, 40.22], [-95.48, 40.2], [-95.48, 40.19], [-95.48, 40.18], [-95.46, 40.17], [-95.44, 40.16], [-95.43, 40.15], [-95.43, 40.14], [-95.42, 40.13], [-95.41, 40.13], [-95.4, 40.12], [-95.39, 40.11], [-95.4, 40.1], [-95.4, 40.1], [-95.4, 40.09], [-95.39, 40.08], [-95.4, 40.07], [-95.42, 40.06], [-95.42, 40.05], [-95.41, 40.03], [-95.39, 40.03], [-95.36, 40.03], [-95.35, 40.03], [-95.34, 40.02], [-95.31, 40.01], [-95.31, 40.0], [-95.46, 40.0], [-95.46, 40.0], [-95.66, 40.0], [-95.93, 40.0], [-96.13, 40.0], [-96.3, 40.0], [-96.48, 40.0], [-96.81, 40.0], [-97.01, 40.0], [-97.13, 40.0], [-97.14, 40.0], [-97.36, 40.0], [-97.63, 40.0], [-97.83, 40.0], [-97.94, 40.0], [-98.15, 40.0], [-98.27, 40.0], [-98.27, 40.21], [-98.27, 40.35], [-98.28, 40.35], [-98.28, 40.47], [-98.28, 40.61], [-98.28, 40.7], [-98.15, 40.7], [-97.96, 40.7], [-97.69, 40.7], [-97.53, 40.7], [-97.25, 40.7], [-97.11, 40.7], [-96.91, 40.7], [-96.91, 40.61], [-96.91, 40.57], [-96.91, 40.52], [-96.82, 40.52], [-96.7, 40.52], [-96.57, 40.52], [-96.46, 40.52], [-96.46, 40.67], [-96.46, 40.78], [-96.32, 40.78], [-96.09, 40.78], [-95.83, 40.78]]]}}]}