{"type": "FeatureCollection", "features": [{"type": "Feature", "properties": {"STATE": "New Hampshire", "STATE_FIPS": "33", "CD_2DIG": "01", "STATE_CODE": 27, "CLIMDIV": 2701, "ID": 2701, "CD_NEW": 1, "FIPS_CD": "3301", "NCDC_GEO_I": 266.0, "NAME": "NORTHERN", "ST_ABBRV": "NH", "SHAPE_AREA": 0.0, "SHAPE_LEN": 0.0}, "geometry": {"type": "Polygon", "coordinates": [[[-71.01, 44.3], [-71.12, 44.27], [-71.45, 44.16], [-71.56, 44.08], [-71.65, 43.96], [-71.68, 43.81], [-71.75, 43.65], [-71.91, 43.55], [-72.04, 43.57], [-72.11, 43.64], [-72.17, 43.89], [-72.17, 43.89], [-72.17, 43.89], [-72.16, 43.89], [-72.16, 43.9], [-72.15, 43.9], [-72.14, 43.91], [-72.14, 43.91], [-72.14, 43.91], [-72.13, 43.91], [-72.13, 43.92], [-72.12, 43.92], [-72.12, 43.93], [-72.12, 43.94], [-72.12, 43.94], [-72.12, 43.94], [-72.12, 43.95], [-72.11, 43.95], [-72.11, 43.95], [-72.1, 43.96], [-72.1, 43.96], [-72.1, 43.96], [-72.1, 43.96], [-72.1, 43.96], [-72.1, 43.96], [-72.1, 43.96], [-72.09, 43.97], [-72.09, 43.97], [-72.09, 43.97], [-72.1, 43.97], [-72.1, 43.97], [-72.1, 43.97], [-72.11, 43.97], [-72.11, 43.97], [-72.11, 43.97], [-72.11, 43.97], [-72.11, 43.97], [-72.11, 43.97], [-72.11, 43.98], [-72.11, 43.98], [-72.11, 43.98], [-72.11, 43.98], [-72.11, 43.98], [-72.12, 44.0], [-72.11, 44.0], [-72.11, 44.0], [-72.11, 44.0], [-72.11, 44.0], [-72.1, 44.0], [-72.1, 44.01], [-72.1, 44.01], [-72.1, 44.02], [-72.1, 44.01], [-72.09, 44.01], [-72.09, 44.01], [-72.09, 44.01], [-72.09, 44.01], [-72.09, 44.01], [-72.09, 44.01], [-72.09, 44.02], [-72.1, 44.02], [-72.1, 44.02], [-72.1, 44.02], [-72.09, 44.02], [-72.09, 44.02], [-72.08, 44.02], [-72.08, 44.03], [-72.08, 44.03], [-72.08, 44.03], [-72.08, 44.03], [-72.08, 44.04], [-72.08, 44.04], [-72.08, 44.04], [-72.08, 44.04], [-72.07, 44.05], [-72.06, 44.05], [-72.07, 44.05], [-72.07, 44.06], [-72.07, 44.06], [-72.06, 44.06], [-72.05, 44.06], [-72.05, 44.07], [-72.05, 44.07], [-72.05, 44.08], [-72.05, 44.08], [-72.05, 44.08], [-72.05, 44.08], [-72.04, 44.08], [-72.04, 44.08], [-72.04, 44.08], [-72.04, 44.08], [-72.03, 44.08], [-72.03, 44.08], [-72.04, 44.08], [-72.04, 44.08], [-72.03, 44.09], [-72.03, 44.09], [-72.03, 44.1], [-72.03, 44.1], [-72.04, 44.1], [-72.04, 44.1], [-72.04, 44.1], [-72.04, 44.1], [-72.04, 44.1], [-72.04, 44.1], [-72.05, 44.1], [-72.05, 44.1], [-72.05, 44.11], [-72.06, 44.11], [-72.05, 44.12], [-72.05, 44.12], [-72.05, 44.12], [-72.05, 44.12], [-72.04, 44.13], [-72.04, 44.12], [-72.04, 44.13], [-72.04, 44.13], [-72.03, 44.13], [-72.04, 44.14], [-72.04, 44.14], [-72.04, 44.14], [-72.04, 44.14], [-72.04, 44.14], [-72.04, 44.15], [-72.04, 44.16], [-72.04, 44.16], [-72.04, 44.16], [-72.04, 44.16], [-72.05, 44.16], [-72.05, 44.16], [-72.05, 44.16], [-72.05, 44.17], [-72.05, 44.17], [-72.05, 44.17], [-72.06, 44.18], [-72.06, 44.18], [-72.06, 44.18], [-72.06, 44.19], [-72.07, 44.19], [-72.07, 44.19], [-72.07, 44.19], [-72.06, 44.19], [-72.06, 44.2], [-72.06, 44.21], [-72.06, 44.21], [-72.06, 44.21], [-72.05, 44.22], [-72.05, 44.22], [-72.05, 44.22], [-72.05, 44.23], [-72.05, 44.23], [-72.05, 44.24], [-72.05, 44.25], [-72.06, 44.25], [-72.06, 44.25], [-72.06, 44.25], [-72.06, 44.26], [-72.06, 44.26], [-72.06, 44.26], [-72.06, 44.26], [-72.06, 44.26], [-72.06, 44.26], [-72.06, 44.27], [-72.06, 44.27], [-72.06, 44.26], [-72.06, 44.26], [-72.06, 44.26], [-72.06, 44.27], [-72.06, 44.27], [-72.06, 44.27], [-72.06, 44.27], [-72.06, 44.27], [-72.07, 44.27], [-72.07, 44.27], [-72.07, 44.28], [-72.06, 44.28], [-72.06, 44.29], [-72.05, 44.29], [-72.04, 44.29], [-72.04, 44.3], [-72.04, 44.3], [-72.04, 44.3], [-72.03, 44.3], [-72.03, 44.31], [-72.03, 44.32], [-72.03, 44.32], [-72.02, 44.32], [-72.02, 44.32], [-72.01, 44.32], [-72.01, 44.32], [-72.01, 44.32], [-72.01, 44.32], [-72.0, 44.32], [-71.99, 44.33], [-71.98, 44.34], [-71.96, 44.34], [-71.96, 44.34], [-71.96, 44.34], [-71.94, 44.34], [-71.94, 44.34], [-71.94, 44.34], [-71.92, 44.35], [-71.92, 44.35], [-71.91, 44.35], [-71.89, 44.34], [-71.89, 44.34], [-71.88, 44.34], [-71.88, 44.34], [-71.88, 44.34], [-71.88, 44.34], [-71.88, 44.34], [-71.88, 44.34], [-71.87, 44.34], [-71.87, 44.34], [-71.87, 44.34], [-71.87, 44.34], [-71.86, 44.34], [-71.86, 44.34], [-71.86, 44.34], [-71.86, 44.34], [-71.86, 44.34], [-71.86, 44.34], [-71.85, 44.34], [-71.85, 44.34], [-71.85, 44.34], [-71.84, 44.34], [-71.84, 44.34], [-71.84, 44.35], [-71.84, 44.35], [-71.84, 44.35], [-71.84, 44.35], [-71.82, 44.35], [-71.82, 44.35], [-71.82, 44.35], [-71.81, 44.36], [-71.81, 44.36], [-71.81, 44.36], [-71.81, 44.36], [-71.82, 44.37], [-71.82, 44.37], [-71.82, 44.37], [-71.81, 44.37], [-71.81, 44.37], [-71.81, 44.37], [-71.81, 44.37], [-71.82, 44.38], [-71.81, 44.38], [-71.81, 44.38], [-71.81, 44.38], [-71.81, 44.38], [-71.81, 44.38], [-71.8, 44.38], [-71.8, 44.38], [-71.8, 44.38], [-71.8, 44.39], [-71.8, 44.39], [-71.8, 44.39], [-71.8, 44.39], [-71.8, 44.39], [-71.8, 44.4], [-71.79, 44.4], [-71.79, 44.4], [-71.79, 44.4], [-71.78, 44.4], [-71.78, 44.4], [-71.78, 44.4], [-71.78, 44.4], [-71.77, 44.4], [-71.77, 44.4], [-71.77, 44.41], [-71.76, 44.41], [-71.76, 44.41], [-71.75, 44.4], [-71.75, 44.4], [-71.74, 44.4], [-71.74, 44.4], [-71.74, 44.41], [-71.72, 44.41], [-71.72, 44.41], [-71.7, 44.41], [-71.7, 44.41], [-71.7, 44.41], [-71.7, 44.41], [-71.69, 44.42], [-71.68, 44.43], [-71.68, 44.43], [-71.68, 44.43], [-71.68, 44.44], [-71.68, 44.44], [-71.66, 44.44], [-71.66, 44.44], [-71.66, 44.44], [-71.66, 44.44], [-71.66, 44.45], [-71.65, 44.46], [-71.64, 44.46], [-71.64, 44.46], [-71.64, 44.46], [-71.64, 44.47], [-71.65, 44.47], [-71.65, 44.47], [-71.65, 44.47], [-71.65, 44.47], [-71.65, 44.48], [-71.64, 44.48], [-71.64, 44.48], [-71.63, 44.48], [-71.63, 44.48], [-71.63, 44.48], [-71.63, 44.48], [-71.63, 44.47], [-71.63, 44.47], [-71.62, 44.48], [-71.62, 44.48], [-71.62, 44.49], [-71.61, 44.48], [-71.61, 44.48], [-71.6, 44.49], [-71.6, 44.49], [-71.59, 44.5], [-71.59, 44.5], [-71.59, 44.5], [-71.59, 44.5], [-71.59, 44.51], [-71.59, 44.51], [-71.59, 44.51], [-71.58, 44.5], [-71.58, 44.5], [-71.58, 44.5], [-71.58, 44.51], [-71.58, 44.51], [-71.59, 44.51], [-71.59, 44.52], [-71.59, 44.52], [-71.58, 44.52], [-71.58, 44.53], [-71.57, 44.53], [-71.58, 44.54], [-71.58, 44.55], [-71.58, 44.55], [-71.59, 44.55], [-71.6, 44.56], [-71.6, 44.56], [-71.59, 44.56], [-71.58, 44.56], [-71.56, 44.56], [-71.56, 44.56], [-71.56, 44.57], [-71.56, 44.57], [-71.56, 44.57], [-71.56, 44.57], [-71.56, 44.57], [-71.55, 44.57], [-71.55, 44.57], [-71.55, 44.58], [-71.55, 44.58], [-71.55, 44.58], [-71.55, 44.58], [-71.54, 44.58], [-71.54, 44.58], [-71.54, 44.59], [-71.54, 44.59], [-71.54, 44.59], [-71.54, 44.59], [-71.54, 44.59], [-71.54, 44.59], [-71.54, 44.59], [-71.55, 44.59], [-71.55, 44.59], [-71.55, 44.6], [-71.55, 44.6], [-71.55, 44.6], [-71.55, 44.59], [-71.56, 44.6], [-71.56, 44.6], [-71.55, 44.6], [-71.55, 44.6], [-71.55, 44.6], [-71.55, 44.6], [-71.55, 44.6], [-71.55, 44.6], [-71.56, 44.6], [-71.56, 44.6], [-71.56, 44.6], [-71.56, 44.6], [-71.56, 44.61], [-71.56, 44.62], [-71.55, 44.62], [-71.55, 44.62], [-71.55, 44.62], [-71.55, 44.63], [-71.56, 44.63], [-71.56, 44.63], [-71.55, 44.63], [-71.55, 44.63], [-71.55, 44.63], [-71.56, 44.63], [-71.56, 44.64], [-71.56, 44.64], [-71.56, 44.64], [-71.56, 44.64], [-71.56, 44.64], [-71.56, 44.65], [-71.56, 44.65], [-71.57, 44.65], [-71.57, 44.65], [-71.57, 44.65], [-71.57, 44.65], [-71.57, 44.65], [-71.57, 44.65], [-71.58, 44.65], [-71.58, 44.65], [-71.58, 44.66], [-71.58, 44.66], [-71.58, 44.66], [-71.59, 44.66], [-71.59, 44.66], [-71.59, 44.66], [-71.59, 44.67], [-71.59, 44.67], [-71.58, 44.67], [-71.58, 44.67], [-71.59, 44.67], [-71.59, 44.68], [-71.6, 44.69], [-71.6, 44.69], [-71.59, 44.7], [-71.59, 44.7], [-71.6, 44.7], [-71.6, 44.7], [-71.6, 44.7], [-71.6, 44.7], [-71.6, 44.7], [-71.6, 44.71], [-71.6, 44.71], [-71.61, 44.71], [-71.61, 44.71], [-71.61, 44.72], [-71.62, 44.72], [-71.62, 44.72], [-71.62, 44.72], [-71.62, 44.73], [-71.62, 44.73], [-71.63, 44.74], [-71.63, 44.74], [-71.63, 44.74], [-71.63, 44.75], [-71.63, 44.75], [-71.63, 44.75], [-71.63, 44.75], [-71.62, 44.76], [-71.62, 44.76], [-71.62, 44.76], [-71.61, 44.76], [-71.61, 44.76], [-71.61, 44.77], [-71.61, 44.77], [-71.6, 44.77], [-71.6, 44.77], [-71.6, 44.77], [-71.59, 44.78], [-71.58, 44.79], [-71.57, 44.79], [-71.57, 44.8], [-71.57, 44.8], [-71.57, 44.8], [-71.57, 44.8], [-71.57, 44.81], [-71.57, 44.81], [-71.57, 44.81], [-71.58, 44.81], [-71.58, 44.81], [-71.58, 44.82], [-71.57, 44.82], [-71.57, 44.82], [-71.56, 44.82], [-71.56, 44.83], [-71.56, 44.83], [-71.56, 44.83], [-71.56, 44.84], [-71.55, 44.84], [-71.55, 44.84], [-71.55, 44.85], [-71.56, 44.85], [-71.56, 44.85], [-71.56, 44.85], [-71.55, 44.85], [-71.55, 44.86], [-71.55, 44.86], [-71.55, 44.86], [-71.55, 44.86], [-71.55, 44.86], [-71.54, 44.87], [-71.54, 44.87], [-71.53, 44.87], [-71.53, 44.87], [-71.53, 44.87], [-71.53, 44.88], [-71.53, 44.88], [-71.53, 44.88], [-71.52, 44.88], [-71.52, 44.88], [-71.52, 44.88], [-71.52, 44.89], [-71.52, 44.89], [-71.52, 44.89], [-71.51, 44.89], [-71.51, 44.89], [-71.51, 44.89], [-71.51, 44.89], [-71.51, 44.89], [-71.5, 44.9], [-71.5, 44.9], [-71.5, 44.9], [-71.5, 44.91], [-71.5, 44.91], [-71.5, 44.91], [-71.49, 44.91], [-71.49, 44.91], [-71.5, 44.91], [-71.5, 44.91], [-71.5, 44.91], [-71.5, 44.91], [-71.5, 44.92], [-71.5, 44.92], [-71.51, 44.92], [-71.51, 44.92], [-71.52, 44.93], [-71.52, 44.93], [-71.51, 44.93], [-71.51, 44.93], [-71.52, 44.94], [-71.52, 44.94], [-71.52, 44.94], [-71.52, 44.94], [-71.52, 44.94], [-71.52, 44.94], [-71.52, 44.94], [-71.52, 44.94], [-71.52, 44.95], [-71.52, 44.95], [-71.52, 44.95], [-71.52, 44.96], [-71.52, 44.96], [-71.52, 44.96], [-71.52, 44.96], [-71.52, 44.97], [-71.52, 44.97], [-71.52, 44.97], [-71.52, 44.97], [-71.52, 44.97], [-71.53, 44.97], [-71.53, 44.98], [-71.54, 44.98], [-71.54, 44.98], [-71.54, 44.98], [-71.54, 44.99], [-71.54, 44.99], [-71.54, 44.99], [-71.54, 44.99], [-71.53, 44.99], [-71.53, 44.99], [-71.53, 45.0], [-71.53, 45.0], [-71.53, 45.0], [-71.52, 45.0], [-71.52, 45.0], [-71.51, 45.0], [-71.51, 45.01], [-71.51, 45.01], [-71.5, 45.01], [-71.5, 45.01], [-71.5, 45.0], [-71.49, 45.0], [-71.49, 45.0], [-71.49, 45.0], [-71.48, 45.0], [-71.48, 45.01], [-71.48, 45.01], [-71.47, 45.01], [-71.46, 45.01], [-71.5, 45.01], [-71.5, 45.03], [-71.49, 45.04], [-71.5, 45.05], [-71.5, 45.07], [-71.49, 45.08], [-71.47, 45.09], [-71.46, 45.09], [-71.45, 45.1], [-71.45, 45.11], [-71.43, 45.12], [-71.43, 45.13], [-71.44, 45.14], [-71.43, 45.15], [-71.42, 45.17], [-71.41, 45.19], [-71.41, 45.2], [-71.4, 45.2], [-71.4, 45.22], [-71.42, 45.22], [-71.44, 45.24], [-71.44, 45.24], [-71.42, 45.23], [-71.4, 45.24], [-71.39, 45.24], [-71.39, 45.23], [-71.38, 45.25], [-71.36, 45.25], [-71.36, 45.25], [-71.36, 45.27], [-71.34, 45.27], [-71.33, 45.28], [-71.31, 45.29], [-71.3, 45.3], [-71.28, 45.3], [-71.26, 45.29], [-71.26, 45.28], [-71.24, 45.26], [-71.23, 45.25], [-71.21, 45.25], [-71.2, 45.25], [-71.18, 45.24], [-71.16, 45.25], [-71.14, 45.24], [-71.13, 45.25], [-71.12, 45.26], [-71.12, 45.27], [-71.11, 45.28], [-71.11, 45.28], [-71.1, 45.3], [-71.08, 45.31], [-71.08, 45.25], [-71.07, 45.18], [-71.07, 45.14], [-71.06, 45.0], [-71.06, 45.0], [-71.05, 44.93], [-71.04, 44.85], [-71.04, 44.76], [-71.03, 44.66], [-71.03, 44.56], [-71.02, 44.43], [-71.01, 44.34], [-71.01, 44.3], [-71.01, 44.3]]]}}, {"type": "Feature", "properties": {"STATE": "New Hampshire", "STATE_FIPS": "33", "CD_2DIG": "02", "STATE_CODE": 27, "CLIMDIV": 2702, "ID": 2702, "CD_NEW": 2, "FIPS_CD": "3302", "NCDC_GEO_I": 267.0, "NAME": "SOUTHERN", "ST_ABBRV": "NH", "SHAPE_AREA": 0.0, "SHAPE_LEN": 0.0}, "geometry": {"type": "MultiPolygon", "coordinates": [[[[-70.99, 43.38], [-70.99, 43.38], [-70.97, 43.36], [-70.98, 43.36], [-70.96, 43.33], [-70.93, 43.34], [-70.93, 43.33], [-70.92, 43.32], [-70.9, 43.29], [-70.89, 43.28], [-70.88, 43.27], [-70.86, 43.27], [-70.86, 43.26], [-70.84, 43.25], [-70.84, 43.24], [-70.82, 43.24], [-70.81, 43.22], [-70.82, 43.21], [-70.82, 43.19], [-70.83, 43.19], [-70.83, 43.17], [-70.83, 43.16], [-70.84, 43.14], [-70.83, 43.14], [-70.83, 43.13], [-70.85, 43.13], [-70.85, 43.14], [-70.87, 43.12], [-70.87, 43.12], [-70.87, 43.11], [-70.87, 43.09], [-70.88, 43.1], [-70.88, 43.09], [-70.9, 43.08], [-70.92, 43.06], [-70.89, 43.06], [-70.87, 43.06], [-70.85, 43.05], [-70.83, 43.05], [-70.83, 43.06], [-70.85, 43.08], [-70.86, 43.07], [-70.86, 43.09], [-70.84, 43.11], [-70.83, 43.12], [-70.81, 43.12], [-70.8, 43.1], [-70.78, 43.09], [-70.77, 43.09], [-70.76, 43.08], [-70.75, 43.08], [-70.75, 43.06], [-70.74, 43.06], [-70.73, 43.05], [-70.72, 43.05], [-70.71, 43.05], [-70.72, 43.03], [-70.73, 43.02], [-70.74, 43.01], [-70.74, 43.01], [-70.75, 42.99], [-70.76, 42.99], [-70.76, 42.97], [-70.78, 42.96], [-70.79, 42.94], [-70.8, 42.92], [-70.81, 42.92], [-70.82, 42.9], [-70.82, 42.91], [-70.83, 42.9], [-70.84, 42.88], [-70.83, 42.88], [-70.82, 42.87], [-70.83, 42.87], [-70.83, 42.87], [-70.83, 42.87], [-70.83, 42.87], [-70.84, 42.87], [-70.84, 42.87], [-70.85, 42.86], [-70.85, 42.86], [-70.86, 42.87], [-70.86, 42.87], [-70.87, 42.87], [-70.87, 42.87], [-70.88, 42.88], [-70.88, 42.88], [-70.89, 42.88], [-70.9, 42.89], [-70.92, 42.89], [-70.93, 42.88], [-70.93, 42.88], [-70.95, 42.88], [-70.96, 42.87], [-70.98, 42.87], [-70.99, 42.87], [-71.0, 42.86], [-71.0, 42.86], [-71.02, 42.86], [-71.03, 42.86], [-71.03, 42.86], [-71.05, 42.84], [-71.05, 42.83], [-71.06, 42.82], [-71.06, 42.82], [-71.06, 42.81], [-71.06, 42.81], [-71.07, 42.81], [-71.07, 42.81], [-71.09, 42.81], [-71.1, 42.81], [-71.11, 42.82], [-71.11, 42.82], [-71.12, 42.82], [-71.12, 42.82], [-71.12, 42.82], [-71.14, 42.82], [-71.15, 42.82], [-71.17, 42.81], [-71.17, 42.8], [-71.19, 42.79], [-71.19, 42.78], [-71.18, 42.75], [-71.19, 42.74], [-71.2, 42.74], [-71.21, 42.74], [-71.21, 42.74], [-71.21, 42.74], [-71.22, 42.74], [-71.22, 42.75], [-71.22, 42.75], [-71.23, 42.75], [-71.25, 42.74], [-71.26, 42.74], [-71.26, 42.73], [-71.27, 42.73], [-71.27, 42.73], [-71.28, 42.71], [-71.29, 42.7], [-71.29, 42.7], [-71.31, 42.7], [-71.31, 42.7], [-71.32, 42.7], [-71.33, 42.7], [-71.35, 42.7], [-71.37, 42.7], [-71.37, 42.7], [-71.39, 42.7], [-71.39, 42.7], [-71.43, 42.7], [-71.43, 42.7], [-71.44, 42.7], [-71.44, 42.7], [-71.48, 42.7], [-71.5, 42.7], [-71.5, 42.7], [-71.54, 42.7], [-71.54, 42.7], [-71.59, 42.7], [-71.59, 42.7], [-71.6, 42.7], [-71.61, 42.7], [-71.62, 42.7], [-71.62, 42.7], [-71.62, 42.7], [-71.66, 42.71], [-71.67, 42.71], [-71.69, 42.71], [-71.7, 42.71], [-71.73, 42.71], [-71.75, 42.71], [-71.77, 42.71], [-71.8, 42.71], [-71.81, 42.71], [-71.86, 42.71], [-71.88, 42.71], [-71.9, 42.71], [-71.92, 42.71], [-71.93, 42.71], [-71.96, 42.71], [-71.96, 42.71], [-71.97, 42.71], [-71.98, 42.71], [-71.99, 42.71], [-71.99, 42.71], [-72.0, 42.71], [-72.01, 42.71], [-72.01, 42.71], [-72.01, 42.71], [-72.02, 42.71], [-72.05, 42.72], [-72.06, 42.72], [-72.08, 42.72], [-72.08, 42.72], [-72.08, 42.72], [-72.1, 42.72], [-72.13, 42.72], [-72.15, 42.72], [-72.15, 42.72], [-72.17, 42.72], [-72.21, 42.72], [-72.24, 42.72], [-72.25, 42.72], [-72.27, 42.72], [-72.29, 42.72], [-72.29, 42.72], [-72.3, 42.72], [-72.32, 42.72], [-72.35, 42.72], [-72.39, 42.72], [-72.4, 42.73], [-72.42, 42.73], [-72.46, 42.73], [-72.46, 42.73], [-72.47, 42.75], [-72.48, 42.76], [-72.49, 42.77], [-72.51, 42.76], [-72.51, 42.77], [-72.51, 42.78], [-72.52, 42.79], [-72.54, 42.81], [-72.55, 42.84], [-72.56, 42.85], [-72.55, 42.86], [-72.56, 42.88], [-72.55, 42.88], [-72.54, 42.89], [-72.53, 42.9], [-72.53, 42.91], [-72.52, 42.92], [-72.53, 42.94], [-72.53, 42.96], [-72.52, 42.96], [-72.49, 42.97], [-72.48, 42.97], [-72.47, 42.97], [-72.46, 42.98], [-72.46, 43.0], [-72.45, 43.0], [-72.44, 43.01], [-72.46, 43.02], [-72.46, 43.03], [-72.46, 43.04], [-72.47, 43.05], [-72.45, 43.07], [-72.43, 43.08], [-72.44, 43.1], [-72.43, 43.11], [-72.43, 43.12], [-72.45, 43.14], [-72.46, 43.15], [-72.45, 43.16], [-72.45, 43.17], [-72.44, 43.18], [-72.45, 43.19], [-72.44, 43.2], [-72.44, 43.22], [-72.43, 43.23], [-72.44, 43.25], [-72.43, 43.26], [-72.42, 43.26], [-72.41, 43.28], [-72.4, 43.3], [-72.4, 43.31], [-72.41, 43.33], [-72.4, 43.35], [-72.39, 43.35], [-72.41, 43.36], [-72.42, 43.38], [-72.4, 43.39], [-72.4, 43.44], [-72.39, 43.45], [-72.39, 43.47], [-72.38, 43.48], [-72.38, 43.49], [-72.38, 43.5], [-72.4, 43.51], [-72.39, 43.53], [-72.38, 43.54], [-72.38, 43.56], [-72.38, 43.57], [-72.37, 43.58], [-72.35, 43.59], [-72.33, 43.6], [-72.33, 43.62], [-72.33, 43.64], [-72.32, 43.64], [-72.31, 43.66], [-72.3, 43.67], [-72.31, 43.7], [-72.29, 43.71], [-72.27, 43.73], [-72.26, 43.73], [-72.24, 43.75], [-72.22, 43.77], [-72.21, 43.77], [-72.2, 43.79], [-72.2, 43.79], [-72.18, 43.81], [-72.19, 43.82], [-72.18, 43.83], [-72.18, 43.85], [-72.19, 43.86], [-72.18, 43.87], [-72.17, 43.87], [-72.17, 43.88], [-72.17, 43.89], [-72.11, 43.64], [-72.04, 43.57], [-71.91, 43.55], [-71.75, 43.65], [-71.68, 43.81], [-71.65, 43.96], [-71.56, 44.08], [-71.45, 44.16], [-71.12, 44.27], [-71.01, 44.3], [-71.0, 44.13], [-70.99, 43.92], [-70.99, 43.85], [-70.99, 43.79], [-70.98, 43.75], [-70.98, 43.7], [-70.98, 43.63], [-70.97, 43.57], [-70.96, 43.56], [-70.95, 43.55], [-70.96, 43.54], [-70.95, 43.52], [-70.96, 43.5], [-70.97, 43.49], [-70.96, 43.47], [-70.97, 43.45], [-70.96, 43.44], [-70.97, 43.43], [-70.98, 43.42], [-70.99, 43.41], [-70.99, 43.38]]], [[[-70.82, 42.87], [-70.82, 42.87], [-70.82, 42.87], [-70.82, 42.87], [-70.82, 42.87], [-70.82, 42.87], [-70.82, 42.87], [-70.82, 42.87], [-70.83, 42.88], [-70.82, 42.9], [-70.81, 42.89], [-70.82, 42.87]]], [[[-70.71, 43.07], [-70.71, 43.06], [-70.73, 43.06], [-70.72, 43.07], [-70.71, 43.07]]]]}}]}