{"type": "FeatureCollection", "features": [{"type": "Feature", "properties": {"STATE": "New Mexico", "STATE_FIPS": "35", "CD_2DIG": "05", "STATE_CODE": 29, "CLIMDIV": 2905, "ID": 2905, "CD_NEW": 5, "FIPS_CD": "3505", "NCDC_GEO_I": 1.0, "NAME": "CENTRAL VALLEY", "ST_ABBRV": "NM", "SHAPE_AREA": 0.0, "SHAPE_LEN": 0.0}, "geometry": {"type": "Polygon", "coordinates": [[[-105.88, 33.24], [-105.99, 33.27], [-106.06, 33.28], [-106.14, 33.3], [-106.2, 33.36], [-106.26, 33.44], [-106.33, 33.51], [-106.42, 33.51], [-106.46, 33.43], [-106.44, 33.3], [-106.44, 33.13], [-106.42, 32.91], [-106.39, 32.66], [-106.35, 32.44], [-106.36, 32.29], [-106.4, 32.2], [-106.5, 32.28], [-106.55, 32.46], [-106.61, 32.64], [-106.72, 32.82], [-106.83, 32.82], [-106.94, 32.73], [-107.04, 32.69], [-107.09, 32.86], [-107.15, 33.07], [-107.1, 33.21], [-107.09, 33.36], [-107.17, 33.35], [-107.17, 33.25], [-107.21, 33.18], [-107.41, 33.16], [-107.56, 33.21], [-107.49, 33.46], [-107.36, 33.48], [-107.22, 33.64], [-107.1, 33.81], [-107.08, 33.93], [-107.06, 34.04], [-107.17, 34.22], [-107.38, 34.24], [-107.43, 34.27], [-107.44, 34.38], [-107.4, 34.42], [-107.26, 34.45], [-107.21, 34.51], [-107.16, 34.61], [-107.1, 34.72], [-107.14, 34.8], [-107.21, 34.86], [-107.31, 34.88], [-107.4, 34.87], [-107.46, 34.88], [-107.48, 34.93], [-107.45, 35.03], [-107.39, 35.08], [-107.32, 35.13], [-107.27, 35.06], [-107.23, 35.03], [-107.13, 34.96], [-107.08, 34.99], [-107.05, 35.09], [-107.04, 35.19], [-107.08, 35.26], [-107.13, 35.33], [-107.12, 35.38], [-107.09, 35.46], [-107.01, 35.47], [-106.98, 35.43], [-106.98, 35.38], [-106.94, 35.34], [-106.88, 35.36], [-106.79, 35.42], [-106.62, 35.44], [-106.51, 35.39], [-106.41, 35.35], [-106.48, 35.28], [-106.52, 35.22], [-106.52, 35.1], [-106.5, 34.93], [-106.45, 34.78], [-106.41, 34.63], [-106.38, 34.46], [-106.5, 34.4], [-106.55, 34.37], [-106.61, 34.31], [-106.63, 34.25], [-106.58, 34.15], [-106.51, 34.13], [-106.37, 34.2], [-106.3, 34.24], [-106.25, 34.23], [-106.22, 34.17], [-106.24, 34.1], [-106.28, 33.98], [-106.31, 33.88], [-106.34, 33.74], [-106.33, 33.67], [-106.29, 33.62], [-106.19, 33.63], [-106.13, 33.69], [-106.09, 33.76], [-106.05, 33.84], [-106.01, 33.93], [-105.94, 34.08], [-105.89, 34.15], [-105.8, 34.17], [-105.73, 34.09], [-105.72, 33.96], [-105.75, 33.74], [-105.82, 33.61], [-105.87, 33.45], [-105.88, 33.24]]]}}, {"type": "Feature", "properties": {"STATE": "New Mexico", "STATE_FIPS": "35", "CD_2DIG": "06", "STATE_CODE": 29, "CLIMDIV": 2906, "ID": 2906, "CD_NEW": 6, "FIPS_CD": "3506", "NCDC_GEO_I": 2.0, "NAME": "CENTRAL HIGHLANDS", "ST_ABBRV": "NM", "SHAPE_AREA": 0.0, "SHAPE_LEN": 0.0}, "geometry": {"type": "Polygon", "coordinates": [[[-105.15, 32.64], [-105.22, 32.56], [-105.34, 32.5], [-105.43, 32.53], [-105.53, 32.56], [-105.63, 32.56], [-105.76, 32.57], [-105.82, 32.66], [-105.88, 33.24], [-105.87, 33.45], [-105.82, 33.61], [-105.75, 33.74], [-105.72, 33.96], [-105.73, 34.09], [-105.8, 34.17], [-105.89, 34.15], [-105.94, 34.08], [-106.01, 33.93], [-106.05, 33.84], [-106.09, 33.76], [-106.13, 33.69], [-106.19, 33.63], [-106.29, 33.62], [-106.33, 33.67], [-106.34, 33.74], [-106.31, 33.88], [-106.28, 33.98], [-106.24, 34.1], [-106.22, 34.17], [-106.25, 34.23], [-106.3, 34.24], [-106.37, 34.2], [-106.51, 34.13], [-106.58, 34.15], [-106.63, 34.25], [-106.61, 34.31], [-106.55, 34.37], [-106.5, 34.4], [-106.38, 34.46], [-106.41, 34.63], [-106.45, 34.78], [-106.5, 34.93], [-106.52, 35.1], [-106.52, 35.22], [-106.48, 35.28], [-106.41, 35.35], [-106.12, 35.25], [-105.41, 35.33], [-105.28, 35.12], [-105.24, 35.02], [-105.21, 34.96], [-105.09, 34.94], [-105.02, 34.82], [-105.12, 34.78], [-105.16, 34.7], [-105.14, 34.59], [-105.16, 34.38], [-105.24, 34.22], [-105.44, 33.99], [-105.46, 33.91], [-105.3, 33.8], [-105.2, 33.66], [-105.2, 33.55], [-105.24, 33.33], [-105.18, 33.13], [-105.25, 32.92], [-105.15, 32.64]]]}}, {"type": "Feature", "properties": {"STATE": "New Mexico", "STATE_FIPS": "35", "CD_2DIG": "03", "STATE_CODE": 29, "CLIMDIV": 2903, "ID": 2903, "CD_NEW": 3, "FIPS_CD": "3503", "NCDC_GEO_I": 339.0, "NAME": "NORTHEASTERN PLAINS", "ST_ABBRV": "NM", "SHAPE_AREA": 0.0, "SHAPE_LEN": 0.0}, "geometry": {"type": "Polygon", "coordinates": [[[-104.83, 35.43], [-104.61, 35.49], [-104.51, 35.52], [-104.45, 35.61], [-104.45, 35.73], [-104.49, 35.8], [-104.48, 35.88], [-104.52, 35.92], [-104.51, 36.02], [-104.56, 36.08], [-104.62, 36.13], [-104.67, 36.19], [-104.7, 36.24], [-104.72, 36.31], [-104.71, 36.4], [-104.65, 36.45], [-104.64, 36.52], [-104.57, 36.56], [-104.52, 36.57], [-104.49, 36.44], [-104.49, 36.28], [-104.29, 36.27], [-104.14, 36.01], [-104.08, 36.13], [-103.94, 36.27], [-103.81, 36.4], [-103.72, 36.55], [-103.69, 36.76], [-103.75, 37.0], [-103.75, 37.0], [-103.74, 37.0], [-103.72, 37.0], [-103.69, 37.0], [-103.63, 37.0], [-103.55, 37.0], [-103.41, 37.0], [-103.25, 37.0], [-103.12, 37.0], [-103.0, 37.0], [-103.0, 37.0], [-103.0, 37.0], [-103.0, 36.97], [-103.0, 36.93], [-103.0, 36.82], [-103.0, 36.6], [-103.0, 36.5], [-103.04, 36.5], [-103.04, 36.46], [-103.04, 36.32], [-103.04, 36.13], [-103.04, 36.0], [-103.04, 35.84], [-103.04, 35.83], [-103.04, 35.79], [-103.04, 35.63], [-103.04, 35.51], [-103.04, 35.38], [-103.04, 35.25], [-103.04, 35.11], [-103.04, 34.95], [-103.04, 34.75], [-103.04, 34.61], [-103.04, 34.38], [-103.04, 34.23], [-103.04, 34.12], [-103.04, 34.02], [-103.05, 33.88], [-103.05, 33.77], [-103.05, 33.74], [-103.05, 33.57], [-103.25, 33.57], [-103.37, 33.57], [-103.51, 33.57], [-103.51, 33.64], [-103.51, 33.66], [-103.62, 33.66], [-103.72, 33.66], [-103.72, 33.69], [-103.72, 33.82], [-103.84, 33.82], [-103.84, 33.94], [-103.84, 34.0], [-103.84, 34.08], [-103.91, 34.08], [-103.95, 34.08], [-103.95, 34.13], [-103.95, 34.21], [-103.95, 34.26], [-103.95, 34.26], [-103.95, 34.29], [-103.95, 34.43], [-103.95, 34.54], [-103.95, 34.61], [-104.13, 34.61], [-104.13, 34.68], [-104.13, 34.78], [-104.13, 34.89], [-104.31, 34.93], [-104.6, 35.13], [-104.83, 35.43]]]}}, {"type": "Feature", "properties": {"STATE": "New Mexico", "STATE_FIPS": "35", "CD_2DIG": "07", "STATE_CODE": 29, "CLIMDIV": 2907, "ID": 2907, "CD_NEW": 7, "FIPS_CD": "3507", "NCDC_GEO_I": 340.0, "NAME": "SOUTHEASTERN PLAINS", "ST_ABBRV": "NM", "SHAPE_AREA": 0.0, "SHAPE_LEN": 0.0}, "geometry": {"type": "Polygon", "coordinates": [[[-104.76, 32.0], [-105.04, 32.53], [-105.15, 32.64], [-105.25, 32.92], [-105.18, 33.13], [-105.24, 33.33], [-105.2, 33.55], [-105.2, 33.66], [-105.3, 33.8], [-105.46, 33.91], [-105.44, 33.99], [-105.24, 34.22], [-105.16, 34.38], [-105.14, 34.59], [-105.16, 34.7], [-105.12, 34.78], [-105.02, 34.82], [-105.09, 34.94], [-105.21, 34.96], [-105.24, 35.02], [-105.28, 35.12], [-105.41, 35.33], [-105.13, 35.38], [-104.83, 35.43], [-104.6, 35.13], [-104.31, 34.93], [-104.13, 34.89], [-104.13, 34.78], [-104.13, 34.68], [-104.13, 34.61], [-103.95, 34.61], [-103.95, 34.54], [-103.95, 34.43], [-103.95, 34.29], [-103.95, 34.26], [-103.95, 34.26], [-103.95, 34.21], [-103.95, 34.13], [-103.95, 34.08], [-103.91, 34.08], [-103.84, 34.08], [-103.84, 34.0], [-103.84, 33.94], [-103.84, 33.82], [-103.72, 33.82], [-103.72, 33.69], [-103.72, 33.66], [-103.62, 33.66], [-103.51, 33.66], [-103.51, 33.64], [-103.51, 33.57], [-103.37, 33.57], [-103.25, 33.57], [-103.05, 33.57], [-103.05, 33.48], [-103.06, 33.32], [-103.06, 33.25], [-103.06, 33.12], [-103.06, 33.0], [-103.06, 32.81], [-103.06, 32.67], [-103.06, 32.49], [-103.06, 32.38], [-103.06, 32.23], [-103.06, 32.09], [-103.06, 32.0], [-103.22, 32.0], [-103.38, 32.0], [-103.54, 32.0], [-103.75, 32.0], [-103.88, 32.0], [-103.92, 32.0], [-104.08, 32.0], [-104.25, 32.0], [-104.46, 32.0], [-104.61, 32.0], [-104.76, 32.0], [-104.76, 32.0]]]}}, {"type": "Feature", "properties": {"STATE": "New Mexico", "STATE_FIPS": "35", "CD_2DIG": "01", "STATE_CODE": 29, "CLIMDIV": 2901, "ID": 2901, "CD_NEW": 1, "FIPS_CD": "3501", "NCDC_GEO_I": 341.0, "NAME": "NORTHWESTERN PLATEAU", "ST_ABBRV": "NM", "SHAPE_AREA": 0.0, "SHAPE_LEN": 0.0}, "geometry": {"type": "Polygon", "coordinates": [[[-106.7, 36.99], [-106.7, 36.98], [-106.72, 36.97], [-106.72, 36.96], [-106.72, 36.94], [-106.71, 36.92], [-106.7, 36.9], [-106.71, 36.89], [-106.73, 36.89], [-106.78, 36.87], [-106.8, 36.86], [-106.82, 36.84], [-106.83, 36.82], [-106.87, 36.81], [-106.89, 36.81], [-106.94, 36.8], [-106.94, 36.78], [-106.93, 36.77], [-106.93, 36.75], [-106.94, 36.73], [-106.95, 36.72], [-106.96, 36.68], [-106.97, 36.66], [-106.99, 36.65], [-106.99, 36.65], [-107.0, 36.63], [-107.0, 36.62], [-107.0, 36.61], [-106.97, 36.59], [-106.97, 36.57], [-106.98, 36.55], [-106.97, 36.53], [-106.96, 36.52], [-106.97, 36.5], [-106.98, 36.48], [-106.99, 36.46], [-107.01, 36.44], [-107.02, 36.43], [-106.98, 36.39], [-106.98, 36.38], [-106.97, 36.36], [-106.95, 36.33], [-106.95, 36.32], [-106.97, 36.28], [-106.97, 36.25], [-106.97, 36.25], [-106.95, 36.23], [-106.95, 36.2], [-106.99, 36.2], [-107.02, 36.19], [-107.03, 36.19], [-107.04, 36.18], [-107.04, 36.16], [-107.05, 36.13], [-107.06, 36.11], [-107.08, 36.11], [-107.09, 36.11], [-107.11, 36.1], [-107.13, 36.07], [-107.15, 36.06], [-107.18, 36.06], [-107.21, 36.06], [-107.24, 36.06], [-107.27, 36.06], [-107.3, 36.06], [-107.33, 36.06], [-107.36, 36.05], [-107.39, 36.02], [-107.39, 35.99], [-107.39, 35.98], [-107.39, 35.95], [-107.41, 35.93], [-107.42, 35.92], [-107.45, 35.91], [-107.48, 35.89], [-107.49, 35.87], [-107.52, 35.84], [-107.53, 35.82], [-107.55, 35.83], [-107.57, 35.84], [-107.6, 35.82], [-107.61, 35.82], [-107.69, 35.79], [-107.7, 35.78], [-107.73, 35.77], [-107.76, 35.76], [-107.78, 35.75], [-107.78, 35.71], [-107.79, 35.69], [-107.81, 35.67], [-107.83, 35.66], [-107.85, 35.62], [-107.86, 35.61], [-107.89, 35.61], [-107.91, 35.6], [-107.94, 35.56], [-107.96, 35.56], [-107.97, 35.56], [-107.99, 35.58], [-108.0, 35.58], [-108.02, 35.58], [-108.03, 35.59], [-108.07, 35.6], [-108.08, 35.59], [-108.1, 35.58], [-108.11, 35.57], [-108.15, 35.58], [-108.16, 35.58], [-108.18, 35.56], [-108.2, 35.54], [-108.23, 35.52], [-108.24, 35.51], [-108.24, 35.5], [-108.24, 35.48], [-108.24, 35.46], [-108.24, 35.46], [-108.27, 35.44], [-108.3, 35.43], [-108.3, 35.42], [-108.31, 35.4], [-108.32, 35.38], [-108.34, 35.38], [-108.36, 35.37], [-108.38, 35.35], [-108.38, 35.34], [-108.37, 35.33], [-108.37, 35.31], [-108.37, 35.3], [-108.37, 35.29], [-108.38, 35.27], [-108.39, 35.26], [-108.38, 35.24], [-108.37, 35.24], [-108.36, 35.2], [-108.36, 35.19], [-108.35, 35.18], [-108.33, 35.17], [-108.28, 35.16], [-108.26, 35.15], [-108.23, 35.14], [-108.19, 35.12], [-108.19, 35.12], [-108.19, 35.1], [-108.17, 35.1], [-108.16, 35.09], [-108.15, 35.08], [-108.13, 35.05], [-108.11, 35.04], [-108.08, 35.02], [-108.07, 35.02], [-108.07, 35.0], [-108.1, 35.0], [-108.11, 35.0], [-108.13, 35.0], [-108.15, 34.98], [-108.15, 34.96], [-108.17, 34.94], [-108.18, 34.94], [-108.2, 34.92], [-108.21, 34.91], [-108.22, 34.9], [-108.22, 34.87], [-108.23, 34.85], [-108.23, 34.83], [-108.23, 34.82], [-108.23, 34.81], [-108.25, 34.8], [-108.26, 34.8], [-108.3, 34.8], [-108.32, 34.79], [-108.32, 34.77], [-108.33, 34.76], [-108.31, 34.75], [-108.28, 34.74], [-108.27, 34.73], [-108.26, 34.72], [-108.27, 34.7], [-108.31, 34.7], [-108.32, 34.69], [-108.33, 34.67], [-108.37, 34.65], [-108.4, 34.62], [-108.41, 34.61], [-108.44, 34.6], [-108.46, 34.64], [-108.47, 34.65], [-108.49, 34.65], [-108.51, 34.64], [-108.53, 34.64], [-108.55, 34.64], [-108.56, 34.63], [-108.59, 34.65], [-108.6, 34.64], [-108.63, 34.65], [-108.64, 34.65], [-108.68, 34.63], [-108.69, 34.62], [-108.73, 34.61], [-108.75, 34.61], [-108.77, 34.62], [-108.8, 34.63], [-108.82, 34.63], [-108.83, 34.64], [-108.85, 34.65], [-108.88, 34.65], [-108.91, 34.66], [-108.92, 34.67], [-108.93, 34.69], [-108.95, 34.69], [-108.96, 34.7], [-108.97, 34.73], [-109.0, 34.73], [-109.02, 34.72], [-109.04, 34.72], [-109.05, 34.71], [-109.05, 34.75], [-109.05, 34.77], [-109.05, 34.79], [-109.05, 34.8], [-109.05, 34.88], [-109.05, 34.95], [-109.05, 35.13], [-109.05, 35.15], [-109.05, 35.21], [-109.05, 35.24], [-109.05, 35.25], [-109.05, 35.36], [-109.05, 35.38], [-109.05, 35.42], [-109.05, 35.5], [-109.05, 35.52], [-109.05, 35.55], [-109.05, 35.56], [-109.05, 35.62], [-109.05, 35.76], [-109.05, 35.88], [-109.05, 35.92], [-109.05, 35.99], [-109.05, 36.0], [-109.05, 36.01], [-109.05, 36.02], [-109.05, 36.02], [-109.05, 36.03], [-109.05, 36.05], [-109.05, 36.08], [-109.05, 36.09], [-109.05, 36.12], [-109.05, 36.13], [-109.05, 36.18], [-109.05, 36.18], [-109.05, 36.25], [-109.05, 36.25], [-109.05, 36.25], [-109.05, 36.26], [-109.05, 36.27], [-109.05, 36.3], [-109.05, 36.31], [-109.05, 36.31], [-109.05, 36.33], [-109.05, 36.35], [-109.05, 36.35], [-109.05, 36.35], [-109.05, 36.37], [-109.05, 36.38], [-109.05, 36.48], [-109.05, 36.5], [-109.05, 36.54], [-109.05, 36.59], [-109.05, 36.61], [-109.05, 36.64], [-109.05, 36.68], [-109.05, 36.69], [-109.05, 36.7], [-109.05, 36.75], [-109.05, 36.84], [-109.05, 36.88], [-109.05, 36.96], [-109.05, 36.97], [-109.05, 36.97], [-109.05, 37.0], [-109.03, 37.0], [-109.03, 37.0], [-109.0, 37.0], [-108.88, 37.0], [-108.68, 37.0], [-108.5, 37.0], [-108.25, 37.0], [-108.25, 37.0], [-107.99, 37.0], [-107.78, 37.0], [-107.0, 37.0], [-106.88, 37.0], [-106.87, 36.99], [-106.75, 36.99], [-106.7, 36.99]]]}}, {"type": "Feature", "properties": {"STATE": "New Mexico", "STATE_FIPS": "35", "CD_2DIG": "02", "STATE_CODE": 29, "CLIMDIV": 2902, "ID": 2902, "CD_NEW": 2, "FIPS_CD": "3502", "NCDC_GEO_I": 342.0, "NAME": "NORTHERN MOUNTAINS", "ST_ABBRV": "NM", "SHAPE_AREA": 0.0, "SHAPE_LEN": 0.0}, "geometry": {"type": "Polygon", "coordinates": [[[-105.13, 35.38], [-105.41, 35.33], [-106.12, 35.25], [-106.41, 35.35], [-106.51, 35.39], [-106.62, 35.44], [-106.79, 35.42], [-106.88, 35.36], [-106.94, 35.34], [-106.98, 35.38], [-106.98, 35.43], [-107.01, 35.47], [-107.09, 35.46], [-107.12, 35.38], [-107.16, 35.5], [-107.47, 35.49], [-107.86, 35.5], [-108.23, 35.52], [-108.23, 35.52], [-108.2, 35.54], [-108.18, 35.56], [-108.16, 35.58], [-108.15, 35.58], [-108.11, 35.57], [-108.1, 35.58], [-108.08, 35.59], [-108.07, 35.6], [-108.03, 35.59], [-108.02, 35.58], [-108.0, 35.58], [-107.99, 35.58], [-107.97, 35.56], [-107.96, 35.56], [-107.94, 35.56], [-107.91, 35.6], [-107.89, 35.61], [-107.86, 35.61], [-107.85, 35.62], [-107.83, 35.66], [-107.81, 35.67], [-107.79, 35.69], [-107.78, 35.71], [-107.78, 35.75], [-107.76, 35.76], [-107.73, 35.77], [-107.7, 35.78], [-107.69, 35.79], [-107.61, 35.82], [-107.6, 35.82], [-107.57, 35.84], [-107.55, 35.83], [-107.53, 35.82], [-107.52, 35.84], [-107.49, 35.87], [-107.48, 35.89], [-107.45, 35.91], [-107.42, 35.92], [-107.41, 35.93], [-107.39, 35.95], [-107.39, 35.98], [-107.39, 35.99], [-107.39, 36.02], [-107.36, 36.05], [-107.33, 36.06], [-107.3, 36.06], [-107.27, 36.06], [-107.24, 36.06], [-107.21, 36.06], [-107.18, 36.06], [-107.15, 36.06], [-107.13, 36.07], [-107.11, 36.1], [-107.09, 36.11], [-107.08, 36.11], [-107.06, 36.11], [-107.05, 36.13], [-107.04, 36.16], [-107.04, 36.18], [-107.03, 36.19], [-107.02, 36.19], [-106.99, 36.2], [-106.95, 36.2], [-106.95, 36.23], [-106.97, 36.25], [-106.97, 36.25], [-106.97, 36.28], [-106.95, 36.32], [-106.95, 36.33], [-106.97, 36.36], [-106.98, 36.38], [-106.98, 36.39], [-107.02, 36.43], [-107.01, 36.44], [-106.99, 36.46], [-106.98, 36.48], [-106.97, 36.5], [-106.96, 36.52], [-106.97, 36.53], [-106.98, 36.55], [-106.97, 36.57], [-106.97, 36.59], [-107.0, 36.61], [-107.0, 36.62], [-107.0, 36.63], [-106.99, 36.65], [-106.99, 36.65], [-106.97, 36.66], [-106.96, 36.68], [-106.95, 36.72], [-106.94, 36.73], [-106.93, 36.75], [-106.93, 36.77], [-106.94, 36.78], [-106.94, 36.8], [-106.89, 36.81], [-106.87, 36.81], [-106.83, 36.82], [-106.82, 36.84], [-106.8, 36.86], [-106.78, 36.87], [-106.73, 36.89], [-106.71, 36.89], [-106.7, 36.9], [-106.71, 36.92], [-106.72, 36.94], [-106.72, 36.96], [-106.72, 36.97], [-106.7, 36.98], [-106.7, 36.99], [-106.59, 36.99], [-106.5, 36.99], [-106.34, 36.99], [-106.2, 36.99], [-106.15, 36.99], [-105.97, 37.0], [-105.9, 37.0], [-105.66, 37.0], [-105.63, 37.0], [-105.45, 37.0], [-105.21, 37.0], [-105.12, 37.0], [-105.03, 36.99], [-105.0, 36.99], [-104.88, 36.99], [-104.65, 36.99], [-104.61, 36.99], [-104.34, 36.99], [-104.25, 36.99], [-104.09, 37.0], [-103.82, 37.0], [-103.79, 37.0], [-103.78, 37.0], [-103.77, 37.0], [-103.77, 37.0], [-103.75, 37.0], [-103.69, 36.76], [-103.72, 36.55], [-103.81, 36.4], [-103.94, 36.27], [-104.08, 36.13], [-104.14, 36.01], [-104.29, 36.27], [-104.49, 36.28], [-104.49, 36.44], [-104.52, 36.57], [-104.57, 36.56], [-104.64, 36.52], [-104.65, 36.45], [-104.71, 36.4], [-104.72, 36.31], [-104.7, 36.24], [-104.67, 36.19], [-104.62, 36.13], [-104.56, 36.08], [-104.51, 36.02], [-104.52, 35.92], [-104.48, 35.88], [-104.49, 35.8], [-104.45, 35.73], [-104.45, 35.61], [-104.51, 35.52], [-104.61, 35.49], [-104.83, 35.43], [-105.13, 35.38]]]}}, {"type": "Feature", "properties": {"STATE": "New Mexico", "STATE_FIPS": "35", "CD_2DIG": "08", "STATE_CODE": 29, "CLIMDIV": 2908, "ID": 2908, "CD_NEW": 8, "FIPS_CD": "3508", "NCDC_GEO_I": 343.0, "NAME": "SOUTHERN DESERT", "ST_ABBRV": "NM", "SHAPE_AREA": 0.0, "SHAPE_LEN": 0.0}, "geometry": {"type": "Polygon", "coordinates": [[[-105.88, 33.24], [-105.82, 32.66], [-105.76, 32.57], [-105.63, 32.56], [-105.53, 32.56], [-105.43, 32.53], [-105.34, 32.5], [-105.22, 32.56], [-105.15, 32.64], [-105.04, 32.53], [-104.76, 32.0], [-104.77, 32.0], [-105.0, 32.0], [-105.14, 32.0], [-105.22, 32.0], [-105.43, 32.0], [-105.55, 32.0], [-105.73, 32.0], [-105.75, 32.0], [-105.93, 32.0], [-106.0, 32.0], [-106.0, 32.0], [-106.12, 32.0], [-106.13, 32.0], [-106.13, 32.0], [-106.14, 32.0], [-106.17, 32.0], [-106.32, 32.0], [-106.32, 32.0], [-106.32, 32.0], [-106.33, 32.0], [-106.33, 32.0], [-106.39, 32.0], [-106.43, 32.0], [-106.5, 32.0], [-106.52, 32.0], [-106.56, 32.0], [-106.59, 32.0], [-106.6, 32.0], [-106.62, 32.0], [-106.62, 32.0], [-106.62, 31.99], [-106.62, 31.99], [-106.63, 31.99], [-106.63, 31.99], [-106.63, 31.99], [-106.64, 31.99], [-106.64, 31.98], [-106.64, 31.98], [-106.64, 31.98], [-106.64, 31.98], [-106.63, 31.97], [-106.63, 31.97], [-106.63, 31.97], [-106.63, 31.97], [-106.63, 31.97], [-106.63, 31.97], [-106.63, 31.97], [-106.62, 31.97], [-106.62, 31.97], [-106.62, 31.97], [-106.62, 31.97], [-106.62, 31.96], [-106.62, 31.95], [-106.62, 31.96], [-106.62, 31.96], [-106.61, 31.96], [-106.61, 31.96], [-106.61, 31.95], [-106.61, 31.95], [-106.61, 31.95], [-106.61, 31.95], [-106.62, 31.95], [-106.62, 31.95], [-106.62, 31.95], [-106.62, 31.95], [-106.62, 31.94], [-106.62, 31.94], [-106.62, 31.94], [-106.62, 31.94], [-106.62, 31.94], [-106.62, 31.93], [-106.62, 31.93], [-106.62, 31.93], [-106.62, 31.93], [-106.62, 31.93], [-106.63, 31.93], [-106.63, 31.93], [-106.63, 31.93], [-106.63, 31.93], [-106.61, 31.92], [-106.63, 31.91], [-106.63, 31.91], [-106.63, 31.91], [-106.63, 31.91], [-106.63, 31.91], [-106.63, 31.91], [-106.63, 31.91], [-106.64, 31.91], [-106.64, 31.91], [-106.64, 31.91], [-106.64, 31.9], [-106.64, 31.9], [-106.64, 31.9], [-106.65, 31.9], [-106.65, 31.9], [-106.65, 31.89], [-106.64, 31.89], [-106.64, 31.89], [-106.64, 31.89], [-106.64, 31.89], [-106.64, 31.89], [-106.64, 31.89], [-106.64, 31.89], [-106.63, 31.89], [-106.63, 31.89], [-106.63, 31.89], [-106.63, 31.89], [-106.63, 31.89], [-106.63, 31.88], [-106.63, 31.88], [-106.63, 31.88], [-106.63, 31.88], [-106.63, 31.88], [-106.63, 31.88], [-106.63, 31.88], [-106.63, 31.88], [-106.63, 31.87], [-106.64, 31.87], [-106.63, 31.86], [-106.63, 31.86], [-106.63, 31.86], [-106.63, 31.86], [-106.63, 31.86], [-106.63, 31.86], [-106.61, 31.85], [-106.61, 31.85], [-106.61, 31.85], [-106.61, 31.85], [-106.61, 31.85], [-106.61, 31.85], [-106.61, 31.85], [-106.61, 31.85], [-106.6, 31.84], [-106.6, 31.84], [-106.6, 31.84], [-106.6, 31.84], [-106.61, 31.83], [-106.6, 31.83], [-106.6, 31.82], [-106.59, 31.82], [-106.59, 31.82], [-106.59, 31.82], [-106.59, 31.82], [-106.58, 31.82], [-106.58, 31.81], [-106.58, 31.81], [-106.58, 31.81], [-106.58, 31.81], [-106.58, 31.81], [-106.57, 31.81], [-106.57, 31.81], [-106.57, 31.81], [-106.57, 31.81], [-106.57, 31.81], [-106.56, 31.81], [-106.56, 31.81], [-106.55, 31.81], [-106.55, 31.81], [-106.54, 31.8], [-106.54, 31.8], [-106.54, 31.8], [-106.54, 31.78], [-107.0, 31.78], [-107.71, 31.78], [-107.77, 31.78], [-108.21, 31.78], [-108.21, 31.33], [-108.78, 31.33], [-109.0, 31.33], [-109.05, 31.33], [-109.05, 31.33], [-109.05, 31.37], [-109.05, 31.42], [-109.05, 31.48], [-109.05, 31.54], [-109.05, 31.67], [-109.05, 31.88], [-109.05, 32.07], [-109.05, 32.34], [-109.05, 32.43], [-109.05, 32.6], [-109.05, 32.75], [-109.05, 32.78], [-109.05, 32.99], [-109.05, 33.07], [-109.05, 33.11], [-109.05, 33.13], [-109.05, 33.14], [-109.05, 33.15], [-109.05, 33.18], [-109.05, 33.2], [-109.05, 33.2], [-109.05, 33.21], [-109.05, 33.21], [-109.04, 33.21], [-108.9, 33.34], [-108.86, 33.44], [-108.78, 33.44], [-108.75, 33.21], [-108.65, 33.07], [-108.43, 32.92], [-108.39, 32.76], [-108.23, 32.76], [-107.98, 32.7], [-107.84, 32.69], [-107.83, 32.8], [-107.61, 32.61], [-107.62, 32.76], [-107.64, 33.02], [-107.56, 33.21], [-107.41, 33.16], [-107.21, 33.18], [-107.17, 33.25], [-107.17, 33.35], [-107.09, 33.36], [-107.1, 33.21], [-107.15, 33.07], [-107.09, 32.86], [-107.04, 32.69], [-106.94, 32.73], [-106.83, 32.82], [-106.72, 32.82], [-106.61, 32.64], [-106.55, 32.46], [-106.5, 32.28], [-106.4, 32.2], [-106.36, 32.29], [-106.35, 32.44], [-106.39, 32.66], [-106.42, 32.91], [-106.44, 33.13], [-106.44, 33.3], [-106.46, 33.43], [-106.42, 33.51], [-106.33, 33.51], [-106.26, 33.44], [-106.2, 33.36], [-106.14, 33.3], [-106.06, 33.28], [-105.99, 33.27], [-105.88, 33.24]]]}}, {"type": "Feature", "properties": {"STATE": "New Mexico", "STATE_FIPS": "35", "CD_2DIG": "04", "STATE_CODE": 29, "CLIMDIV": 2904, "ID": 2904, "CD_NEW": 4, "FIPS_CD": "3504", "NCDC_GEO_I": 344.0, "NAME": "SOUTHWESTERN MOUNTAINS", "ST_ABBRV": "NM", "SHAPE_AREA": 0.0, "SHAPE_LEN": 0.0}, "geometry": {"type": "Polygon", "coordinates": [[[-109.05, 33.21], [-109.05, 33.31], [-109.05, 33.32], [-109.05, 33.35], [-109.05, 33.37], [-109.05, 33.38], [-109.05, 33.38], [-109.05, 33.39], [-109.05, 33.39], [-109.05, 33.41], [-109.05, 33.47], [-109.05, 33.62], [-109.05, 33.74], [-109.05, 33.75], [-109.05, 33.84], [-109.05, 33.88], [-109.05, 34.0], [-109.05, 34.17], [-109.05, 34.37], [-109.05, 34.52], [-109.05, 34.6], [-109.05, 34.61], [-109.05, 34.63], [-109.05, 34.68], [-109.05, 34.71], [-109.04, 34.72], [-109.02, 34.72], [-109.0, 34.73], [-108.97, 34.73], [-108.96, 34.7], [-108.95, 34.69], [-108.93, 34.69], [-108.92, 34.67], [-108.91, 34.66], [-108.88, 34.65], [-108.85, 34.65], [-108.83, 34.64], [-108.82, 34.63], [-108.8, 34.63], [-108.77, 34.62], [-108.75, 34.61], [-108.73, 34.61], [-108.69, 34.62], [-108.68, 34.63], [-108.64, 34.65], [-108.63, 34.65], [-108.6, 34.64], [-108.59, 34.65], [-108.56, 34.63], [-108.55, 34.64], [-108.53, 34.64], [-108.51, 34.64], [-108.49, 34.65], [-108.47, 34.65], [-108.46, 34.64], [-108.44, 34.6], [-108.41, 34.61], [-108.4, 34.62], [-108.37, 34.65], [-108.33, 34.67], [-108.32, 34.69], [-108.31, 34.7], [-108.27, 34.7], [-108.26, 34.72], [-108.27, 34.73], [-108.28, 34.74], [-108.31, 34.75], [-108.33, 34.76], [-108.32, 34.77], [-108.32, 34.79], [-108.3, 34.8], [-108.26, 34.8], [-108.25, 34.8], [-108.23, 34.81], [-108.23, 34.82], [-108.23, 34.83], [-108.23, 34.85], [-108.22, 34.87], [-108.22, 34.9], [-108.21, 34.91], [-108.2, 34.92], [-108.18, 34.94], [-108.17, 34.94], [-108.15, 34.96], [-108.15, 34.98], [-108.13, 35.0], [-108.11, 35.0], [-108.1, 35.0], [-108.07, 35.0], [-108.07, 35.02], [-108.08, 35.02], [-108.11, 35.04], [-108.13, 35.05], [-108.15, 35.08], [-108.16, 35.09], [-108.17, 35.1], [-108.19, 35.1], [-108.19, 35.12], [-108.19, 35.12], [-108.23, 35.14], [-108.26, 35.15], [-108.28, 35.16], [-108.33, 35.17], [-108.35, 35.18], [-108.36, 35.19], [-108.36, 35.2], [-108.37, 35.24], [-108.38, 35.24], [-108.39, 35.26], [-108.38, 35.27], [-108.37, 35.29], [-108.37, 35.3], [-108.37, 35.31], [-108.37, 35.33], [-108.38, 35.34], [-108.38, 35.35], [-108.36, 35.37], [-108.34, 35.38], [-108.32, 35.38], [-108.31, 35.4], [-108.3, 35.42], [-108.3, 35.43], [-108.27, 35.44], [-108.24, 35.46], [-108.24, 35.46], [-108.24, 35.48], [-108.24, 35.5], [-108.24, 35.51], [-108.23, 35.52], [-107.86, 35.5], [-107.47, 35.49], [-107.16, 35.5], [-107.12, 35.38], [-107.13, 35.33], [-107.08, 35.26], [-107.04, 35.19], [-107.05, 35.09], [-107.08, 34.99], [-107.13, 34.96], [-107.23, 35.03], [-107.27, 35.06], [-107.32, 35.13], [-107.39, 35.08], [-107.45, 35.03], [-107.48, 34.93], [-107.46, 34.88], [-107.4, 34.87], [-107.31, 34.88], [-107.21, 34.86], [-107.14, 34.8], [-107.1, 34.72], [-107.16, 34.61], [-107.21, 34.51], [-107.26, 34.45], [-107.4, 34.42], [-107.44, 34.38], [-107.43, 34.27], [-107.38, 34.24], [-107.17, 34.22], [-107.06, 34.04], [-107.08, 33.93], [-107.1, 33.81], [-107.22, 33.64], [-107.36, 33.48], [-107.49, 33.46], [-107.56, 33.21], [-107.64, 33.02], [-107.62, 32.76], [-107.61, 32.61], [-107.83, 32.8], [-107.84, 32.69], [-107.98, 32.7], [-108.23, 32.76], [-108.39, 32.76], [-108.43, 32.92], [-108.65, 33.07], [-108.75, 33.21], [-108.78, 33.44], [-108.86, 33.44], [-108.9, 33.34], [-109.04, 33.21], [-109.05, 33.21], [-109.05, 33.21]]]}}]}