{"type": "FeatureCollection", "features": [{"type": "Feature", "properties": {"STATE": "North Carolina", "STATE_FIPS": "37", "CD_2DIG": "01", "STATE_CODE": 31, "CLIMDIV": 3101, "ID": 3101, "CD_NEW": 1, "FIPS_CD": "3701", "NCDC_GEO_I": 196.0, "NAME": "SOUTHERN MOUNTAINS", "ST_ABBRV": "NC", "SHAPE_AREA": 0.0, "SHAPE_LEN": 0.0}, "geometry": {"type": "Polygon", "coordinates": [[[-82.08, 36.1], [-82.08, 36.1], [-82.08, 36.09], [-82.07, 36.08], [-82.07, 36.07], [-82.04, 36.01], [-82.06, 36.0], [-82.06, 35.99], [-82.05, 35.96], [-82.03, 35.94], [-81.98, 35.91], [-81.97, 35.91], [-81.95, 35.93], [-81.96, 35.94], [-81.9, 36.0], [-81.88, 35.99], [-81.88, 35.98], [-81.87, 35.98], [-81.84, 35.97], [-81.83, 35.97], [-81.82, 35.97], [-81.8, 35.95], [-81.78, 35.95], [-81.78, 35.93], [-81.75, 35.92], [-81.73, 35.89], [-81.71, 35.88], [-81.64, 35.85], [-81.63, 35.83], [-81.61, 35.82], [-81.6, 35.82], [-81.56, 35.78], [-81.52, 35.78], [-81.49, 35.78], [-81.48, 35.78], [-81.45, 35.79], [-81.44, 35.78], [-81.43, 35.77], [-81.41, 35.76], [-81.4, 35.76], [-81.38, 35.76], [-81.37, 35.77], [-81.36, 35.77], [-81.42, 35.69], [-81.5, 35.61], [-81.51, 35.61], [-81.53, 35.57], [-81.54, 35.56], [-81.56, 35.56], [-81.57, 35.56], [-81.59, 35.56], [-81.6, 35.57], [-81.61, 35.57], [-81.64, 35.57], [-81.65, 35.56], [-81.66, 35.57], [-81.67, 35.57], [-81.69, 35.58], [-81.69, 35.53], [-81.69, 35.52], [-81.7, 35.36], [-81.75, 35.25], [-81.76, 35.22], [-81.77, 35.18], [-81.94, 35.19], [-82.0, 35.19], [-82.1, 35.19], [-82.14, 35.19], [-82.18, 35.19], [-82.21, 35.2], [-82.22, 35.2], [-82.28, 35.2], [-82.32, 35.19], [-82.32, 35.18], [-82.34, 35.19], [-82.36, 35.19], [-82.37, 35.18], [-82.38, 35.19], [-82.38, 35.2], [-82.38, 35.21], [-82.39, 35.22], [-82.4, 35.21], [-82.42, 35.2], [-82.42, 35.19], [-82.43, 35.17], [-82.44, 35.17], [-82.46, 35.16], [-82.45, 35.17], [-82.46, 35.18], [-82.47, 35.18], [-82.49, 35.17], [-82.5, 35.16], [-82.52, 35.16], [-82.53, 35.16], [-82.54, 35.16], [-82.54, 35.16], [-82.55, 35.16], [-82.56, 35.15], [-82.57, 35.15], [-82.59, 35.14], [-82.6, 35.14], [-82.61, 35.14], [-82.62, 35.13], [-82.63, 35.13], [-82.64, 35.13], [-82.66, 35.12], [-82.67, 35.12], [-82.67, 35.13], [-82.69, 35.13], [-82.69, 35.11], [-82.69, 35.11], [-82.7, 35.1], [-82.71, 35.1], [-82.72, 35.09], [-82.73, 35.09], [-82.74, 35.08], [-82.75, 35.08], [-82.76, 35.07], [-82.78, 35.06], [-82.78, 35.07], [-82.78, 35.08], [-82.78, 35.09], [-82.81, 35.08], [-82.97, 35.04], [-83.02, 35.03], [-83.11, 35.0], [-83.19, 35.0], [-83.32, 35.0], [-83.48, 34.99], [-83.55, 34.99], [-83.62, 34.99], [-83.62, 34.99], [-83.75, 34.99], [-83.83, 34.99], [-84.0, 34.99], [-84.12, 34.99], [-84.32, 34.99], [-84.31, 35.08], [-84.31, 35.1], [-84.3, 35.17], [-84.29, 35.19], [-84.29, 35.22], [-84.28, 35.23], [-84.26, 35.24], [-84.25, 35.25], [-84.24, 35.25], [-84.23, 35.26], [-84.22, 35.27], [-84.21, 35.27], [-84.2, 35.26], [-84.2, 35.24], [-84.18, 35.24], [-84.17, 35.25], [-84.14, 35.25], [-84.13, 35.24], [-84.13, 35.25], [-84.11, 35.25], [-84.1, 35.25], [-84.08, 35.26], [-84.08, 35.26], [-84.06, 35.27], [-84.04, 35.28], [-84.04, 35.29], [-84.02, 35.3], [-84.02, 35.3], [-84.04, 35.32], [-84.03, 35.33], [-84.04, 35.34], [-84.04, 35.35], [-84.02, 35.35], [-84.01, 35.37], [-84.01, 35.38], [-84.01, 35.39], [-84.02, 35.4], [-84.02, 35.41], [-84.01, 35.41], [-84.0, 35.42], [-83.99, 35.44], [-83.98, 35.44], [-83.98, 35.45], [-83.96, 35.45], [-83.96, 35.46], [-83.95, 35.46], [-83.94, 35.47], [-83.91, 35.48], [-83.9, 35.5], [-83.89, 35.5], [-83.88, 35.52], [-83.87, 35.52], [-83.86, 35.52], [-83.85, 35.52], [-83.83, 35.52], [-83.83, 35.52], [-83.8, 35.54], [-83.78, 35.55], [-83.77, 35.56], [-83.76, 35.56], [-83.75, 35.56], [-83.74, 35.57], [-83.72, 35.56], [-83.71, 35.57], [-83.66, 35.57], [-83.64, 35.57], [-83.6, 35.58], [-83.58, 35.56], [-83.57, 35.57], [-83.55, 35.56], [-83.52, 35.57], [-83.52, 35.56], [-83.5, 35.56], [-83.49, 35.57], [-83.48, 35.58], [-83.47, 35.59], [-83.46, 35.6], [-83.45, 35.61], [-83.42, 35.61], [-83.39, 35.63], [-83.39, 35.63], [-83.37, 35.64], [-83.36, 35.65], [-83.35, 35.66], [-83.33, 35.67], [-83.32, 35.66], [-83.31, 35.65], [-83.3, 35.66], [-83.29, 35.67], [-83.27, 35.68], [-83.25, 35.7], [-83.26, 35.71], [-83.26, 35.72], [-83.24, 35.73], [-83.2, 35.73], [-83.19, 35.73], [-83.18, 35.74], [-83.17, 35.75], [-83.17, 35.76], [-83.16, 35.76], [-83.12, 35.77], [-83.1, 35.78], [-83.08, 35.79], [-83.06, 35.79], [-83.05, 35.79], [-83.04, 35.79], [-83.04, 35.79], [-83.01, 35.78], [-83.0, 35.77], [-82.98, 35.78], [-82.97, 35.79], [-82.96, 35.79], [-82.96, 35.8], [-82.94, 35.83], [-82.94, 35.83], [-82.93, 35.83], [-82.92, 35.84], [-82.92, 35.85], [-82.92, 35.87], [-82.91, 35.87], [-82.9, 35.88], [-82.9, 35.89], [-82.91, 35.91], [-82.91, 35.91], [-82.91, 35.93], [-82.91, 35.93], [-82.9, 35.93], [-82.9, 35.95], [-82.87, 35.95], [-82.86, 35.95], [-82.85, 35.95], [-82.84, 35.94], [-82.83, 35.93], [-82.82, 35.92], [-82.8, 35.93], [-82.81, 35.94], [-82.8, 35.94], [-82.79, 35.95], [-82.78, 35.96], [-82.77, 35.97], [-82.79, 35.98], [-82.79, 35.99], [-82.78, 36.0], [-82.75, 36.0], [-82.75, 36.01], [-82.72, 36.02], [-82.71, 36.03], [-82.69, 36.04], [-82.68, 36.05], [-82.66, 36.06], [-82.65, 36.06], [-82.64, 36.07], [-82.62, 36.06], [-82.62, 36.05], [-82.61, 36.04], [-82.6, 36.04], [-82.59, 36.03], [-82.6, 36.02], [-82.61, 36.01], [-82.61, 36.0], [-82.61, 35.99], [-82.6, 35.99], [-82.61, 35.97], [-82.61, 35.97], [-82.58, 35.96], [-82.58, 35.96], [-82.56, 35.95], [-82.55, 35.96], [-82.53, 35.97], [-82.51, 35.98], [-82.47, 36.0], [-82.46, 36.01], [-82.41, 36.08], [-82.39, 36.1], [-82.38, 36.1], [-82.38, 36.11], [-82.37, 36.11], [-82.36, 36.12], [-82.34, 36.12], [-82.32, 36.12], [-82.3, 36.13], [-82.29, 36.14], [-82.28, 36.13], [-82.26, 36.13], [-82.26, 36.13], [-82.25, 36.13], [-82.24, 36.14], [-82.23, 36.14], [-82.22, 36.16], [-82.21, 36.16], [-82.18, 36.14], [-82.17, 36.15], [-82.16, 36.15], [-82.15, 36.15], [-82.14, 36.13], [-82.14, 36.12], [-82.13, 36.1], [-82.11, 36.1], [-82.11, 36.11], [-82.09, 36.11], [-82.08, 36.1]]]}}, {"type": "Feature", "properties": {"STATE": "North Carolina", "STATE_FIPS": "37", "CD_2DIG": "02", "STATE_CODE": 31, "CLIMDIV": 3102, "ID": 3102, "CD_NEW": 2, "FIPS_CD": "3702", "NCDC_GEO_I": 197.0, "NAME": "NORTHERN MOUNTAINS", "ST_ABBRV": "NC", "SHAPE_AREA": 0.0, "SHAPE_LEN": 0.0}, "geometry": {"type": "Polygon", "coordinates": [[[-80.61, 36.56], [-80.44, 36.55], [-80.45, 36.42], [-80.45, 36.24], [-80.44, 36.23], [-80.43, 36.22], [-80.44, 36.21], [-80.45, 36.21], [-80.44, 36.19], [-80.44, 36.18], [-80.44, 36.17], [-80.44, 36.16], [-80.44, 36.14], [-80.45, 36.12], [-80.47, 36.12], [-80.49, 36.12], [-80.51, 36.11], [-80.52, 36.09], [-80.52, 36.08], [-80.51, 36.07], [-80.51, 36.05], [-80.5, 36.05], [-80.58, 36.05], [-80.62, 36.05], [-80.73, 36.05], [-80.75, 36.05], [-80.98, 36.06], [-81.05, 36.04], [-81.06, 36.03], [-81.1, 36.03], [-81.11, 36.04], [-81.14, 36.04], [-81.17, 36.03], [-81.19, 36.04], [-81.2, 36.04], [-81.22, 36.03], [-81.24, 36.03], [-81.25, 36.03], [-81.26, 36.03], [-81.28, 36.02], [-81.28, 36.01], [-81.3, 36.0], [-81.31, 36.0], [-81.32, 36.0], [-81.33, 36.0], [-81.34, 35.93], [-81.34, 35.92], [-81.33, 35.89], [-81.33, 35.88], [-81.34, 35.86], [-81.34, 35.85], [-81.34, 35.83], [-81.34, 35.82], [-81.33, 35.8], [-81.35, 35.79], [-81.36, 35.78], [-81.35, 35.77], [-81.36, 35.77], [-81.37, 35.77], [-81.38, 35.76], [-81.4, 35.76], [-81.41, 35.76], [-81.43, 35.77], [-81.44, 35.78], [-81.45, 35.79], [-81.48, 35.78], [-81.49, 35.78], [-81.52, 35.78], [-81.56, 35.78], [-81.6, 35.82], [-81.61, 35.82], [-81.63, 35.83], [-81.64, 35.85], [-81.71, 35.88], [-81.73, 35.89], [-81.75, 35.92], [-81.78, 35.93], [-81.78, 35.95], [-81.8, 35.95], [-81.82, 35.97], [-81.83, 35.97], [-81.84, 35.97], [-81.87, 35.98], [-81.88, 35.98], [-81.88, 35.99], [-81.9, 36.0], [-81.96, 35.94], [-81.95, 35.93], [-81.97, 35.91], [-81.98, 35.91], [-82.03, 35.94], [-82.05, 35.96], [-82.06, 35.99], [-82.06, 36.0], [-82.04, 36.01], [-82.07, 36.07], [-82.07, 36.08], [-82.08, 36.09], [-82.08, 36.1], [-82.08, 36.1], [-82.08, 36.11], [-82.06, 36.11], [-82.05, 36.13], [-82.03, 36.12], [-81.96, 36.23], [-81.94, 36.26], [-81.91, 36.3], [-81.88, 36.31], [-81.86, 36.34], [-81.83, 36.35], [-81.82, 36.35], [-81.8, 36.36], [-81.79, 36.35], [-81.78, 36.35], [-81.76, 36.34], [-81.74, 36.34], [-81.74, 36.34], [-81.72, 36.34], [-81.71, 36.34], [-81.71, 36.35], [-81.72, 36.35], [-81.72, 36.36], [-81.73, 36.37], [-81.73, 36.38], [-81.73, 36.39], [-81.74, 36.4], [-81.74, 36.41], [-81.73, 36.42], [-81.72, 36.42], [-81.71, 36.44], [-81.72, 36.46], [-81.7, 36.46], [-81.69, 36.47], [-81.7, 36.49], [-81.7, 36.51], [-81.71, 36.52], [-81.71, 36.54], [-81.7, 36.54], [-81.69, 36.56], [-81.69, 36.57], [-81.68, 36.57], [-81.68, 36.59], [-81.6, 36.59], [-81.52, 36.58], [-81.49, 36.58], [-81.48, 36.58], [-81.44, 36.58], [-81.37, 36.57], [-81.31, 36.58], [-81.25, 36.57], [-81.18, 36.57], [-81.17, 36.57], [-81.08, 36.57], [-81.06, 36.57], [-81.0, 36.56], [-80.96, 36.56], [-80.9, 36.56], [-80.84, 36.56], [-80.8, 36.56], [-80.77, 36.56], [-80.73, 36.56], [-80.69, 36.56], [-80.65, 36.56], [-80.61, 36.56]]]}}, {"type": "Feature", "properties": {"STATE": "North Carolina", "STATE_FIPS": "37", "CD_2DIG": "05", "STATE_CODE": 31, "CLIMDIV": 3105, "ID": 3105, "CD_NEW": 5, "FIPS_CD": "3705", "NCDC_GEO_I": 198.0, "NAME": "SOUTHERN PIEDMONT", "ST_ABBRV": "NC", "SHAPE_AREA": 0.0, "SHAPE_LEN": 0.0}, "geometry": {"type": "Polygon", "coordinates": [[[-81.53, 35.57], [-81.51, 35.57], [-81.46, 35.57], [-81.37, 35.56], [-81.25, 35.56], [-81.24, 35.56], [-81.21, 35.55], [-81.21, 35.56], [-81.16, 35.55], [-81.16, 35.55], [-81.12, 35.55], [-81.06, 35.55], [-81.04, 35.55], [-81.02, 35.55], [-80.99, 35.55], [-80.96, 35.55], [-80.94, 35.53], [-80.95, 35.53], [-80.96, 35.53], [-80.95, 35.52], [-80.96, 35.51], [-80.96, 35.5], [-80.95, 35.49], [-80.91, 35.52], [-80.8, 35.51], [-80.72, 35.51], [-80.7, 35.5], [-80.7, 35.51], [-80.64, 35.51], [-80.58, 35.5], [-80.42, 35.5], [-80.35, 35.5], [-80.25, 35.5], [-80.14, 35.51], [-80.07, 35.51], [-80.03, 35.5], [-80.0, 35.51], [-79.92, 35.51], [-79.77, 35.51], [-79.58, 35.51], [-79.51, 35.52], [-79.35, 35.52], [-79.35, 35.51], [-79.34, 35.5], [-79.35, 35.48], [-79.36, 35.48], [-79.36, 35.46], [-79.33, 35.43], [-79.33, 35.42], [-79.32, 35.42], [-79.31, 35.41], [-79.29, 35.4], [-79.28, 35.38], [-79.27, 35.36], [-79.27, 35.35], [-79.27, 35.35], [-79.25, 35.34], [-79.22, 35.32], [-79.18, 35.31], [-79.22, 35.27], [-79.2, 35.26], [-79.19, 35.25], [-79.18, 35.25], [-79.16, 35.24], [-79.15, 35.23], [-79.15, 35.21], [-79.14, 35.21], [-79.1, 35.2], [-79.1, 35.19], [-79.1, 35.17], [-79.11, 35.17], [-79.13, 35.17], [-79.14, 35.18], [-79.14, 35.17], [-79.17, 35.18], [-79.19, 35.19], [-79.21, 35.19], [-79.23, 35.21], [-79.25, 35.21], [-79.26, 35.2], [-79.27, 35.2], [-79.29, 35.19], [-79.31, 35.17], [-79.32, 35.17], [-79.34, 35.16], [-79.39, 35.11], [-79.43, 35.07], [-79.46, 35.04], [-79.47, 35.04], [-79.51, 35.03], [-79.52, 35.02], [-79.55, 35.0], [-79.57, 34.99], [-79.58, 34.98], [-79.58, 34.97], [-79.59, 34.96], [-79.58, 34.94], [-79.58, 34.93], [-79.57, 34.93], [-79.56, 34.91], [-79.62, 34.87], [-79.63, 34.85], [-79.62, 34.85], [-79.62, 34.83], [-79.63, 34.82], [-79.63, 34.83], [-79.65, 34.81], [-79.69, 34.81], [-79.69, 34.8], [-79.76, 34.81], [-79.87, 34.81], [-80.04, 34.81], [-80.12, 34.81], [-80.21, 34.81], [-80.36, 34.81], [-80.5, 34.82], [-80.56, 34.82], [-80.62, 34.82], [-80.8, 34.82], [-80.78, 34.94], [-80.82, 34.98], [-80.86, 35.03], [-80.9, 35.07], [-80.93, 35.11], [-80.96, 35.09], [-81.04, 35.04], [-81.06, 35.06], [-81.06, 35.09], [-81.05, 35.1], [-81.03, 35.11], [-81.03, 35.11], [-81.04, 35.13], [-81.05, 35.13], [-81.05, 35.15], [-81.07, 35.15], [-81.13, 35.15], [-81.26, 35.16], [-81.37, 35.16], [-81.56, 35.17], [-81.71, 35.18], [-81.77, 35.18], [-81.76, 35.22], [-81.75, 35.25], [-81.7, 35.36], [-81.69, 35.52], [-81.69, 35.53], [-81.69, 35.58], [-81.67, 35.57], [-81.66, 35.57], [-81.65, 35.56], [-81.64, 35.57], [-81.61, 35.57], [-81.6, 35.57], [-81.59, 35.56], [-81.57, 35.56], [-81.56, 35.56], [-81.54, 35.56], [-81.53, 35.57]]]}}, {"type": "Feature", "properties": {"STATE": "North Carolina", "STATE_FIPS": "37", "CD_2DIG": "04", "STATE_CODE": 31, "CLIMDIV": 3104, "ID": 3104, "CD_NEW": 4, "FIPS_CD": "3704", "NCDC_GEO_I": 199.0, "NAME": "CENTRAL PIEDMONT", "ST_ABBRV": "NC", "SHAPE_AREA": 0.0, "SHAPE_LEN": 0.0}, "geometry": {"type": "Polygon", "coordinates": [[[-78.25, 35.82], [-78.37, 35.75], [-78.46, 35.71], [-78.47, 35.7], [-78.51, 35.68], [-78.51, 35.67], [-78.62, 35.58], [-78.71, 35.52], [-78.91, 35.58], [-78.99, 35.5], [-79.02, 35.47], [-79.05, 35.44], [-79.11, 35.38], [-79.13, 35.36], [-79.18, 35.31], [-79.22, 35.32], [-79.25, 35.34], [-79.27, 35.35], [-79.27, 35.35], [-79.27, 35.36], [-79.28, 35.38], [-79.29, 35.4], [-79.31, 35.41], [-79.32, 35.42], [-79.33, 35.42], [-79.33, 35.43], [-79.36, 35.46], [-79.36, 35.48], [-79.35, 35.48], [-79.34, 35.5], [-79.35, 35.51], [-79.35, 35.52], [-79.51, 35.52], [-79.58, 35.51], [-79.77, 35.51], [-79.92, 35.51], [-80.0, 35.51], [-80.03, 35.5], [-80.07, 35.51], [-80.14, 35.51], [-80.25, 35.5], [-80.35, 35.5], [-80.42, 35.5], [-80.58, 35.5], [-80.64, 35.51], [-80.7, 35.51], [-80.7, 35.5], [-80.72, 35.51], [-80.8, 35.51], [-80.91, 35.52], [-80.95, 35.49], [-80.96, 35.5], [-80.96, 35.51], [-80.95, 35.52], [-80.96, 35.53], [-80.95, 35.53], [-80.94, 35.53], [-80.96, 35.55], [-80.99, 35.55], [-81.02, 35.55], [-81.04, 35.55], [-81.06, 35.55], [-81.12, 35.55], [-81.16, 35.55], [-81.16, 35.55], [-81.21, 35.56], [-81.21, 35.55], [-81.24, 35.56], [-81.25, 35.56], [-81.37, 35.56], [-81.46, 35.57], [-81.51, 35.57], [-81.53, 35.57], [-81.51, 35.61], [-81.5, 35.61], [-81.42, 35.69], [-81.36, 35.77], [-81.35, 35.77], [-81.36, 35.78], [-81.35, 35.79], [-81.33, 35.8], [-81.34, 35.82], [-81.34, 35.83], [-81.34, 35.85], [-81.34, 35.86], [-81.33, 35.88], [-81.33, 35.89], [-81.34, 35.92], [-81.34, 35.93], [-81.33, 36.0], [-81.32, 36.0], [-81.31, 36.0], [-81.3, 36.0], [-81.28, 36.01], [-81.28, 36.02], [-81.26, 36.03], [-81.25, 36.03], [-81.24, 36.03], [-81.22, 36.03], [-81.2, 36.04], [-81.19, 36.04], [-81.17, 36.03], [-81.14, 36.04], [-81.11, 36.04], [-81.1, 36.03], [-81.06, 36.03], [-81.05, 36.04], [-80.98, 36.06], [-80.75, 36.05], [-80.73, 36.05], [-80.62, 36.05], [-80.58, 36.05], [-80.5, 36.05], [-80.49, 36.04], [-80.48, 36.05], [-80.47, 36.06], [-80.46, 36.06], [-80.46, 36.05], [-80.44, 36.03], [-80.42, 36.02], [-80.41, 36.0], [-80.42, 35.99], [-80.42, 35.98], [-80.39, 35.97], [-80.34, 35.99], [-80.32, 35.99], [-80.32, 36.0], [-80.21, 36.0], [-80.21, 36.03], [-80.15, 36.03], [-80.04, 36.01], [-80.05, 35.92], [-79.94, 35.92], [-79.93, 35.92], [-79.82, 35.91], [-79.75, 35.91], [-79.74, 35.91], [-79.66, 35.9], [-79.59, 35.9], [-79.54, 35.9], [-79.54, 35.84], [-79.24, 35.84], [-79.24, 35.85], [-79.25, 35.86], [-79.25, 35.88], [-79.19, 35.87], [-79.18, 35.87], [-79.16, 35.87], [-79.13, 35.87], [-79.08, 35.86], [-79.02, 35.86], [-78.98, 35.86], [-78.9, 35.87], [-78.83, 35.87], [-78.81, 35.93], [-78.76, 35.92], [-78.75, 35.93], [-78.74, 35.93], [-78.73, 35.95], [-78.71, 35.97], [-78.7, 36.01], [-78.71, 36.01], [-78.72, 36.03], [-78.74, 36.02], [-78.75, 36.03], [-78.75, 36.06], [-78.75, 36.07], [-78.72, 36.08], [-78.68, 36.07], [-78.6, 36.04], [-78.5, 36.0], [-78.43, 35.97], [-78.39, 35.94], [-78.35, 35.93], [-78.35, 35.91], [-78.33, 35.9], [-78.33, 35.9], [-78.32, 35.89], [-78.31, 35.9], [-78.3, 35.88], [-78.28, 35.87], [-78.27, 35.84], [-78.26, 35.83], [-78.25, 35.82]]]}}, {"type": "Feature", "properties": {"STATE": "North Carolina", "STATE_FIPS": "37", "CD_2DIG": "03", "STATE_CODE": 31, "CLIMDIV": 3103, "ID": 3103, "CD_NEW": 3, "FIPS_CD": "3703", "NCDC_GEO_I": 200.0, "NAME": "NORTHERN PIEDMONT", "ST_ABBRV": "NC", "SHAPE_AREA": 0.0, "SHAPE_LEN": 0.0}, "geometry": {"type": "Polygon", "coordinates": [[[-78.73, 36.54], [-78.67, 36.54], [-78.61, 36.54], [-78.52, 36.54], [-78.46, 36.54], [-78.25, 36.54], [-78.14, 36.54], [-77.9, 36.54], [-77.9, 36.51], [-77.91, 36.49], [-77.91, 36.48], [-77.91, 36.44], [-77.92, 36.44], [-77.91, 36.42], [-77.91, 36.38], [-77.94, 36.3], [-78.06, 36.13], [-78.17, 35.96], [-78.18, 35.94], [-78.24, 35.84], [-78.25, 35.82], [-78.26, 35.83], [-78.27, 35.84], [-78.28, 35.87], [-78.3, 35.88], [-78.31, 35.9], [-78.32, 35.89], [-78.33, 35.9], [-78.33, 35.9], [-78.35, 35.91], [-78.35, 35.93], [-78.39, 35.94], [-78.43, 35.97], [-78.5, 36.0], [-78.6, 36.04], [-78.68, 36.07], [-78.72, 36.08], [-78.75, 36.07], [-78.75, 36.06], [-78.75, 36.03], [-78.74, 36.02], [-78.72, 36.03], [-78.71, 36.01], [-78.7, 36.01], [-78.71, 35.97], [-78.73, 35.95], [-78.74, 35.93], [-78.75, 35.93], [-78.76, 35.92], [-78.81, 35.93], [-78.83, 35.87], [-78.9, 35.87], [-78.98, 35.86], [-79.02, 35.86], [-79.08, 35.86], [-79.13, 35.87], [-79.16, 35.87], [-79.18, 35.87], [-79.19, 35.87], [-79.25, 35.88], [-79.25, 35.86], [-79.24, 35.85], [-79.24, 35.84], [-79.54, 35.84], [-79.54, 35.9], [-79.59, 35.9], [-79.66, 35.9], [-79.74, 35.91], [-79.75, 35.91], [-79.82, 35.91], [-79.93, 35.92], [-79.94, 35.92], [-80.05, 35.92], [-80.04, 36.01], [-80.15, 36.03], [-80.21, 36.03], [-80.21, 36.0], [-80.32, 36.0], [-80.32, 35.99], [-80.34, 35.99], [-80.39, 35.97], [-80.42, 35.98], [-80.42, 35.99], [-80.41, 36.0], [-80.42, 36.02], [-80.44, 36.03], [-80.46, 36.05], [-80.46, 36.06], [-80.47, 36.06], [-80.48, 36.05], [-80.49, 36.04], [-80.5, 36.05], [-80.51, 36.05], [-80.51, 36.07], [-80.52, 36.08], [-80.52, 36.09], [-80.51, 36.11], [-80.49, 36.12], [-80.47, 36.12], [-80.45, 36.12], [-80.44, 36.14], [-80.44, 36.16], [-80.44, 36.17], [-80.44, 36.18], [-80.44, 36.19], [-80.45, 36.21], [-80.44, 36.21], [-80.43, 36.22], [-80.44, 36.23], [-80.45, 36.24], [-80.45, 36.42], [-80.44, 36.55], [-80.3, 36.54], [-80.25, 36.54], [-80.1, 36.54], [-79.99, 36.54], [-79.82, 36.54], [-79.71, 36.54], [-79.62, 36.54], [-79.51, 36.54], [-79.44, 36.54], [-79.25, 36.54], [-79.22, 36.54], [-79.13, 36.54], [-79.07, 36.54], [-78.85, 36.54], [-78.73, 36.54]]]}}, {"type": "Feature", "properties": {"STATE": "North Carolina", "STATE_FIPS": "37", "CD_2DIG": "08", "STATE_CODE": 31, "CLIMDIV": 3108, "ID": 3108, "CD_NEW": 8, "FIPS_CD": "3708", "NCDC_GEO_I": 201.0, "NAME": "NORTHERN COASTAL PLAIN", "ST_ABBRV": "NC", "SHAPE_AREA": 0.0, "SHAPE_LEN": 0.0}, "geometry": {"type": "MultiPolygon", "coordinates": [[[[-76.04, 36.55], [-76.03, 36.54], [-76.03, 36.53], [-76.03, 36.52], [-76.04, 36.51], [-76.05, 36.52], [-76.06, 36.51], [-76.06, 36.52], [-76.07, 36.52], [-76.08, 36.5], [-76.08, 36.5], [-76.06, 36.5], [-76.05, 36.5], [-76.04, 36.5], [-76.03, 36.48], [-76.02, 36.47], [-76.01, 36.45], [-76.01, 36.44], [-75.99, 36.44], [-75.98, 36.44], [-75.97, 36.43], [-75.97, 36.42], [-75.99, 36.43], [-76.0, 36.43], [-75.99, 36.42], [-76.0, 36.41], [-75.98, 36.4], [-75.97, 36.39], [-75.96, 36.38], [-75.96, 36.37], [-75.95, 36.37], [-75.94, 36.36], [-75.95, 36.4], [-75.95, 36.4], [-75.94, 36.39], [-75.93, 36.39], [-75.93, 36.4], [-75.94, 36.41], [-75.94, 36.42], [-75.92, 36.42], [-75.92, 36.41], [-75.92, 36.4], [-75.92, 36.39], [-75.92, 36.37], [-75.93, 36.36], [-75.92, 36.36], [-75.91, 36.34], [-75.91, 36.33], [-75.9, 36.32], [-75.89, 36.29], [-75.88, 36.28], [-75.86, 36.27], [-75.86, 36.26], [-75.87, 36.25], [-75.86, 36.25], [-75.87, 36.24], [-75.86, 36.22], [-75.84, 36.21], [-75.84, 36.19], [-75.84, 36.19], [-75.84, 36.17], [-75.82, 36.16], [-75.82, 36.14], [-75.8, 36.12], [-75.8, 36.1], [-75.8, 36.09], [-75.79, 36.08], [-75.8, 36.07], [-75.82, 36.09], [-75.85, 36.11], [-75.87, 36.13], [-75.87, 36.14], [-75.86, 36.15], [-75.86, 36.16], [-75.87, 36.17], [-75.88, 36.18], [-75.89, 36.2], [-75.91, 36.21], [-75.91, 36.22], [-75.91, 36.23], [-75.92, 36.25], [-75.94, 36.25], [-75.94, 36.26], [-75.95, 36.28], [-75.94, 36.29], [-75.97, 36.3], [-75.96, 36.31], [-75.97, 36.32], [-75.99, 36.31], [-76.0, 36.31], [-76.0, 36.32], [-76.01, 36.33], [-76.02, 36.33], [-76.02, 36.35], [-76.03, 36.34], [-76.02, 36.32], [-76.0, 36.32], [-76.0, 36.31], [-75.98, 36.3], [-75.97, 36.29], [-75.95, 36.29], [-75.95, 36.28], [-75.96, 36.27], [-75.97, 36.27], [-75.96, 36.24], [-75.95, 36.24], [-75.95, 36.22], [-75.95, 36.21], [-75.96, 36.2], [-75.94, 36.19], [-75.94, 36.18], [-75.92, 36.17], [-75.91, 36.16], [-75.92, 36.16], [-75.99, 36.18], [-76.02, 36.19], [-76.03, 36.2], [-76.04, 36.21], [-76.05, 36.23], [-76.08, 36.24], [-76.08, 36.25], [-76.1, 36.26], [-76.11, 36.27], [-76.13, 36.29], [-76.15, 36.29], [-76.17, 36.29], [-76.17, 36.3], [-76.19, 36.3], [-76.21, 36.29], [-76.2, 36.29], [-76.19, 36.29], [-76.19, 36.28], [-76.17, 36.26], [-76.16, 36.26], [-76.14, 36.26], [-76.13, 36.24], [-76.12, 36.22], [-76.14, 36.22], [-76.12, 36.21], [-76.12, 36.21], [-76.09, 36.21], [-76.08, 36.2], [-76.08, 36.19], [-76.07, 36.17], [-76.06, 36.15], [-76.06, 36.15], [-76.07, 36.14], [-76.1, 36.13], [-76.11, 36.14], [-76.13, 36.14], [-76.13, 36.13], [-76.15, 36.13], [-76.17, 36.12], [-76.19, 36.13], [-76.21, 36.14], [-76.22, 36.15], [-76.23, 36.16], [-76.23, 36.17], [-76.25, 36.18], [-76.25, 36.18], [-76.27, 36.19], [-76.28, 36.19], [-76.28, 36.18], [-76.26, 36.16], [-76.25, 36.16], [-76.24, 36.15], [-76.24, 36.14], [-76.23, 36.12], [-76.21, 36.12], [-76.19, 36.1], [-76.22, 36.1], [-76.24, 36.1], [-76.25, 36.1], [-76.26, 36.11], [-76.28, 36.11], [-76.29, 36.12], [-76.31, 36.12], [-76.32, 36.13], [-76.34, 36.14], [-76.34, 36.14], [-76.37, 36.14], [-76.39, 36.17], [-76.42, 36.18], [-76.43, 36.18], [-76.44, 36.19], [-76.46, 36.19], [-76.46, 36.19], [-76.44, 36.17], [-76.44, 36.16], [-76.4, 36.14], [-76.39, 36.13], [-76.38, 36.12], [-76.37, 36.12], [-76.35, 36.12], [-76.35, 36.11], [-76.33, 36.1], [-76.31, 36.1], [-76.3, 36.09], [-76.32, 36.09], [-76.32, 36.09], [-76.34, 36.09], [-76.38, 36.08], [-76.39, 36.08], [-76.41, 36.08], [-76.41, 36.06], [-76.42, 36.06], [-76.44, 36.05], [-76.45, 36.04], [-76.46, 36.03], [-76.5, 36.01], [-76.52, 36.01], [-76.55, 36.01], [-76.57, 36.01], [-76.59, 36.02], [-76.6, 36.04], [-76.61, 36.05], [-76.62, 36.06], [-76.62, 36.05], [-76.64, 36.04], [-76.65, 36.04], [-76.67, 36.04], [-76.69, 36.07], [-76.69, 36.08], [-76.69, 36.09], [-76.69, 36.1], [-76.69, 36.11], [-76.7, 36.11], [-76.71, 36.12], [-76.71, 36.13], [-76.72, 36.15], [-76.72, 36.2], [-76.71, 36.22], [-76.69, 36.24], [-76.69, 36.25], [-76.67, 36.27], [-76.67, 36.28], [-76.68, 36.3], [-76.71, 36.31], [-76.73, 36.32], [-76.73, 36.33], [-76.74, 36.34], [-76.76, 36.36], [-76.77, 36.36], [-76.74, 36.33], [-76.73, 36.32], [-76.72, 36.31], [-76.71, 36.3], [-76.7, 36.29], [-76.7, 36.27], [-76.71, 36.26], [-76.71, 36.26], [-76.72, 36.24], [-76.72, 36.23], [-76.74, 36.23], [-76.75, 36.2], [-76.75, 36.2], [-76.75, 36.19], [-76.75, 36.17], [-76.76, 36.15], [-76.75, 36.13], [-76.74, 36.13], [-76.74, 36.11], [-76.73, 36.1], [-76.73, 36.07], [-76.73, 36.06], [-76.72, 36.05], [-76.71, 36.04], [-76.7, 36.01], [-76.69, 36.01], [-76.68, 35.99], [-76.7, 35.97], [-76.72, 35.96], [-76.73, 35.95], [-76.73, 35.94], [-76.72, 35.94], [-76.71, 35.95], [-76.69, 35.94], [-76.68, 35.94], [-76.66, 35.93], [-76.64, 35.94], [-76.57, 35.94], [-76.56, 35.94], [-76.53, 35.94], [-76.51, 35.95], [-76.49, 35.96], [-76.48, 35.96], [-76.46, 35.97], [-76.44, 35.97], [-76.42, 35.98], [-76.4, 35.98], [-76.38, 35.97], [-76.38, 35.96], [-76.37, 35.95], [-76.38, 35.95], [-76.37, 35.94], [-76.35, 35.94], [-76.35, 35.94], [-76.33, 35.94], [-76.31, 35.95], [-76.29, 35.96], [-76.27, 35.97], [-76.25, 35.98], [-76.24, 35.98], [-76.22, 35.98], [-76.22, 35.98], [-76.18, 35.99], [-76.17, 35.99], [-76.15, 36.0], [-76.13, 35.99], [-76.11, 35.99], [-76.08, 35.99], [-76.06, 35.99], [-76.05, 35.98], [-76.03, 35.97], [-76.01, 35.96], [-76.03, 35.94], [-76.05, 35.96], [-76.06, 35.95], [-76.07, 35.94], [-76.05, 35.93], [-76.07, 35.92], [-76.09, 35.94], [-76.1, 35.94], [-76.09, 35.93], [-76.07, 35.91], [-76.06, 35.92], [-76.05, 35.92], [-76.04, 35.93], [-76.03, 35.93], [-76.02, 35.93], [-76.01, 35.92], [-76.02, 35.91], [-76.03, 35.91], [-76.03, 35.9], [-76.04, 35.89], [-76.05, 35.87], [-76.06, 35.86], [-76.06, 35.85], [-76.06, 35.84], [-76.07, 35.84], [-76.06, 35.82], [-76.05, 35.81], [-76.05, 35.8], [-76.05, 35.77], [-76.06, 35.76], [-76.05, 35.75], [-76.05, 35.73], [-76.06, 35.72], [-76.06, 35.71], [-76.05, 35.7], [-76.04, 35.7], [-76.04, 35.69], [-76.04, 35.67], [-76.06, 35.68], [-76.07, 35.68], [-76.09, 35.68], [-76.1, 35.68], [-76.1, 35.68], [-76.11, 35.69], [-76.12, 35.69], [-76.13, 35.69], [-76.14, 35.7], [-76.16, 35.7], [-76.17, 35.7], [-76.18, 35.69], [-76.17, 35.68], [-76.18, 35.65], [-76.19, 35.65], [-76.2, 35.63], [-76.2, 35.62], [-76.21, 35.6], [-76.21, 35.6], [-76.23, 35.6], [-76.25, 35.61], [-76.27, 35.6], [-76.27, 35.61], [-76.29, 35.61], [-76.3, 35.61], [-76.27, 35.69], [-76.51, 35.7], [-76.55, 35.71], [-76.85, 35.71], [-76.92, 35.68], [-76.99, 35.66], [-77.0, 35.67], [-77.03, 35.68], [-77.06, 35.69], [-77.07, 35.69], [-77.07, 35.7], [-77.09, 35.7], [-77.14, 35.73], [-77.15, 35.74], [-77.16, 35.74], [-77.17, 35.73], [-77.18, 35.74], [-77.2, 35.75], [-77.2, 35.75], [-77.22, 35.76], [-77.22, 35.76], [-77.25, 35.76], [-77.26, 35.77], [-77.26, 35.78], [-77.26, 35.79], [-77.39, 35.83], [-77.4, 35.83], [-77.41, 35.83], [-77.42, 35.81], [-77.42, 35.81], [-77.45, 35.81], [-77.45, 35.8], [-77.47, 35.8], [-77.52, 35.76], [-77.54, 35.75], [-77.56, 35.74], [-77.6, 35.71], [-77.66, 35.68], [-77.72, 35.73], [-77.72, 35.74], [-77.75, 35.83], [-77.81, 35.86], [-77.82, 35.86], [-77.83, 35.87], [-77.84, 35.84], [-77.85, 35.84], [-77.87, 35.85], [-77.89, 35.85], [-77.91, 35.84], [-77.95, 35.82], [-77.96, 35.82], [-78.07, 35.78], [-78.15, 35.75], [-78.18, 35.74], [-78.19, 35.73], [-78.2, 35.73], [-78.22, 35.74], [-78.22, 35.75], [-78.23, 35.75], [-78.24, 35.77], [-78.25, 35.77], [-78.25, 35.79], [-78.25, 35.82], [-78.24, 35.84], [-78.18, 35.94], [-78.17, 35.96], [-78.06, 36.13], [-77.94, 36.3], [-77.91, 36.38], [-77.91, 36.42], [-77.92, 36.44], [-77.91, 36.44], [-77.91, 36.48], [-77.91, 36.49], [-77.9, 36.51], [-77.9, 36.54], [-77.77, 36.55], [-77.62, 36.55], [-77.5, 36.55], [-77.4, 36.54], [-77.34, 36.54], [-77.2, 36.54], [-77.17, 36.55], [-77.15, 36.54], [-77.1, 36.54], [-76.92, 36.54], [-76.92, 36.55], [-76.8, 36.55], [-76.74, 36.55], [-76.54, 36.55], [-76.47, 36.55], [-76.31, 36.55], [-76.04, 36.55]]], [[[-75.89, 35.65], [-75.89, 35.65], [-75.9, 35.67], [-76.01, 35.67], [-76.0, 35.68], [-76.0, 35.69], [-76.0, 35.7], [-76.0, 35.71], [-76.0, 35.72], [-75.99, 35.74], [-75.99, 35.75], [-75.98, 35.77], [-75.99, 35.79], [-75.99, 35.8], [-75.99, 35.81], [-75.99, 35.83], [-75.98, 35.84], [-75.99, 35.86], [-75.99, 35.86], [-75.98, 35.87], [-75.99, 35.89], [-75.98, 35.9], [-75.96, 35.9], [-75.95, 35.91], [-75.95, 35.92], [-75.94, 35.93], [-75.92, 35.92], [-75.91, 35.93], [-75.89, 35.94], [-75.88, 35.93], [-75.86, 35.92], [-75.86, 35.93], [-75.84, 35.92], [-75.84, 35.93], [-75.81, 35.92], [-75.83, 35.94], [-75.86, 35.95], [-75.86, 35.96], [-75.85, 35.96], [-75.85, 35.97], [-75.83, 35.97], [-75.81, 35.96], [-75.81, 35.95], [-75.78, 35.93], [-75.78, 35.92], [-75.77, 35.91], [-75.77, 35.9], [-75.76, 35.89], [-75.75, 35.88], [-75.75, 35.88], [-75.75, 35.87], [-75.75, 35.85], [-75.74, 35.84], [-75.73, 35.82], [-75.73, 35.81], [-75.73, 35.8], [-75.73, 35.79], [-75.74, 35.77], [-75.73, 35.76], [-75.73, 35.75], [-75.72, 35.74], [-75.73, 35.73], [-75.72, 35.72], [-75.72, 35.71], [-75.72, 35.69], [-75.73, 35.68], [-75.74, 35.68], [-75.74, 35.69], [-75.75, 35.7], [-75.77, 35.71], [-75.78, 35.69], [-75.77, 35.67], [-75.77, 35.66], [-75.76, 35.65], [-75.74, 35.65], [-75.73, 35.63], [-75.74, 35.62], [-75.75, 35.61], [-75.77, 35.6], [-75.78, 35.6], [-75.78, 35.59], [-75.78, 35.58], [-75.8, 35.57], [-75.82, 35.57], [-75.83, 35.58], [-75.81, 35.59], [-75.83, 35.59], [-75.84, 35.59], [-75.85, 35.58], [-75.86, 35.59], [-75.86, 35.6], [-75.87, 35.61], [-75.87, 35.62], [-75.87, 35.63], [-75.88, 35.63], [-75.89, 35.65]]], [[[-75.87, 36.55], [-75.86, 36.52], [-75.85, 36.47], [-75.84, 36.44], [-75.81, 36.34], [-75.79, 36.28], [-75.77, 36.23], [-75.73, 36.14], [-75.72, 36.11], [-75.7, 36.08], [-75.66, 36.03], [-75.64, 35.99], [-75.63, 35.97], [-75.6, 35.92], [-75.59, 35.9], [-75.58, 35.88], [-75.56, 35.85], [-75.55, 35.82], [-75.55, 35.8], [-75.56, 35.81], [-75.58, 35.82], [-75.57, 35.83], [-75.58, 35.85], [-75.6, 35.85], [-75.6, 35.88], [-75.6, 35.89], [-75.6, 35.91], [-75.61, 35.92], [-75.62, 35.93], [-75.64, 35.96], [-75.65, 35.97], [-75.67, 35.97], [-75.67, 35.98], [-75.68, 36.0], [-75.69, 36.0], [-75.7, 36.0], [-75.71, 36.0], [-75.73, 36.01], [-75.73, 36.02], [-75.71, 36.02], [-75.71, 36.01], [-75.69, 36.02], [-75.68, 36.03], [-75.7, 36.06], [-75.7, 36.06], [-75.72, 36.05], [-75.74, 36.04], [-75.74, 36.06], [-75.74, 36.07], [-75.74, 36.09], [-75.75, 36.12], [-75.74, 36.13], [-75.74, 36.14], [-75.75, 36.16], [-75.76, 36.18], [-75.76, 36.2], [-75.77, 36.23], [-75.79, 36.23], [-75.8, 36.25], [-75.81, 36.25], [-75.8, 36.26], [-75.8, 36.28], [-75.81, 36.29], [-75.82, 36.29], [-75.82, 36.31], [-75.82, 36.32], [-75.82, 36.34], [-75.83, 36.35], [-75.83, 36.37], [-75.84, 36.38], [-75.84, 36.39], [-75.84, 36.4], [-75.84, 36.42], [-75.86, 36.42], [-75.86, 36.43], [-75.86, 36.44], [-75.87, 36.44], [-75.87, 36.45], [-75.86, 36.46], [-75.88, 36.46], [-75.87, 36.47], [-75.87, 36.47], [-75.88, 36.49], [-75.88, 36.5], [-75.88, 36.52], [-75.88, 36.53], [-75.89, 36.53], [-75.9, 36.51], [-75.91, 36.51], [-75.91, 36.49], [-75.92, 36.48], [-75.93, 36.49], [-75.96, 36.5], [-75.97, 36.49], [-75.98, 36.49], [-75.99, 36.49], [-75.97, 36.52], [-75.97, 36.53], [-76.0, 36.53], [-76.01, 36.55], [-76.01, 36.55], [-75.87, 36.55]]], [[[-75.75, 35.19], [-75.75, 35.19], [-75.75, 35.19], [-75.74, 35.2], [-75.72, 35.2], [-75.7, 35.21], [-75.7, 35.22], [-75.68, 35.23], [-75.66, 35.22], [-75.65, 35.23], [-75.64, 35.23], [-75.62, 35.25], [-75.6, 35.26], [-75.6, 35.27], [-75.58, 35.26], [-75.55, 35.27], [-75.54, 35.27], [-75.52, 35.27], [-75.51, 35.3], [-75.51, 35.31], [-75.52, 35.33], [-75.51, 35.36], [-75.5, 35.37], [-75.49, 35.39], [-75.5, 35.4], [-75.49, 35.41], [-75.49, 35.43], [-75.49, 35.45], [-75.48, 35.49], [-75.48, 35.5], [-75.49, 35.51], [-75.48, 35.51], [-75.49, 35.52], [-75.47, 35.54], [-75.47, 35.55], [-75.47, 35.58], [-75.47, 35.6], [-75.47, 35.62], [-75.48, 35.65], [-75.48, 35.65], [-75.48, 35.67], [-75.48, 35.67], [-75.49, 35.69], [-75.5, 35.69], [-75.5, 35.7], [-75.51, 35.71], [-75.51, 35.72], [-75.51, 35.74], [-75.5, 35.74], [-75.51, 35.75], [-75.52, 35.76], [-75.53, 35.78], [-75.52, 35.77], [-75.52, 35.77], [-75.51, 35.76], [-75.5, 35.74], [-75.49, 35.71], [-75.48, 35.67], [-75.48, 35.66], [-75.47, 35.63], [-75.47, 35.62], [-75.46, 35.59], [-75.46, 35.55], [-75.47, 35.52], [-75.48, 35.49], [-75.48, 35.45], [-75.48, 35.41], [-75.49, 35.39], [-75.5, 35.37], [-75.5, 35.33], [-75.51, 35.32], [-75.52, 35.28], [-75.52, 35.26], [-75.52, 35.25], [-75.53, 35.22], [-75.54, 35.23], [-75.56, 35.23], [-75.58, 35.24], [-75.63, 35.23], [-75.67, 35.21], [-75.7, 35.2], [-75.72, 35.2], [-75.74, 35.19], [-75.75, 35.19]]], [[[-75.71, 35.94], [-75.69, 35.94], [-75.67, 35.93], [-75.66, 35.92], [-75.67, 35.9], [-75.65, 35.91], [-75.64, 35.89], [-75.63, 35.88], [-75.62, 35.87], [-75.62, 35.86], [-75.62, 35.83], [-75.63, 35.82], [-75.65, 35.83], [-75.66, 35.85], [-75.66, 35.86], [-75.67, 35.88], [-75.68, 35.88], [-75.68, 35.89], [-75.7, 35.9], [-75.7, 35.91], [-75.71, 35.92], [-75.72, 35.92], [-75.73, 35.94], [-75.71, 35.94]]], [[[-75.84, 36.33], [-75.82, 36.31], [-75.83, 36.29], [-75.84, 36.3], [-75.84, 36.31], [-75.84, 36.32], [-75.84, 36.33]]]]}}, {"type": "Feature", "properties": {"STATE": "North Carolina", "STATE_FIPS": "37", "CD_2DIG": "07", "STATE_CODE": 31, "CLIMDIV": 3107, "ID": 3107, "CD_NEW": 7, "FIPS_CD": "3707", "NCDC_GEO_I": 202.0, "NAME": "CENTRAL COASTAL PLAIN", "ST_ABBRV": "NC", "SHAPE_AREA": 0.0, "SHAPE_LEN": 0.0}, "geometry": {"type": "MultiPolygon", "coordinates": [[[[-76.12, 35.69], [-76.13, 35.68], [-76.12, 35.67], [-76.11, 35.67], [-76.1, 35.66], [-76.07, 35.66], [-76.06, 35.67], [-76.05, 35.66], [-76.04, 35.65], [-76.03, 35.65], [-76.02, 35.66], [-76.01, 35.67], [-75.9, 35.67], [-75.89, 35.65], [-75.89, 35.65], [-75.88, 35.62], [-75.89, 35.6], [-75.89, 35.59], [-75.88, 35.58], [-75.9, 35.57], [-75.9, 35.56], [-75.92, 35.56], [-75.91, 35.54], [-75.93, 35.54], [-75.94, 35.54], [-75.96, 35.53], [-75.96, 35.52], [-75.97, 35.51], [-75.96, 35.5], [-75.96, 35.49], [-75.97, 35.49], [-75.99, 35.48], [-76.0, 35.48], [-76.0, 35.46], [-76.0, 35.45], [-76.02, 35.44], [-76.01, 35.42], [-76.02, 35.42], [-76.03, 35.41], [-76.03, 35.43], [-76.04, 35.43], [-76.06, 35.44], [-76.06, 35.42], [-76.06, 35.41], [-76.08, 35.4], [-76.08, 35.39], [-76.07, 35.38], [-76.06, 35.38], [-76.07, 35.37], [-76.09, 35.37], [-76.1, 35.36], [-76.11, 35.35], [-76.13, 35.36], [-76.14, 35.36], [-76.14, 35.34], [-76.15, 35.34], [-76.15, 35.33], [-76.16, 35.33], [-76.16, 35.34], [-76.18, 35.35], [-76.19, 35.34], [-76.2, 35.34], [-76.2, 35.35], [-76.22, 35.35], [-76.23, 35.35], [-76.23, 35.36], [-76.25, 35.37], [-76.26, 35.38], [-76.26, 35.36], [-76.25, 35.35], [-76.27, 35.34], [-76.28, 35.34], [-76.29, 35.35], [-76.29, 35.36], [-76.3, 35.37], [-76.3, 35.37], [-76.32, 35.37], [-76.32, 35.39], [-76.33, 35.39], [-76.33, 35.4], [-76.35, 35.41], [-76.35, 35.4], [-76.34, 35.39], [-76.36, 35.38], [-76.35, 35.37], [-76.36, 35.36], [-76.35, 35.35], [-76.36, 35.35], [-76.37, 35.36], [-76.39, 35.36], [-76.42, 35.37], [-76.41, 35.38], [-76.38, 35.37], [-76.37, 35.36], [-76.36, 35.36], [-76.36, 35.37], [-76.37, 35.38], [-76.38, 35.39], [-76.39, 35.4], [-76.38, 35.42], [-76.39, 35.43], [-76.4, 35.43], [-76.43, 35.42], [-76.42, 35.41], [-76.43, 35.41], [-76.45, 35.41], [-76.45, 35.41], [-76.46, 35.42], [-76.46, 35.4], [-76.47, 35.4], [-76.48, 35.41], [-76.48, 35.39], [-76.47, 35.38], [-76.47, 35.37], [-76.48, 35.37], [-76.49, 35.38], [-76.5, 35.39], [-76.5, 35.4], [-76.5, 35.4], [-76.52, 35.39], [-76.53, 35.4], [-76.54, 35.41], [-76.53, 35.42], [-76.53, 35.43], [-76.55, 35.44], [-76.57, 35.45], [-76.55, 35.46], [-76.55, 35.46], [-76.56, 35.48], [-76.56, 35.49], [-76.57, 35.49], [-76.58, 35.5], [-76.59, 35.51], [-76.56, 35.51], [-76.55, 35.51], [-76.54, 35.51], [-76.51, 35.5], [-76.49, 35.5], [-76.47, 35.51], [-76.47, 35.53], [-76.47, 35.54], [-76.46, 35.55], [-76.46, 35.56], [-76.48, 35.55], [-76.49, 35.54], [-76.5, 35.53], [-76.51, 35.54], [-76.52, 35.53], [-76.53, 35.53], [-76.54, 35.53], [-76.55, 35.53], [-76.56, 35.53], [-76.57, 35.54], [-76.58, 35.54], [-76.61, 35.54], [-76.61, 35.53], [-76.61, 35.53], [-76.63, 35.52], [-76.63, 35.51], [-76.62, 35.5], [-76.62, 35.49], [-76.6, 35.48], [-76.6, 35.48], [-76.61, 35.46], [-76.6, 35.44], [-76.59, 35.44], [-76.59, 35.43], [-76.59, 35.42], [-76.58, 35.41], [-76.58, 35.39], [-76.59, 35.39], [-76.61, 35.39], [-76.65, 35.4], [-76.66, 35.41], [-76.68, 35.42], [-76.7, 35.42], [-76.71, 35.43], [-76.73, 35.43], [-76.75, 35.43], [-76.76, 35.42], [-76.77, 35.43], [-76.79, 35.43], [-76.81, 35.44], [-76.82, 35.45], [-76.83, 35.45], [-76.86, 35.45], [-76.88, 35.46], [-76.9, 35.46], [-76.92, 35.47], [-76.93, 35.47], [-76.95, 35.48], [-76.95, 35.49], [-76.97, 35.48], [-76.98, 35.48], [-76.99, 35.49], [-77.0, 35.5], [-77.01, 35.51], [-77.03, 35.53], [-77.04, 35.53], [-77.04, 35.52], [-77.02, 35.51], [-77.03, 35.5], [-77.04, 35.51], [-77.05, 35.5], [-77.04, 35.5], [-77.03, 35.49], [-77.02, 35.49], [-77.01, 35.47], [-76.98, 35.47], [-76.98, 35.46], [-76.97, 35.43], [-76.93, 35.45], [-76.92, 35.44], [-76.9, 35.43], [-76.87, 35.42], [-76.86, 35.43], [-76.84, 35.42], [-76.82, 35.41], [-76.82, 35.4], [-76.8, 35.39], [-76.77, 35.39], [-76.77, 35.38], [-76.74, 35.37], [-76.72, 35.37], [-76.71, 35.36], [-76.69, 35.36], [-76.68, 35.35], [-76.67, 35.35], [-76.66, 35.34], [-76.64, 35.34], [-76.63, 35.34], [-76.62, 35.33], [-76.6, 35.33], [-76.57, 35.33], [-76.54, 35.32], [-76.52, 35.32], [-76.49, 35.31], [-76.5, 35.31], [-76.49, 35.27], [-76.48, 35.28], [-76.47, 35.27], [-76.49, 35.27], [-76.49, 35.25], [-76.5, 35.24], [-76.51, 35.25], [-76.52, 35.24], [-76.51, 35.23], [-76.5, 35.23], [-76.5, 35.22], [-76.52, 35.23], [-76.53, 35.23], [-76.54, 35.23], [-76.57, 35.24], [-76.58, 35.24], [-76.56, 35.23], [-76.56, 35.22], [-76.55, 35.22], [-76.53, 35.21], [-76.52, 35.2], [-76.53, 35.18], [-76.54, 35.19], [-76.54, 35.2], [-76.55, 35.19], [-76.57, 35.2], [-76.59, 35.21], [-76.6, 35.2], [-76.61, 35.18], [-76.62, 35.18], [-76.64, 35.17], [-76.65, 35.18], [-76.66, 35.18], [-76.67, 35.17], [-76.68, 35.16], [-76.7, 35.16], [-76.7, 35.15], [-76.71, 35.15], [-76.72, 35.14], [-76.69, 35.14], [-76.68, 35.15], [-76.67, 35.15], [-76.67, 35.16], [-76.65, 35.17], [-76.65, 35.16], [-76.6, 35.16], [-76.59, 35.15], [-76.58, 35.16], [-76.58, 35.17], [-76.57, 35.17], [-76.55, 35.15], [-76.55, 35.14], [-76.56, 35.12], [-76.57, 35.12], [-76.57, 35.1], [-76.59, 35.1], [-76.59, 35.1], [-76.61, 35.1], [-76.59, 35.09], [-76.6, 35.07], [-76.64, 35.06], [-76.64, 35.05], [-76.66, 35.05], [-76.66, 35.04], [-76.68, 35.03], [-76.68, 35.03], [-76.7, 35.02], [-76.71, 35.01], [-76.73, 35.0], [-76.75, 34.99], [-76.76, 34.99], [-76.77, 34.98], [-76.79, 34.97], [-76.8, 34.97], [-76.82, 34.97], [-76.85, 34.99], [-76.87, 35.0], [-76.88, 35.0], [-76.9, 35.02], [-76.9, 35.03], [-76.92, 35.03], [-76.93, 35.03], [-76.95, 35.05], [-76.98, 35.06], [-77.0, 35.08], [-77.03, 35.12], [-77.03, 35.14], [-77.04, 35.14], [-77.06, 35.15], [-77.06, 35.14], [-77.05, 35.13], [-77.05, 35.13], [-77.04, 35.12], [-77.03, 35.11], [-77.04, 35.1], [-77.02, 35.08], [-77.02, 35.08], [-77.01, 35.07], [-77.0, 35.06], [-76.99, 35.04], [-76.98, 35.01], [-76.97, 35.0], [-76.95, 34.99], [-76.94, 34.97], [-76.92, 34.97], [-76.9, 34.96], [-76.89, 34.95], [-76.87, 34.95], [-76.86, 34.94], [-76.85, 34.94], [-76.83, 34.94], [-76.8, 34.93], [-76.76, 34.92], [-76.75, 34.92], [-76.73, 34.93], [-76.72, 34.93], [-76.71, 34.95], [-76.69, 34.96], [-76.68, 34.95], [-76.66, 34.94], [-76.66, 34.93], [-76.67, 34.92], [-76.66, 34.92], [-76.64, 34.94], [-76.65, 34.94], [-76.66, 34.95], [-76.68, 34.96], [-76.68, 34.97], [-76.66, 34.98], [-76.65, 34.98], [-76.63, 34.99], [-76.61, 34.99], [-76.59, 34.98], [-76.59, 34.96], [-76.58, 34.96], [-76.59, 34.95], [-76.57, 34.95], [-76.56, 34.94], [-76.54, 34.92], [-76.54, 34.94], [-76.56, 34.95], [-76.56, 34.95], [-76.57, 34.96], [-76.58, 34.98], [-76.57, 34.98], [-76.58, 34.99], [-76.57, 35.0], [-76.53, 35.0], [-76.52, 35.0], [-76.51, 34.99], [-76.51, 34.98], [-76.49, 34.98], [-76.49, 34.97], [-76.48, 34.97], [-76.48, 34.99], [-76.5, 35.01], [-76.49, 35.02], [-76.49, 35.02], [-76.48, 35.04], [-76.46, 35.02], [-76.46, 35.04], [-76.47, 35.06], [-76.47, 35.08], [-76.46, 35.08], [-76.45, 35.07], [-76.45, 35.06], [-76.44, 35.06], [-76.43, 35.05], [-76.44, 35.04], [-76.43, 35.03], [-76.42, 35.03], [-76.44, 35.02], [-76.44, 35.01], [-76.44, 35.01], [-76.43, 35.0], [-76.42, 34.98], [-76.43, 34.96], [-76.46, 34.96], [-76.47, 34.96], [-76.45, 34.95], [-76.46, 34.94], [-76.45, 34.94], [-76.44, 34.94], [-76.42, 34.95], [-76.42, 34.95], [-76.41, 34.96], [-76.4, 34.96], [-76.4, 34.95], [-76.39, 34.94], [-76.38, 34.93], [-76.36, 34.93], [-76.36, 34.92], [-76.34, 34.92], [-76.34, 34.91], [-76.34, 34.91], [-76.32, 34.91], [-76.31, 34.9], [-76.33, 34.89], [-76.35, 34.87], [-76.37, 34.87], [-76.38, 34.86], [-76.39, 34.86], [-76.4, 34.87], [-76.39, 34.87], [-76.4, 34.89], [-76.41, 34.88], [-76.41, 34.85], [-76.41, 34.84], [-76.42, 34.83], [-76.43, 34.83], [-76.44, 34.82], [-76.45, 34.81], [-76.46, 34.79], [-76.48, 34.76], [-76.49, 34.77], [-76.49, 34.78], [-76.49, 34.79], [-76.48, 34.79], [-76.47, 34.8], [-76.48, 34.8], [-76.49, 34.8], [-76.5, 34.78], [-76.5, 34.77], [-76.5, 34.76], [-76.51, 34.76], [-76.51, 34.74], [-76.51, 34.73], [-76.52, 34.72], [-76.53, 34.72], [-76.55, 34.72], [-76.55, 34.73], [-76.58, 34.72], [-76.58, 34.73], [-76.58, 34.74], [-76.59, 34.74], [-76.59, 34.75], [-76.58, 34.76], [-76.57, 34.78], [-76.59, 34.77], [-76.6, 34.77], [-76.6, 34.79], [-76.62, 34.79], [-76.61, 34.78], [-76.62, 34.77], [-76.62, 34.76], [-76.62, 34.75], [-76.62, 34.73], [-76.64, 34.72], [-76.62, 34.71], [-76.62, 34.71], [-76.66, 34.71], [-76.67, 34.72], [-76.67, 34.73], [-76.67, 34.73], [-76.66, 34.74], [-76.66, 34.75], [-76.66, 34.76], [-76.67, 34.77], [-76.68, 34.78], [-76.68, 34.78], [-76.69, 34.77], [-76.71, 34.78], [-76.73, 34.78], [-76.74, 34.78], [-76.76, 34.76], [-76.78, 34.75], [-76.76, 34.75], [-76.75, 34.75], [-76.74, 34.76], [-76.72, 34.76], [-76.71, 34.75], [-76.71, 34.74], [-76.72, 34.74], [-76.72, 34.73], [-76.72, 34.72], [-76.73, 34.72], [-76.76, 34.72], [-76.77, 34.72], [-76.81, 34.73], [-76.84, 34.73], [-76.87, 34.73], [-76.9, 34.73], [-76.91, 34.72], [-76.94, 34.72], [-76.95, 34.71], [-76.96, 34.71], [-76.97, 34.71], [-76.98, 34.7], [-77.01, 34.69], [-77.02, 34.69], [-77.04, 34.68], [-77.04, 34.69], [-77.05, 34.68], [-77.08, 34.68], [-77.09, 34.67], [-77.1, 34.68], [-77.09, 34.69], [-77.09, 34.7], [-77.09, 34.71], [-77.1, 34.72], [-77.11, 34.73], [-77.12, 34.76], [-77.13, 34.77], [-77.14, 34.77], [-77.15, 34.77], [-77.17, 34.78], [-77.18, 34.8], [-77.19, 34.8], [-77.2, 34.81], [-77.19, 34.82], [-77.18, 34.83], [-77.18, 34.84], [-77.19, 34.83], [-77.21, 34.85], [-77.21, 34.86], [-77.22, 34.87], [-77.22, 34.88], [-77.23, 34.89], [-77.25, 34.9], [-77.25, 34.91], [-77.26, 34.91], [-77.27, 34.93], [-77.28, 34.93], [-77.3, 34.93], [-77.32, 34.93], [-77.33, 34.94], [-77.35, 34.93], [-77.36, 34.93], [-77.37, 34.92], [-77.37, 34.91], [-77.5, 34.97], [-77.57, 34.98], [-77.64, 34.98], [-77.68, 34.97], [-77.7, 34.99], [-77.73, 35.01], [-77.75, 35.02], [-77.75, 35.11], [-77.76, 35.14], [-77.78, 35.15], [-77.83, 35.18], [-77.89, 35.16], [-77.9, 35.15], [-77.91, 35.16], [-77.92, 35.17], [-77.93, 35.17], [-77.94, 35.17], [-77.95, 35.17], [-77.97, 35.17], [-77.98, 35.17], [-77.98, 35.18], [-77.99, 35.18], [-78.01, 35.19], [-78.02, 35.19], [-78.04, 35.19], [-78.08, 35.18], [-78.16, 35.19], [-78.16, 35.2], [-78.25, 35.23], [-78.25, 35.23], [-78.3, 35.29], [-78.36, 35.27], [-78.41, 35.26], [-78.49, 35.26], [-78.54, 35.32], [-78.53, 35.33], [-78.53, 35.34], [-78.54, 35.35], [-78.56, 35.36], [-78.57, 35.37], [-78.58, 35.39], [-78.59, 35.4], [-78.6, 35.42], [-78.61, 35.43], [-78.61, 35.43], [-78.61, 35.44], [-78.63, 35.46], [-78.64, 35.46], [-78.65, 35.47], [-78.65, 35.48], [-78.66, 35.5], [-78.67, 35.5], [-78.69, 35.5], [-78.69, 35.52], [-78.71, 35.52], [-78.62, 35.58], [-78.51, 35.67], [-78.51, 35.68], [-78.47, 35.7], [-78.46, 35.71], [-78.37, 35.75], [-78.25, 35.82], [-78.25, 35.79], [-78.25, 35.77], [-78.24, 35.77], [-78.23, 35.75], [-78.22, 35.75], [-78.22, 35.74], [-78.2, 35.73], [-78.19, 35.73], [-78.18, 35.74], [-78.15, 35.75], [-78.07, 35.78], [-77.96, 35.82], [-77.95, 35.82], [-77.91, 35.84], [-77.89, 35.85], [-77.87, 35.85], [-77.85, 35.84], [-77.84, 35.84], [-77.83, 35.87], [-77.82, 35.86], [-77.81, 35.86], [-77.75, 35.83], [-77.72, 35.74], [-77.72, 35.73], [-77.66, 35.68], [-77.6, 35.71], [-77.56, 35.74], [-77.54, 35.75], [-77.52, 35.76], [-77.47, 35.8], [-77.45, 35.8], [-77.45, 35.81], [-77.42, 35.81], [-77.42, 35.81], [-77.41, 35.83], [-77.4, 35.83], [-77.39, 35.83], [-77.26, 35.79], [-77.26, 35.78], [-77.26, 35.77], [-77.25, 35.76], [-77.22, 35.76], [-77.22, 35.76], [-77.2, 35.75], [-77.2, 35.75], [-77.18, 35.74], [-77.17, 35.73], [-77.16, 35.74], [-77.15, 35.74], [-77.14, 35.73], [-77.09, 35.7], [-77.07, 35.7], [-77.07, 35.69], [-77.06, 35.69], [-77.03, 35.68], [-77.0, 35.67], [-76.99, 35.66], [-76.92, 35.68], [-76.85, 35.71], [-76.55, 35.71], [-76.51, 35.7], [-76.27, 35.69], [-76.3, 35.61], [-76.29, 35.61], [-76.27, 35.61], [-76.27, 35.6], [-76.25, 35.61], [-76.23, 35.6], [-76.21, 35.6], [-76.21, 35.6], [-76.2, 35.62], [-76.2, 35.63], [-76.19, 35.65], [-76.18, 35.65], [-76.17, 35.68], [-76.18, 35.69], [-76.17, 35.7], [-76.16, 35.7], [-76.14, 35.7], [-76.13, 35.69], [-76.12, 35.69]]], [[[-76.34, 35.03], [-76.3, 35.01], [-76.3, 35.0], [-76.31, 35.01], [-76.31, 34.99], [-76.3, 34.98], [-76.29, 34.97], [-76.28, 34.96], [-76.29, 34.94], [-76.3, 34.94], [-76.3, 34.92], [-76.31, 34.93], [-76.32, 34.93], [-76.33, 34.94], [-76.35, 34.93], [-76.36, 34.93], [-76.38, 34.93], [-76.38, 34.94], [-76.39, 34.95], [-76.38, 34.96], [-76.37, 34.96], [-76.36, 34.97], [-76.35, 34.97], [-76.34, 34.96], [-76.32, 34.96], [-76.32, 34.97], [-76.33, 34.99], [-76.34, 35.0], [-76.35, 35.02], [-76.35, 35.02], [-76.33, 35.01], [-76.33, 35.02], [-76.34, 35.03]]], [[[-76.74, 34.71], [-76.73, 34.7], [-76.71, 34.7], [-76.7, 34.7], [-76.69, 34.7], [-76.68, 34.69], [-76.69, 34.69], [-76.72, 34.7], [-76.77, 34.7], [-76.85, 34.69], [-76.95, 34.68], [-77.0, 34.67], [-77.03, 34.66], [-77.1, 34.64], [-77.1, 34.65], [-77.09, 34.66], [-77.05, 34.67], [-77.01, 34.68], [-77.01, 34.67], [-76.98, 34.68], [-76.96, 34.68], [-76.91, 34.68], [-76.9, 34.69], [-76.88, 34.69], [-76.87, 34.69], [-76.84, 34.7], [-76.82, 34.7], [-76.81, 34.7], [-76.8, 34.7], [-76.78, 34.7], [-76.77, 34.7], [-76.75, 34.71], [-76.74, 34.71]]], [[[-75.76, 35.19], [-75.77, 35.18], [-75.81, 35.17], [-75.86, 35.15], [-75.92, 35.13], [-75.95, 35.11], [-75.98, 35.08], [-76.0, 35.07], [-76.0, 35.08], [-75.99, 35.1], [-75.99, 35.11], [-75.99, 35.12], [-75.98, 35.12], [-75.96, 35.11], [-75.94, 35.13], [-75.91, 35.14], [-75.9, 35.14], [-75.88, 35.15], [-75.87, 35.15], [-75.85, 35.16], [-75.83, 35.17], [-75.81, 35.17], [-75.81, 35.18], [-75.8, 35.18], [-75.78, 35.19], [-75.76, 35.19]]], [[[-76.34, 34.83], [-76.39, 34.78], [-76.45, 34.71], [-76.48, 34.67], [-76.5, 34.65], [-76.52, 34.62], [-76.53, 34.6], [-76.53, 34.59], [-76.55, 34.6], [-76.55, 34.61], [-76.53, 34.61], [-76.52, 34.64], [-76.5, 34.66], [-76.5, 34.67], [-76.48, 34.69], [-76.47, 34.69], [-76.47, 34.71], [-76.45, 34.73], [-76.44, 34.73], [-76.44, 34.74], [-76.43, 34.75], [-76.44, 34.76], [-76.43, 34.77], [-76.42, 34.75], [-76.41, 34.77], [-76.4, 34.78], [-76.39, 34.78], [-76.39, 34.79], [-76.38, 34.8], [-76.37, 34.81], [-76.34, 34.83]]], [[[-76.66, 34.69], [-76.65, 34.69], [-76.63, 34.68], [-76.61, 34.67], [-76.58, 34.66], [-76.55, 34.65], [-76.54, 34.65], [-76.54, 34.64], [-76.56, 34.65], [-76.59, 34.67], [-76.62, 34.67], [-76.65, 34.68], [-76.66, 34.69], [-76.66, 34.69]]], [[[-76.58, 34.71], [-76.56, 34.71], [-76.56, 34.7], [-76.53, 34.69], [-76.53, 34.68], [-76.55, 34.69], [-76.58, 34.7], [-76.58, 34.71], [-76.58, 34.71]]], [[[-76.21, 34.94], [-76.21, 34.93], [-76.23, 34.92], [-76.28, 34.88], [-76.28, 34.88], [-76.26, 34.9], [-76.25, 34.91], [-76.24, 34.91], [-76.21, 34.94]]], [[[-76.16, 34.98], [-76.17, 34.97], [-76.21, 34.94], [-76.21, 34.94], [-76.2, 34.95], [-76.19, 34.95], [-76.17, 34.97], [-76.18, 34.97], [-76.16, 34.98]]], [[[-76.67, 34.73], [-76.68, 34.71], [-76.69, 34.72], [-76.68, 34.72], [-76.67, 34.73]]]]}}, {"type": "Feature", "properties": {"STATE": "North Carolina", "STATE_FIPS": "37", "CD_2DIG": "06", "STATE_CODE": 31, "CLIMDIV": 3106, "ID": 3106, "CD_NEW": 6, "FIPS_CD": "3706", "NCDC_GEO_I": 203.0, "NAME": "SOUTHERN COASTAL PLAIN", "ST_ABBRV": "NC", "SHAPE_AREA": 0.0, "SHAPE_LEN": 0.0}, "geometry": {"type": "MultiPolygon", "coordinates": [[[[-77.15, 34.77], [-77.14, 34.77], [-77.13, 34.73], [-77.14, 34.73], [-77.12, 34.72], [-77.12, 34.72], [-77.11, 34.7], [-77.12, 34.69], [-77.13, 34.69], [-77.15, 34.67], [-77.16, 34.66], [-77.18, 34.64], [-77.19, 34.64], [-77.2, 34.64], [-77.21, 34.63], [-77.22, 34.62], [-77.28, 34.57], [-77.31, 34.55], [-77.32, 34.55], [-77.33, 34.55], [-77.34, 34.55], [-77.34, 34.57], [-77.35, 34.57], [-77.38, 34.58], [-77.39, 34.59], [-77.4, 34.6], [-77.39, 34.6], [-77.37, 34.6], [-77.34, 34.64], [-77.34, 34.65], [-77.36, 34.66], [-77.36, 34.67], [-77.37, 34.69], [-77.38, 34.7], [-77.4, 34.71], [-77.4, 34.72], [-77.38, 34.72], [-77.36, 34.73], [-77.36, 34.73], [-77.38, 34.73], [-77.4, 34.73], [-77.41, 34.72], [-77.43, 34.73], [-77.42, 34.74], [-77.44, 34.74], [-77.43, 34.73], [-77.43, 34.71], [-77.43, 34.7], [-77.43, 34.69], [-77.43, 34.68], [-77.42, 34.69], [-77.41, 34.68], [-77.4, 34.68], [-77.4, 34.67], [-77.38, 34.66], [-77.38, 34.65], [-77.37, 34.64], [-77.38, 34.63], [-77.37, 34.63], [-77.4, 34.61], [-77.41, 34.62], [-77.43, 34.62], [-77.45, 34.61], [-77.44, 34.6], [-77.44, 34.59], [-77.42, 34.58], [-77.41, 34.57], [-77.4, 34.57], [-77.38, 34.57], [-77.38, 34.56], [-77.36, 34.55], [-77.37, 34.54], [-77.38, 34.53], [-77.37, 34.52], [-77.35, 34.53], [-77.34, 34.53], [-77.4, 34.5], [-77.43, 34.49], [-77.46, 34.47], [-77.5, 34.45], [-77.56, 34.42], [-77.59, 34.4], [-77.64, 34.36], [-77.63, 34.37], [-77.6, 34.39], [-77.59, 34.4], [-77.57, 34.41], [-77.58, 34.42], [-77.55, 34.43], [-77.51, 34.47], [-77.5, 34.46], [-77.49, 34.46], [-77.47, 34.47], [-77.48, 34.48], [-77.46, 34.48], [-77.46, 34.49], [-77.48, 34.49], [-77.49, 34.48], [-77.51, 34.47], [-77.52, 34.46], [-77.53, 34.46], [-77.55, 34.45], [-77.55, 34.43], [-77.57, 34.43], [-77.58, 34.42], [-77.61, 34.4], [-77.62, 34.39], [-77.64, 34.38], [-77.7, 34.34], [-77.71, 34.33], [-77.72, 34.32], [-77.77, 34.27], [-77.81, 34.22], [-77.82, 34.21], [-77.82, 34.2], [-77.83, 34.19], [-77.84, 34.18], [-77.85, 34.17], [-77.86, 34.15], [-77.87, 34.11], [-77.88, 34.11], [-77.88, 34.08], [-77.87, 34.07], [-77.89, 34.03], [-77.91, 33.98], [-77.92, 33.97], [-77.93, 33.94], [-77.94, 33.96], [-77.94, 33.96], [-77.93, 33.97], [-77.92, 33.97], [-77.92, 33.99], [-77.92, 33.99], [-77.92, 34.01], [-77.93, 34.02], [-77.94, 34.02], [-77.95, 34.02], [-77.96, 34.0], [-77.95, 33.98], [-77.97, 33.97], [-77.98, 33.96], [-77.99, 33.93], [-78.0, 33.93], [-78.02, 33.92], [-78.07, 33.92], [-78.11, 33.92], [-78.17, 33.93], [-78.19, 33.93], [-78.2, 33.92], [-78.21, 33.92], [-78.21, 33.94], [-78.23, 33.92], [-78.27, 33.92], [-78.31, 33.92], [-78.36, 33.91], [-78.37, 33.92], [-78.39, 33.91], [-78.4, 33.9], [-78.47, 33.89], [-78.5, 33.89], [-78.51, 33.88], [-78.54, 33.88], [-78.56, 33.87], [-78.62, 33.92], [-78.66, 33.95], [-78.81, 34.08], [-79.0, 34.24], [-79.11, 34.34], [-79.2, 34.41], [-79.27, 34.46], [-79.36, 34.55], [-79.46, 34.63], [-79.55, 34.71], [-79.62, 34.76], [-79.68, 34.8], [-79.69, 34.8], [-79.69, 34.81], [-79.65, 34.81], [-79.63, 34.83], [-79.63, 34.82], [-79.62, 34.83], [-79.62, 34.85], [-79.63, 34.85], [-79.62, 34.87], [-79.56, 34.91], [-79.57, 34.93], [-79.58, 34.93], [-79.58, 34.94], [-79.59, 34.96], [-79.58, 34.97], [-79.58, 34.98], [-79.57, 34.99], [-79.55, 35.0], [-79.52, 35.02], [-79.51, 35.03], [-79.47, 35.04], [-79.46, 35.04], [-79.43, 35.07], [-79.39, 35.11], [-79.34, 35.16], [-79.32, 35.17], [-79.31, 35.17], [-79.29, 35.19], [-79.27, 35.2], [-79.26, 35.2], [-79.25, 35.21], [-79.23, 35.21], [-79.21, 35.19], [-79.19, 35.19], [-79.17, 35.18], [-79.14, 35.17], [-79.14, 35.18], [-79.13, 35.17], [-79.11, 35.17], [-79.1, 35.17], [-79.1, 35.19], [-79.1, 35.2], [-79.14, 35.21], [-79.15, 35.21], [-79.15, 35.23], [-79.16, 35.24], [-79.18, 35.25], [-79.19, 35.25], [-79.2, 35.26], [-79.22, 35.27], [-79.18, 35.31], [-79.13, 35.36], [-79.11, 35.38], [-79.05, 35.44], [-79.02, 35.47], [-78.99, 35.5], [-78.91, 35.58], [-78.71, 35.52], [-78.69, 35.52], [-78.69, 35.5], [-78.67, 35.5], [-78.66, 35.5], [-78.65, 35.48], [-78.65, 35.47], [-78.64, 35.46], [-78.63, 35.46], [-78.61, 35.44], [-78.61, 35.43], [-78.61, 35.43], [-78.6, 35.42], [-78.59, 35.4], [-78.58, 35.39], [-78.57, 35.37], [-78.56, 35.36], [-78.54, 35.35], [-78.53, 35.34], [-78.53, 35.33], [-78.54, 35.32], [-78.49, 35.26], [-78.41, 35.26], [-78.36, 35.27], [-78.3, 35.29], [-78.25, 35.23], [-78.25, 35.23], [-78.16, 35.2], [-78.16, 35.19], [-78.08, 35.18], [-78.04, 35.19], [-78.02, 35.19], [-78.01, 35.19], [-77.99, 35.18], [-77.98, 35.18], [-77.98, 35.17], [-77.97, 35.17], [-77.95, 35.17], [-77.94, 35.17], [-77.93, 35.17], [-77.92, 35.17], [-77.91, 35.16], [-77.9, 35.15], [-77.89, 35.16], [-77.83, 35.18], [-77.78, 35.15], [-77.76, 35.14], [-77.75, 35.11], [-77.75, 35.02], [-77.73, 35.01], [-77.7, 34.99], [-77.68, 34.97], [-77.64, 34.98], [-77.57, 34.98], [-77.5, 34.97], [-77.37, 34.91], [-77.37, 34.92], [-77.36, 34.93], [-77.35, 34.93], [-77.33, 34.94], [-77.32, 34.93], [-77.3, 34.93], [-77.28, 34.93], [-77.27, 34.93], [-77.26, 34.91], [-77.25, 34.91], [-77.25, 34.9], [-77.23, 34.89], [-77.22, 34.88], [-77.22, 34.87], [-77.21, 34.86], [-77.21, 34.85], [-77.19, 34.83], [-77.18, 34.84], [-77.18, 34.83], [-77.19, 34.82], [-77.2, 34.81], [-77.19, 34.8], [-77.18, 34.8], [-77.17, 34.78], [-77.15, 34.77]]], [[[-78.16, 33.93], [-78.11, 33.92], [-78.08, 33.92], [-78.06, 33.92], [-78.05, 33.91], [-78.04, 33.9], [-78.02, 33.9], [-78.02, 33.89], [-78.06, 33.9], [-78.09, 33.91], [-78.14, 33.91], [-78.18, 33.91], [-78.21, 33.91], [-78.21, 33.92], [-78.2, 33.92], [-78.19, 33.93], [-78.17, 33.93], [-78.16, 33.93]]], [[[-77.95, 33.91], [-77.96, 33.88], [-77.96, 33.85], [-77.96, 33.84], [-78.0, 33.85], [-78.01, 33.86], [-78.01, 33.87], [-77.99, 33.89], [-77.98, 33.89], [-77.97, 33.88], [-77.96, 33.9], [-77.95, 33.91], [-77.95, 33.91]]], [[[-77.67, 34.34], [-77.68, 34.33], [-77.71, 34.3], [-77.71, 34.31], [-77.71, 34.32], [-77.72, 34.32], [-77.71, 34.33], [-77.7, 34.34], [-77.68, 34.35], [-77.67, 34.35], [-77.67, 34.34]]], [[[-77.81, 34.18], [-77.83, 34.17], [-77.84, 34.14], [-77.85, 34.12], [-77.87, 34.08], [-77.88, 34.08], [-77.87, 34.11], [-77.86, 34.14], [-77.85, 34.15], [-77.84, 34.16], [-77.83, 34.17], [-77.82, 34.18], [-77.81, 34.18]]], [[[-78.24, 33.92], [-78.24, 33.91], [-78.26, 33.91], [-78.34, 33.91], [-78.37, 33.9], [-78.38, 33.9], [-78.37, 33.91], [-78.36, 33.91], [-78.34, 33.91], [-78.31, 33.92], [-78.27, 33.92], [-78.26, 33.92], [-78.24, 33.92]]], [[[-77.72, 34.29], [-77.75, 34.26], [-77.75, 34.27], [-77.76, 34.27], [-77.74, 34.29], [-77.73, 34.29], [-77.72, 34.29]]], [[[-77.24, 34.59], [-77.3, 34.55], [-77.32, 34.54], [-77.32, 34.54], [-77.31, 34.55], [-77.28, 34.56], [-77.24, 34.6], [-77.24, 34.59]]], [[[-77.78, 34.25], [-77.77, 34.25], [-77.77, 34.23], [-77.81, 34.19], [-77.81, 34.19], [-77.8, 34.21], [-77.79, 34.22], [-77.8, 34.23], [-77.78, 34.25], [-77.78, 34.25]]], [[[-78.39, 33.9], [-78.39, 33.9], [-78.41, 33.89], [-78.46, 33.88], [-78.47, 33.88], [-78.44, 33.89], [-78.43, 33.9], [-78.39, 33.9]]], [[[-77.21, 34.62], [-77.2, 34.61], [-77.23, 34.6], [-77.23, 34.61], [-77.21, 34.62], [-77.21, 34.62]]], [[[-78.5, 33.88], [-78.49, 33.87], [-78.52, 33.86], [-78.52, 33.88], [-78.5, 33.88], [-78.5, 33.88]]], [[[-77.13, 34.64], [-77.15, 34.63], [-77.14, 34.64], [-77.13, 34.65], [-77.13, 34.64]]], [[[-77.71, 34.32], [-77.71, 34.31], [-77.73, 34.29], [-77.73, 34.3], [-77.73, 34.31], [-77.72, 34.32], [-77.71, 34.32]]], [[[-77.76, 34.27], [-77.75, 34.26], [-77.76, 34.26], [-77.77, 34.25], [-77.78, 34.25], [-77.76, 34.27], [-77.76, 34.27]]], [[[-77.97, 33.9], [-77.97, 33.88], [-77.97, 33.88], [-77.99, 33.89], [-77.97, 33.9], [-77.97, 33.9]]], [[[-78.53, 33.88], [-78.52, 33.87], [-78.55, 33.87], [-78.54, 33.88], [-78.53, 33.88]]], [[[-77.81, 34.22], [-77.79, 34.22], [-77.8, 34.21], [-77.81, 34.22]]], [[[-77.21, 34.63], [-77.19, 34.62], [-77.2, 34.61], [-77.21, 34.63]]]]}}]}