{"type": "FeatureCollection", "features": [{"type": "Feature", "properties": {"STATE": "Ohio", "STATE_FIPS": "39", "CD_2DIG": "01", "STATE_CODE": 33, "CLIMDIV": 3301, "ID": 3301, "CD_NEW": 1, "FIPS_CD": "3901", "NCDC_GEO_I": 221.0, "NAME": "NORTHWEST", "ST_ABBRV": "OH", "SHAPE_AREA": 0.0, "SHAPE_LEN": 0.0}, "geometry": {"type": "Polygon", "coordinates": [[[-83.46, 41.73], [-83.47, 41.72], [-83.48, 41.7], [-83.46, 41.69], [-83.46, 41.7], [-83.44, 41.7], [-83.44, 41.69], [-83.42, 41.69], [-83.4, 41.69], [-83.38, 41.69], [-83.36, 41.69], [-83.34, 41.69], [-83.34, 41.71], [-83.3, 41.68], [-83.24, 41.65], [-83.25, 41.64], [-83.24, 41.64], [-83.21, 41.64], [-83.17, 41.62], [-83.16, 41.62], [-83.23, 41.62], [-83.37, 41.62], [-83.42, 41.62], [-83.41, 41.51], [-83.42, 41.43], [-83.42, 41.34], [-83.42, 41.24], [-83.42, 41.15], [-83.42, 40.99], [-83.46, 40.99], [-83.46, 40.95], [-83.48, 40.95], [-83.48, 40.9], [-83.51, 40.91], [-83.52, 40.82], [-83.67, 40.82], [-83.77, 40.82], [-83.88, 40.82], [-83.88, 40.73], [-83.88, 40.64], [-84.05, 40.64], [-84.11, 40.64], [-84.11, 40.66], [-84.22, 40.66], [-84.22, 40.69], [-84.34, 40.69], [-84.46, 40.68], [-84.46, 40.73], [-84.63, 40.73], [-84.8, 40.73], [-84.8, 40.84], [-84.8, 40.95], [-84.8, 41.17], [-84.8, 41.27], [-84.8, 41.41], [-84.8, 41.51], [-84.81, 41.61], [-84.81, 41.7], [-84.75, 41.7], [-84.56, 41.7], [-84.36, 41.71], [-84.13, 41.71], [-84.02, 41.72], [-84.0, 41.72], [-83.86, 41.72], [-83.71, 41.72], [-83.69, 41.73], [-83.61, 41.73], [-83.48, 41.73], [-83.48, 41.73], [-83.47, 41.73], [-83.46, 41.73], [-83.46, 41.73]]]}}, {"type": "Feature", "properties": {"STATE": "Ohio", "STATE_FIPS": "39", "CD_2DIG": "02", "STATE_CODE": 33, "CLIMDIV": 3302, "ID": 3302, "CD_NEW": 2, "FIPS_CD": "3902", "NCDC_GEO_I": 222.0, "NAME": "NORTH CENTRAL", "ST_ABBRV": "OH", "SHAPE_AREA": 0.0, "SHAPE_LEN": 0.0}, "geometry": {"type": "MultiPolygon", "coordinates": [[[[-83.16, 41.62], [-83.15, 41.62], [-83.13, 41.61], [-83.11, 41.61], [-83.1, 41.61], [-83.07, 41.6], [-83.04, 41.56], [-83.01, 41.55], [-82.97, 41.52], [-82.93, 41.51], [-82.89, 41.52], [-82.88, 41.53], [-82.86, 41.54], [-82.85, 41.56], [-82.86, 41.57], [-82.85, 41.58], [-82.83, 41.59], [-82.82, 41.57], [-82.8, 41.56], [-82.81, 41.54], [-82.82, 41.54], [-82.82, 41.53], [-82.78, 41.54], [-82.75, 41.55], [-82.72, 41.54], [-82.71, 41.54], [-82.71, 41.52], [-82.72, 41.51], [-82.75, 41.51], [-82.77, 41.5], [-82.78, 41.51], [-82.8, 41.51], [-82.81, 41.5], [-82.82, 41.49], [-82.84, 41.5], [-82.87, 41.49], [-82.88, 41.49], [-82.92, 41.49], [-82.94, 41.49], [-82.95, 41.49], [-82.96, 41.48], [-82.97, 41.47], [-82.98, 41.47], [-82.99, 41.46], [-83.01, 41.47], [-83.02, 41.46], [-83.04, 41.46], [-83.03, 41.45], [-83.0, 41.44], [-82.99, 41.45], [-82.98, 41.45], [-82.96, 41.43], [-82.94, 41.42], [-82.92, 41.42], [-82.9, 41.43], [-82.86, 41.44], [-82.83, 41.45], [-82.83, 41.46], [-82.83, 41.47], [-82.81, 41.47], [-82.8, 41.47], [-82.78, 41.46], [-82.77, 41.45], [-82.75, 41.44], [-82.74, 41.45], [-82.74, 41.45], [-82.72, 41.46], [-82.71, 41.46], [-82.67, 41.45], [-82.66, 41.45], [-82.66, 41.43], [-82.65, 41.44], [-82.58, 41.41], [-82.57, 41.41], [-82.56, 41.4], [-82.55, 41.4], [-82.51, 41.38], [-82.49, 41.38], [-82.46, 41.39], [-82.43, 41.4], [-82.39, 41.42], [-82.38, 41.42], [-82.36, 41.43], [-82.33, 41.43], [-82.3, 41.43], [-82.27, 41.43], [-82.25, 41.43], [-82.22, 41.45], [-82.21, 41.46], [-82.18, 41.47], [-82.15, 41.48], [-82.12, 41.49], [-82.07, 41.5], [-82.01, 41.52], [-81.99, 41.51], [-81.97, 41.51], [-81.97, 41.49], [-81.97, 41.35], [-81.88, 41.35], [-81.88, 41.28], [-81.91, 41.28], [-81.93, 41.27], [-81.97, 41.27], [-81.97, 41.2], [-82.07, 41.2], [-82.07, 41.14], [-82.17, 41.14], [-82.17, 41.06], [-82.29, 41.07], [-82.44, 41.07], [-82.43, 40.99], [-82.51, 40.99], [-82.67, 41.0], [-82.72, 41.0], [-82.72, 40.93], [-82.73, 40.84], [-82.73, 40.77], [-82.73, 40.71], [-82.82, 40.71], [-82.86, 40.71], [-82.86, 40.71], [-82.94, 40.7], [-82.96, 40.7], [-83.11, 40.7], [-83.21, 40.7], [-83.3, 40.7], [-83.3, 40.69], [-83.42, 40.69], [-83.44, 40.69], [-83.44, 40.7], [-83.5, 40.7], [-83.5, 40.73], [-83.5, 40.82], [-83.52, 40.82], [-83.51, 40.91], [-83.48, 40.9], [-83.48, 40.95], [-83.46, 40.95], [-83.46, 40.99], [-83.42, 40.99], [-83.42, 41.15], [-83.42, 41.24], [-83.42, 41.34], [-83.42, 41.43], [-83.41, 41.51], [-83.42, 41.62], [-83.37, 41.62], [-83.23, 41.62], [-83.16, 41.62]]], [[[-82.68, 41.61], [-82.68, 41.59], [-82.69, 41.59], [-82.7, 41.59], [-82.71, 41.59], [-82.73, 41.6], [-82.74, 41.6], [-82.72, 41.62], [-82.7, 41.61], [-82.68, 41.61]]], [[[-82.8, 41.67], [-82.8, 41.66], [-82.81, 41.66], [-82.81, 41.65], [-82.83, 41.63], [-82.84, 41.63], [-82.84, 41.64], [-82.84, 41.65], [-82.84, 41.66], [-82.83, 41.66], [-82.81, 41.65], [-82.81, 41.66], [-82.8, 41.67]]], [[[-82.68, 41.48], [-82.69, 41.48], [-82.69, 41.49], [-82.68, 41.48]]], [[[-82.78, 41.7], [-82.8, 41.69], [-82.8, 41.68], [-82.81, 41.67], [-82.82, 41.69], [-82.8, 41.69], [-82.8, 41.7], [-82.78, 41.7]]], [[[-82.82, 41.72], [-82.81, 41.72], [-82.81, 41.71], [-82.84, 41.71], [-82.83, 41.72], [-82.82, 41.72]]]]}}, {"type": "Feature", "properties": {"STATE": "Ohio", "STATE_FIPS": "39", "CD_2DIG": "07", "STATE_CODE": 33, "CLIMDIV": 3307, "ID": 3307, "CD_NEW": 7, "FIPS_CD": "3907", "NCDC_GEO_I": 223.0, "NAME": "NORTHEAST HILLS", "ST_ABBRV": "OH", "SHAPE_AREA": 0.0, "SHAPE_LEN": 0.0}, "geometry": {"type": "Polygon", "coordinates": [[[-80.52, 41.13], [-80.52, 41.13], [-80.52, 40.9], [-80.52, 40.75], [-80.52, 40.64], [-80.55, 40.63], [-80.57, 40.62], [-80.58, 40.62], [-80.59, 40.62], [-80.6, 40.63], [-80.63, 40.62], [-80.63, 40.62], [-80.64, 40.6], [-80.66, 40.59], [-80.67, 40.58], [-80.66, 40.57], [-80.65, 40.56], [-80.63, 40.53], [-80.62, 40.5], [-80.61, 40.49], [-80.6, 40.48], [-80.59, 40.47], [-80.6, 40.46], [-80.61, 40.44], [-80.61, 40.43], [-80.61, 40.4], [-80.63, 40.39], [-80.63, 40.39], [-80.62, 40.38], [-80.61, 40.37], [-80.61, 40.35], [-80.6, 40.32], [-80.6, 40.31], [-80.61, 40.29], [-80.62, 40.27], [-80.62, 40.26], [-80.64, 40.25], [-80.65, 40.24], [-80.66, 40.23], [-80.67, 40.2], [-80.67, 40.19], [-80.69, 40.18], [-80.7, 40.16], [-80.77, 40.16], [-80.77, 40.16], [-80.85, 40.16], [-81.02, 40.16], [-81.11, 40.17], [-81.11, 40.17], [-81.14, 40.17], [-81.23, 40.17], [-81.23, 40.17], [-81.34, 40.17], [-81.34, 40.21], [-81.4, 40.22], [-81.62, 40.22], [-81.62, 40.28], [-81.62, 40.37], [-81.71, 40.37], [-81.71, 40.44], [-81.67, 40.44], [-81.67, 40.56], [-81.66, 40.63], [-81.65, 40.63], [-81.65, 40.73], [-81.65, 40.75], [-81.65, 40.91], [-81.5, 40.91], [-81.42, 40.91], [-81.42, 40.99], [-81.36, 40.99], [-81.21, 40.99], [-81.0, 40.99], [-81.0, 41.06], [-81.0, 41.06], [-81.0, 41.12], [-81.0, 41.13], [-80.89, 41.13], [-80.62, 41.13], [-80.52, 41.13]]]}}, {"type": "Feature", "properties": {"STATE": "Ohio", "STATE_FIPS": "39", "CD_2DIG": "10", "STATE_CODE": 33, "CLIMDIV": 3310, "ID": 3310, "CD_NEW": 10, "FIPS_CD": "3910", "NCDC_GEO_I": 224.0, "NAME": "SOUTHEAST", "ST_ABBRV": "OH", "SHAPE_AREA": 0.0, "SHAPE_LEN": 0.0}, "geometry": {"type": "Polygon", "coordinates": [[[-81.62, 40.22], [-81.4, 40.22], [-81.34, 40.21], [-81.34, 40.17], [-81.23, 40.17], [-81.23, 40.17], [-81.14, 40.17], [-81.11, 40.17], [-81.11, 40.17], [-81.02, 40.16], [-80.85, 40.16], [-80.77, 40.16], [-80.77, 40.16], [-80.7, 40.16], [-80.71, 40.14], [-80.71, 40.13], [-80.71, 40.11], [-80.71, 40.1], [-80.73, 40.09], [-80.74, 40.08], [-80.73, 40.06], [-80.73, 40.04], [-80.74, 40.03], [-80.74, 40.0], [-80.74, 39.99], [-80.74, 39.97], [-80.76, 39.96], [-80.76, 39.95], [-80.76, 39.93], [-80.76, 39.92], [-80.76, 39.91], [-80.8, 39.92], [-80.81, 39.92], [-80.81, 39.91], [-80.8, 39.89], [-80.79, 39.88], [-80.79, 39.87], [-80.79, 39.86], [-80.82, 39.85], [-80.83, 39.84], [-80.82, 39.83], [-80.82, 39.81], [-80.83, 39.8], [-80.84, 39.79], [-80.86, 39.78], [-80.87, 39.76], [-80.87, 39.75], [-80.85, 39.74], [-80.83, 39.71], [-80.83, 39.7], [-80.85, 39.7], [-80.87, 39.69], [-80.87, 39.65], [-80.88, 39.63], [-80.88, 39.62], [-80.89, 39.62], [-80.92, 39.62], [-80.93, 39.61], [-80.97, 39.59], [-80.99, 39.57], [-81.02, 39.55], [-81.03, 39.55], [-81.04, 39.54], [-81.09, 39.5], [-81.1, 39.49], [-81.11, 39.47], [-81.13, 39.45], [-81.17, 39.44], [-81.19, 39.43], [-81.19, 39.42], [-81.21, 39.4], [-81.21, 39.39], [-81.22, 39.39], [-81.23, 39.39], [-81.24, 39.39], [-81.27, 39.39], [-81.28, 39.38], [-81.3, 39.37], [-81.34, 39.35], [-81.37, 39.34], [-81.38, 39.34], [-81.4, 39.36], [-81.41, 39.39], [-81.43, 39.41], [-81.45, 39.41], [-81.46, 39.41], [-81.47, 39.4], [-81.5, 39.38], [-81.54, 39.35], [-81.56, 39.34], [-81.57, 39.29], [-81.57, 39.28], [-81.57, 39.27], [-81.58, 39.27], [-81.61, 39.28], [-81.62, 39.27], [-81.65, 39.28], [-81.68, 39.27], [-81.69, 39.27], [-81.7, 39.26], [-81.7, 39.24], [-81.69, 39.23], [-81.7, 39.22], [-81.72, 39.22], [-81.73, 39.21], [-81.74, 39.19], [-81.76, 39.18], [-81.94, 39.19], [-82.08, 39.19], [-82.16, 39.2], [-82.26, 39.2], [-82.31, 39.21], [-82.32, 39.04], [-82.32, 39.03], [-82.44, 39.04], [-82.42, 39.14], [-82.47, 39.14], [-82.54, 39.14], [-82.54, 39.18], [-82.57, 39.19], [-82.61, 39.19], [-82.65, 39.19], [-82.65, 39.2], [-82.76, 39.21], [-82.75, 39.37], [-82.74, 39.47], [-82.73, 39.57], [-82.68, 39.57], [-82.62, 39.56], [-82.62, 39.61], [-82.5, 39.6], [-82.49, 39.66], [-82.37, 39.65], [-82.37, 39.74], [-82.4, 39.75], [-82.4, 39.83], [-82.47, 39.84], [-82.46, 39.93], [-82.42, 39.93], [-82.42, 39.92], [-82.32, 39.92], [-82.23, 39.91], [-82.23, 39.95], [-82.2, 39.95], [-82.19, 40.1], [-82.19, 40.17], [-82.09, 40.16], [-82.08, 40.16], [-82.03, 40.16], [-81.87, 40.16], [-81.77, 40.15], [-81.72, 40.15], [-81.67, 40.15], [-81.67, 40.19], [-81.67, 40.22], [-81.62, 40.22]]]}}, {"type": "Feature", "properties": {"STATE": "Ohio", "STATE_FIPS": "39", "CD_2DIG": "09", "STATE_CODE": 33, "CLIMDIV": 3309, "ID": 3309, "CD_NEW": 9, "FIPS_CD": "3909", "NCDC_GEO_I": 225.0, "NAME": "SOUTH CENTRAL", "ST_ABBRV": "OH", "SHAPE_AREA": 0.0, "SHAPE_LEN": 0.0}, "geometry": {"type": "Polygon", "coordinates": [[[-82.74, 39.47], [-82.75, 39.37], [-82.76, 39.21], [-82.65, 39.2], [-82.65, 39.19], [-82.61, 39.19], [-82.57, 39.19], [-82.54, 39.18], [-82.54, 39.14], [-82.47, 39.14], [-82.42, 39.14], [-82.44, 39.04], [-82.32, 39.03], [-82.32, 39.04], [-82.31, 39.21], [-82.26, 39.2], [-82.16, 39.2], [-82.08, 39.19], [-81.94, 39.19], [-81.76, 39.18], [-81.75, 39.15], [-81.74, 39.11], [-81.75, 39.1], [-81.75, 39.09], [-81.77, 39.08], [-81.78, 39.08], [-81.81, 39.08], [-81.81, 39.08], [-81.81, 39.06], [-81.8, 39.05], [-81.77, 39.03], [-81.76, 39.02], [-81.77, 39.0], [-81.77, 38.99], [-81.78, 38.96], [-81.78, 38.96], [-81.76, 38.93], [-81.76, 38.93], [-81.77, 38.92], [-81.79, 38.93], [-81.81, 38.95], [-81.83, 38.94], [-81.84, 38.93], [-81.85, 38.9], [-81.86, 38.89], [-81.89, 38.87], [-81.91, 38.88], [-81.93, 38.89], [-81.93, 38.9], [-81.9, 38.93], [-81.9, 38.94], [-81.92, 38.96], [-81.93, 38.99], [-81.95, 39.0], [-81.97, 38.99], [-81.98, 38.99], [-81.99, 39.01], [-81.99, 39.02], [-82.01, 39.03], [-82.02, 39.03], [-82.04, 39.03], [-82.04, 39.02], [-82.05, 39.0], [-82.05, 38.99], [-82.09, 38.98], [-82.09, 38.96], [-82.11, 38.95], [-82.11, 38.93], [-82.13, 38.91], [-82.14, 38.9], [-82.15, 38.88], [-82.14, 38.87], [-82.14, 38.84], [-82.16, 38.82], [-82.19, 38.82], [-82.21, 38.8], [-82.22, 38.79], [-82.22, 38.77], [-82.22, 38.77], [-82.2, 38.76], [-82.19, 38.73], [-82.19, 38.72], [-82.18, 38.71], [-82.19, 38.68], [-82.19, 38.66], [-82.18, 38.64], [-82.17, 38.63], [-82.17, 38.61], [-82.18, 38.6], [-82.19, 38.59], [-82.22, 38.59], [-82.25, 38.6], [-82.27, 38.6], [-82.29, 38.58], [-82.29, 38.56], [-82.3, 38.54], [-82.3, 38.52], [-82.3, 38.5], [-82.31, 38.48], [-82.31, 38.47], [-82.32, 38.45], [-82.34, 38.44], [-82.38, 38.43], [-82.4, 38.44], [-82.43, 38.43], [-82.49, 38.42], [-82.53, 38.4], [-82.55, 38.4], [-82.58, 38.41], [-82.59, 38.42], [-82.6, 38.44], [-82.6, 38.46], [-82.61, 38.47], [-82.62, 38.48], [-82.64, 38.48], [-82.65, 38.49], [-82.68, 38.52], [-82.69, 38.54], [-82.7, 38.54], [-82.73, 38.56], [-82.77, 38.56], [-82.78, 38.56], [-82.8, 38.56], [-82.82, 38.57], [-82.84, 38.58], [-82.85, 38.6], [-82.85, 38.61], [-82.86, 38.63], [-82.86, 38.65], [-82.86, 38.67], [-82.87, 38.68], [-82.88, 38.7], [-82.87, 38.72], [-82.87, 38.74], [-82.88, 38.75], [-82.89, 38.76], [-82.92, 38.75], [-82.94, 38.74], [-82.97, 38.73], [-82.98, 38.73], [-83.01, 38.73], [-83.03, 38.72], [-83.04, 38.71], [-83.05, 38.7], [-83.06, 38.69], [-83.08, 38.68], [-83.1, 38.68], [-83.12, 38.67], [-83.13, 38.65], [-83.14, 38.63], [-83.14, 38.63], [-83.16, 38.62], [-83.2, 38.62], [-83.21, 38.62], [-83.24, 38.63], [-83.26, 38.62], [-83.29, 38.6], [-83.3, 38.6], [-83.32, 38.61], [-83.32, 38.63], [-83.33, 38.64], [-83.36, 38.66], [-83.38, 38.66], [-83.42, 38.67], [-83.45, 38.67], [-83.47, 38.68], [-83.49, 38.69], [-83.51, 38.7], [-83.53, 38.7], [-83.62, 38.68], [-83.63, 38.68], [-83.64, 38.67], [-83.64, 38.65], [-83.65, 38.64], [-83.65, 38.63], [-83.67, 38.63], [-83.69, 38.63], [-83.71, 38.64], [-83.7, 38.68], [-83.7, 38.75], [-83.69, 38.87], [-83.68, 39.0], [-83.67, 39.02], [-83.61, 39.02], [-83.51, 39.04], [-83.39, 39.06], [-83.37, 39.12], [-83.35, 39.2], [-83.34, 39.23], [-83.35, 39.25], [-83.36, 39.24], [-83.38, 39.25], [-83.38, 39.26], [-83.39, 39.27], [-83.39, 39.28], [-83.38, 39.28], [-83.38, 39.32], [-83.39, 39.32], [-83.38, 39.34], [-83.37, 39.35], [-83.38, 39.36], [-83.37, 39.37], [-83.37, 39.38], [-83.27, 39.52], [-83.15, 39.51], [-83.01, 39.51], [-82.98, 39.51], [-82.98, 39.5], [-82.98, 39.49], [-83.0, 39.49], [-83.0, 39.48], [-82.87, 39.47], [-82.75, 39.47], [-82.74, 39.47]]]}}, {"type": "Feature", "properties": {"STATE": "Ohio", "STATE_FIPS": "39", "CD_2DIG": "08", "STATE_CODE": 33, "CLIMDIV": 3308, "ID": 3308, "CD_NEW": 8, "FIPS_CD": "3908", "NCDC_GEO_I": 226.0, "NAME": "SOUTHWEST", "ST_ABBRV": "OH", "SHAPE_AREA": 0.0, "SHAPE_LEN": 0.0}, "geometry": {"type": "Polygon", "coordinates": [[[-83.65, 39.77], [-83.66, 39.7], [-83.67, 39.55], [-83.58, 39.54], [-83.58, 39.5], [-83.59, 39.38], [-83.5, 39.38], [-83.37, 39.38], [-83.37, 39.37], [-83.38, 39.36], [-83.37, 39.35], [-83.38, 39.34], [-83.39, 39.32], [-83.38, 39.32], [-83.38, 39.28], [-83.39, 39.28], [-83.39, 39.27], [-83.38, 39.26], [-83.38, 39.25], [-83.36, 39.24], [-83.35, 39.25], [-83.34, 39.23], [-83.35, 39.2], [-83.37, 39.12], [-83.39, 39.06], [-83.51, 39.04], [-83.61, 39.02], [-83.67, 39.02], [-83.68, 39.0], [-83.69, 38.87], [-83.7, 38.75], [-83.7, 38.68], [-83.71, 38.64], [-83.72, 38.65], [-83.74, 38.65], [-83.77, 38.65], [-83.77, 38.66], [-83.78, 38.67], [-83.78, 38.7], [-83.79, 38.7], [-83.82, 38.71], [-83.84, 38.72], [-83.85, 38.74], [-83.86, 38.76], [-83.87, 38.76], [-83.91, 38.77], [-83.93, 38.78], [-83.94, 38.78], [-83.96, 38.79], [-83.98, 38.79], [-84.02, 38.78], [-84.04, 38.77], [-84.07, 38.77], [-84.09, 38.77], [-84.14, 38.79], [-84.16, 38.79], [-84.2, 38.8], [-84.21, 38.81], [-84.22, 38.81], [-84.23, 38.83], [-84.23, 38.84], [-84.23, 38.88], [-84.24, 38.9], [-84.26, 38.92], [-84.29, 38.95], [-84.3, 38.97], [-84.3, 38.99], [-84.3, 39.01], [-84.33, 39.03], [-84.35, 39.04], [-84.36, 39.04], [-84.39, 39.05], [-84.41, 39.05], [-84.42, 39.05], [-84.43, 39.06], [-84.43, 39.07], [-84.43, 39.09], [-84.45, 39.11], [-84.46, 39.12], [-84.47, 39.12], [-84.48, 39.12], [-84.49, 39.1], [-84.51, 39.09], [-84.52, 39.09], [-84.54, 39.1], [-84.55, 39.1], [-84.57, 39.08], [-84.61, 39.07], [-84.63, 39.08], [-84.65, 39.09], [-84.67, 39.1], [-84.69, 39.1], [-84.72, 39.14], [-84.73, 39.14], [-84.75, 39.15], [-84.77, 39.14], [-84.78, 39.12], [-84.79, 39.11], [-84.82, 39.11], [-84.82, 39.16], [-84.82, 39.25], [-84.82, 39.37], [-84.82, 39.39], [-84.82, 39.52], [-84.81, 39.71], [-84.81, 39.83], [-84.81, 39.92], [-84.7, 39.92], [-84.62, 39.92], [-84.51, 39.92], [-84.33, 39.92], [-84.16, 39.92], [-84.17, 39.91], [-84.16, 39.9], [-84.16, 39.89], [-84.05, 39.88], [-84.05, 39.85], [-83.94, 39.84], [-83.94, 39.83], [-83.83, 39.82], [-83.83, 39.8], [-83.77, 39.79], [-83.74, 39.79], [-83.74, 39.78], [-83.67, 39.78], [-83.65, 39.77]]]}}, {"type": "Feature", "properties": {"STATE": "Ohio", "STATE_FIPS": "39", "CD_2DIG": "04", "STATE_CODE": 33, "CLIMDIV": 3304, "ID": 3304, "CD_NEW": 4, "FIPS_CD": "3904", "NCDC_GEO_I": 227.0, "NAME": "WEST CENTRAL", "ST_ABBRV": "OH", "SHAPE_AREA": 0.0, "SHAPE_LEN": 0.0}, "geometry": {"type": "Polygon", "coordinates": [[[-83.52, 40.82], [-83.5, 40.82], [-83.5, 40.73], [-83.5, 40.7], [-83.44, 40.7], [-83.44, 40.69], [-83.42, 40.69], [-83.42, 40.61], [-83.42, 40.52], [-83.42, 40.51], [-83.52, 40.5], [-83.54, 40.38], [-83.55, 40.23], [-83.49, 40.23], [-83.5, 40.13], [-83.51, 40.02], [-83.51, 40.01], [-83.52, 39.98], [-83.53, 39.94], [-83.54, 39.92], [-83.55, 39.9], [-83.55, 39.88], [-83.56, 39.85], [-83.59, 39.78], [-83.59, 39.77], [-83.65, 39.77], [-83.67, 39.78], [-83.74, 39.78], [-83.74, 39.79], [-83.77, 39.79], [-83.83, 39.8], [-83.83, 39.82], [-83.94, 39.83], [-83.94, 39.84], [-84.05, 39.85], [-84.05, 39.88], [-84.16, 39.89], [-84.16, 39.9], [-84.17, 39.91], [-84.16, 39.92], [-84.33, 39.92], [-84.51, 39.92], [-84.62, 39.92], [-84.7, 39.92], [-84.81, 39.92], [-84.81, 40.05], [-84.81, 40.1], [-84.8, 40.24], [-84.8, 40.32], [-84.8, 40.4], [-84.8, 40.5], [-84.8, 40.57], [-84.8, 40.73], [-84.63, 40.73], [-84.46, 40.73], [-84.46, 40.68], [-84.34, 40.69], [-84.22, 40.69], [-84.22, 40.66], [-84.11, 40.66], [-84.11, 40.64], [-84.05, 40.64], [-83.88, 40.64], [-83.88, 40.73], [-83.88, 40.82], [-83.77, 40.82], [-83.67, 40.82], [-83.52, 40.82]]]}}, {"type": "Feature", "properties": {"STATE": "Ohio", "STATE_FIPS": "39", "CD_2DIG": "05", "STATE_CODE": 33, "CLIMDIV": 3305, "ID": 3305, "CD_NEW": 5, "FIPS_CD": "3905", "NCDC_GEO_I": 228.0, "NAME": "CENTRAL", "ST_ABBRV": "OH", "SHAPE_AREA": 0.0, "SHAPE_LEN": 0.0}, "geometry": {"type": "Polygon", "coordinates": [[[-82.73, 40.71], [-82.63, 40.71], [-82.63, 40.67], [-82.64, 40.67], [-82.64, 40.64], [-82.62, 40.64], [-82.62, 40.55], [-82.64, 40.55], [-82.64, 40.52], [-82.63, 40.52], [-82.64, 40.5], [-82.64, 40.42], [-82.65, 40.35], [-82.66, 40.35], [-82.67, 40.35], [-82.74, 40.35], [-82.75, 40.28], [-82.61, 40.27], [-82.48, 40.26], [-82.48, 40.25], [-82.35, 40.24], [-82.21, 40.24], [-82.18, 40.24], [-82.19, 40.17], [-82.19, 40.1], [-82.2, 39.95], [-82.23, 39.95], [-82.23, 39.91], [-82.32, 39.92], [-82.42, 39.92], [-82.42, 39.93], [-82.46, 39.93], [-82.47, 39.84], [-82.4, 39.83], [-82.4, 39.75], [-82.37, 39.74], [-82.37, 39.65], [-82.49, 39.66], [-82.5, 39.6], [-82.62, 39.61], [-82.62, 39.56], [-82.68, 39.57], [-82.73, 39.57], [-82.74, 39.47], [-82.75, 39.47], [-82.87, 39.47], [-83.0, 39.48], [-83.0, 39.49], [-82.98, 39.49], [-82.98, 39.5], [-82.98, 39.51], [-83.01, 39.51], [-83.15, 39.51], [-83.27, 39.52], [-83.37, 39.38], [-83.5, 39.38], [-83.59, 39.38], [-83.58, 39.5], [-83.58, 39.54], [-83.67, 39.55], [-83.66, 39.7], [-83.65, 39.77], [-83.59, 39.77], [-83.59, 39.78], [-83.56, 39.85], [-83.55, 39.88], [-83.55, 39.9], [-83.54, 39.92], [-83.53, 39.94], [-83.52, 39.98], [-83.51, 40.01], [-83.51, 40.02], [-83.5, 40.13], [-83.49, 40.23], [-83.55, 40.23], [-83.54, 40.38], [-83.52, 40.5], [-83.42, 40.51], [-83.42, 40.52], [-83.42, 40.61], [-83.42, 40.69], [-83.3, 40.69], [-83.3, 40.7], [-83.21, 40.7], [-83.11, 40.7], [-82.96, 40.7], [-82.94, 40.7], [-82.86, 40.71], [-82.86, 40.71], [-82.82, 40.71], [-82.73, 40.71]]]}}, {"type": "Feature", "properties": {"STATE": "Ohio", "STATE_FIPS": "39", "CD_2DIG": "06", "STATE_CODE": 33, "CLIMDIV": 3306, "ID": 3306, "CD_NEW": 6, "FIPS_CD": "3906", "NCDC_GEO_I": 229.0, "NAME": "EAST CENTRAL", "ST_ABBRV": "OH", "SHAPE_AREA": 0.0, "SHAPE_LEN": 0.0}, "geometry": {"type": "Polygon", "coordinates": [[[-82.17, 41.06], [-82.17, 40.99], [-82.13, 40.99], [-81.99, 40.99], [-81.83, 40.99], [-81.65, 40.99], [-81.65, 40.91], [-81.65, 40.75], [-81.65, 40.73], [-81.65, 40.63], [-81.66, 40.63], [-81.67, 40.56], [-81.67, 40.44], [-81.71, 40.44], [-81.71, 40.37], [-81.62, 40.37], [-81.62, 40.28], [-81.62, 40.22], [-81.67, 40.22], [-81.67, 40.19], [-81.67, 40.15], [-81.72, 40.15], [-81.77, 40.15], [-81.87, 40.16], [-82.03, 40.16], [-82.08, 40.16], [-82.09, 40.16], [-82.19, 40.17], [-82.18, 40.24], [-82.21, 40.24], [-82.35, 40.24], [-82.48, 40.25], [-82.48, 40.26], [-82.61, 40.27], [-82.75, 40.28], [-82.74, 40.35], [-82.67, 40.35], [-82.66, 40.35], [-82.65, 40.35], [-82.64, 40.42], [-82.64, 40.5], [-82.63, 40.52], [-82.64, 40.52], [-82.64, 40.55], [-82.62, 40.55], [-82.62, 40.64], [-82.64, 40.64], [-82.64, 40.67], [-82.63, 40.67], [-82.63, 40.71], [-82.73, 40.71], [-82.73, 40.77], [-82.73, 40.84], [-82.72, 40.93], [-82.72, 41.0], [-82.67, 41.0], [-82.51, 40.99], [-82.43, 40.99], [-82.44, 41.07], [-82.29, 41.07], [-82.17, 41.06]]]}}, {"type": "Feature", "properties": {"STATE": "Ohio", "STATE_FIPS": "39", "CD_2DIG": "03", "STATE_CODE": 33, "CLIMDIV": 3303, "ID": 3303, "CD_NEW": 3, "FIPS_CD": "3903", "NCDC_GEO_I": 230.0, "NAME": "NORTHEAST", "ST_ABBRV": "OH", "SHAPE_AREA": 0.0, "SHAPE_LEN": 0.0}, "geometry": {"type": "Polygon", "coordinates": [[[-80.52, 41.13], [-80.62, 41.13], [-80.89, 41.13], [-81.0, 41.13], [-81.0, 41.12], [-81.0, 41.06], [-81.0, 41.06], [-81.0, 40.99], [-81.21, 40.99], [-81.36, 40.99], [-81.42, 40.99], [-81.42, 40.91], [-81.5, 40.91], [-81.65, 40.91], [-81.65, 40.99], [-81.83, 40.99], [-81.99, 40.99], [-82.13, 40.99], [-82.17, 40.99], [-82.17, 41.06], [-82.17, 41.14], [-82.07, 41.14], [-82.07, 41.2], [-81.97, 41.2], [-81.97, 41.27], [-81.93, 41.27], [-81.91, 41.28], [-81.88, 41.28], [-81.88, 41.35], [-81.97, 41.35], [-81.97, 41.49], [-81.97, 41.51], [-81.96, 41.5], [-81.94, 41.49], [-81.92, 41.49], [-81.88, 41.48], [-81.86, 41.48], [-81.82, 41.49], [-81.78, 41.5], [-81.77, 41.49], [-81.74, 41.49], [-81.71, 41.5], [-81.68, 41.52], [-81.67, 41.53], [-81.64, 41.54], [-81.63, 41.55], [-81.63, 41.54], [-81.58, 41.57], [-81.54, 41.61], [-81.53, 41.62], [-81.51, 41.62], [-81.48, 41.64], [-81.45, 41.67], [-81.45, 41.67], [-81.42, 41.68], [-81.39, 41.71], [-81.35, 41.73], [-81.35, 41.73], [-81.32, 41.74], [-81.3, 41.75], [-81.28, 41.76], [-81.27, 41.76], [-81.25, 41.76], [-81.22, 41.77], [-81.2, 41.78], [-81.18, 41.79], [-81.13, 41.81], [-81.05, 41.84], [-81.02, 41.85], [-81.0, 41.85], [-80.95, 41.86], [-80.94, 41.86], [-80.9, 41.87], [-80.87, 41.88], [-80.85, 41.88], [-80.84, 41.89], [-80.81, 41.9], [-80.8, 41.91], [-80.79, 41.91], [-80.77, 41.91], [-80.75, 41.92], [-80.73, 41.92], [-80.71, 41.92], [-80.67, 41.94], [-80.65, 41.94], [-80.63, 41.94], [-80.59, 41.96], [-80.55, 41.97], [-80.52, 41.98], [-80.52, 41.75], [-80.52, 41.61], [-80.52, 41.47], [-80.52, 41.31], [-80.52, 41.13]]]}}]}