{"type": "FeatureCollection", "features": [{"type": "Feature", "properties": {"STATE": "Oklahoma", "STATE_FIPS": "40", "CD_2DIG": "01", "STATE_CODE": 34, "CLIMDIV": 3401, "ID": 3401, "CD_NEW": 1, "FIPS_CD": "4001", "NCDC_GEO_I": 187.0, "NAME": "PANHANDLE", "ST_ABBRV": "OK", "SHAPE_AREA": 0.0, "SHAPE_LEN": 0.0}, "geometry": {"type": "Polygon", "coordinates": [[[-99.54, 37.0], [-99.46, 37.0], [-99.44, 37.0], [-99.44, 36.98], [-99.43, 36.96], [-99.43, 36.96], [-99.42, 36.94], [-99.4, 36.93], [-99.4, 36.92], [-99.39, 36.91], [-99.38, 36.89], [-99.37, 36.88], [-99.33, 36.86], [-99.32, 36.86], [-99.32, 36.84], [-99.31, 36.83], [-99.3, 36.82], [-99.29, 36.77], [-99.3, 36.68], [-99.3, 36.6], [-99.39, 36.59], [-99.47, 36.59], [-99.5, 36.59], [-99.61, 36.59], [-99.6, 36.5], [-99.61, 36.39], [-99.6, 36.25], [-99.6, 36.25], [-99.6, 36.16], [-99.5, 36.16], [-99.45, 36.16], [-99.38, 36.16], [-99.38, 36.11], [-99.38, 36.01], [-99.42, 36.01], [-99.45, 36.01], [-99.46, 36.0], [-99.48, 35.99], [-99.49, 35.99], [-99.5, 35.98], [-99.51, 35.96], [-99.51, 35.95], [-99.52, 35.93], [-99.54, 35.91], [-99.55, 35.9], [-99.55, 35.89], [-99.56, 35.87], [-99.58, 35.86], [-99.6, 35.86], [-99.62, 35.84], [-99.63, 35.84], [-99.65, 35.85], [-99.68, 35.85], [-99.72, 35.86], [-99.75, 35.88], [-99.76, 35.88], [-99.78, 35.89], [-99.78, 35.9], [-99.8, 35.91], [-99.8, 35.92], [-99.81, 35.93], [-99.81, 35.96], [-99.8, 35.97], [-99.8, 35.99], [-99.81, 36.0], [-99.82, 36.01], [-99.84, 36.01], [-99.86, 36.0], [-99.88, 35.99], [-99.89, 35.99], [-99.9, 35.98], [-99.91, 35.97], [-99.91, 35.95], [-99.91, 35.94], [-99.91, 35.93], [-99.92, 35.92], [-99.93, 35.91], [-99.96, 35.9], [-99.97, 35.89], [-100.0, 35.88], [-100.0, 36.13], [-100.0, 36.36], [-100.0, 36.5], [-100.17, 36.5], [-100.29, 36.5], [-100.33, 36.5], [-100.5, 36.5], [-100.71, 36.5], [-100.92, 36.5], [-101.07, 36.5], [-101.22, 36.5], [-101.5, 36.5], [-101.7, 36.5], [-101.83, 36.5], [-101.9, 36.5], [-102.08, 36.5], [-102.13, 36.5], [-102.37, 36.5], [-102.63, 36.5], [-102.82, 36.5], [-102.88, 36.5], [-103.0, 36.5], [-103.0, 36.6], [-103.0, 36.82], [-103.0, 36.93], [-103.0, 36.97], [-103.0, 37.0], [-103.0, 37.0], [-103.0, 37.0], [-103.0, 37.0], [-102.99, 37.0], [-102.88, 37.0], [-102.84, 37.0], [-102.83, 37.0], [-102.82, 37.0], [-102.81, 37.0], [-102.78, 37.0], [-102.76, 37.0], [-102.74, 37.0], [-102.7, 37.0], [-102.57, 37.0], [-102.54, 36.99], [-102.54, 36.99], [-102.54, 36.99], [-102.52, 36.99], [-102.51, 36.99], [-102.5, 36.99], [-102.45, 36.99], [-102.39, 36.99], [-102.37, 36.99], [-102.21, 36.99], [-102.13, 36.99], [-102.08, 36.99], [-102.08, 36.99], [-102.07, 36.99], [-102.07, 36.99], [-102.07, 36.99], [-102.05, 36.99], [-102.05, 36.99], [-102.04, 36.99], [-101.87, 36.99], [-101.63, 36.99], [-101.46, 37.0], [-101.21, 37.0], [-101.11, 37.0], [-100.95, 37.0], [-100.9, 37.0], [-100.73, 37.0], [-100.6, 37.0], [-100.38, 37.0], [-100.09, 37.0], [-99.99, 37.0], [-99.88, 37.0], [-99.72, 37.0], [-99.65, 37.0], [-99.54, 37.0]]]}}, {"type": "Feature", "properties": {"STATE": "Oklahoma", "STATE_FIPS": "40", "CD_2DIG": "02", "STATE_CODE": 34, "CLIMDIV": 3402, "ID": 3402, "CD_NEW": 2, "FIPS_CD": "4002", "NCDC_GEO_I": 188.0, "NAME": "NORTH CENTRAL", "ST_ABBRV": "OK", "SHAPE_AREA": 0.0, "SHAPE_LEN": 0.0}, "geometry": {"type": "Polygon", "coordinates": [[[-97.15, 37.0], [-97.03, 37.0], [-96.92, 37.0], [-96.75, 37.0], [-96.75, 36.94], [-96.75, 36.94], [-96.75, 36.78], [-96.79, 36.78], [-96.79, 36.77], [-96.82, 36.77], [-96.82, 36.76], [-96.82, 36.75], [-96.83, 36.74], [-96.85, 36.75], [-96.87, 36.75], [-96.89, 36.75], [-96.91, 36.74], [-96.91, 36.73], [-96.92, 36.72], [-96.92, 36.7], [-96.93, 36.69], [-96.95, 36.68], [-96.97, 36.69], [-96.99, 36.69], [-97.01, 36.69], [-97.02, 36.69], [-97.03, 36.7], [-97.05, 36.69], [-97.06, 36.68], [-97.06, 36.67], [-97.06, 36.65], [-97.05, 36.64], [-97.05, 36.62], [-97.05, 36.61], [-97.04, 36.6], [-97.06, 36.59], [-97.04, 36.59], [-97.0, 36.58], [-96.98, 36.59], [-96.95, 36.59], [-96.92, 36.6], [-96.91, 36.6], [-96.9, 36.59], [-96.89, 36.58], [-96.89, 36.57], [-96.9, 36.55], [-96.92, 36.55], [-96.94, 36.54], [-96.96, 36.53], [-96.97, 36.54], [-96.99, 36.53], [-97.01, 36.52], [-97.01, 36.51], [-97.03, 36.51], [-97.03, 36.33], [-96.92, 36.33], [-96.93, 36.25], [-97.14, 36.25], [-97.14, 36.16], [-97.35, 36.16], [-97.35, 36.16], [-97.58, 36.16], [-97.77, 36.16], [-97.92, 36.16], [-98.1, 36.17], [-98.21, 36.16], [-98.49, 36.16], [-98.6, 36.17], [-98.73, 36.16], [-98.86, 36.16], [-98.92, 36.16], [-99.12, 36.16], [-99.13, 36.16], [-99.25, 36.16], [-99.27, 36.16], [-99.38, 36.16], [-99.45, 36.16], [-99.5, 36.16], [-99.6, 36.16], [-99.6, 36.25], [-99.6, 36.25], [-99.61, 36.39], [-99.6, 36.5], [-99.61, 36.59], [-99.5, 36.59], [-99.47, 36.59], [-99.39, 36.59], [-99.3, 36.6], [-99.3, 36.68], [-99.29, 36.77], [-99.3, 36.82], [-99.31, 36.83], [-99.32, 36.84], [-99.32, 36.86], [-99.33, 36.86], [-99.37, 36.88], [-99.38, 36.89], [-99.39, 36.91], [-99.4, 36.92], [-99.4, 36.93], [-99.42, 36.94], [-99.43, 36.96], [-99.43, 36.96], [-99.44, 36.98], [-99.44, 37.0], [-99.46, 37.0], [-99.39, 37.0], [-99.28, 37.0], [-99.11, 37.0], [-98.85, 37.0], [-98.66, 37.0], [-98.53, 37.0], [-98.3, 37.0], [-98.06, 37.0], [-97.95, 37.0], [-97.78, 37.0], [-97.73, 37.0], [-97.58, 37.0], [-97.32, 37.0], [-97.15, 37.0]]]}}, {"type": "Feature", "properties": {"STATE": "Oklahoma", "STATE_FIPS": "40", "CD_2DIG": "03", "STATE_CODE": 34, "CLIMDIV": 3403, "ID": 3403, "CD_NEW": 3, "FIPS_CD": "4003", "NCDC_GEO_I": 189.0, "NAME": "NORTHEAST", "ST_ABBRV": "OK", "SHAPE_AREA": 0.0, "SHAPE_LEN": 0.0}, "geometry": {"type": "Polygon", "coordinates": [[[-94.62, 37.0], [-94.62, 36.93], [-94.62, 36.82], [-94.62, 36.65], [-94.62, 36.5], [-94.58, 36.26], [-94.56, 36.16], [-94.75, 36.16], [-94.76, 36.16], [-94.89, 36.16], [-95.12, 36.16], [-95.12, 36.07], [-95.21, 36.07], [-95.21, 36.04], [-95.23, 36.04], [-95.23, 36.01], [-95.23, 36.0], [-95.24, 35.99], [-95.25, 35.99], [-95.27, 35.97], [-95.28, 35.96], [-95.27, 35.95], [-95.27, 35.93], [-95.28, 35.92], [-95.28, 35.91], [-95.28, 35.9], [-95.26, 35.88], [-95.24, 35.87], [-95.23, 35.86], [-95.23, 35.85], [-95.25, 35.83], [-95.26, 35.82], [-95.27, 35.82], [-95.27, 35.81], [-95.34, 35.81], [-95.36, 35.82], [-95.43, 35.8], [-95.45, 35.8], [-95.46, 35.8], [-95.5, 35.8], [-95.52, 35.79], [-95.54, 35.79], [-95.56, 35.78], [-95.59, 35.76], [-95.6, 35.78], [-95.62, 35.78], [-95.64, 35.79], [-95.64, 35.84], [-95.65, 35.86], [-95.85, 35.86], [-95.99, 35.86], [-96.03, 35.86], [-96.03, 35.9], [-96.03, 35.9], [-96.03, 36.08], [-96.21, 36.08], [-96.3, 36.08], [-96.3, 36.16], [-96.5, 36.16], [-96.62, 36.16], [-96.63, 36.16], [-96.82, 36.16], [-96.82, 36.23], [-96.82, 36.25], [-96.93, 36.25], [-96.92, 36.33], [-97.03, 36.33], [-97.03, 36.51], [-97.01, 36.51], [-97.01, 36.52], [-96.99, 36.53], [-96.97, 36.54], [-96.96, 36.53], [-96.94, 36.54], [-96.92, 36.55], [-96.9, 36.55], [-96.89, 36.57], [-96.89, 36.58], [-96.9, 36.59], [-96.91, 36.6], [-96.92, 36.6], [-96.95, 36.59], [-96.98, 36.59], [-97.0, 36.58], [-97.04, 36.59], [-97.06, 36.59], [-97.04, 36.6], [-97.05, 36.61], [-97.05, 36.62], [-97.05, 36.64], [-97.06, 36.65], [-97.06, 36.67], [-97.06, 36.68], [-97.05, 36.69], [-97.03, 36.7], [-97.02, 36.69], [-97.01, 36.69], [-96.99, 36.69], [-96.97, 36.69], [-96.95, 36.68], [-96.93, 36.69], [-96.92, 36.7], [-96.92, 36.72], [-96.91, 36.73], [-96.91, 36.74], [-96.89, 36.75], [-96.87, 36.75], [-96.85, 36.75], [-96.83, 36.74], [-96.82, 36.75], [-96.82, 36.76], [-96.82, 36.77], [-96.79, 36.77], [-96.79, 36.78], [-96.75, 36.78], [-96.75, 36.94], [-96.75, 36.94], [-96.75, 37.0], [-96.73, 37.0], [-96.5, 37.0], [-96.37, 37.0], [-96.18, 37.0], [-96.0, 37.0], [-95.96, 37.0], [-95.89, 37.0], [-95.7, 37.0], [-95.5, 37.0], [-95.3, 37.0], [-95.18, 37.0], [-94.96, 37.0], [-94.89, 37.0], [-94.77, 37.0], [-94.63, 37.0], [-94.62, 37.0]]]}}, {"type": "Feature", "properties": {"STATE": "Oklahoma", "STATE_FIPS": "40", "CD_2DIG": "04", "STATE_CODE": 34, "CLIMDIV": 3404, "ID": 3404, "CD_NEW": 4, "FIPS_CD": "4004", "NCDC_GEO_I": 190.0, "NAME": "WEST CENTRAL", "ST_ABBRV": "OK", "SHAPE_AREA": 0.0, "SHAPE_LEN": 0.0}, "geometry": {"type": "Polygon", "coordinates": [[[-98.21, 36.16], [-98.21, 36.09], [-98.21, 35.9], [-98.21, 35.9], [-98.21, 35.73], [-98.31, 35.73], [-98.31, 35.55], [-98.34, 35.55], [-98.4, 35.55], [-98.62, 35.55], [-98.62, 35.33], [-98.62, 35.2], [-98.62, 35.2], [-98.62, 35.1], [-98.63, 35.1], [-98.63, 35.12], [-98.64, 35.12], [-98.66, 35.12], [-98.67, 35.12], [-98.67, 35.11], [-98.7, 35.11], [-98.71, 35.1], [-98.72, 35.11], [-98.73, 35.11], [-98.74, 35.11], [-98.75, 35.12], [-98.92, 35.12], [-99.19, 35.12], [-99.41, 35.12], [-99.42, 35.11], [-99.44, 35.11], [-99.44, 35.12], [-99.64, 35.12], [-99.68, 35.12], [-99.78, 35.12], [-99.78, 35.03], [-99.95, 35.03], [-100.0, 35.03], [-100.0, 35.28], [-100.0, 35.48], [-100.0, 35.62], [-100.0, 35.79], [-100.0, 35.88], [-99.97, 35.89], [-99.96, 35.9], [-99.93, 35.91], [-99.92, 35.92], [-99.91, 35.93], [-99.91, 35.94], [-99.91, 35.95], [-99.91, 35.97], [-99.9, 35.98], [-99.89, 35.99], [-99.88, 35.99], [-99.86, 36.0], [-99.84, 36.01], [-99.82, 36.01], [-99.81, 36.0], [-99.8, 35.99], [-99.8, 35.97], [-99.81, 35.96], [-99.81, 35.93], [-99.8, 35.92], [-99.8, 35.91], [-99.78, 35.9], [-99.78, 35.89], [-99.76, 35.88], [-99.75, 35.88], [-99.72, 35.86], [-99.68, 35.85], [-99.65, 35.85], [-99.63, 35.84], [-99.62, 35.84], [-99.6, 35.86], [-99.58, 35.86], [-99.56, 35.87], [-99.55, 35.89], [-99.55, 35.9], [-99.54, 35.91], [-99.52, 35.93], [-99.51, 35.95], [-99.51, 35.96], [-99.5, 35.98], [-99.49, 35.99], [-99.48, 35.99], [-99.46, 36.0], [-99.45, 36.01], [-99.42, 36.01], [-99.38, 36.01], [-99.38, 36.11], [-99.38, 36.16], [-99.27, 36.16], [-99.25, 36.16], [-99.13, 36.16], [-99.12, 36.16], [-98.92, 36.16], [-98.86, 36.16], [-98.73, 36.16], [-98.6, 36.17], [-98.49, 36.16], [-98.21, 36.16]]]}}, {"type": "Feature", "properties": {"STATE": "Oklahoma", "STATE_FIPS": "40", "CD_2DIG": "05", "STATE_CODE": 34, "CLIMDIV": 3405, "ID": 3405, "CD_NEW": 5, "FIPS_CD": "4005", "NCDC_GEO_I": 191.0, "NAME": "CENTRAL", "ST_ABBRV": "OK", "SHAPE_AREA": 0.0, "SHAPE_LEN": 0.0}, "geometry": {"type": "Polygon", "coordinates": [[[-96.03, 35.86], [-96.13, 35.86], [-96.19, 35.86], [-96.19, 35.68], [-96.19, 35.55], [-96.09, 35.55], [-96.09, 35.38], [-95.98, 35.38], [-95.98, 35.29], [-96.02, 35.29], [-96.19, 35.29], [-96.27, 35.29], [-96.44, 35.29], [-96.44, 35.12], [-96.49, 35.12], [-96.49, 34.91], [-96.5, 34.9], [-96.5, 34.89], [-96.51, 34.88], [-96.53, 34.87], [-96.54, 34.88], [-96.56, 34.9], [-96.56, 34.91], [-96.56, 34.92], [-96.58, 34.92], [-96.6, 34.91], [-96.62, 34.9], [-96.64, 34.9], [-96.65, 34.9], [-96.66, 34.92], [-96.67, 34.93], [-96.69, 34.93], [-96.71, 34.92], [-96.71, 34.91], [-96.7, 34.9], [-96.69, 34.89], [-96.69, 34.87], [-96.72, 34.86], [-96.73, 34.86], [-96.74, 34.87], [-96.75, 34.89], [-96.76, 34.9], [-96.79, 34.9], [-96.8, 34.91], [-96.8, 34.93], [-96.81, 34.94], [-96.82, 34.95], [-96.85, 34.93], [-96.87, 34.93], [-96.88, 34.93], [-96.89, 34.93], [-96.9, 34.94], [-96.9, 34.95], [-96.91, 34.96], [-96.92, 34.96], [-96.93, 34.96], [-96.93, 34.85], [-97.13, 34.85], [-97.22, 34.86], [-97.43, 34.86], [-97.67, 34.86], [-97.67, 34.83], [-97.67, 34.68], [-97.79, 34.68], [-98.0, 34.68], [-98.09, 34.68], [-98.09, 34.85], [-98.09, 34.85], [-98.09, 34.91], [-98.09, 35.09], [-98.09, 35.09], [-98.09, 35.2], [-98.09, 35.2], [-98.1, 35.29], [-98.1, 35.38], [-98.24, 35.38], [-98.31, 35.38], [-98.31, 35.51], [-98.31, 35.54], [-98.31, 35.55], [-98.31, 35.73], [-98.21, 35.73], [-98.21, 35.9], [-98.21, 35.9], [-98.21, 36.09], [-98.21, 36.16], [-98.1, 36.17], [-97.92, 36.16], [-97.77, 36.16], [-97.58, 36.16], [-97.35, 36.16], [-97.35, 36.16], [-97.14, 36.16], [-97.14, 36.25], [-96.93, 36.25], [-96.82, 36.25], [-96.82, 36.23], [-96.82, 36.16], [-96.63, 36.16], [-96.62, 36.16], [-96.5, 36.16], [-96.3, 36.16], [-96.3, 36.08], [-96.21, 36.08], [-96.03, 36.08], [-96.03, 35.9], [-96.03, 35.9], [-96.03, 35.86]]]}}, {"type": "Feature", "properties": {"STATE": "Oklahoma", "STATE_FIPS": "40", "CD_2DIG": "06", "STATE_CODE": 34, "CLIMDIV": 3406, "ID": 3406, "CD_NEW": 6, "FIPS_CD": "4006", "NCDC_GEO_I": 192.0, "NAME": "EAST CENTRAL", "ST_ABBRV": "OK", "SHAPE_AREA": 0.0, "SHAPE_LEN": 0.0}, "geometry": {"type": "Polygon", "coordinates": [[[-94.56, 36.16], [-94.55, 36.08], [-94.53, 36.0], [-94.51, 35.85], [-94.5, 35.79], [-94.49, 35.76], [-94.49, 35.74], [-94.48, 35.69], [-94.47, 35.6], [-94.45, 35.5], [-94.44, 35.42], [-94.43, 35.39], [-94.43, 35.39], [-94.45, 35.38], [-94.47, 35.38], [-94.48, 35.37], [-94.49, 35.36], [-94.48, 35.35], [-94.49, 35.34], [-94.5, 35.33], [-94.48, 35.32], [-94.48, 35.31], [-94.5, 35.3], [-94.52, 35.31], [-94.53, 35.3], [-94.55, 35.31], [-94.57, 35.32], [-94.58, 35.33], [-94.59, 35.33], [-94.6, 35.32], [-94.62, 35.3], [-94.63, 35.29], [-94.65, 35.29], [-94.67, 35.3], [-94.68, 35.3], [-94.68, 35.32], [-94.68, 35.33], [-94.71, 35.33], [-94.73, 35.35], [-94.75, 35.36], [-94.77, 35.36], [-94.78, 35.35], [-94.79, 35.33], [-94.81, 35.32], [-94.81, 35.25], [-94.81, 35.2], [-94.93, 35.2], [-94.93, 35.06], [-95.1, 35.06], [-95.25, 35.06], [-95.35, 35.06], [-95.35, 35.03], [-95.51, 35.03], [-95.51, 34.85], [-95.51, 34.85], [-95.51, 34.62], [-95.51, 34.59], [-95.67, 34.59], [-95.7, 34.59], [-95.88, 34.59], [-95.88, 34.68], [-95.96, 34.68], [-96.0, 34.68], [-96.09, 34.68], [-96.09, 34.77], [-96.13, 34.77], [-96.3, 34.77], [-96.41, 34.77], [-96.41, 34.79], [-96.41, 34.91], [-96.41, 34.92], [-96.42, 34.9], [-96.43, 34.9], [-96.46, 34.91], [-96.47, 34.92], [-96.49, 34.91], [-96.49, 35.12], [-96.44, 35.12], [-96.44, 35.29], [-96.27, 35.29], [-96.19, 35.29], [-96.02, 35.29], [-95.98, 35.29], [-95.98, 35.38], [-96.09, 35.38], [-96.09, 35.55], [-96.19, 35.55], [-96.19, 35.68], [-96.19, 35.86], [-96.13, 35.86], [-96.03, 35.86], [-95.99, 35.86], [-95.85, 35.86], [-95.65, 35.86], [-95.64, 35.84], [-95.64, 35.79], [-95.62, 35.78], [-95.6, 35.78], [-95.59, 35.76], [-95.56, 35.78], [-95.54, 35.79], [-95.52, 35.79], [-95.5, 35.8], [-95.46, 35.8], [-95.45, 35.8], [-95.43, 35.8], [-95.36, 35.82], [-95.34, 35.81], [-95.27, 35.81], [-95.27, 35.82], [-95.26, 35.82], [-95.25, 35.83], [-95.23, 35.85], [-95.23, 35.86], [-95.24, 35.87], [-95.26, 35.88], [-95.28, 35.9], [-95.28, 35.91], [-95.28, 35.92], [-95.27, 35.93], [-95.27, 35.95], [-95.28, 35.96], [-95.27, 35.97], [-95.25, 35.99], [-95.24, 35.99], [-95.23, 36.0], [-95.23, 36.01], [-95.23, 36.04], [-95.21, 36.04], [-95.21, 36.07], [-95.12, 36.07], [-95.12, 36.16], [-94.89, 36.16], [-94.76, 36.16], [-94.75, 36.16], [-94.56, 36.16]]]}}, {"type": "Feature", "properties": {"STATE": "Oklahoma", "STATE_FIPS": "40", "CD_2DIG": "07", "STATE_CODE": 34, "CLIMDIV": 3407, "ID": 3407, "CD_NEW": 7, "FIPS_CD": "4007", "NCDC_GEO_I": 193.0, "NAME": "SOUTHWEST", "ST_ABBRV": "OK", "SHAPE_AREA": 0.0, "SHAPE_LEN": 0.0}, "geometry": {"type": "Polygon", "coordinates": [[[-98.31, 35.55], [-98.31, 35.54], [-98.31, 35.51], [-98.31, 35.38], [-98.24, 35.38], [-98.1, 35.38], [-98.1, 35.29], [-98.09, 35.2], [-98.09, 35.2], [-98.09, 35.09], [-98.09, 35.09], [-98.09, 34.91], [-98.09, 34.85], [-98.09, 34.85], [-98.09, 34.68], [-98.14, 34.68], [-98.14, 34.51], [-98.14, 34.51], [-98.14, 34.35], [-98.14, 34.2], [-98.14, 34.14], [-98.15, 34.13], [-98.17, 34.11], [-98.2, 34.12], [-98.22, 34.13], [-98.23, 34.13], [-98.26, 34.13], [-98.27, 34.13], [-98.28, 34.13], [-98.3, 34.13], [-98.32, 34.15], [-98.36, 34.16], [-98.38, 34.15], [-98.4, 34.12], [-98.4, 34.1], [-98.4, 34.09], [-98.41, 34.08], [-98.42, 34.08], [-98.43, 34.09], [-98.45, 34.08], [-98.47, 34.07], [-98.47, 34.07], [-98.48, 34.06], [-98.5, 34.07], [-98.53, 34.09], [-98.54, 34.11], [-98.55, 34.12], [-98.56, 34.12], [-98.55, 34.13], [-98.56, 34.14], [-98.58, 34.14], [-98.59, 34.16], [-98.6, 34.16], [-98.62, 34.16], [-98.64, 34.16], [-98.67, 34.15], [-98.69, 34.13], [-98.7, 34.14], [-98.71, 34.13], [-98.72, 34.14], [-98.74, 34.14], [-98.74, 34.13], [-98.76, 34.12], [-98.77, 34.14], [-98.78, 34.14], [-98.79, 34.15], [-98.8, 34.14], [-98.8, 34.15], [-98.83, 34.16], [-98.84, 34.16], [-98.85, 34.16], [-98.86, 34.15], [-98.87, 34.15], [-98.87, 34.16], [-98.87, 34.17], [-98.89, 34.17], [-98.9, 34.18], [-98.92, 34.18], [-98.94, 34.2], [-98.95, 34.21], [-98.96, 34.21], [-98.97, 34.2], [-98.98, 34.21], [-98.98, 34.22], [-98.99, 34.22], [-99.0, 34.21], [-99.01, 34.2], [-99.04, 34.21], [-99.04, 34.2], [-99.06, 34.2], [-99.07, 34.21], [-99.08, 34.21], [-99.1, 34.21], [-99.11, 34.21], [-99.12, 34.2], [-99.13, 34.21], [-99.13, 34.22], [-99.14, 34.22], [-99.15, 34.21], [-99.16, 34.21], [-99.19, 34.21], [-99.19, 34.22], [-99.19, 34.23], [-99.2, 34.24], [-99.19, 34.26], [-99.2, 34.26], [-99.19, 34.27], [-99.2, 34.28], [-99.21, 34.28], [-99.21, 34.31], [-99.21, 34.32], [-99.21, 34.34], [-99.23, 34.34], [-99.23, 34.35], [-99.23, 34.35], [-99.24, 34.37], [-99.25, 34.38], [-99.27, 34.38], [-99.26, 34.39], [-99.26, 34.4], [-99.28, 34.4], [-99.28, 34.4], [-99.29, 34.41], [-99.29, 34.42], [-99.31, 34.41], [-99.32, 34.41], [-99.33, 34.42], [-99.36, 34.44], [-99.35, 34.45], [-99.36, 34.46], [-99.38, 34.46], [-99.38, 34.46], [-99.39, 34.44], [-99.39, 34.43], [-99.4, 34.42], [-99.39, 34.41], [-99.4, 34.39], [-99.4, 34.38], [-99.41, 34.37], [-99.43, 34.39], [-99.43, 34.37], [-99.44, 34.37], [-99.45, 34.39], [-99.47, 34.4], [-99.49, 34.4], [-99.5, 34.41], [-99.52, 34.41], [-99.53, 34.41], [-99.55, 34.41], [-99.57, 34.42], [-99.58, 34.42], [-99.58, 34.41], [-99.58, 34.39], [-99.6, 34.37], [-99.61, 34.38], [-99.62, 34.37], [-99.65, 34.38], [-99.66, 34.37], [-99.68, 34.38], [-99.69, 34.38], [-99.71, 34.39], [-99.71, 34.4], [-99.73, 34.41], [-99.75, 34.42], [-99.77, 34.43], [-99.77, 34.44], [-99.78, 34.44], [-99.78, 34.45], [-99.81, 34.48], [-99.82, 34.49], [-99.82, 34.5], [-99.83, 34.5], [-99.85, 34.51], [-99.87, 34.53], [-99.88, 34.54], [-99.89, 34.55], [-99.92, 34.57], [-99.92, 34.57], [-99.94, 34.58], [-99.96, 34.57], [-99.97, 34.56], [-99.99, 34.56], [-100.0, 34.56], [-100.0, 34.75], [-100.0, 34.9], [-100.0, 35.03], [-99.95, 35.03], [-99.78, 35.03], [-99.78, 35.12], [-99.68, 35.12], [-99.64, 35.12], [-99.44, 35.12], [-99.44, 35.11], [-99.42, 35.11], [-99.41, 35.12], [-99.19, 35.12], [-98.92, 35.12], [-98.75, 35.12], [-98.74, 35.11], [-98.73, 35.11], [-98.72, 35.11], [-98.71, 35.1], [-98.7, 35.11], [-98.67, 35.11], [-98.67, 35.12], [-98.66, 35.12], [-98.64, 35.12], [-98.63, 35.12], [-98.63, 35.1], [-98.62, 35.1], [-98.62, 35.2], [-98.62, 35.2], [-98.62, 35.33], [-98.62, 35.55], [-98.4, 35.55], [-98.34, 35.55], [-98.31, 35.55]]]}}, {"type": "Feature", "properties": {"STATE": "Oklahoma", "STATE_FIPS": "40", "CD_2DIG": "08", "STATE_CODE": 34, "CLIMDIV": 3408, "ID": 3408, "CD_NEW": 8, "FIPS_CD": "4008", "NCDC_GEO_I": 194.0, "NAME": "SOUTH CENTRAL", "ST_ABBRV": "OK", "SHAPE_AREA": 0.0, "SHAPE_LEN": 0.0}, "geometry": {"type": "Polygon", "coordinates": [[[-96.49, 34.91], [-96.47, 34.92], [-96.46, 34.91], [-96.43, 34.9], [-96.42, 34.9], [-96.41, 34.92], [-96.41, 34.91], [-96.41, 34.79], [-96.41, 34.77], [-96.3, 34.77], [-96.13, 34.77], [-96.09, 34.77], [-96.09, 34.68], [-96.0, 34.68], [-95.96, 34.68], [-95.88, 34.68], [-95.88, 34.59], [-95.7, 34.59], [-95.67, 34.59], [-95.67, 34.51], [-95.78, 34.51], [-95.78, 34.5], [-95.78, 34.31], [-95.78, 34.19], [-95.78, 34.16], [-95.88, 34.16], [-95.99, 34.16], [-95.97, 34.15], [-95.95, 34.15], [-95.95, 34.13], [-95.94, 34.13], [-95.94, 34.05], [-95.94, 33.95], [-95.93, 33.94], [-95.92, 33.93], [-95.91, 33.92], [-95.9, 33.92], [-95.88, 33.91], [-95.87, 33.91], [-95.86, 33.89], [-95.84, 33.87], [-95.83, 33.88], [-95.81, 33.87], [-95.8, 33.87], [-95.77, 33.87], [-95.76, 33.87], [-95.75, 33.86], [-95.76, 33.85], [-95.77, 33.84], [-95.79, 33.86], [-95.8, 33.86], [-95.82, 33.86], [-95.82, 33.84], [-95.83, 33.84], [-95.84, 33.84], [-95.86, 33.85], [-95.88, 33.86], [-95.91, 33.88], [-95.93, 33.89], [-95.94, 33.86], [-95.95, 33.86], [-95.97, 33.86], [-95.98, 33.85], [-95.98, 33.87], [-96.0, 33.87], [-96.0, 33.87], [-95.99, 33.86], [-96.0, 33.85], [-96.01, 33.85], [-96.02, 33.84], [-96.02, 33.85], [-96.03, 33.85], [-96.03, 33.84], [-96.05, 33.84], [-96.08, 33.85], [-96.1, 33.85], [-96.1, 33.83], [-96.11, 33.83], [-96.12, 33.84], [-96.15, 33.84], [-96.15, 33.83], [-96.15, 33.82], [-96.17, 33.82], [-96.18, 33.81], [-96.18, 33.8], [-96.17, 33.8], [-96.16, 33.81], [-96.17, 33.78], [-96.17, 33.77], [-96.18, 33.76], [-96.2, 33.75], [-96.22, 33.75], [-96.23, 33.75], [-96.25, 33.76], [-96.28, 33.77], [-96.29, 33.76], [-96.3, 33.75], [-96.31, 33.73], [-96.31, 33.72], [-96.31, 33.71], [-96.32, 33.7], [-96.33, 33.69], [-96.34, 33.69], [-96.36, 33.69], [-96.36, 33.69], [-96.36, 33.7], [-96.37, 33.72], [-96.4, 33.74], [-96.41, 33.76], [-96.42, 33.78], [-96.44, 33.78], [-96.45, 33.78], [-96.46, 33.78], [-96.47, 33.78], [-96.5, 33.77], [-96.51, 33.79], [-96.52, 33.81], [-96.53, 33.82], [-96.53, 33.82], [-96.55, 33.82], [-96.57, 33.82], [-96.59, 33.83], [-96.63, 33.84], [-96.63, 33.85], [-96.61, 33.87], [-96.6, 33.88], [-96.59, 33.89], [-96.59, 33.9], [-96.63, 33.9], [-96.65, 33.91], [-96.67, 33.92], [-96.67, 33.91], [-96.68, 33.89], [-96.68, 33.86], [-96.69, 33.85], [-96.7, 33.84], [-96.71, 33.83], [-96.74, 33.83], [-96.76, 33.82], [-96.77, 33.83], [-96.78, 33.84], [-96.78, 33.86], [-96.79, 33.87], [-96.83, 33.87], [-96.84, 33.87], [-96.84, 33.85], [-96.85, 33.85], [-96.87, 33.85], [-96.88, 33.87], [-96.9, 33.9], [-96.9, 33.93], [-96.91, 33.95], [-96.92, 33.96], [-96.94, 33.95], [-96.95, 33.94], [-96.97, 33.94], [-96.98, 33.94], [-96.98, 33.95], [-96.99, 33.95], [-96.99, 33.95], [-97.0, 33.94], [-96.98, 33.9], [-96.98, 33.89], [-97.0, 33.87], [-97.02, 33.85], [-97.04, 33.84], [-97.05, 33.85], [-97.06, 33.86], [-97.07, 33.86], [-97.09, 33.85], [-97.09, 33.85], [-97.08, 33.84], [-97.07, 33.84], [-97.05, 33.83], [-97.05, 33.82], [-97.05, 33.82], [-97.07, 33.82], [-97.08, 33.81], [-97.1, 33.8], [-97.09, 33.78], [-97.09, 33.77], [-97.09, 33.74], [-97.09, 33.73], [-97.11, 33.72], [-97.13, 33.72], [-97.15, 33.72], [-97.17, 33.74], [-97.17, 33.75], [-97.19, 33.76], [-97.19, 33.77], [-97.19, 33.78], [-97.2, 33.79], [-97.21, 33.8], [-97.2, 33.82], [-97.2, 33.83], [-97.19, 33.83], [-97.17, 33.83], [-97.16, 33.85], [-97.17, 33.85], [-97.18, 33.88], [-97.18, 33.89], [-97.19, 33.9], [-97.2, 33.91], [-97.21, 33.92], [-97.22, 33.91], [-97.23, 33.92], [-97.25, 33.9], [-97.25, 33.89], [-97.25, 33.87], [-97.25, 33.87], [-97.27, 33.86], [-97.29, 33.87], [-97.31, 33.89], [-97.31, 33.87], [-97.33, 33.85], [-97.34, 33.86], [-97.32, 33.88], [-97.34, 33.88], [-97.34, 33.86], [-97.36, 33.83], [-97.37, 33.82], [-97.4, 33.82], [-97.42, 33.82], [-97.45, 33.82], [-97.46, 33.83], [-97.46, 33.84], [-97.45, 33.88], [-97.45, 33.89], [-97.46, 33.91], [-97.49, 33.92], [-97.5, 33.92], [-97.52, 33.91], [-97.54, 33.9], [-97.56, 33.9], [-97.57, 33.9], [-97.58, 33.9], [-97.59, 33.9], [-97.6, 33.92], [-97.59, 33.93], [-97.6, 33.94], [-97.59, 33.95], [-97.6, 33.96], [-97.61, 33.97], [-97.62, 33.97], [-97.63, 33.98], [-97.66, 33.99], [-97.67, 33.99], [-97.69, 33.99], [-97.7, 33.98], [-97.7, 33.96], [-97.71, 33.95], [-97.73, 33.94], [-97.75, 33.94], [-97.76, 33.93], [-97.76, 33.92], [-97.77, 33.91], [-97.78, 33.92], [-97.79, 33.91], [-97.78, 33.9], [-97.78, 33.89], [-97.79, 33.9], [-97.8, 33.9], [-97.8, 33.89], [-97.81, 33.88], [-97.82, 33.88], [-97.82, 33.87], [-97.83, 33.86], [-97.87, 33.85], [-97.88, 33.85], [-97.9, 33.86], [-97.91, 33.87], [-97.94, 33.88], [-97.96, 33.88], [-97.97, 33.89], [-97.98, 33.9], [-97.98, 33.91], [-97.97, 33.91], [-97.96, 33.91], [-97.95, 33.94], [-97.97, 33.94], [-97.97, 33.94], [-97.96, 33.95], [-97.96, 33.96], [-97.95, 33.99], [-97.96, 33.99], [-97.97, 34.01], [-97.99, 34.0], [-98.02, 33.99], [-98.04, 33.99], [-98.08, 34.0], [-98.08, 34.01], [-98.1, 34.03], [-98.11, 34.04], [-98.09, 34.03], [-98.08, 34.04], [-98.1, 34.05], [-98.11, 34.06], [-98.12, 34.07], [-98.12, 34.09], [-98.1, 34.1], [-98.09, 34.12], [-98.09, 34.13], [-98.1, 34.13], [-98.1, 34.15], [-98.11, 34.15], [-98.12, 34.15], [-98.14, 34.14], [-98.14, 34.2], [-98.14, 34.35], [-98.14, 34.51], [-98.14, 34.51], [-98.14, 34.68], [-98.09, 34.68], [-98.0, 34.68], [-97.79, 34.68], [-97.67, 34.68], [-97.67, 34.83], [-97.67, 34.86], [-97.43, 34.86], [-97.22, 34.86], [-97.13, 34.85], [-96.93, 34.85], [-96.93, 34.96], [-96.92, 34.96], [-96.91, 34.96], [-96.9, 34.95], [-96.9, 34.94], [-96.89, 34.93], [-96.88, 34.93], [-96.87, 34.93], [-96.85, 34.93], [-96.82, 34.95], [-96.81, 34.94], [-96.8, 34.93], [-96.8, 34.91], [-96.79, 34.9], [-96.76, 34.9], [-96.75, 34.89], [-96.74, 34.87], [-96.73, 34.86], [-96.72, 34.86], [-96.69, 34.87], [-96.69, 34.89], [-96.7, 34.9], [-96.71, 34.91], [-96.71, 34.92], [-96.69, 34.93], [-96.67, 34.93], [-96.66, 34.92], [-96.65, 34.9], [-96.64, 34.9], [-96.62, 34.9], [-96.6, 34.91], [-96.58, 34.92], [-96.56, 34.92], [-96.56, 34.91], [-96.56, 34.9], [-96.54, 34.88], [-96.53, 34.87], [-96.51, 34.88], [-96.5, 34.89], [-96.5, 34.9], [-96.49, 34.91]]]}}, {"type": "Feature", "properties": {"STATE": "Oklahoma", "STATE_FIPS": "40", "CD_2DIG": "09", "STATE_CODE": 34, "CLIMDIV": 3409, "ID": 3409, "CD_NEW": 9, "FIPS_CD": "4009", "NCDC_GEO_I": 195.0, "NAME": "SOUTHEAST", "ST_ABBRV": "OK", "SHAPE_AREA": 0.0, "SHAPE_LEN": 0.0}, "geometry": {"type": "Polygon", "coordinates": [[[-94.47, 34.19], [-94.47, 34.09], [-94.48, 33.99], [-94.48, 33.88], [-94.48, 33.83], [-94.49, 33.64], [-94.49, 33.63], [-94.5, 33.62], [-94.51, 33.62], [-94.52, 33.63], [-94.52, 33.62], [-94.53, 33.62], [-94.54, 33.63], [-94.52, 33.64], [-94.53, 33.64], [-94.54, 33.64], [-94.55, 33.63], [-94.56, 33.63], [-94.57, 33.63], [-94.56, 33.64], [-94.55, 33.64], [-94.54, 33.65], [-94.55, 33.66], [-94.56, 33.66], [-94.58, 33.65], [-94.59, 33.65], [-94.58, 33.66], [-94.56, 33.66], [-94.56, 33.67], [-94.58, 33.67], [-94.58, 33.68], [-94.59, 33.69], [-94.59, 33.67], [-94.6, 33.66], [-94.61, 33.67], [-94.62, 33.68], [-94.63, 33.68], [-94.64, 33.66], [-94.66, 33.66], [-94.67, 33.67], [-94.66, 33.68], [-94.65, 33.67], [-94.65, 33.69], [-94.65, 33.7], [-94.66, 33.69], [-94.67, 33.69], [-94.68, 33.68], [-94.72, 33.69], [-94.71, 33.7], [-94.7, 33.7], [-94.71, 33.71], [-94.73, 33.71], [-94.73, 33.71], [-94.72, 33.7], [-94.72, 33.69], [-94.72, 33.69], [-94.74, 33.69], [-94.74, 33.7], [-94.75, 33.7], [-94.75, 33.71], [-94.74, 33.72], [-94.73, 33.72], [-94.75, 33.73], [-94.75, 33.73], [-94.76, 33.73], [-94.77, 33.73], [-94.79, 33.74], [-94.78, 33.75], [-94.76, 33.75], [-94.76, 33.76], [-94.77, 33.76], [-94.78, 33.76], [-94.78, 33.74], [-94.8, 33.73], [-94.82, 33.74], [-94.81, 33.75], [-94.82, 33.76], [-94.82, 33.77], [-94.83, 33.76], [-94.82, 33.75], [-94.83, 33.74], [-94.85, 33.74], [-94.87, 33.75], [-94.88, 33.76], [-94.91, 33.78], [-94.91, 33.78], [-94.92, 33.79], [-94.92, 33.81], [-94.91, 33.82], [-94.92, 33.83], [-94.93, 33.83], [-94.92, 33.81], [-94.94, 33.81], [-94.95, 33.82], [-94.94, 33.83], [-94.96, 33.84], [-94.97, 33.86], [-94.98, 33.86], [-94.98, 33.85], [-94.99, 33.85], [-95.0, 33.86], [-95.01, 33.87], [-95.02, 33.86], [-95.04, 33.86], [-95.05, 33.86], [-95.05, 33.88], [-95.06, 33.89], [-95.06, 33.9], [-95.07, 33.9], [-95.06, 33.91], [-95.07, 33.92], [-95.08, 33.91], [-95.08, 33.89], [-95.09, 33.88], [-95.1, 33.89], [-95.08, 33.91], [-95.08, 33.92], [-95.09, 33.92], [-95.11, 33.91], [-95.12, 33.9], [-95.13, 33.91], [-95.13, 33.92], [-95.12, 33.93], [-95.12, 33.93], [-95.13, 33.94], [-95.15, 33.94], [-95.17, 33.94], [-95.19, 33.95], [-95.22, 33.96], [-95.23, 33.96], [-95.23, 33.95], [-95.25, 33.94], [-95.25, 33.93], [-95.25, 33.92], [-95.25, 33.89], [-95.26, 33.89], [-95.27, 33.89], [-95.27, 33.91], [-95.28, 33.91], [-95.29, 33.9], [-95.28, 33.89], [-95.28, 33.88], [-95.3, 33.87], [-95.31, 33.88], [-95.33, 33.89], [-95.34, 33.87], [-95.35, 33.87], [-95.38, 33.87], [-95.41, 33.87], [-95.44, 33.87], [-95.45, 33.87], [-95.46, 33.87], [-95.46, 33.88], [-95.47, 33.89], [-95.48, 33.88], [-95.49, 33.87], [-95.51, 33.88], [-95.51, 33.89], [-95.51, 33.89], [-95.53, 33.88], [-95.55, 33.88], [-95.55, 33.89], [-95.55, 33.91], [-95.56, 33.93], [-95.56, 33.93], [-95.59, 33.93], [-95.6, 33.94], [-95.6, 33.93], [-95.62, 33.92], [-95.64, 33.91], [-95.66, 33.91], [-95.67, 33.91], [-95.68, 33.89], [-95.7, 33.89], [-95.71, 33.88], [-95.73, 33.89], [-95.74, 33.9], [-95.76, 33.89], [-95.76, 33.88], [-95.76, 33.87], [-95.77, 33.87], [-95.8, 33.87], [-95.81, 33.87], [-95.83, 33.88], [-95.84, 33.87], [-95.86, 33.89], [-95.87, 33.91], [-95.88, 33.91], [-95.9, 33.92], [-95.91, 33.92], [-95.92, 33.93], [-95.93, 33.94], [-95.94, 33.95], [-95.94, 34.05], [-95.94, 34.13], [-95.95, 34.13], [-95.95, 34.15], [-95.97, 34.15], [-95.99, 34.16], [-95.88, 34.16], [-95.78, 34.16], [-95.78, 34.19], [-95.78, 34.31], [-95.78, 34.5], [-95.78, 34.51], [-95.67, 34.51], [-95.67, 34.59], [-95.51, 34.59], [-95.51, 34.62], [-95.51, 34.85], [-95.51, 34.85], [-95.51, 35.03], [-95.35, 35.03], [-95.35, 35.06], [-95.25, 35.06], [-95.1, 35.06], [-94.93, 35.06], [-94.93, 35.2], [-94.81, 35.2], [-94.81, 35.25], [-94.81, 35.32], [-94.79, 35.33], [-94.78, 35.35], [-94.77, 35.36], [-94.75, 35.36], [-94.73, 35.35], [-94.71, 35.33], [-94.68, 35.33], [-94.68, 35.32], [-94.68, 35.3], [-94.67, 35.3], [-94.65, 35.29], [-94.63, 35.29], [-94.62, 35.3], [-94.6, 35.32], [-94.59, 35.33], [-94.58, 35.33], [-94.57, 35.32], [-94.55, 35.31], [-94.53, 35.3], [-94.52, 35.31], [-94.5, 35.3], [-94.48, 35.31], [-94.48, 35.32], [-94.5, 35.33], [-94.49, 35.34], [-94.48, 35.35], [-94.49, 35.36], [-94.48, 35.37], [-94.47, 35.38], [-94.45, 35.38], [-94.43, 35.39], [-94.43, 35.36], [-94.44, 35.22], [-94.44, 35.13], [-94.45, 34.96], [-94.45, 34.83], [-94.46, 34.67], [-94.46, 34.55], [-94.46, 34.45], [-94.47, 34.35], [-94.47, 34.25], [-94.47, 34.19]]]}}]}