{"type": "FeatureCollection", "features": [{"type": "Feature", "properties": {"STATE": "Pennsylvania", "STATE_FIPS": "42", "CD_2DIG": "10", "STATE_CODE": 36, "CLIMDIV": 3610, "ID": 3610, "CD_NEW": 10, "FIPS_CD": "4210", "NCDC_GEO_I": 211.0, "NAME": "NORTHWEST PLATEAU", "ST_ABBRV": "PA", "SHAPE_AREA": 0.0, "SHAPE_LEN": 0.0}, "geometry": {"type": "Polygon", "coordinates": [[[-79.76, 42.27], [-79.76, 42.27], [-79.76, 42.24], [-79.76, 42.22], [-79.76, 42.2], [-79.76, 42.18], [-79.76, 42.17], [-79.76, 42.16], [-79.76, 42.15], [-79.76, 42.15], [-79.76, 42.14], [-79.76, 42.13], [-79.76, 42.13], [-79.76, 42.13], [-79.76, 42.11], [-79.76, 42.09], [-79.76, 42.06], [-79.76, 42.04], [-79.76, 42.02], [-79.76, 42.01], [-79.76, 42.0], [-79.75, 42.0], [-79.72, 42.0], [-79.69, 42.0], [-79.68, 42.0], [-79.66, 42.0], [-79.6, 42.0], [-79.58, 42.0], [-79.56, 42.0], [-79.55, 42.0], [-79.54, 42.0], [-79.54, 42.0], [-79.54, 42.0], [-79.54, 42.0], [-79.54, 42.0], [-79.51, 42.0], [-79.5, 42.0], [-79.49, 42.0], [-79.49, 42.0], [-79.48, 42.0], [-79.46, 42.0], [-79.45, 42.0], [-79.43, 42.0], [-79.39, 42.0], [-79.39, 42.0], [-79.38, 42.0], [-79.35, 42.0], [-79.31, 42.0], [-79.31, 42.0], [-79.29, 42.0], [-79.27, 42.0], [-79.25, 42.0], [-79.22, 42.0], [-79.14, 42.0], [-79.13, 42.0], [-79.11, 42.0], [-79.09, 42.0], [-79.06, 42.0], [-79.06, 42.0], [-78.98, 42.0], [-78.87, 42.0], [-78.75, 42.0], [-78.6, 42.0], [-78.34, 42.0], [-78.27, 42.0], [-78.12, 42.0], [-78.0, 42.0], [-77.91, 42.0], [-77.78, 42.0], [-77.65, 42.0], [-77.61, 42.0], [-77.61, 41.92], [-77.6, 41.74], [-77.6, 41.6], [-77.6, 41.54], [-77.6, 41.48], [-77.82, 41.48], [-77.88, 41.48], [-77.89, 41.48], [-77.99, 41.47], [-78.05, 41.48], [-78.06, 41.48], [-78.12, 41.54], [-78.15, 41.57], [-78.17, 41.58], [-78.2, 41.62], [-78.42, 41.62], [-78.42, 41.6], [-78.48, 41.6], [-78.48, 41.63], [-78.57, 41.63], [-78.64, 41.63], [-78.68, 41.62], [-78.8, 41.63], [-78.82, 41.62], [-78.96, 41.62], [-78.96, 41.5], [-78.96, 41.44], [-78.98, 41.44], [-78.98, 41.45], [-79.06, 41.45], [-79.07, 41.42], [-79.09, 41.42], [-79.1, 41.34], [-79.08, 41.35], [-79.06, 41.35], [-79.05, 41.35], [-79.04, 41.36], [-79.03, 41.36], [-79.02, 41.35], [-79.01, 41.36], [-79.0, 41.36], [-78.99, 41.37], [-78.98, 41.37], [-78.97, 41.38], [-78.96, 41.37], [-78.96, 41.36], [-78.74, 41.26], [-78.74, 41.26], [-78.74, 41.23], [-78.71, 41.23], [-78.71, 41.2], [-78.77, 41.2], [-78.8, 41.13], [-78.8, 40.95], [-78.81, 40.91], [-78.87, 40.91], [-78.95, 40.91], [-79.13, 40.91], [-79.22, 40.91], [-79.22, 40.94], [-79.21, 40.96], [-79.21, 41.05], [-79.23, 41.05], [-79.24, 41.04], [-79.26, 41.03], [-79.27, 41.02], [-79.28, 41.01], [-79.31, 41.01], [-79.32, 41.0], [-79.35, 41.0], [-79.37, 41.0], [-79.37, 40.99], [-79.37, 40.98], [-79.38, 40.97], [-79.38, 40.99], [-79.38, 41.0], [-79.4, 40.99], [-79.41, 41.01], [-79.42, 41.0], [-79.42, 40.99], [-79.44, 40.99], [-79.45, 40.98], [-79.47, 40.99], [-79.49, 41.0], [-79.5, 40.99], [-79.51, 40.98], [-79.52, 40.98], [-79.54, 40.98], [-79.55, 40.98], [-79.56, 40.98], [-79.57, 40.99], [-79.59, 40.97], [-79.6, 40.97], [-79.62, 40.98], [-79.62, 40.99], [-79.6, 40.99], [-79.58, 40.99], [-79.59, 41.0], [-79.61, 41.01], [-79.61, 41.01], [-79.6, 41.03], [-79.6, 41.04], [-79.62, 41.03], [-79.66, 41.05], [-79.67, 41.06], [-79.66, 41.07], [-79.67, 41.08], [-79.68, 41.09], [-79.68, 41.14], [-79.69, 41.15], [-79.68, 41.16], [-79.68, 41.16], [-79.7, 41.17], [-79.87, 41.17], [-79.92, 41.17], [-80.0, 41.17], [-80.04, 41.13], [-80.1, 41.07], [-80.15, 41.11], [-80.26, 41.12], [-80.26, 41.13], [-80.32, 41.13], [-80.5, 41.13], [-80.52, 41.13], [-80.52, 41.13], [-80.52, 41.31], [-80.52, 41.47], [-80.52, 41.61], [-80.52, 41.75], [-80.52, 41.98], [-80.49, 41.99], [-80.46, 42.0], [-80.44, 42.01], [-80.4, 42.01], [-80.36, 42.03], [-80.34, 42.03], [-80.27, 42.06], [-80.24, 42.08], [-80.23, 42.08], [-80.19, 42.09], [-80.16, 42.11], [-80.15, 42.12], [-80.14, 42.14], [-80.13, 42.16], [-80.12, 42.17], [-80.11, 42.17], [-80.09, 42.17], [-80.07, 42.16], [-80.09, 42.16], [-80.1, 42.15], [-80.13, 42.15], [-80.14, 42.14], [-80.15, 42.13], [-80.15, 42.11], [-80.1, 42.13], [-80.08, 42.14], [-80.06, 42.14], [-80.03, 42.16], [-80.02, 42.17], [-79.99, 42.17], [-79.98, 42.18], [-79.95, 42.19], [-79.93, 42.21], [-79.9, 42.22], [-79.87, 42.23], [-79.84, 42.24], [-79.83, 42.24], [-79.82, 42.25], [-79.78, 42.26], [-79.76, 42.27]]]}}, {"type": "Feature", "properties": {"STATE": "Pennsylvania", "STATE_FIPS": "42", "CD_2DIG": "06", "STATE_CODE": 36, "CLIMDIV": 3606, "ID": 3606, "CD_NEW": 6, "FIPS_CD": "4206", "NCDC_GEO_I": 212.0, "NAME": "UPPER SUSQUEHANNA", "ST_ABBRV": "PA", "SHAPE_AREA": 0.0, "SHAPE_LEN": 0.0}, "geometry": {"type": "Polygon", "coordinates": [[[-76.56, 42.0], [-76.55, 42.0], [-76.55, 42.0], [-76.54, 42.0], [-76.54, 42.0], [-76.54, 42.0], [-76.54, 42.0], [-76.53, 42.0], [-76.53, 42.0], [-76.53, 42.0], [-76.53, 42.0], [-76.52, 42.0], [-76.52, 42.0], [-76.52, 42.0], [-76.52, 42.0], [-76.51, 42.0], [-76.5, 42.0], [-76.49, 42.0], [-76.49, 42.0], [-76.48, 42.0], [-76.48, 42.0], [-76.47, 42.0], [-76.47, 42.0], [-76.46, 42.0], [-76.45, 42.0], [-76.42, 42.0], [-76.39, 42.0], [-76.38, 42.0], [-76.37, 42.0], [-76.35, 42.0], [-76.31, 42.0], [-76.29, 42.0], [-76.24, 42.0], [-76.2, 42.0], [-76.15, 42.0], [-76.14, 42.0], [-76.14, 42.0], [-76.12, 42.0], [-76.11, 42.0], [-76.11, 42.0], [-76.06, 42.0], [-76.05, 42.0], [-76.03, 42.0], [-76.01, 42.0], [-75.98, 42.0], [-75.98, 42.0], [-75.96, 42.0], [-75.96, 42.0], [-75.95, 42.0], [-75.94, 42.0], [-75.9, 42.0], [-75.89, 42.0], [-75.87, 42.0], [-75.86, 42.0], [-75.81, 42.0], [-75.79, 42.0], [-75.77, 42.0], [-75.76, 42.0], [-75.76, 42.0], [-75.76, 42.0], [-75.75, 42.0], [-75.75, 42.0], [-75.74, 42.0], [-75.73, 42.0], [-75.72, 42.0], [-75.71, 42.0], [-75.69, 42.0], [-75.68, 42.0], [-75.66, 42.0], [-75.64, 42.0], [-75.63, 42.0], [-75.61, 42.0], [-75.57, 42.0], [-75.55, 42.0], [-75.54, 42.0], [-75.51, 42.0], [-75.5, 42.0], [-75.48, 42.0], [-75.48, 42.0], [-75.48, 41.99], [-75.48, 41.96], [-75.48, 41.88], [-75.47, 41.85], [-75.47, 41.77], [-75.46, 41.64], [-75.55, 41.64], [-75.72, 41.64], [-75.73, 41.64], [-75.75, 41.61], [-75.77, 41.57], [-75.77, 41.57], [-75.8, 41.52], [-75.77, 41.51], [-75.84, 41.43], [-75.87, 41.42], [-75.99, 41.39], [-76.01, 41.38], [-76.05, 41.38], [-76.14, 41.38], [-76.28, 41.38], [-76.31, 41.31], [-76.41, 41.31], [-76.45, 41.28], [-76.5, 41.29], [-76.55, 41.29], [-76.55, 41.3], [-76.59, 41.3], [-76.66, 41.35], [-76.74, 41.4], [-76.75, 41.41], [-76.78, 41.5], [-76.81, 41.59], [-76.87, 41.6], [-76.88, 41.59], [-76.91, 41.58], [-76.92, 41.58], [-76.93, 41.57], [-76.95, 41.57], [-76.96, 41.55], [-76.96, 41.55], [-77.09, 41.55], [-77.19, 41.55], [-77.28, 41.54], [-77.44, 41.54], [-77.6, 41.54], [-77.6, 41.6], [-77.6, 41.74], [-77.61, 41.92], [-77.61, 42.0], [-77.51, 42.0], [-77.31, 42.0], [-77.11, 42.0], [-76.92, 42.0], [-76.75, 42.0], [-76.56, 42.0]]]}}, {"type": "Feature", "properties": {"STATE": "Pennsylvania", "STATE_FIPS": "42", "CD_2DIG": "01", "STATE_CODE": 36, "CLIMDIV": 3601, "ID": 3601, "CD_NEW": 1, "FIPS_CD": "4201", "NCDC_GEO_I": 213.0, "NAME": "POCONO MOUNTAINS", "ST_ABBRV": "PA", "SHAPE_AREA": 0.0, "SHAPE_LEN": 0.0}, "geometry": {"type": "Polygon", "coordinates": [[[-75.36, 42.0], [-75.36, 42.0], [-75.35, 42.0], [-75.34, 41.99], [-75.34, 41.99], [-75.34, 41.99], [-75.34, 41.98], [-75.34, 41.97], [-75.34, 41.97], [-75.34, 41.97], [-75.33, 41.97], [-75.32, 41.96], [-75.32, 41.96], [-75.32, 41.95], [-75.32, 41.95], [-75.31, 41.95], [-75.31, 41.95], [-75.3, 41.95], [-75.3, 41.95], [-75.3, 41.95], [-75.29, 41.95], [-75.29, 41.94], [-75.28, 41.94], [-75.28, 41.94], [-75.28, 41.94], [-75.28, 41.94], [-75.28, 41.92], [-75.28, 41.92], [-75.27, 41.91], [-75.27, 41.9], [-75.27, 41.9], [-75.27, 41.89], [-75.26, 41.88], [-75.26, 41.88], [-75.26, 41.88], [-75.26, 41.87], [-75.26, 41.87], [-75.26, 41.86], [-75.26, 41.86], [-75.26, 41.86], [-75.24, 41.87], [-75.23, 41.86], [-75.23, 41.86], [-75.23, 41.86], [-75.23, 41.86], [-75.23, 41.86], [-75.22, 41.86], [-75.22, 41.86], [-75.22, 41.86], [-75.22, 41.86], [-75.22, 41.86], [-75.21, 41.87], [-75.21, 41.87], [-75.2, 41.87], [-75.2, 41.87], [-75.2, 41.87], [-75.2, 41.87], [-75.19, 41.86], [-75.18, 41.86], [-75.18, 41.86], [-75.18, 41.86], [-75.18, 41.87], [-75.18, 41.87], [-75.18, 41.87], [-75.18, 41.87], [-75.17, 41.87], [-75.17, 41.87], [-75.17, 41.87], [-75.17, 41.87], [-75.17, 41.87], [-75.17, 41.86], [-75.17, 41.86], [-75.17, 41.86], [-75.17, 41.85], [-75.16, 41.85], [-75.16, 41.85], [-75.16, 41.85], [-75.15, 41.85], [-75.15, 41.85], [-75.15, 41.85], [-75.15, 41.85], [-75.14, 41.85], [-75.14, 41.85], [-75.14, 41.85], [-75.13, 41.85], [-75.13, 41.84], [-75.12, 41.85], [-75.11, 41.84], [-75.12, 41.83], [-75.11, 41.83], [-75.11, 41.82], [-75.11, 41.82], [-75.1, 41.82], [-75.09, 41.81], [-75.09, 41.81], [-75.09, 41.81], [-75.08, 41.82], [-75.07, 41.81], [-75.07, 41.81], [-75.07, 41.8], [-75.08, 41.8], [-75.08, 41.8], [-75.08, 41.8], [-75.09, 41.8], [-75.09, 41.8], [-75.09, 41.8], [-75.09, 41.79], [-75.1, 41.79], [-75.1, 41.79], [-75.1, 41.78], [-75.1, 41.78], [-75.1, 41.78], [-75.1, 41.77], [-75.1, 41.77], [-75.1, 41.77], [-75.08, 41.77], [-75.08, 41.77], [-75.07, 41.77], [-75.07, 41.77], [-75.07, 41.77], [-75.07, 41.77], [-75.06, 41.77], [-75.06, 41.77], [-75.06, 41.76], [-75.06, 41.76], [-75.05, 41.75], [-75.05, 41.75], [-75.05, 41.74], [-75.05, 41.74], [-75.05, 41.71], [-75.05, 41.71], [-75.05, 41.71], [-75.06, 41.71], [-75.07, 41.71], [-75.07, 41.71], [-75.07, 41.71], [-75.07, 41.71], [-75.06, 41.7], [-75.05, 41.69], [-75.05, 41.69], [-75.05, 41.68], [-75.05, 41.68], [-75.06, 41.67], [-75.06, 41.67], [-75.05, 41.67], [-75.05, 41.66], [-75.05, 41.66], [-75.05, 41.65], [-75.05, 41.65], [-75.05, 41.65], [-75.05, 41.65], [-75.05, 41.65], [-75.05, 41.64], [-75.05, 41.64], [-75.05, 41.64], [-75.05, 41.64], [-75.05, 41.63], [-75.05, 41.63], [-75.05, 41.63], [-75.04, 41.62], [-75.04, 41.62], [-75.04, 41.62], [-75.04, 41.62], [-75.04, 41.62], [-75.05, 41.62], [-75.05, 41.62], [-75.05, 41.62], [-75.05, 41.62], [-75.05, 41.62], [-75.06, 41.62], [-75.06, 41.62], [-75.06, 41.62], [-75.06, 41.61], [-75.06, 41.61], [-75.07, 41.61], [-75.07, 41.61], [-75.07, 41.61], [-75.07, 41.61], [-75.07, 41.61], [-75.07, 41.6], [-75.07, 41.6], [-75.06, 41.59], [-75.06, 41.59], [-75.06, 41.59], [-75.06, 41.59], [-75.05, 41.59], [-75.05, 41.58], [-75.04, 41.57], [-75.04, 41.57], [-75.04, 41.57], [-75.03, 41.57], [-75.03, 41.56], [-75.03, 41.56], [-75.03, 41.56], [-75.02, 41.56], [-75.02, 41.55], [-75.02, 41.55], [-75.02, 41.55], [-75.02, 41.54], [-75.02, 41.54], [-75.03, 41.54], [-75.02, 41.54], [-75.02, 41.53], [-75.01, 41.53], [-75.01, 41.53], [-75.0, 41.52], [-75.0, 41.52], [-75.0, 41.51], [-75.0, 41.51], [-74.99, 41.51], [-74.99, 41.51], [-74.98, 41.51], [-74.98, 41.5], [-74.98, 41.5], [-74.98, 41.5], [-74.98, 41.5], [-74.98, 41.49], [-74.98, 41.49], [-74.99, 41.49], [-74.99, 41.49], [-74.99, 41.48], [-74.98, 41.48], [-74.98, 41.48], [-74.98, 41.48], [-74.98, 41.48], [-74.97, 41.48], [-74.97, 41.48], [-74.96, 41.48], [-74.95, 41.48], [-74.95, 41.48], [-74.94, 41.48], [-74.94, 41.48], [-74.93, 41.48], [-74.93, 41.48], [-74.93, 41.48], [-74.92, 41.48], [-74.92, 41.48], [-74.92, 41.48], [-74.91, 41.48], [-74.91, 41.48], [-74.91, 41.47], [-74.91, 41.47], [-74.91, 41.47], [-74.91, 41.46], [-74.91, 41.46], [-74.91, 41.46], [-74.91, 41.46], [-74.9, 41.46], [-74.9, 41.46], [-74.9, 41.46], [-74.9, 41.46], [-74.89, 41.46], [-74.89, 41.46], [-74.89, 41.46], [-74.89, 41.45], [-74.89, 41.45], [-74.89, 41.45], [-74.9, 41.44], [-74.9, 41.44], [-74.9, 41.44], [-74.89, 41.44], [-74.89, 41.44], [-74.89, 41.44], [-74.89, 41.44], [-74.89, 41.44], [-74.88, 41.44], [-74.88, 41.44], [-74.88, 41.44], [-74.88, 41.44], [-74.87, 41.44], [-74.87, 41.44], [-74.87, 41.44], [-74.86, 41.44], [-74.85, 41.44], [-74.84, 41.44], [-74.84, 41.44], [-74.84, 41.43], [-74.84, 41.43], [-74.84, 41.43], [-74.84, 41.43], [-74.83, 41.43], [-74.83, 41.43], [-74.83, 41.43], [-74.83, 41.43], [-74.82, 41.43], [-74.82, 41.44], [-74.82, 41.44], [-74.82, 41.44], [-74.82, 41.44], [-74.82, 41.44], [-74.81, 41.44], [-74.81, 41.44], [-74.81, 41.44], [-74.81, 41.44], [-74.81, 41.44], [-74.81, 41.44], [-74.8, 41.44], [-74.8, 41.44], [-74.8, 41.43], [-74.8, 41.43], [-74.8, 41.42], [-74.79, 41.42], [-74.79, 41.42], [-74.79, 41.42], [-74.78, 41.42], [-74.78, 41.43], [-74.77, 41.43], [-74.76, 41.42], [-74.75, 41.43], [-74.75, 41.43], [-74.75, 41.43], [-74.75, 41.43], [-74.75, 41.43], [-74.74, 41.43], [-74.74, 41.43], [-74.74, 41.43], [-74.74, 41.42], [-74.74, 41.41], [-74.74, 41.41], [-74.74, 41.4], [-74.73, 41.4], [-74.72, 41.39], [-74.71, 41.39], [-74.71, 41.39], [-74.71, 41.38], [-74.7, 41.37], [-74.69, 41.37], [-74.69, 41.37], [-74.7, 41.36], [-74.69, 41.36], [-74.72, 41.35], [-74.75, 41.35], [-74.76, 41.33], [-74.77, 41.32], [-74.79, 41.32], [-74.79, 41.31], [-74.81, 41.3], [-74.82, 41.29], [-74.84, 41.28], [-74.85, 41.26], [-74.85, 41.25], [-74.86, 41.25], [-74.87, 41.23], [-74.86, 41.22], [-74.87, 41.2], [-74.88, 41.18], [-74.9, 41.17], [-74.91, 41.16], [-74.92, 41.14], [-74.95, 41.13], [-74.95, 41.12], [-74.96, 41.11], [-74.98, 41.11], [-74.99, 41.09], [-74.98, 41.09], [-74.97, 41.1], [-74.97, 41.09], [-74.98, 41.08], [-75.0, 41.07], [-75.01, 41.07], [-75.03, 41.04], [-75.04, 41.03], [-75.07, 41.02], [-75.09, 41.01], [-75.1, 41.01], [-75.11, 41.0], [-75.13, 40.99], [-75.14, 40.98], [-75.13, 40.97], [-75.12, 40.97], [-75.13, 40.96], [-75.15, 40.95], [-75.17, 40.95], [-75.18, 40.94], [-75.21, 40.93], [-75.22, 40.92], [-75.24, 40.91], [-75.23, 40.9], [-75.27, 40.88], [-75.27, 40.87], [-75.28, 40.87], [-75.3, 40.86], [-75.32, 40.86], [-75.34, 40.85], [-75.39, 40.83], [-75.42, 40.83], [-75.44, 40.82], [-75.47, 40.81], [-75.49, 40.84], [-75.53, 40.89], [-75.57, 40.95], [-75.5, 40.99], [-75.56, 41.05], [-75.58, 41.07], [-75.6, 41.08], [-75.6, 41.09], [-75.61, 41.09], [-75.62, 41.11], [-75.64, 41.11], [-75.66, 41.12], [-75.66, 41.13], [-75.67, 41.13], [-75.69, 41.13], [-75.7, 41.12], [-75.72, 41.12], [-75.72, 41.11], [-75.73, 41.1], [-75.75, 41.1], [-75.75, 41.09], [-75.77, 41.09], [-75.77, 41.08], [-75.77, 41.08], [-75.77, 41.05], [-75.76, 41.03], [-75.74, 41.03], [-75.73, 41.01], [-75.8, 40.98], [-75.82, 40.98], [-75.85, 40.97], [-75.85, 40.97], [-75.93, 40.94], [-76.03, 40.9], [-76.1, 40.92], [-76.16, 40.94], [-76.21, 40.95], [-76.22, 41.0], [-76.23, 41.05], [-76.23, 41.05], [-76.23, 41.14], [-76.28, 41.13], [-76.32, 41.2], [-76.32, 41.23], [-76.31, 41.31], [-76.28, 41.38], [-76.14, 41.38], [-76.05, 41.38], [-76.01, 41.38], [-75.99, 41.39], [-75.87, 41.42], [-75.84, 41.43], [-75.77, 41.51], [-75.8, 41.52], [-75.77, 41.57], [-75.77, 41.57], [-75.75, 41.61], [-75.73, 41.64], [-75.72, 41.64], [-75.55, 41.64], [-75.46, 41.64], [-75.47, 41.77], [-75.47, 41.85], [-75.48, 41.88], [-75.48, 41.96], [-75.48, 41.99], [-75.48, 42.0], [-75.48, 42.0], [-75.47, 42.0], [-75.42, 42.0], [-75.4, 42.0], [-75.36, 42.0]]]}}, {"type": "Feature", "properties": {"STATE": "Pennsylvania", "STATE_FIPS": "42", "CD_2DIG": "07", "STATE_CODE": 36, "CLIMDIV": 3607, "ID": 3607, "CD_NEW": 7, "FIPS_CD": "4207", "NCDC_GEO_I": 214.0, "NAME": "CENTRAL MOUNTAINS", "ST_ABBRV": "PA", "SHAPE_AREA": 0.0, "SHAPE_LEN": 0.0}, "geometry": {"type": "Polygon", "coordinates": [[[-77.6, 41.48], [-77.6, 41.44], [-77.58, 41.44], [-77.58, 41.42], [-77.56, 41.41], [-77.55, 41.4], [-77.54, 41.38], [-77.54, 41.37], [-77.53, 41.36], [-77.5, 41.35], [-77.48, 41.34], [-77.47, 41.31], [-77.46, 41.31], [-77.44, 41.29], [-77.43, 41.28], [-77.43, 41.27], [-77.42, 41.27], [-77.4, 41.25], [-77.37, 41.23], [-77.35, 41.23], [-77.34, 41.22], [-77.32, 41.22], [-77.29, 41.19], [-77.29, 41.18], [-77.28, 41.18], [-77.27, 41.17], [-77.22, 41.12], [-77.19, 41.1], [-77.16, 41.07], [-77.14, 41.07], [-77.14, 41.04], [-77.17, 41.02], [-77.21, 40.99], [-77.23, 40.96], [-77.28, 40.91], [-77.36, 40.85], [-77.38, 40.84], [-77.43, 40.83], [-77.51, 40.79], [-77.57, 40.77], [-77.6, 40.76], [-77.65, 40.74], [-77.66, 40.74], [-77.68, 40.73], [-77.71, 40.71], [-77.72, 40.73], [-77.77, 40.72], [-77.82, 40.74], [-77.88, 40.72], [-77.94, 40.69], [-78.1, 40.73], [-78.13, 40.74], [-78.36, 40.73], [-78.35, 40.72], [-78.53, 40.73], [-78.54, 40.73], [-78.74, 40.72], [-78.8, 40.72], [-78.81, 40.73], [-78.81, 40.78], [-78.81, 40.86], [-78.81, 40.91], [-78.8, 40.95], [-78.8, 41.13], [-78.77, 41.2], [-78.71, 41.2], [-78.71, 41.23], [-78.74, 41.23], [-78.74, 41.26], [-78.74, 41.26], [-78.96, 41.36], [-78.96, 41.37], [-78.97, 41.38], [-78.98, 41.37], [-78.99, 41.37], [-79.0, 41.36], [-79.01, 41.36], [-79.02, 41.35], [-79.03, 41.36], [-79.04, 41.36], [-79.05, 41.35], [-79.06, 41.35], [-79.08, 41.35], [-79.1, 41.34], [-79.09, 41.42], [-79.07, 41.42], [-79.06, 41.45], [-78.98, 41.45], [-78.98, 41.44], [-78.96, 41.44], [-78.96, 41.5], [-78.96, 41.62], [-78.82, 41.62], [-78.8, 41.63], [-78.68, 41.62], [-78.64, 41.63], [-78.57, 41.63], [-78.48, 41.63], [-78.48, 41.6], [-78.42, 41.6], [-78.42, 41.62], [-78.2, 41.62], [-78.17, 41.58], [-78.15, 41.57], [-78.12, 41.54], [-78.06, 41.48], [-78.05, 41.48], [-77.99, 41.47], [-77.89, 41.48], [-77.88, 41.48], [-77.82, 41.48], [-77.6, 41.48]]]}}, {"type": "Feature", "properties": {"STATE": "Pennsylvania", "STATE_FIPS": "42", "CD_2DIG": "05", "STATE_CODE": 36, "CLIMDIV": 3605, "ID": 3605, "CD_NEW": 5, "FIPS_CD": "4205", "NCDC_GEO_I": 215.0, "NAME": "MIDDLE SUSQUEHANNA", "ST_ABBRV": "PA", "SHAPE_AREA": 0.0, "SHAPE_LEN": 0.0}, "geometry": {"type": "Polygon", "coordinates": [[[-76.91, 40.33], [-76.94, 40.32], [-76.98, 40.31], [-77.02, 40.3], [-77.04, 40.3], [-77.1, 40.3], [-77.12, 40.3], [-77.16, 40.29], [-77.19, 40.29], [-77.2, 40.29], [-77.24, 40.28], [-77.29, 40.28], [-77.31, 40.27], [-77.32, 40.27], [-77.33, 40.28], [-77.32, 40.29], [-77.33, 40.29], [-77.36, 40.27], [-77.38, 40.26], [-77.4, 40.26], [-77.42, 40.26], [-77.42, 40.26], [-77.41, 40.27], [-77.4, 40.28], [-77.36, 40.31], [-77.37, 40.31], [-77.39, 40.3], [-77.43, 40.29], [-77.47, 40.25], [-77.5, 40.24], [-77.53, 40.23], [-77.54, 40.22], [-77.56, 40.22], [-77.58, 40.21], [-77.59, 40.19], [-77.61, 40.19], [-77.61, 40.2], [-77.61, 40.2], [-77.61, 40.23], [-77.62, 40.23], [-77.64, 40.22], [-77.65, 40.22], [-77.65, 40.23], [-77.65, 40.24], [-77.65, 40.25], [-77.64, 40.26], [-77.66, 40.26], [-77.67, 40.25], [-77.67, 40.26], [-77.66, 40.27], [-77.67, 40.29], [-77.69, 40.28], [-77.7, 40.26], [-77.75, 40.38], [-77.76, 40.37], [-77.81, 40.37], [-77.82, 40.36], [-77.84, 40.37], [-77.85, 40.36], [-77.87, 40.37], [-77.87, 40.38], [-77.87, 40.39], [-77.89, 40.39], [-77.89, 40.4], [-77.91, 40.4], [-77.91, 40.41], [-77.9, 40.42], [-77.89, 40.43], [-77.87, 40.45], [-77.84, 40.47], [-77.84, 40.48], [-77.82, 40.5], [-77.84, 40.55], [-77.82, 40.58], [-77.8, 40.6], [-77.77, 40.63], [-77.75, 40.63], [-77.71, 40.66], [-77.69, 40.68], [-77.69, 40.68], [-77.7, 40.68], [-77.71, 40.69], [-77.7, 40.7], [-77.7, 40.7], [-77.68, 40.72], [-77.68, 40.73], [-77.66, 40.74], [-77.65, 40.74], [-77.6, 40.76], [-77.57, 40.77], [-77.51, 40.79], [-77.43, 40.83], [-77.38, 40.84], [-77.36, 40.85], [-77.28, 40.91], [-77.23, 40.96], [-77.21, 40.99], [-77.17, 41.02], [-77.14, 41.04], [-77.14, 41.07], [-77.16, 41.07], [-77.19, 41.1], [-77.22, 41.12], [-77.27, 41.17], [-77.28, 41.18], [-77.29, 41.18], [-77.29, 41.19], [-77.32, 41.22], [-77.34, 41.22], [-77.35, 41.23], [-77.37, 41.23], [-77.4, 41.25], [-77.42, 41.27], [-77.43, 41.27], [-77.43, 41.28], [-77.44, 41.29], [-77.46, 41.31], [-77.47, 41.31], [-77.48, 41.34], [-77.5, 41.35], [-77.53, 41.36], [-77.54, 41.37], [-77.54, 41.38], [-77.55, 41.4], [-77.56, 41.41], [-77.58, 41.42], [-77.58, 41.44], [-77.6, 41.44], [-77.6, 41.48], [-77.6, 41.54], [-77.44, 41.54], [-77.28, 41.54], [-77.19, 41.55], [-77.09, 41.55], [-76.96, 41.55], [-76.96, 41.55], [-76.95, 41.57], [-76.93, 41.57], [-76.92, 41.58], [-76.91, 41.58], [-76.88, 41.59], [-76.87, 41.6], [-76.81, 41.59], [-76.78, 41.5], [-76.75, 41.41], [-76.74, 41.4], [-76.66, 41.35], [-76.59, 41.3], [-76.55, 41.3], [-76.55, 41.29], [-76.5, 41.29], [-76.45, 41.28], [-76.41, 41.31], [-76.31, 41.31], [-76.32, 41.23], [-76.32, 41.2], [-76.28, 41.13], [-76.23, 41.14], [-76.23, 41.05], [-76.23, 41.05], [-76.22, 41.0], [-76.21, 40.95], [-76.25, 40.92], [-76.28, 40.88], [-76.31, 40.8], [-76.45, 40.75], [-76.57, 40.71], [-76.6, 40.7], [-76.65, 40.68], [-76.7, 40.66], [-76.7, 40.66], [-76.58, 40.58], [-76.54, 40.56], [-76.68, 40.47], [-76.91, 40.33]]]}}, {"type": "Feature", "properties": {"STATE": "Pennsylvania", "STATE_FIPS": "42", "CD_2DIG": "09", "STATE_CODE": 36, "CLIMDIV": 3609, "ID": 3609, "CD_NEW": 9, "FIPS_CD": "4209", "NCDC_GEO_I": 216.0, "NAME": "SOUTHWEST PLATEAU", "ST_ABBRV": "PA", "SHAPE_AREA": 0.0, "SHAPE_LEN": 0.0}, "geometry": {"type": "Polygon", "coordinates": [[[-78.81, 40.91], [-78.81, 40.86], [-78.81, 40.78], [-78.81, 40.73], [-78.8, 40.72], [-78.81, 40.72], [-78.86, 40.6], [-78.91, 40.5], [-78.94, 40.45], [-78.98, 40.39], [-79.0, 40.36], [-79.01, 40.35], [-79.01, 40.34], [-79.02, 40.34], [-79.04, 40.31], [-79.06, 40.28], [-78.98, 40.29], [-78.93, 40.28], [-78.92, 40.28], [-78.9, 40.28], [-78.89, 40.25], [-78.88, 40.24], [-78.87, 40.25], [-78.86, 40.24], [-78.85, 40.25], [-78.76, 40.24], [-78.66, 40.24], [-78.66, 40.23], [-78.68, 40.21], [-78.7, 40.16], [-78.74, 40.07], [-78.75, 40.07], [-78.76, 40.06], [-78.76, 40.01], [-78.76, 39.99], [-78.76, 39.95], [-78.76, 39.87], [-78.76, 39.82], [-78.77, 39.8], [-78.77, 39.79], [-78.8, 39.74], [-78.81, 39.72], [-78.93, 39.72], [-79.05, 39.72], [-79.22, 39.72], [-79.31, 39.72], [-79.48, 39.72], [-79.56, 39.72], [-79.67, 39.72], [-79.75, 39.72], [-79.76, 39.72], [-79.8, 39.72], [-79.94, 39.72], [-80.0, 39.72], [-80.27, 39.72], [-80.4, 39.72], [-80.41, 39.72], [-80.52, 39.72], [-80.52, 39.81], [-80.52, 39.89], [-80.52, 39.93], [-80.52, 40.12], [-80.52, 40.21], [-80.52, 40.35], [-80.52, 40.37], [-80.52, 40.46], [-80.52, 40.47], [-80.52, 40.64], [-80.52, 40.75], [-80.52, 40.9], [-80.52, 41.13], [-80.5, 41.13], [-80.32, 41.13], [-80.26, 41.13], [-80.26, 41.12], [-80.15, 41.11], [-80.1, 41.07], [-80.04, 41.13], [-80.0, 41.17], [-79.92, 41.17], [-79.87, 41.17], [-79.7, 41.17], [-79.68, 41.16], [-79.68, 41.16], [-79.69, 41.15], [-79.68, 41.14], [-79.68, 41.09], [-79.67, 41.08], [-79.66, 41.07], [-79.67, 41.06], [-79.66, 41.05], [-79.62, 41.03], [-79.6, 41.04], [-79.6, 41.03], [-79.61, 41.01], [-79.61, 41.01], [-79.59, 41.0], [-79.58, 40.99], [-79.6, 40.99], [-79.62, 40.99], [-79.62, 40.98], [-79.6, 40.97], [-79.59, 40.97], [-79.57, 40.99], [-79.56, 40.98], [-79.55, 40.98], [-79.54, 40.98], [-79.52, 40.98], [-79.51, 40.98], [-79.5, 40.99], [-79.49, 41.0], [-79.47, 40.99], [-79.45, 40.98], [-79.44, 40.99], [-79.42, 40.99], [-79.42, 41.0], [-79.41, 41.01], [-79.4, 40.99], [-79.38, 41.0], [-79.38, 40.99], [-79.38, 40.97], [-79.37, 40.98], [-79.37, 40.99], [-79.37, 41.0], [-79.35, 41.0], [-79.32, 41.0], [-79.31, 41.01], [-79.28, 41.01], [-79.27, 41.02], [-79.26, 41.03], [-79.24, 41.04], [-79.23, 41.05], [-79.21, 41.05], [-79.21, 40.96], [-79.22, 40.94], [-79.22, 40.91], [-79.13, 40.91], [-78.95, 40.91], [-78.87, 40.91], [-78.81, 40.91]]]}}, {"type": "Feature", "properties": {"STATE": "Pennsylvania", "STATE_FIPS": "42", "CD_2DIG": "08", "STATE_CODE": 36, "CLIMDIV": 3608, "ID": 3608, "CD_NEW": 8, "FIPS_CD": "4208", "NCDC_GEO_I": 217.0, "NAME": "SOUTH CENTRAL MOUNTAINS", "ST_ABBRV": "PA", "SHAPE_AREA": 0.0, "SHAPE_LEN": 0.0}, "geometry": {"type": "Polygon", "coordinates": [[[-77.68, 40.73], [-77.68, 40.72], [-77.7, 40.7], [-77.7, 40.7], [-77.71, 40.69], [-77.7, 40.68], [-77.69, 40.68], [-77.69, 40.68], [-77.71, 40.66], [-77.75, 40.63], [-77.77, 40.63], [-77.8, 40.6], [-77.82, 40.58], [-77.84, 40.55], [-77.82, 40.5], [-77.84, 40.48], [-77.84, 40.47], [-77.87, 40.45], [-77.89, 40.43], [-77.9, 40.42], [-77.91, 40.41], [-77.91, 40.4], [-77.89, 40.4], [-77.89, 40.39], [-77.87, 40.39], [-77.87, 40.38], [-77.87, 40.37], [-77.85, 40.36], [-77.84, 40.37], [-77.82, 40.36], [-77.81, 40.37], [-77.76, 40.37], [-77.75, 40.38], [-77.7, 40.26], [-77.72, 40.25], [-77.74, 40.24], [-77.77, 40.2], [-77.8, 40.17], [-77.86, 40.06], [-77.88, 40.06], [-77.89, 40.03], [-77.9, 40.02], [-77.92, 40.0], [-77.92, 39.99], [-77.93, 39.97], [-77.94, 39.95], [-77.95, 39.92], [-77.97, 39.87], [-78.0, 39.83], [-78.02, 39.81], [-78.03, 39.8], [-78.06, 39.76], [-78.07, 39.75], [-78.1, 39.72], [-78.31, 39.72], [-78.33, 39.72], [-78.47, 39.72], [-78.54, 39.72], [-78.62, 39.72], [-78.81, 39.72], [-78.8, 39.74], [-78.77, 39.79], [-78.77, 39.8], [-78.76, 39.82], [-78.76, 39.87], [-78.76, 39.95], [-78.76, 39.99], [-78.76, 40.01], [-78.76, 40.06], [-78.75, 40.07], [-78.74, 40.07], [-78.7, 40.16], [-78.68, 40.21], [-78.66, 40.23], [-78.66, 40.24], [-78.76, 40.24], [-78.85, 40.25], [-78.86, 40.24], [-78.87, 40.25], [-78.88, 40.24], [-78.89, 40.25], [-78.9, 40.28], [-78.92, 40.28], [-78.93, 40.28], [-78.98, 40.29], [-79.06, 40.28], [-79.04, 40.31], [-79.02, 40.34], [-79.01, 40.34], [-79.01, 40.35], [-79.0, 40.36], [-78.98, 40.39], [-78.94, 40.45], [-78.91, 40.5], [-78.86, 40.6], [-78.81, 40.72], [-78.8, 40.72], [-78.74, 40.72], [-78.54, 40.73], [-78.53, 40.73], [-78.35, 40.72], [-78.36, 40.73], [-78.13, 40.74], [-78.1, 40.73], [-77.94, 40.69], [-77.88, 40.72], [-77.82, 40.74], [-77.77, 40.72], [-77.72, 40.73], [-77.71, 40.71], [-77.68, 40.73]]]}}, {"type": "Feature", "properties": {"STATE": "Pennsylvania", "STATE_FIPS": "42", "CD_2DIG": "04", "STATE_CODE": 36, "CLIMDIV": 3604, "ID": 3604, "CD_NEW": 4, "FIPS_CD": "4204", "NCDC_GEO_I": 218.0, "NAME": "LOWER SUSQUEHANNA", "ST_ABBRV": "PA", "SHAPE_AREA": 0.0, "SHAPE_LEN": 0.0}, "geometry": {"type": "Polygon", "coordinates": [[[-76.24, 39.72], [-76.42, 39.72], [-76.7, 39.72], [-76.89, 39.72], [-76.94, 39.72], [-76.99, 39.72], [-77.22, 39.72], [-77.47, 39.72], [-77.5, 39.72], [-77.67, 39.72], [-77.71, 39.72], [-77.93, 39.72], [-78.1, 39.72], [-78.07, 39.75], [-78.06, 39.76], [-78.03, 39.8], [-78.02, 39.81], [-78.0, 39.83], [-77.97, 39.87], [-77.95, 39.92], [-77.94, 39.95], [-77.93, 39.97], [-77.92, 39.99], [-77.92, 40.0], [-77.9, 40.02], [-77.89, 40.03], [-77.88, 40.06], [-77.86, 40.06], [-77.8, 40.17], [-77.77, 40.2], [-77.74, 40.24], [-77.72, 40.25], [-77.7, 40.26], [-77.69, 40.28], [-77.67, 40.29], [-77.66, 40.27], [-77.67, 40.26], [-77.67, 40.25], [-77.66, 40.26], [-77.64, 40.26], [-77.65, 40.25], [-77.65, 40.24], [-77.65, 40.23], [-77.65, 40.22], [-77.64, 40.22], [-77.62, 40.23], [-77.61, 40.23], [-77.61, 40.2], [-77.61, 40.2], [-77.61, 40.19], [-77.59, 40.19], [-77.58, 40.21], [-77.56, 40.22], [-77.54, 40.22], [-77.53, 40.23], [-77.5, 40.24], [-77.47, 40.25], [-77.43, 40.29], [-77.39, 40.3], [-77.37, 40.31], [-77.36, 40.31], [-77.4, 40.28], [-77.41, 40.27], [-77.42, 40.26], [-77.42, 40.26], [-77.4, 40.26], [-77.38, 40.26], [-77.36, 40.27], [-77.33, 40.29], [-77.32, 40.29], [-77.33, 40.28], [-77.32, 40.27], [-77.31, 40.27], [-77.29, 40.28], [-77.24, 40.28], [-77.2, 40.29], [-77.19, 40.29], [-77.16, 40.29], [-77.12, 40.3], [-77.1, 40.3], [-77.04, 40.3], [-77.02, 40.3], [-76.98, 40.31], [-76.94, 40.32], [-76.91, 40.33], [-76.91, 40.32], [-76.92, 40.3], [-76.92, 40.29], [-76.92, 40.28], [-76.91, 40.27], [-76.9, 40.25], [-76.88, 40.24], [-76.86, 40.23], [-76.84, 40.22], [-76.83, 40.22], [-76.83, 40.2], [-76.81, 40.2], [-76.8, 40.2], [-76.78, 40.19], [-76.75, 40.17], [-76.74, 40.13], [-76.73, 40.12], [-76.72, 40.12], [-76.7, 40.1], [-76.69, 40.09], [-76.68, 40.07], [-76.66, 40.06], [-76.65, 40.06], [-76.6, 40.05], [-76.57, 40.05], [-76.56, 40.05], [-76.54, 40.05], [-76.53, 40.05], [-76.53, 40.04], [-76.53, 40.03], [-76.51, 40.02], [-76.5, 40.0], [-76.49, 39.97], [-76.49, 39.96], [-76.47, 39.95], [-76.45, 39.93], [-76.42, 39.93], [-76.4, 39.92], [-76.39, 39.91], [-76.39, 39.91], [-76.38, 39.89], [-76.38, 39.88], [-76.38, 39.87], [-76.36, 39.85], [-76.35, 39.85], [-76.35, 39.84], [-76.34, 39.82], [-76.32, 39.81], [-76.3, 39.79], [-76.29, 39.78], [-76.28, 39.78], [-76.27, 39.76], [-76.26, 39.75], [-76.24, 39.73], [-76.24, 39.72]]]}}, {"type": "Feature", "properties": {"STATE": "Pennsylvania", "STATE_FIPS": "42", "CD_2DIG": "03", "STATE_CODE": 36, "CLIMDIV": 3603, "ID": 3603, "CD_NEW": 3, "FIPS_CD": "4203", "NCDC_GEO_I": 219.0, "NAME": "SOUTHEASTERN PIEDMONT", "ST_ABBRV": "PA", "SHAPE_AREA": 0.0, "SHAPE_LEN": 0.0}, "geometry": {"type": "Polygon", "coordinates": [[[-75.2, 40.61], [-75.19, 40.6], [-75.19, 40.59], [-75.19, 40.58], [-75.19, 40.57], [-75.17, 40.56], [-75.16, 40.57], [-75.15, 40.57], [-75.14, 40.58], [-75.12, 40.57], [-75.1, 40.57], [-75.08, 40.55], [-75.07, 40.54], [-75.07, 40.53], [-75.07, 40.51], [-75.06, 40.48], [-75.07, 40.47], [-75.07, 40.45], [-75.06, 40.42], [-75.02, 40.4], [-75.0, 40.41], [-74.97, 40.4], [-74.95, 40.38], [-74.95, 40.36], [-74.94, 40.34], [-74.94, 40.34], [-74.93, 40.33], [-74.93, 40.33], [-74.92, 40.32], [-74.9, 40.32], [-74.89, 40.31], [-74.89, 40.31], [-74.89, 40.31], [-74.88, 40.31], [-74.86, 40.29], [-74.86, 40.28], [-74.86, 40.28], [-74.86, 40.28], [-74.85, 40.26], [-74.84, 40.25], [-74.82, 40.24], [-74.8, 40.23], [-74.78, 40.22], [-74.77, 40.21], [-74.77, 40.21], [-74.77, 40.21], [-74.76, 40.2], [-74.76, 40.2], [-74.76, 40.2], [-74.75, 40.19], [-74.75, 40.18], [-74.74, 40.18], [-74.73, 40.17], [-74.72, 40.16], [-74.73, 40.14], [-74.73, 40.14], [-74.73, 40.14], [-74.73, 40.14], [-74.73, 40.14], [-74.73, 40.14], [-74.73, 40.14], [-74.73, 40.14], [-74.73, 40.14], [-74.74, 40.14], [-74.74, 40.14], [-74.74, 40.14], [-74.74, 40.14], [-74.74, 40.14], [-74.74, 40.14], [-74.74, 40.14], [-74.74, 40.14], [-74.74, 40.14], [-74.74, 40.13], [-74.75, 40.13], [-74.75, 40.13], [-74.76, 40.13], [-74.76, 40.13], [-74.76, 40.13], [-74.76, 40.13], [-74.76, 40.13], [-74.76, 40.13], [-74.76, 40.13], [-74.76, 40.13], [-74.76, 40.13], [-74.76, 40.13], [-74.76, 40.13], [-74.76, 40.13], [-74.76, 40.13], [-74.76, 40.13], [-74.77, 40.13], [-74.78, 40.12], [-74.79, 40.12], [-74.79, 40.12], [-74.8, 40.12], [-74.82, 40.13], [-74.82, 40.13], [-74.83, 40.12], [-74.83, 40.12], [-74.83, 40.12], [-74.84, 40.1], [-74.85, 40.1], [-74.86, 40.09], [-74.86, 40.08], [-74.9, 40.07], [-74.9, 40.07], [-74.91, 40.07], [-74.92, 40.07], [-74.93, 40.07], [-74.93, 40.07], [-74.94, 40.06], [-74.95, 40.06], [-74.96, 40.05], [-74.97, 40.05], [-74.98, 40.05], [-75.0, 40.03], [-75.01, 40.02], [-75.01, 40.02], [-75.02, 40.02], [-75.02, 40.02], [-75.04, 40.01], [-75.04, 40.01], [-75.05, 40.0], [-75.06, 39.99], [-75.07, 39.99], [-75.07, 39.98], [-75.11, 39.97], [-75.12, 39.97], [-75.13, 39.95], [-75.14, 39.95], [-75.14, 39.93], [-75.14, 39.93], [-75.14, 39.93], [-75.13, 39.92], [-75.13, 39.92], [-75.13, 39.92], [-75.13, 39.91], [-75.13, 39.9], [-75.13, 39.9], [-75.13, 39.9], [-75.14, 39.89], [-75.14, 39.89], [-75.15, 39.88], [-75.19, 39.88], [-75.21, 39.87], [-75.23, 39.86], [-75.25, 39.85], [-75.25, 39.85], [-75.26, 39.85], [-75.26, 39.85], [-75.27, 39.85], [-75.27, 39.85], [-75.27, 39.85], [-75.27, 39.85], [-75.27, 39.85], [-75.28, 39.85], [-75.28, 39.85], [-75.28, 39.85], [-75.28, 39.85], [-75.28, 39.85], [-75.28, 39.85], [-75.28, 39.85], [-75.28, 39.85], [-75.28, 39.85], [-75.28, 39.85], [-75.29, 39.85], [-75.29, 39.85], [-75.29, 39.85], [-75.29, 39.85], [-75.29, 39.85], [-75.29, 39.85], [-75.29, 39.85], [-75.29, 39.85], [-75.29, 39.85], [-75.3, 39.85], [-75.3, 39.85], [-75.3, 39.85], [-75.3, 39.85], [-75.3, 39.85], [-75.3, 39.85], [-75.3, 39.85], [-75.3, 39.85], [-75.3, 39.85], [-75.3, 39.85], [-75.3, 39.85], [-75.3, 39.85], [-75.31, 39.85], [-75.31, 39.85], [-75.31, 39.85], [-75.31, 39.85], [-75.31, 39.85], [-75.31, 39.85], [-75.31, 39.85], [-75.31, 39.85], [-75.33, 39.85], [-75.34, 39.85], [-75.34, 39.85], [-75.34, 39.85], [-75.34, 39.85], [-75.34, 39.85], [-75.34, 39.84], [-75.35, 39.84], [-75.35, 39.84], [-75.35, 39.84], [-75.36, 39.84], [-75.36, 39.84], [-75.37, 39.83], [-75.37, 39.83], [-75.4, 39.81], [-75.41, 39.8], [-75.41, 39.8], [-75.42, 39.8], [-75.45, 39.82], [-75.48, 39.83], [-75.5, 39.83], [-75.54, 39.84], [-75.57, 39.84], [-75.59, 39.84], [-75.63, 39.83], [-75.66, 39.82], [-75.69, 39.81], [-75.72, 39.79], [-75.75, 39.76], [-75.76, 39.75], [-75.77, 39.72], [-75.79, 39.72], [-75.87, 39.72], [-76.0, 39.72], [-76.15, 39.72], [-76.24, 39.72], [-76.24, 39.73], [-76.26, 39.75], [-76.27, 39.76], [-76.28, 39.78], [-76.29, 39.78], [-76.3, 39.79], [-76.32, 39.81], [-76.34, 39.82], [-76.35, 39.84], [-76.35, 39.85], [-76.36, 39.85], [-76.38, 39.87], [-76.38, 39.88], [-76.38, 39.89], [-76.39, 39.91], [-76.39, 39.91], [-76.4, 39.92], [-76.42, 39.93], [-76.45, 39.93], [-76.47, 39.95], [-76.49, 39.96], [-76.49, 39.97], [-76.5, 40.0], [-76.51, 40.02], [-76.53, 40.03], [-76.53, 40.04], [-76.53, 40.05], [-76.54, 40.05], [-76.56, 40.05], [-76.57, 40.05], [-76.6, 40.05], [-76.65, 40.06], [-76.66, 40.06], [-76.68, 40.07], [-76.69, 40.09], [-76.7, 40.1], [-76.72, 40.12], [-76.73, 40.12], [-76.74, 40.13], [-76.75, 40.17], [-76.78, 40.19], [-76.8, 40.2], [-76.81, 40.2], [-76.83, 40.2], [-76.83, 40.22], [-76.84, 40.22], [-76.86, 40.23], [-76.88, 40.24], [-76.9, 40.25], [-76.91, 40.27], [-76.92, 40.28], [-76.92, 40.29], [-76.92, 40.3], [-76.91, 40.32], [-76.91, 40.33], [-76.68, 40.47], [-76.54, 40.56], [-76.44, 40.5], [-76.41, 40.5], [-76.37, 40.51], [-76.35, 40.51], [-76.33, 40.52], [-76.3, 40.51], [-76.27, 40.52], [-76.26, 40.52], [-76.24, 40.52], [-76.22, 40.53], [-76.2, 40.53], [-76.18, 40.54], [-76.17, 40.53], [-76.16, 40.55], [-76.14, 40.55], [-76.11, 40.56], [-76.08, 40.57], [-76.07, 40.58], [-76.05, 40.58], [-76.05, 40.58], [-76.04, 40.58], [-76.02, 40.57], [-76.01, 40.58], [-75.99, 40.64], [-75.89, 40.68], [-75.83, 40.63], [-75.76, 40.59], [-75.57, 40.47], [-75.48, 40.42], [-75.41, 40.49], [-75.38, 40.51], [-75.31, 40.55], [-75.26, 40.58], [-75.2, 40.61]]]}}, {"type": "Feature", "properties": {"STATE": "Pennsylvania", "STATE_FIPS": "42", "CD_2DIG": "02", "STATE_CODE": 36, "CLIMDIV": 3602, "ID": 3602, "CD_NEW": 2, "FIPS_CD": "4202", "NCDC_GEO_I": 220.0, "NAME": "EAST CENTRAL MOUNTAINS", "ST_ABBRV": "PA", "SHAPE_AREA": 0.0, "SHAPE_LEN": 0.0}, "geometry": {"type": "Polygon", "coordinates": [[[-75.12, 40.97], [-75.12, 40.95], [-75.1, 40.92], [-75.08, 40.91], [-75.08, 40.9], [-75.05, 40.87], [-75.05, 40.86], [-75.06, 40.85], [-75.09, 40.85], [-75.1, 40.84], [-75.09, 40.83], [-75.08, 40.82], [-75.1, 40.81], [-75.1, 40.8], [-75.11, 40.79], [-75.12, 40.79], [-75.13, 40.77], [-75.17, 40.78], [-75.18, 40.76], [-75.2, 40.75], [-75.2, 40.75], [-75.18, 40.73], [-75.19, 40.72], [-75.19, 40.72], [-75.2, 40.69], [-75.2, 40.68], [-75.18, 40.68], [-75.18, 40.67], [-75.19, 40.66], [-75.2, 40.65], [-75.19, 40.64], [-75.19, 40.62], [-75.2, 40.62], [-75.2, 40.61], [-75.26, 40.58], [-75.31, 40.55], [-75.38, 40.51], [-75.41, 40.49], [-75.48, 40.42], [-75.57, 40.47], [-75.76, 40.59], [-75.83, 40.63], [-75.89, 40.68], [-75.99, 40.64], [-76.01, 40.58], [-76.02, 40.57], [-76.04, 40.58], [-76.05, 40.58], [-76.05, 40.58], [-76.07, 40.58], [-76.08, 40.57], [-76.11, 40.56], [-76.14, 40.55], [-76.16, 40.55], [-76.17, 40.53], [-76.18, 40.54], [-76.2, 40.53], [-76.22, 40.53], [-76.24, 40.52], [-76.26, 40.52], [-76.27, 40.52], [-76.3, 40.51], [-76.33, 40.52], [-76.35, 40.51], [-76.37, 40.51], [-76.41, 40.5], [-76.44, 40.5], [-76.54, 40.56], [-76.58, 40.58], [-76.7, 40.66], [-76.7, 40.66], [-76.65, 40.68], [-76.6, 40.7], [-76.57, 40.71], [-76.45, 40.75], [-76.31, 40.8], [-76.28, 40.88], [-76.25, 40.92], [-76.21, 40.95], [-76.16, 40.94], [-76.1, 40.92], [-76.03, 40.9], [-75.93, 40.94], [-75.85, 40.97], [-75.85, 40.97], [-75.82, 40.98], [-75.8, 40.98], [-75.73, 41.01], [-75.74, 41.03], [-75.76, 41.03], [-75.77, 41.05], [-75.77, 41.08], [-75.77, 41.08], [-75.77, 41.09], [-75.75, 41.09], [-75.75, 41.1], [-75.73, 41.1], [-75.72, 41.11], [-75.72, 41.12], [-75.7, 41.12], [-75.69, 41.13], [-75.67, 41.13], [-75.66, 41.13], [-75.66, 41.12], [-75.64, 41.11], [-75.62, 41.11], [-75.61, 41.09], [-75.6, 41.09], [-75.6, 41.08], [-75.58, 41.07], [-75.56, 41.05], [-75.5, 40.99], [-75.57, 40.95], [-75.53, 40.89], [-75.49, 40.84], [-75.47, 40.81], [-75.44, 40.82], [-75.42, 40.83], [-75.39, 40.83], [-75.34, 40.85], [-75.32, 40.86], [-75.3, 40.86], [-75.28, 40.87], [-75.27, 40.87], [-75.27, 40.88], [-75.23, 40.9], [-75.24, 40.91], [-75.22, 40.92], [-75.21, 40.93], [-75.18, 40.94], [-75.17, 40.95], [-75.15, 40.95], [-75.13, 40.96], [-75.12, 40.97]]]}}]}