{"type": "FeatureCollection", "features": [{"type": "Feature", "properties": {"STATE": "South Dakota", "STATE_FIPS": "46", "CD_2DIG": "01", "STATE_CODE": 39, "CLIMDIV": 3901, "ID": 3901, "CD_NEW": 1, "FIPS_CD": "4601", "NCDC_GEO_I": 254.0, "NAME": "NORTHWEST", "ST_ABBRV": "SD", "SHAPE_AREA": 0.0, "SHAPE_LEN": 0.0}, "geometry": {"type": "Polygon", "coordinates": [[[-102.64, 45.95], [-102.43, 45.95], [-102.42, 45.95], [-102.41, 45.95], [-102.0, 45.94], [-101.47, 45.94], [-101.47, 45.0], [-101.47, 44.57], [-101.98, 44.57], [-102.96, 44.56], [-103.69, 44.55], [-103.78, 44.57], [-103.9, 44.59], [-103.92, 44.59], [-104.01, 44.6], [-104.06, 44.62], [-104.06, 44.62], [-104.06, 44.67], [-104.06, 44.67], [-104.06, 44.69], [-104.06, 44.69], [-104.06, 44.69], [-104.06, 44.69], [-104.06, 44.7], [-104.06, 44.72], [-104.06, 44.75], [-104.06, 44.75], [-104.06, 44.77], [-104.06, 44.78], [-104.06, 44.81], [-104.06, 44.87], [-104.06, 44.91], [-104.06, 44.94], [-104.06, 45.0], [-104.06, 45.0], [-104.06, 45.0], [-104.06, 45.0], [-104.06, 45.0], [-104.04, 45.0], [-104.04, 45.0], [-104.04, 45.0], [-104.04, 45.21], [-104.04, 45.49], [-104.04, 45.87], [-104.04, 45.87], [-104.04, 45.87], [-104.04, 45.88], [-104.04, 45.88], [-104.04, 45.9], [-104.04, 45.92], [-104.05, 45.95], [-104.03, 45.95], [-104.03, 45.95], [-104.02, 45.95], [-104.0, 45.95], [-103.98, 45.95], [-103.95, 45.95], [-103.94, 45.95], [-103.9, 45.95], [-103.85, 45.95], [-103.85, 45.95], [-103.85, 45.95], [-103.8, 45.95], [-103.78, 45.95], [-103.66, 45.95], [-103.66, 45.95], [-103.45, 45.95], [-103.41, 45.95], [-103.3, 45.95], [-103.28, 45.95], [-103.06, 45.95], [-103.0, 45.95], [-102.99, 45.95], [-102.96, 45.95], [-102.96, 45.95], [-102.75, 45.95], [-102.67, 45.95], [-102.64, 45.95]]]}}, {"type": "Feature", "properties": {"STATE": "South Dakota", "STATE_FIPS": "46", "CD_2DIG": "02", "STATE_CODE": 39, "CLIMDIV": 3902, "ID": 3902, "CD_NEW": 2, "FIPS_CD": "4602", "NCDC_GEO_I": 255.0, "NAME": "NORTH CENTRAL", "ST_ABBRV": "SD", "SHAPE_AREA": 0.0, "SHAPE_LEN": 0.0}, "geometry": {"type": "Polygon", "coordinates": [[[-100.33, 45.94], [-100.3, 45.94], [-100.27, 45.94], [-100.26, 45.94], [-100.2, 45.94], [-100.19, 45.94], [-100.08, 45.94], [-100.05, 45.94], [-99.88, 45.94], [-99.84, 45.94], [-99.84, 45.94], [-99.82, 45.94], [-99.8, 45.94], [-99.76, 45.94], [-99.76, 45.94], [-99.72, 45.94], [-99.69, 45.94], [-99.69, 45.94], [-99.68, 45.94], [-99.67, 45.94], [-99.66, 45.94], [-99.66, 45.94], [-99.61, 45.94], [-99.59, 45.94], [-99.57, 45.94], [-99.55, 45.94], [-99.54, 45.94], [-99.54, 45.94], [-99.12, 45.94], [-99.12, 45.94], [-99.1, 45.94], [-99.08, 45.94], [-99.09, 45.59], [-99.09, 45.24], [-99.09, 45.0], [-99.57, 45.0], [-100.4, 45.0], [-101.47, 45.0], [-101.47, 45.94], [-100.51, 45.94], [-100.33, 45.94]]]}}, {"type": "Feature", "properties": {"STATE": "South Dakota", "STATE_FIPS": "46", "CD_2DIG": "03", "STATE_CODE": 39, "CLIMDIV": 3903, "ID": 3903, "CD_NEW": 3, "FIPS_CD": "4603", "NCDC_GEO_I": 256.0, "NAME": "NORTHEAST", "ST_ABBRV": "SD", "SHAPE_AREA": 0.0, "SHAPE_LEN": 0.0}, "geometry": {"type": "Polygon", "coordinates": [[[-99.02, 45.94], [-99.01, 45.94], [-98.99, 45.94], [-98.89, 45.94], [-98.89, 45.94], [-98.88, 45.94], [-98.88, 45.94], [-98.79, 45.94], [-98.78, 45.94], [-98.63, 45.94], [-98.5, 45.94], [-98.41, 45.94], [-98.24, 45.94], [-98.02, 45.94], [-98.0, 45.94], [-97.9, 45.94], [-97.9, 45.94], [-97.75, 45.94], [-97.75, 45.94], [-97.53, 45.94], [-97.52, 45.94], [-97.42, 45.94], [-97.32, 45.94], [-97.12, 45.94], [-97.1, 45.94], [-97.0, 45.94], [-96.81, 45.94], [-96.7, 45.94], [-96.63, 45.94], [-96.56, 45.93], [-96.56, 45.92], [-96.57, 45.92], [-96.57, 45.92], [-96.57, 45.92], [-96.57, 45.91], [-96.57, 45.91], [-96.56, 45.91], [-96.57, 45.91], [-96.57, 45.89], [-96.57, 45.89], [-96.57, 45.89], [-96.57, 45.84], [-96.58, 45.82], [-96.59, 45.82], [-96.59, 45.82], [-96.59, 45.81], [-96.61, 45.79], [-96.63, 45.79], [-96.63, 45.78], [-96.63, 45.78], [-96.63, 45.78], [-96.63, 45.78], [-96.63, 45.77], [-96.64, 45.77], [-96.64, 45.77], [-96.64, 45.76], [-96.65, 45.75], [-96.67, 45.73], [-96.69, 45.72], [-96.71, 45.72], [-96.75, 45.7], [-96.76, 45.69], [-96.76, 45.69], [-96.79, 45.67], [-96.79, 45.67], [-96.8, 45.67], [-96.81, 45.66], [-96.81, 45.66], [-96.83, 45.66], [-96.83, 45.65], [-96.84, 45.65], [-96.84, 45.64], [-96.85, 45.61], [-96.86, 45.61], [-96.8, 45.56], [-96.79, 45.55], [-96.78, 45.54], [-96.76, 45.52], [-96.75, 45.49], [-96.73, 45.46], [-96.72, 45.45], [-96.7, 45.42], [-96.68, 45.41], [-96.64, 45.41], [-96.64, 45.41], [-96.62, 45.41], [-96.6, 45.4], [-96.58, 45.39], [-96.55, 45.38], [-96.52, 45.38], [-96.49, 45.36], [-96.48, 45.34], [-96.45, 45.3], [-96.45, 45.2], [-96.45, 45.12], [-96.45, 45.01], [-96.45, 45.0], [-96.88, 45.0], [-97.49, 45.0], [-97.98, 45.0], [-98.72, 45.0], [-99.09, 45.0], [-99.09, 45.24], [-99.09, 45.59], [-99.08, 45.94], [-99.02, 45.94]]]}}, {"type": "Feature", "properties": {"STATE": "South Dakota", "STATE_FIPS": "46", "CD_2DIG": "04", "STATE_CODE": 39, "CLIMDIV": 3904, "ID": 3904, "CD_NEW": 4, "FIPS_CD": "4604", "NCDC_GEO_I": 257.0, "NAME": "BLACK HILLS", "ST_ABBRV": "SD", "SHAPE_AREA": 0.0, "SHAPE_LEN": 0.0}, "geometry": {"type": "Polygon", "coordinates": [[[-103.92, 44.59], [-103.9, 44.59], [-103.78, 44.57], [-103.7, 44.55], [-103.43, 44.45], [-103.29, 44.32], [-103.22, 44.19], [-103.17, 44.02], [-103.17, 43.86], [-103.24, 43.72], [-103.31, 43.64], [-103.39, 43.58], [-103.42, 43.56], [-103.43, 43.51], [-103.42, 43.43], [-103.42, 43.31], [-103.44, 43.22], [-103.54, 43.19], [-103.67, 43.18], [-103.75, 43.2], [-103.8, 43.25], [-103.83, 43.31], [-103.89, 43.37], [-103.92, 43.42], [-104.0, 43.48], [-104.05, 43.5], [-104.05, 43.53], [-104.05, 43.56], [-104.05, 43.58], [-104.05, 43.58], [-104.05, 43.58], [-104.05, 43.62], [-104.06, 43.75], [-104.06, 43.85], [-104.06, 43.87], [-104.06, 43.88], [-104.06, 43.89], [-104.06, 43.94], [-104.06, 43.94], [-104.06, 43.94], [-104.05, 43.94], [-104.05, 43.95], [-104.05, 44.0], [-104.05, 44.02], [-104.05, 44.03], [-104.05, 44.08], [-104.05, 44.14], [-104.05, 44.18], [-104.06, 44.25], [-104.06, 44.33], [-104.06, 44.36], [-104.06, 44.37], [-104.06, 44.38], [-104.06, 44.53], [-104.06, 44.54], [-104.06, 44.55], [-104.06, 44.56], [-104.06, 44.58], [-104.06, 44.58], [-104.06, 44.62], [-104.01, 44.6], [-103.92, 44.59]]]}}, {"type": "Feature", "properties": {"STATE": "South Dakota", "STATE_FIPS": "46", "CD_2DIG": "06", "STATE_CODE": 39, "CLIMDIV": 3906, "ID": 3906, "CD_NEW": 6, "FIPS_CD": "4606", "NCDC_GEO_I": 258.0, "NAME": "CENTRAL", "ST_ABBRV": "SD", "SHAPE_AREA": 0.0, "SHAPE_LEN": 0.0}, "geometry": {"type": "Polygon", "coordinates": [[[-99.11, 43.5], [-99.12, 43.5], [-99.12, 43.5], [-99.17, 43.5], [-99.17, 43.5], [-99.2, 43.5], [-99.2, 43.5], [-99.2, 43.5], [-99.2, 43.5], [-99.46, 43.5], [-99.62, 43.5], [-99.62, 43.56], [-99.62, 43.68], [-99.62, 43.74], [-99.64, 43.74], [-99.64, 43.74], [-99.64, 43.74], [-99.64, 43.75], [-99.64, 43.75], [-99.64, 43.75], [-99.64, 43.75], [-99.66, 43.77], [-99.67, 43.76], [-99.67, 43.76], [-99.66, 43.75], [-99.66, 43.75], [-99.66, 43.74], [-99.66, 43.74], [-99.66, 43.74], [-99.67, 43.73], [-99.68, 43.73], [-99.69, 43.73], [-99.68, 43.75], [-99.69, 43.76], [-99.7, 43.75], [-99.71, 43.74], [-99.71, 43.74], [-99.71, 43.74], [-99.72, 43.72], [-99.73, 43.72], [-99.74, 43.72], [-99.74, 43.73], [-99.74, 43.73], [-99.74, 43.75], [-99.75, 43.75], [-99.76, 43.74], [-99.76, 43.73], [-99.75, 43.72], [-99.75, 43.71], [-99.76, 43.71], [-99.77, 43.71], [-99.78, 43.71], [-99.8, 43.71], [-99.8, 43.71], [-99.81, 43.7], [-99.84, 43.69], [-99.85, 43.7], [-99.86, 43.7], [-99.85, 43.69], [-99.87, 43.69], [-99.86, 43.68], [-99.87, 43.67], [-99.89, 43.68], [-99.89, 43.68], [-99.89, 43.7], [-99.9, 43.7], [-99.93, 43.69], [-99.93, 43.69], [-99.94, 43.7], [-99.96, 43.7], [-99.96, 43.7], [-99.96, 43.69], [-100.0, 43.7], [-100.0, 43.7], [-100.01, 43.7], [-100.01, 43.7], [-100.01, 43.71], [-100.03, 43.7], [-100.04, 43.7], [-100.05, 43.7], [-100.05, 43.7], [-100.05, 43.69], [-100.08, 43.69], [-100.09, 43.69], [-100.1, 43.69], [-100.11, 43.69], [-100.12, 43.69], [-100.13, 43.7], [-100.15, 43.7], [-100.14, 43.7], [-100.17, 43.71], [-100.2, 43.7], [-100.2, 43.7], [-100.21, 43.68], [-100.22, 43.69], [-100.22, 43.7], [-100.22, 43.71], [-100.22, 43.71], [-100.22, 43.71], [-100.23, 43.71], [-100.25, 43.7], [-100.26, 43.71], [-100.27, 43.7], [-100.28, 43.7], [-100.29, 43.7], [-100.3, 43.72], [-100.31, 43.72], [-100.33, 43.72], [-100.34, 43.72], [-100.35, 43.72], [-100.36, 43.73], [-100.37, 43.74], [-100.38, 43.73], [-100.38, 43.73], [-100.39, 43.73], [-100.39, 43.73], [-100.42, 43.73], [-100.41, 43.73], [-100.41, 43.73], [-100.41, 43.73], [-100.42, 43.72], [-100.44, 43.73], [-100.46, 43.72], [-100.47, 43.72], [-100.47, 43.73], [-100.47, 43.73], [-100.47, 43.73], [-100.47, 43.73], [-100.48, 43.73], [-100.48, 43.73], [-100.48, 43.73], [-100.5, 43.73], [-100.52, 43.73], [-100.52, 43.74], [-100.52, 43.74], [-100.52, 43.74], [-100.52, 43.74], [-100.52, 43.75], [-100.54, 43.74], [-100.55, 43.74], [-100.56, 43.74], [-100.55, 43.74], [-100.55, 43.75], [-100.55, 43.75], [-100.55, 43.75], [-100.57, 43.75], [-100.57, 43.75], [-100.58, 43.76], [-100.59, 43.77], [-100.61, 43.76], [-100.61, 43.76], [-100.61, 43.75], [-100.61, 43.75], [-100.61, 43.75], [-100.61, 43.75], [-100.62, 43.74], [-100.64, 43.74], [-100.65, 43.74], [-100.64, 43.74], [-100.64, 43.74], [-100.64, 43.75], [-100.66, 43.75], [-100.67, 43.74], [-100.65, 43.73], [-100.65, 43.73], [-100.65, 43.73], [-100.65, 43.73], [-100.68, 43.72], [-100.68, 43.72], [-100.68, 43.72], [-100.68, 43.72], [-100.68, 43.72], [-100.68, 43.71], [-100.7, 43.72], [-100.7, 43.72], [-100.7, 43.72], [-100.7, 43.72], [-100.7, 43.72], [-100.7, 43.72], [-100.7, 43.73], [-100.7, 43.73], [-100.7, 43.72], [-100.71, 43.72], [-100.72, 43.72], [-100.72, 43.72], [-100.72, 43.72], [-100.72, 43.71], [-100.72, 43.72], [-100.73, 43.72], [-100.73, 43.72], [-100.73, 43.72], [-100.74, 43.72], [-100.73, 43.71], [-100.74, 43.71], [-100.74, 43.72], [-100.74, 43.72], [-100.74, 43.72], [-100.75, 43.72], [-100.74, 43.73], [-100.74, 43.74], [-100.74, 43.74], [-100.74, 43.74], [-100.74, 43.74], [-100.75, 43.74], [-100.75, 43.74], [-100.75, 43.74], [-100.75, 43.74], [-100.75, 43.74], [-100.76, 43.74], [-100.76, 43.74], [-100.76, 43.73], [-100.77, 43.73], [-100.78, 43.72], [-100.79, 43.73], [-100.78, 43.73], [-100.78, 43.73], [-100.8, 43.73], [-100.79, 43.74], [-100.79, 43.74], [-100.8, 43.75], [-100.8, 43.75], [-100.8, 43.75], [-100.8, 43.75], [-100.8, 43.75], [-100.8, 43.75], [-100.8, 43.75], [-100.8, 43.75], [-100.8, 43.75], [-100.8, 43.75], [-100.81, 43.76], [-100.81, 43.76], [-100.81, 43.76], [-100.81, 43.76], [-100.81, 43.77], [-100.84, 43.77], [-100.83, 43.76], [-100.84, 43.76], [-100.84, 43.77], [-100.85, 43.77], [-100.86, 43.79], [-100.87, 43.78], [-100.88, 43.78], [-100.88, 43.79], [-100.87, 43.79], [-100.87, 43.79], [-100.87, 43.79], [-100.87, 43.79], [-100.87, 43.8], [-100.88, 43.8], [-100.88, 43.8], [-100.89, 43.79], [-100.89, 43.79], [-100.89, 43.79], [-100.9, 43.79], [-100.9, 43.8], [-100.89, 43.8], [-100.89, 43.8], [-100.91, 43.8], [-100.91, 43.81], [-100.9, 43.81], [-100.9, 43.81], [-100.91, 43.81], [-100.92, 43.82], [-100.93, 43.83], [-100.94, 43.83], [-100.94, 43.83], [-100.94, 43.83], [-100.94, 43.82], [-100.95, 43.81], [-100.96, 43.81], [-100.95, 43.82], [-100.95, 43.82], [-100.95, 43.82], [-100.97, 43.82], [-100.97, 43.83], [-100.96, 43.83], [-100.96, 43.84], [-100.96, 43.83], [-100.97, 43.83], [-100.98, 43.83], [-100.98, 43.84], [-100.99, 43.84], [-100.99, 43.85], [-101.0, 43.85], [-101.02, 43.84], [-101.01, 43.84], [-101.03, 43.85], [-101.03, 43.85], [-101.03, 43.86], [-101.04, 43.85], [-101.06, 43.85], [-101.06, 43.85], [-101.06, 43.84], [-101.06, 43.84], [-101.07, 43.84], [-101.07, 43.84], [-101.07, 43.84], [-101.07, 43.85], [-101.07, 43.85], [-101.07, 43.84], [-101.07, 43.84], [-101.07, 43.84], [-101.07, 43.84], [-101.08, 43.84], [-101.08, 43.84], [-101.08, 43.84], [-101.08, 43.84], [-101.08, 43.84], [-101.08, 43.84], [-101.08, 43.84], [-101.08, 43.84], [-101.08, 43.84], [-101.09, 43.84], [-101.09, 43.84], [-101.09, 43.84], [-101.09, 43.84], [-101.09, 43.84], [-101.08, 43.85], [-101.09, 43.85], [-101.09, 43.85], [-101.09, 43.85], [-101.09, 43.85], [-101.09, 43.85], [-101.1, 43.84], [-101.1, 43.84], [-101.1, 43.84], [-101.1, 43.84], [-101.1, 43.84], [-101.1, 43.84], [-101.11, 43.84], [-101.11, 43.84], [-101.11, 43.84], [-101.11, 43.84], [-101.11, 43.84], [-101.11, 43.84], [-101.12, 43.84], [-101.12, 43.84], [-101.12, 43.84], [-101.12, 43.84], [-101.12, 43.84], [-101.12, 43.84], [-101.14, 43.84], [-101.14, 43.84], [-101.13, 43.83], [-101.14, 43.82], [-101.14, 43.82], [-101.15, 43.82], [-101.15, 43.82], [-101.15, 43.82], [-101.15, 43.82], [-101.15, 43.82], [-101.15, 43.82], [-101.15, 43.82], [-101.17, 43.82], [-101.17, 43.82], [-101.17, 43.81], [-101.17, 43.81], [-101.17, 43.81], [-101.18, 43.81], [-101.18, 43.81], [-101.18, 43.81], [-101.18, 43.81], [-101.19, 43.8], [-101.19, 43.8], [-101.21, 43.81], [-101.21, 43.81], [-101.21, 43.81], [-101.21, 43.8], [-101.21, 43.8], [-101.22, 43.8], [-101.22, 43.8], [-101.23, 43.8], [-101.23, 43.79], [-101.47, 43.79], [-101.47, 45.0], [-99.09, 45.0], [-99.09, 43.5], [-99.1, 43.5], [-99.11, 43.5]]]}}, {"type": "Feature", "properties": {"STATE": "South Dakota", "STATE_FIPS": "46", "CD_2DIG": "07", "STATE_CODE": 39, "CLIMDIV": 3907, "ID": 3907, "CD_NEW": 7, "FIPS_CD": "4607", "NCDC_GEO_I": 259.0, "NAME": "EAST CENTRAL", "ST_ABBRV": "SD", "SHAPE_AREA": 0.0, "SHAPE_LEN": 0.0}, "geometry": {"type": "Polygon", "coordinates": [[[-96.45, 45.0], [-96.45, 44.98], [-96.45, 44.81], [-96.45, 44.63], [-96.45, 44.54], [-96.45, 44.2], [-96.45, 44.0], [-96.89, 44.0], [-97.37, 44.0], [-97.85, 44.0], [-98.33, 44.0], [-98.93, 44.0], [-99.09, 44.0], [-99.09, 44.2], [-99.09, 44.9], [-99.09, 45.0], [-98.72, 45.0], [-97.98, 45.0], [-97.49, 45.0], [-96.88, 45.0], [-96.45, 45.0]]]}}, {"type": "Feature", "properties": {"STATE": "South Dakota", "STATE_FIPS": "46", "CD_2DIG": "09", "STATE_CODE": 39, "CLIMDIV": 3909, "ID": 3909, "CD_NEW": 9, "FIPS_CD": "4609", "NCDC_GEO_I": 260.0, "NAME": "SOUTHEAST", "ST_ABBRV": "SD", "SHAPE_AREA": 0.0, "SHAPE_LEN": 0.0}, "geometry": {"type": "Polygon", "coordinates": [[[-99.1, 43.0], [-99.09, 43.36], [-99.09, 43.5], [-99.09, 43.93], [-99.09, 44.0], [-98.93, 44.0], [-98.33, 44.0], [-97.85, 44.0], [-97.37, 44.0], [-96.89, 44.0], [-96.45, 44.0], [-96.45, 43.93], [-96.45, 43.83], [-96.45, 43.78], [-96.45, 43.6], [-96.45, 43.5], [-96.6, 43.5], [-96.59, 43.49], [-96.58, 43.47], [-96.6, 43.46], [-96.6, 43.45], [-96.59, 43.43], [-96.58, 43.43], [-96.57, 43.43], [-96.57, 43.42], [-96.56, 43.41], [-96.54, 43.4], [-96.52, 43.4], [-96.52, 43.38], [-96.53, 43.36], [-96.53, 43.35], [-96.54, 43.34], [-96.53, 43.32], [-96.53, 43.3], [-96.56, 43.29], [-96.58, 43.3], [-96.58, 43.28], [-96.59, 43.27], [-96.57, 43.26], [-96.55, 43.26], [-96.55, 43.25], [-96.57, 43.24], [-96.57, 43.23], [-96.55, 43.23], [-96.54, 43.23], [-96.51, 43.22], [-96.5, 43.22], [-96.48, 43.22], [-96.47, 43.21], [-96.47, 43.19], [-96.47, 43.18], [-96.47, 43.16], [-96.46, 43.14], [-96.45, 43.14], [-96.44, 43.12], [-96.45, 43.1], [-96.46, 43.07], [-96.46, 43.06], [-96.48, 43.06], [-96.49, 43.05], [-96.51, 43.05], [-96.51, 43.02], [-96.49, 43.01], [-96.49, 43.01], [-96.5, 43.0], [-96.51, 43.0], [-96.51, 42.99], [-96.52, 42.98], [-96.52, 42.97], [-96.51, 42.97], [-96.5, 42.96], [-96.51, 42.95], [-96.54, 42.92], [-96.53, 42.9], [-96.53, 42.9], [-96.54, 42.89], [-96.54, 42.88], [-96.55, 42.87], [-96.55, 42.86], [-96.54, 42.86], [-96.56, 42.84], [-96.58, 42.83], [-96.59, 42.82], [-96.59, 42.8], [-96.6, 42.79], [-96.6, 42.78], [-96.62, 42.78], [-96.63, 42.77], [-96.63, 42.76], [-96.63, 42.75], [-96.64, 42.74], [-96.63, 42.72], [-96.62, 42.71], [-96.61, 42.7], [-96.6, 42.7], [-96.57, 42.68], [-96.56, 42.66], [-96.54, 42.66], [-96.54, 42.65], [-96.53, 42.64], [-96.51, 42.63], [-96.52, 42.62], [-96.51, 42.61], [-96.5, 42.59], [-96.49, 42.59], [-96.5, 42.57], [-96.5, 42.56], [-96.49, 42.56], [-96.48, 42.56], [-96.48, 42.52], [-96.49, 42.52], [-96.49, 42.51], [-96.48, 42.51], [-96.47, 42.5], [-96.47, 42.49], [-96.46, 42.49], [-96.44, 42.49], [-96.48, 42.48], [-96.5, 42.48], [-96.52, 42.49], [-96.53, 42.51], [-96.53, 42.52], [-96.55, 42.52], [-96.57, 42.52], [-96.59, 42.51], [-96.61, 42.51], [-96.63, 42.51], [-96.63, 42.52], [-96.64, 42.55], [-96.64, 42.56], [-96.66, 42.57], [-96.68, 42.58], [-96.71, 42.6], [-96.71, 42.61], [-96.71, 42.63], [-96.69, 42.64], [-96.69, 42.65], [-96.7, 42.66], [-96.73, 42.67], [-96.75, 42.67], [-96.76, 42.66], [-96.79, 42.67], [-96.8, 42.67], [-96.8, 42.7], [-96.81, 42.7], [-96.84, 42.71], [-96.86, 42.72], [-96.89, 42.72], [-96.91, 42.73], [-96.92, 42.73], [-96.95, 42.72], [-96.96, 42.72], [-96.97, 42.73], [-96.96, 42.74], [-96.97, 42.75], [-96.98, 42.76], [-96.99, 42.76], [-97.03, 42.76], [-97.05, 42.77], [-97.07, 42.77], [-97.1, 42.77], [-97.13, 42.77], [-97.14, 42.78], [-97.15, 42.8], [-97.16, 42.8], [-97.2, 42.81], [-97.21, 42.81], [-97.22, 42.83], [-97.22, 42.85], [-97.25, 42.86], [-97.27, 42.85], [-97.29, 42.86], [-97.31, 42.87], [-97.34, 42.86], [-97.36, 42.86], [-97.38, 42.87], [-97.42, 42.87], [-97.44, 42.85], [-97.45, 42.85], [-97.46, 42.85], [-97.48, 42.85], [-97.5, 42.86], [-97.52, 42.85], [-97.54, 42.85], [-97.56, 42.85], [-97.59, 42.85], [-97.6, 42.86], [-97.62, 42.86], [-97.65, 42.85], [-97.67, 42.84], [-97.69, 42.84], [-97.72, 42.85], [-97.77, 42.85], [-97.82, 42.86], [-97.83, 42.87], [-97.85, 42.87], [-97.88, 42.86], [-97.88, 42.85], [-97.89, 42.82], [-97.91, 42.8], [-97.94, 42.78], [-97.95, 42.77], [-97.96, 42.77], [-97.98, 42.77], [-97.99, 42.77], [-98.01, 42.76], [-98.04, 42.76], [-98.06, 42.77], [-98.06, 42.78], [-98.08, 42.79], [-98.1, 42.8], [-98.11, 42.81], [-98.13, 42.82], [-98.14, 42.83], [-98.15, 42.84], [-98.17, 42.84], [-98.19, 42.84], [-98.22, 42.85], [-98.23, 42.86], [-98.26, 42.87], [-98.28, 42.87], [-98.31, 42.88], [-98.33, 42.89], [-98.34, 42.9], [-98.41, 42.93], [-98.42, 42.93], [-98.42, 42.93], [-98.43, 42.93], [-98.43, 42.93], [-98.43, 42.93], [-98.44, 42.93], [-98.44, 42.93], [-98.44, 42.93], [-98.45, 42.93], [-98.45, 42.94], [-98.46, 42.94], [-98.47, 42.95], [-98.49, 42.98], [-98.5, 43.0], [-98.5, 43.0], [-98.5, 43.0], [-98.51, 43.0], [-98.55, 43.0], [-98.56, 43.0], [-98.56, 43.0], [-98.56, 43.0], [-98.57, 43.0], [-98.57, 43.0], [-98.57, 43.0], [-98.58, 43.0], [-98.59, 43.0], [-98.6, 43.0], [-98.6, 43.0], [-98.61, 43.0], [-98.63, 43.0], [-98.63, 43.0], [-98.65, 43.0], [-98.69, 43.0], [-98.7, 43.0], [-98.71, 43.0], [-98.73, 43.0], [-98.74, 43.0], [-98.74, 43.0], [-98.75, 43.0], [-98.75, 43.0], [-98.76, 43.0], [-98.76, 43.0], [-98.79, 43.0], [-98.8, 43.0], [-98.8, 43.0], [-98.8, 43.0], [-98.82, 43.0], [-98.82, 43.0], [-98.84, 43.0], [-98.86, 43.0], [-98.86, 43.0], [-98.87, 43.0], [-98.87, 43.0], [-98.89, 43.0], [-98.9, 43.0], [-98.9, 43.0], [-98.92, 43.0], [-98.92, 43.0], [-98.94, 43.0], [-98.94, 43.0], [-98.94, 43.0], [-98.96, 43.0], [-98.96, 43.0], [-99.02, 43.0], [-99.04, 43.0], [-99.05, 43.0], [-99.06, 43.0], [-99.06, 43.0], [-99.06, 43.0], [-99.08, 43.0], [-99.08, 43.0], [-99.08, 43.0], [-99.09, 43.0], [-99.1, 43.0]]]}}, {"type": "Feature", "properties": {"STATE": "South Dakota", "STATE_FIPS": "46", "CD_2DIG": "08", "STATE_CODE": 39, "CLIMDIV": 3908, "ID": 3908, "CD_NEW": 8, "FIPS_CD": "4608", "NCDC_GEO_I": 261.0, "NAME": "SOUTH CENTRAL", "ST_ABBRV": "SD", "SHAPE_AREA": 0.0, "SHAPE_LEN": 0.0}, "geometry": {"type": "Polygon", "coordinates": [[[-101.03, 43.85], [-101.01, 43.84], [-101.02, 43.84], [-101.0, 43.85], [-100.99, 43.85], [-100.99, 43.84], [-100.98, 43.84], [-100.98, 43.83], [-100.97, 43.83], [-100.96, 43.83], [-100.96, 43.84], [-100.96, 43.83], [-100.97, 43.83], [-100.97, 43.82], [-100.95, 43.82], [-100.95, 43.82], [-100.95, 43.82], [-100.96, 43.81], [-100.95, 43.81], [-100.94, 43.82], [-100.94, 43.83], [-100.94, 43.83], [-100.94, 43.83], [-100.93, 43.83], [-100.92, 43.82], [-100.91, 43.81], [-100.9, 43.81], [-100.9, 43.81], [-100.91, 43.81], [-100.91, 43.8], [-100.89, 43.8], [-100.89, 43.8], [-100.9, 43.8], [-100.89, 43.79], [-100.89, 43.79], [-100.89, 43.79], [-100.88, 43.8], [-100.88, 43.8], [-100.87, 43.8], [-100.87, 43.79], [-100.87, 43.79], [-100.87, 43.79], [-100.87, 43.79], [-100.88, 43.79], [-100.88, 43.78], [-100.87, 43.78], [-100.86, 43.79], [-100.85, 43.77], [-100.84, 43.77], [-100.84, 43.76], [-100.83, 43.76], [-100.84, 43.77], [-100.83, 43.77], [-100.81, 43.77], [-100.81, 43.76], [-100.81, 43.76], [-100.81, 43.76], [-100.81, 43.76], [-100.8, 43.75], [-100.8, 43.75], [-100.8, 43.75], [-100.8, 43.75], [-100.8, 43.75], [-100.8, 43.75], [-100.8, 43.75], [-100.8, 43.75], [-100.8, 43.75], [-100.8, 43.75], [-100.79, 43.74], [-100.79, 43.74], [-100.8, 43.73], [-100.78, 43.73], [-100.78, 43.73], [-100.79, 43.73], [-100.78, 43.72], [-100.77, 43.73], [-100.76, 43.73], [-100.76, 43.74], [-100.76, 43.74], [-100.75, 43.74], [-100.75, 43.74], [-100.75, 43.74], [-100.75, 43.74], [-100.75, 43.74], [-100.74, 43.74], [-100.74, 43.74], [-100.74, 43.74], [-100.74, 43.74], [-100.74, 43.73], [-100.75, 43.72], [-100.74, 43.72], [-100.74, 43.72], [-100.74, 43.72], [-100.74, 43.71], [-100.73, 43.71], [-100.74, 43.72], [-100.73, 43.72], [-100.73, 43.72], [-100.73, 43.72], [-100.72, 43.72], [-100.72, 43.71], [-100.72, 43.72], [-100.72, 43.72], [-100.72, 43.72], [-100.71, 43.72], [-100.7, 43.72], [-100.7, 43.73], [-100.7, 43.73], [-100.7, 43.72], [-100.7, 43.72], [-100.7, 43.72], [-100.7, 43.72], [-100.7, 43.72], [-100.7, 43.72], [-100.68, 43.71], [-100.68, 43.72], [-100.68, 43.72], [-100.68, 43.72], [-100.68, 43.72], [-100.68, 43.72], [-100.65, 43.73], [-100.65, 43.73], [-100.65, 43.73], [-100.65, 43.73], [-100.67, 43.74], [-100.66, 43.75], [-100.64, 43.75], [-100.64, 43.74], [-100.64, 43.74], [-100.65, 43.74], [-100.64, 43.74], [-100.62, 43.74], [-100.62, 43.74], [-100.61, 43.75], [-100.61, 43.75], [-100.61, 43.75], [-100.61, 43.76], [-100.61, 43.76], [-100.59, 43.77], [-100.58, 43.76], [-100.57, 43.75], [-100.57, 43.75], [-100.55, 43.75], [-100.55, 43.75], [-100.55, 43.75], [-100.55, 43.74], [-100.56, 43.74], [-100.55, 43.74], [-100.54, 43.74], [-100.52, 43.75], [-100.52, 43.74], [-100.52, 43.74], [-100.52, 43.74], [-100.52, 43.74], [-100.52, 43.73], [-100.5, 43.73], [-100.48, 43.73], [-100.48, 43.73], [-100.48, 43.73], [-100.47, 43.73], [-100.47, 43.73], [-100.47, 43.73], [-100.47, 43.73], [-100.47, 43.72], [-100.46, 43.72], [-100.44, 43.73], [-100.42, 43.72], [-100.41, 43.73], [-100.41, 43.73], [-100.41, 43.73], [-100.42, 43.73], [-100.39, 43.73], [-100.39, 43.73], [-100.38, 43.73], [-100.38, 43.73], [-100.37, 43.74], [-100.36, 43.73], [-100.35, 43.72], [-100.34, 43.72], [-100.33, 43.72], [-100.31, 43.72], [-100.3, 43.72], [-100.29, 43.7], [-100.28, 43.7], [-100.27, 43.7], [-100.26, 43.71], [-100.25, 43.7], [-100.23, 43.71], [-100.22, 43.71], [-100.22, 43.71], [-100.22, 43.71], [-100.22, 43.7], [-100.22, 43.69], [-100.21, 43.68], [-100.2, 43.7], [-100.2, 43.7], [-100.17, 43.71], [-100.14, 43.7], [-100.15, 43.7], [-100.13, 43.7], [-100.12, 43.69], [-100.11, 43.69], [-100.1, 43.69], [-100.09, 43.69], [-100.08, 43.69], [-100.05, 43.69], [-100.05, 43.7], [-100.05, 43.7], [-100.04, 43.7], [-100.03, 43.7], [-100.01, 43.71], [-100.01, 43.7], [-100.01, 43.7], [-100.0, 43.7], [-100.0, 43.7], [-99.96, 43.69], [-99.96, 43.7], [-99.96, 43.7], [-99.94, 43.7], [-99.93, 43.69], [-99.93, 43.69], [-99.9, 43.7], [-99.89, 43.7], [-99.89, 43.68], [-99.89, 43.68], [-99.87, 43.67], [-99.86, 43.68], [-99.87, 43.69], [-99.85, 43.69], [-99.86, 43.7], [-99.85, 43.7], [-99.84, 43.69], [-99.81, 43.7], [-99.8, 43.71], [-99.8, 43.71], [-99.78, 43.71], [-99.77, 43.71], [-99.76, 43.71], [-99.75, 43.71], [-99.75, 43.72], [-99.76, 43.73], [-99.76, 43.74], [-99.75, 43.75], [-99.74, 43.75], [-99.74, 43.73], [-99.74, 43.73], [-99.74, 43.72], [-99.73, 43.72], [-99.72, 43.72], [-99.71, 43.74], [-99.71, 43.74], [-99.71, 43.74], [-99.7, 43.75], [-99.69, 43.76], [-99.68, 43.75], [-99.69, 43.73], [-99.68, 43.73], [-99.67, 43.73], [-99.66, 43.74], [-99.66, 43.74], [-99.66, 43.74], [-99.66, 43.75], [-99.66, 43.75], [-99.67, 43.76], [-99.67, 43.76], [-99.66, 43.77], [-99.64, 43.75], [-99.64, 43.75], [-99.64, 43.75], [-99.64, 43.75], [-99.64, 43.74], [-99.64, 43.74], [-99.64, 43.74], [-99.62, 43.74], [-99.62, 43.68], [-99.62, 43.56], [-99.62, 43.5], [-99.46, 43.5], [-99.2, 43.5], [-99.2, 43.5], [-99.2, 43.5], [-99.2, 43.5], [-99.17, 43.5], [-99.17, 43.5], [-99.12, 43.5], [-99.12, 43.5], [-99.11, 43.5], [-99.09, 43.5], [-99.09, 43.36], [-99.1, 43.0], [-99.1, 43.0], [-99.1, 43.0], [-99.1, 43.0], [-99.1, 43.0], [-99.12, 43.0], [-99.16, 43.0], [-99.16, 43.0], [-99.16, 43.0], [-99.16, 43.0], [-99.17, 43.0], [-99.2, 43.0], [-99.5, 43.0], [-99.61, 43.0], [-99.63, 43.0], [-99.64, 43.0], [-99.64, 43.0], [-99.65, 43.0], [-99.65, 43.0], [-99.67, 43.0], [-99.68, 43.0], [-99.69, 43.0], [-99.7, 43.0], [-99.71, 43.0], [-99.71, 43.0], [-99.72, 43.0], [-99.73, 43.0], [-99.73, 43.0], [-99.75, 43.0], [-99.77, 43.0], [-99.77, 43.0], [-99.78, 43.0], [-99.79, 43.0], [-99.79, 43.0], [-99.8, 43.0], [-99.8, 43.0], [-99.81, 43.0], [-99.92, 43.0], [-100.05, 43.0], [-100.07, 43.0], [-100.09, 43.0], [-100.13, 43.0], [-100.13, 43.0], [-100.14, 43.0], [-100.15, 43.0], [-100.17, 43.0], [-100.19, 43.0], [-100.2, 43.0], [-100.22, 43.0], [-100.22, 43.0], [-100.23, 43.0], [-100.23, 43.0], [-100.25, 43.0], [-100.27, 43.0], [-100.28, 43.0], [-100.28, 43.0], [-100.3, 43.0], [-100.35, 43.0], [-100.44, 43.0], [-100.45, 43.0], [-100.47, 43.0], [-100.5, 43.0], [-100.5, 43.0], [-100.53, 43.0], [-100.57, 43.0], [-100.63, 43.0], [-100.63, 43.0], [-100.87, 43.0], [-101.04, 43.0], [-101.23, 43.0], [-101.28, 43.0], [-101.3, 43.0], [-101.47, 43.0], [-101.47, 43.39], [-101.47, 43.79], [-101.23, 43.8], [-101.22, 43.8], [-101.22, 43.8], [-101.21, 43.8], [-101.21, 43.8], [-101.21, 43.81], [-101.21, 43.81], [-101.21, 43.81], [-101.19, 43.8], [-101.19, 43.8], [-101.18, 43.81], [-101.18, 43.81], [-101.18, 43.81], [-101.18, 43.81], [-101.17, 43.81], [-101.17, 43.81], [-101.17, 43.81], [-101.17, 43.82], [-101.17, 43.82], [-101.15, 43.82], [-101.15, 43.82], [-101.15, 43.82], [-101.15, 43.82], [-101.15, 43.82], [-101.15, 43.82], [-101.15, 43.82], [-101.14, 43.82], [-101.14, 43.82], [-101.13, 43.83], [-101.14, 43.84], [-101.14, 43.84], [-101.12, 43.84], [-101.12, 43.84], [-101.12, 43.84], [-101.12, 43.84], [-101.12, 43.84], [-101.12, 43.84], [-101.11, 43.84], [-101.11, 43.84], [-101.11, 43.84], [-101.11, 43.84], [-101.11, 43.84], [-101.11, 43.84], [-101.1, 43.84], [-101.1, 43.84], [-101.1, 43.84], [-101.1, 43.84], [-101.1, 43.84], [-101.1, 43.84], [-101.09, 43.85], [-101.09, 43.85], [-101.09, 43.85], [-101.09, 43.85], [-101.09, 43.85], [-101.08, 43.85], [-101.09, 43.84], [-101.09, 43.84], [-101.09, 43.84], [-101.09, 43.84], [-101.09, 43.84], [-101.08, 43.84], [-101.08, 43.84], [-101.08, 43.84], [-101.08, 43.84], [-101.08, 43.84], [-101.08, 43.84], [-101.08, 43.84], [-101.08, 43.84], [-101.08, 43.84], [-101.07, 43.84], [-101.07, 43.84], [-101.07, 43.84], [-101.07, 43.84], [-101.07, 43.85], [-101.07, 43.85], [-101.07, 43.84], [-101.07, 43.84], [-101.07, 43.84], [-101.06, 43.84], [-101.06, 43.84], [-101.06, 43.85], [-101.06, 43.85], [-101.04, 43.85], [-101.03, 43.86], [-101.03, 43.85], [-101.03, 43.85]]]}}, {"type": "Feature", "properties": {"STATE": "South Dakota", "STATE_FIPS": "46", "CD_2DIG": "05", "STATE_CODE": 39, "CLIMDIV": 3905, "ID": 3905, "CD_NEW": 5, "FIPS_CD": "4605", "NCDC_GEO_I": 262.0, "NAME": "SOUTHWEST", "ST_ABBRV": "SD", "SHAPE_AREA": 0.0, "SHAPE_LEN": 0.0}, "geometry": {"type": "Polygon", "coordinates": [[[-104.05, 43.0], [-104.05, 43.02], [-104.05, 43.03], [-104.05, 43.04], [-104.05, 43.06], [-104.05, 43.07], [-104.05, 43.09], [-104.05, 43.1], [-104.05, 43.12], [-104.05, 43.2], [-104.05, 43.2], [-104.05, 43.25], [-104.05, 43.25], [-104.05, 43.29], [-104.05, 43.3], [-104.05, 43.3], [-104.05, 43.3], [-104.05, 43.31], [-104.05, 43.32], [-104.05, 43.33], [-104.05, 43.37], [-104.05, 43.37], [-104.05, 43.39], [-104.05, 43.43], [-104.05, 43.47], [-104.05, 43.5], [-104.0, 43.48], [-103.92, 43.42], [-103.89, 43.37], [-103.83, 43.31], [-103.8, 43.25], [-103.75, 43.2], [-103.67, 43.18], [-103.54, 43.19], [-103.44, 43.22], [-103.42, 43.31], [-103.42, 43.43], [-103.43, 43.51], [-103.42, 43.56], [-103.39, 43.58], [-103.31, 43.64], [-103.24, 43.72], [-103.17, 43.86], [-103.17, 44.02], [-103.22, 44.19], [-103.29, 44.32], [-103.43, 44.45], [-103.69, 44.55], [-102.96, 44.56], [-101.98, 44.57], [-101.47, 44.57], [-101.47, 44.0], [-101.47, 44.0], [-101.47, 44.0], [-101.47, 43.8], [-101.47, 43.79], [-101.47, 43.39], [-101.47, 43.0], [-101.47, 43.0], [-101.47, 43.0], [-101.48, 43.0], [-101.49, 43.0], [-101.5, 43.0], [-101.51, 43.0], [-101.54, 43.0], [-101.57, 43.0], [-101.59, 43.0], [-101.62, 43.0], [-101.63, 43.0], [-101.63, 43.0], [-101.65, 43.0], [-101.67, 43.0], [-101.71, 43.0], [-101.75, 43.0], [-101.76, 43.0], [-101.82, 43.0], [-102.08, 43.0], [-102.49, 43.0], [-102.49, 43.0], [-102.78, 43.0], [-102.87, 43.0], [-102.88, 43.0], [-102.88, 43.0], [-102.88, 43.0], [-102.89, 43.0], [-102.91, 43.0], [-102.91, 43.0], [-102.93, 43.0], [-102.95, 43.0], [-102.98, 43.0], [-103.08, 43.0], [-103.17, 43.0], [-103.27, 43.0], [-103.48, 43.0], [-103.55, 43.0], [-103.6, 43.0], [-103.65, 43.0], [-103.65, 43.0], [-103.65, 43.0], [-103.65, 43.0], [-103.66, 43.0], [-103.66, 43.0], [-103.66, 43.0], [-103.67, 43.0], [-103.68, 43.0], [-103.68, 43.0], [-103.69, 43.0], [-103.69, 43.0], [-103.72, 43.0], [-103.74, 43.0], [-104.05, 43.0], [-104.05, 43.0], [-104.05, 43.0]]]}}]}