{"type": "FeatureCollection", "features": [{"type": "Feature", "properties": {"STATE": "Utah", "STATE_FIPS": "49", "CD_2DIG": "01", "STATE_CODE": 42, "CLIMDIV": 4201, "ID": 4201, "CD_NEW": 1, "FIPS_CD": "4901", "NCDC_GEO_I": 323.0, "NAME": "WESTERN", "ST_ABBRV": "UT", "SHAPE_AREA": 0.0, "SHAPE_LEN": 0.0}, "geometry": {"type": "Polygon", "coordinates": [[[-112.36, 42.0], [-112.35, 41.82], [-112.54, 41.75], [-112.49, 41.57], [-112.44, 41.45], [-112.4, 41.31], [-112.48, 41.06], [-112.61, 40.81], [-112.69, 40.67], [-112.8, 40.51], [-112.65, 40.35], [-112.56, 40.22], [-112.46, 40.04], [-112.41, 39.91], [-112.33, 39.66], [-112.41, 39.39], [-112.54, 39.07], [-112.71, 38.7], [-112.98, 38.12], [-113.1, 37.89], [-113.19, 37.8], [-113.31, 37.75], [-113.72, 37.62], [-113.78, 37.55], [-113.82, 37.37], [-114.05, 37.25], [-114.05, 37.25], [-114.05, 37.42], [-114.05, 37.43], [-114.05, 37.59], [-114.05, 37.6], [-114.05, 37.75], [-114.05, 37.77], [-114.05, 37.81], [-114.05, 37.82], [-114.05, 37.88], [-114.05, 38.0], [-114.05, 38.15], [-114.05, 38.25], [-114.05, 38.26], [-114.05, 38.44], [-114.05, 38.68], [-114.05, 38.75], [-114.05, 38.87], [-114.05, 38.88], [-114.05, 39.01], [-114.05, 39.12], [-114.05, 39.33], [-114.05, 39.5], [-114.05, 39.54], [-114.05, 39.76], [-114.05, 39.91], [-114.05, 40.0], [-114.05, 40.04], [-114.05, 40.25], [-114.05, 40.42], [-114.05, 40.43], [-114.05, 40.51], [-114.04, 40.67], [-114.04, 40.85], [-114.04, 41.0], [-114.04, 41.12], [-114.04, 41.25], [-114.04, 41.37], [-114.04, 41.49], [-114.04, 41.5], [-114.04, 41.62], [-114.04, 41.62], [-114.04, 41.75], [-114.04, 41.85], [-114.04, 41.88], [-114.04, 41.99], [-113.99, 41.99], [-113.89, 41.99], [-113.82, 41.99], [-113.65, 41.99], [-113.62, 41.99], [-113.5, 41.99], [-113.5, 41.99], [-113.25, 42.0], [-113.25, 42.0], [-113.08, 42.0], [-112.88, 42.0], [-112.75, 42.0], [-112.62, 42.0], [-112.36, 42.0], [-112.36, 42.0]]]}}, {"type": "Feature", "properties": {"STATE": "Utah", "STATE_FIPS": "49", "CD_2DIG": "03", "STATE_CODE": 42, "CLIMDIV": 4203, "ID": 4203, "CD_NEW": 3, "FIPS_CD": "4903", "NCDC_GEO_I": 324.0, "NAME": "NORTH CENTRAL", "ST_ABBRV": "UT", "SHAPE_AREA": 0.0, "SHAPE_LEN": 0.0}, "geometry": {"type": "Polygon", "coordinates": [[[-111.55, 39.66], [-111.78, 39.71], [-111.96, 39.76], [-112.19, 39.75], [-112.33, 39.66], [-112.41, 39.91], [-112.46, 40.04], [-112.56, 40.22], [-112.65, 40.35], [-112.8, 40.51], [-112.69, 40.67], [-112.61, 40.81], [-112.48, 41.06], [-112.4, 41.31], [-112.44, 41.45], [-112.49, 41.57], [-112.54, 41.75], [-112.35, 41.82], [-112.36, 42.0], [-112.36, 42.0], [-112.19, 42.0], [-112.17, 42.0], [-112.11, 42.0], [-112.01, 42.0], [-111.86, 42.0], [-111.75, 42.0], [-111.66, 42.0], [-111.66, 42.0], [-111.66, 42.0], [-111.67, 41.89], [-111.7, 41.74], [-111.83, 41.7], [-111.95, 41.68], [-112.08, 41.62], [-112.08, 41.43], [-112.04, 41.18], [-111.97, 41.0], [-111.91, 40.8], [-111.8, 40.61], [-111.76, 40.43], [-111.74, 40.29], [-111.64, 40.16], [-111.54, 39.99], [-111.54, 39.8], [-111.55, 39.66]]]}}, {"type": "Feature", "properties": {"STATE": "Utah", "STATE_FIPS": "49", "CD_2DIG": "05", "STATE_CODE": 42, "CLIMDIV": 4205, "ID": 4205, "CD_NEW": 5, "FIPS_CD": "4905", "NCDC_GEO_I": 325.0, "NAME": "NORTHERN MOUNTAINS", "ST_ABBRV": "UT", "SHAPE_AREA": 0.0, "SHAPE_LEN": 0.0}, "geometry": {"type": "Polygon", "coordinates": [[[-109.05, 40.6], [-109.05, 40.6], [-109.19, 40.59], [-109.43, 40.56], [-109.87, 40.52], [-110.19, 40.48], [-110.34, 40.44], [-110.52, 40.39], [-110.65, 40.34], [-110.73, 40.26], [-110.67, 40.13], [-110.54, 40.0], [-110.45, 39.89], [-110.47, 39.68], [-110.59, 39.72], [-110.81, 39.68], [-110.9, 39.6], [-111.03, 39.45], [-111.22, 39.62], [-111.42, 39.67], [-111.55, 39.66], [-111.54, 39.8], [-111.54, 39.99], [-111.64, 40.16], [-111.74, 40.29], [-111.76, 40.43], [-111.8, 40.61], [-111.91, 40.8], [-111.97, 41.0], [-112.04, 41.18], [-112.08, 41.43], [-112.08, 41.62], [-111.95, 41.68], [-111.83, 41.7], [-111.7, 41.74], [-111.67, 41.89], [-111.66, 42.0], [-111.66, 42.0], [-111.65, 42.0], [-111.49, 42.0], [-111.43, 42.0], [-111.31, 42.0], [-111.17, 42.0], [-111.1, 42.0], [-111.09, 42.0], [-111.05, 42.0], [-111.05, 42.0], [-111.05, 42.0], [-111.05, 41.98], [-111.05, 41.96], [-111.05, 41.94], [-111.05, 41.88], [-111.05, 41.75], [-111.05, 41.62], [-111.05, 41.5], [-111.05, 41.38], [-111.05, 41.38], [-111.05, 41.38], [-111.05, 41.37], [-111.05, 41.37], [-111.05, 41.36], [-111.05, 41.3], [-111.05, 41.25], [-111.05, 41.12], [-111.05, 41.0], [-110.88, 41.0], [-110.68, 41.0], [-110.54, 41.0], [-110.5, 40.99], [-110.38, 40.99], [-110.25, 41.0], [-110.24, 41.0], [-110.13, 41.0], [-110.12, 41.0], [-110.06, 41.0], [-110.01, 41.0], [-110.0, 41.0], [-109.99, 41.0], [-109.98, 41.0], [-109.93, 41.0], [-109.81, 41.0], [-109.71, 41.0], [-109.66, 41.0], [-109.62, 41.0], [-109.54, 41.0], [-109.5, 41.0], [-109.37, 41.0], [-109.25, 41.0], [-109.23, 41.0], [-109.19, 41.0], [-109.05, 41.0], [-109.05, 41.0], [-109.05, 41.0], [-109.05, 40.96], [-109.05, 40.86], [-109.05, 40.83], [-109.05, 40.71], [-109.05, 40.62], [-109.05, 40.6], [-109.05, 40.6]]]}}, {"type": "Feature", "properties": {"STATE": "Utah", "STATE_FIPS": "49", "CD_2DIG": "06", "STATE_CODE": 42, "CLIMDIV": 4206, "ID": 4206, "CD_NEW": 6, "FIPS_CD": "4906", "NCDC_GEO_I": 326.0, "NAME": "UINTA BASIN", "ST_ABBRV": "UT", "SHAPE_AREA": 0.0, "SHAPE_LEN": 0.0}, "geometry": {"type": "Polygon", "coordinates": [[[-109.05, 39.58], [-109.08, 39.56], [-109.08, 39.56], [-109.13, 39.54], [-109.21, 39.5], [-109.42, 39.46], [-109.62, 39.4], [-109.99, 39.4], [-110.17, 39.44], [-110.29, 39.57], [-110.37, 39.63], [-110.47, 39.68], [-110.45, 39.89], [-110.54, 40.0], [-110.67, 40.13], [-110.73, 40.26], [-110.65, 40.34], [-110.52, 40.39], [-110.34, 40.44], [-110.19, 40.48], [-109.87, 40.52], [-109.43, 40.56], [-109.19, 40.59], [-109.05, 40.6], [-109.05, 40.6], [-109.05, 40.58], [-109.05, 40.54], [-109.05, 40.44], [-109.05, 40.23], [-109.05, 40.12], [-109.05, 40.0], [-109.05, 39.87], [-109.05, 39.8], [-109.05, 39.75], [-109.05, 39.75], [-109.05, 39.75], [-109.05, 39.75], [-109.05, 39.74], [-109.05, 39.71], [-109.05, 39.7], [-109.05, 39.62], [-109.05, 39.6], [-109.05, 39.58]]]}}, {"type": "Feature", "properties": {"STATE": "Utah", "STATE_FIPS": "49", "CD_2DIG": "07", "STATE_CODE": 42, "CLIMDIV": 4207, "ID": 4207, "CD_NEW": 7, "FIPS_CD": "4907", "NCDC_GEO_I": 327.0, "NAME": "SOUTHEAST", "ST_ABBRV": "UT", "SHAPE_AREA": 0.0, "SHAPE_LEN": 0.0}, "geometry": {"type": "Polygon", "coordinates": [[[-111.88, 37.0], [-111.81, 37.16], [-111.69, 37.3], [-111.47, 37.47], [-111.21, 37.69], [-110.99, 37.82], [-110.72, 37.93], [-110.53, 38.09], [-110.59, 38.19], [-110.78, 38.21], [-110.98, 38.19], [-111.25, 38.19], [-111.33, 38.29], [-111.3, 38.46], [-111.27, 38.78], [-111.22, 39.04], [-111.14, 39.22], [-111.03, 39.45], [-110.9, 39.6], [-110.81, 39.68], [-110.59, 39.72], [-110.47, 39.68], [-110.37, 39.63], [-110.29, 39.57], [-110.17, 39.44], [-109.99, 39.4], [-109.62, 39.4], [-109.42, 39.46], [-109.21, 39.5], [-109.13, 39.54], [-109.08, 39.56], [-109.08, 39.56], [-109.05, 39.58], [-109.05, 39.54], [-109.05, 39.5], [-109.05, 39.5], [-109.05, 39.47], [-109.05, 39.46], [-109.05, 39.45], [-109.05, 39.42], [-109.05, 39.4], [-109.05, 39.39], [-109.05, 39.37], [-109.05, 39.37], [-109.05, 39.12], [-109.05, 39.0], [-109.05, 38.87], [-109.06, 38.8], [-109.06, 38.72], [-109.06, 38.6], [-109.06, 38.5], [-109.06, 38.49], [-109.06, 38.46], [-109.06, 38.43], [-109.06, 38.43], [-109.06, 38.42], [-109.06, 38.41], [-109.06, 38.4], [-109.06, 38.4], [-109.06, 38.4], [-109.06, 38.39], [-109.06, 38.39], [-109.06, 38.39], [-109.06, 38.36], [-109.06, 38.35], [-109.06, 38.33], [-109.06, 38.33], [-109.06, 38.32], [-109.06, 38.28], [-109.04, 38.16], [-109.04, 38.16], [-109.04, 38.04], [-109.04, 38.02], [-109.04, 38.01], [-109.04, 38.0], [-109.04, 38.0], [-109.04, 38.0], [-109.04, 37.99], [-109.04, 37.98], [-109.04, 37.98], [-109.04, 37.97], [-109.04, 37.97], [-109.04, 37.91], [-109.04, 37.87], [-109.04, 37.87], [-109.04, 37.87], [-109.04, 37.86], [-109.04, 37.86], [-109.04, 37.84], [-109.04, 37.84], [-109.04, 37.8], [-109.04, 37.67], [-109.04, 37.61], [-109.04, 37.53], [-109.04, 37.5], [-109.05, 37.37], [-109.05, 37.18], [-109.05, 37.11], [-109.05, 37.0], [-109.05, 37.0], [-109.05, 37.0], [-109.07, 37.0], [-109.12, 37.0], [-109.19, 37.0], [-109.36, 37.0], [-109.5, 37.0], [-109.63, 37.0], [-109.75, 37.0], [-109.94, 37.0], [-109.97, 37.0], [-110.02, 37.0], [-110.25, 37.0], [-110.47, 37.0], [-110.49, 37.0], [-110.51, 37.0], [-110.76, 37.0], [-110.99, 37.0], [-111.08, 37.0], [-111.13, 37.0], [-111.24, 37.0], [-111.28, 37.0], [-111.39, 37.0], [-111.62, 37.0], [-111.75, 37.0], [-111.88, 37.0], [-111.88, 37.0]]]}}, {"type": "Feature", "properties": {"STATE": "Utah", "STATE_FIPS": "49", "CD_2DIG": "04", "STATE_CODE": 42, "CLIMDIV": 4204, "ID": 4204, "CD_NEW": 4, "FIPS_CD": "4904", "NCDC_GEO_I": 328.0, "NAME": "SOUTH CENTRAL", "ST_ABBRV": "UT", "SHAPE_AREA": 0.0, "SHAPE_LEN": 0.0}, "geometry": {"type": "Polygon", "coordinates": [[[-113.11, 37.0], [-112.99, 37.14], [-112.89, 37.28], [-113.13, 37.26], [-113.29, 37.36], [-113.43, 37.43], [-113.56, 37.35], [-113.82, 37.37], [-113.78, 37.55], [-113.72, 37.62], [-113.31, 37.75], [-113.19, 37.8], [-113.1, 37.89], [-112.98, 38.12], [-112.71, 38.7], [-112.54, 39.07], [-112.41, 39.39], [-112.33, 39.66], [-112.19, 39.75], [-111.96, 39.76], [-111.78, 39.71], [-111.55, 39.66], [-111.42, 39.67], [-111.22, 39.62], [-111.03, 39.45], [-111.14, 39.22], [-111.22, 39.04], [-111.27, 38.78], [-111.3, 38.46], [-111.33, 38.29], [-111.25, 38.19], [-110.98, 38.19], [-110.78, 38.21], [-110.59, 38.19], [-110.53, 38.09], [-110.72, 37.93], [-110.99, 37.82], [-111.21, 37.69], [-111.47, 37.47], [-111.69, 37.3], [-111.81, 37.16], [-111.88, 37.0], [-111.89, 37.0], [-112.0, 37.0], [-112.13, 37.0], [-112.25, 37.0], [-112.54, 37.0], [-112.75, 37.0], [-112.88, 37.0], [-113.01, 37.0], [-113.11, 37.0], [-113.11, 37.0]]]}}, {"type": "Feature", "properties": {"STATE": "Utah", "STATE_FIPS": "49", "CD_2DIG": "02", "STATE_CODE": 42, "CLIMDIV": 4202, "ID": 4202, "CD_NEW": 2, "FIPS_CD": "4902", "NCDC_GEO_I": 329.0, "NAME": "DIXIE", "ST_ABBRV": "UT", "SHAPE_AREA": 0.0, "SHAPE_LEN": 0.0}, "geometry": {"type": "Polygon", "coordinates": [[[-113.11, 37.0], [-113.12, 37.0], [-113.41, 37.0], [-113.58, 37.0], [-113.8, 37.0], [-113.97, 37.0], [-114.05, 37.0], [-114.05, 37.09], [-114.05, 37.1], [-114.05, 37.24], [-114.05, 37.25], [-113.82, 37.37], [-113.56, 37.35], [-113.43, 37.43], [-113.29, 37.36], [-113.13, 37.26], [-112.89, 37.28], [-112.99, 37.14], [-113.11, 37.0]]]}}]}