{"type": "FeatureCollection", "features": [{"type": "Feature", "properties": {"STATE": "Vermont", "STATE_FIPS": "50", "CD_2DIG": "02", "STATE_CODE": 43, "CLIMDIV": 4302, "ID": 4302, "CD_NEW": 2, "FIPS_CD": "5002", "NCDC_GEO_I": 268.0, "NAME": "WESTERN", "ST_ABBRV": "VT", "SHAPE_AREA": 0.0, "SHAPE_LEN": 0.0}, "geometry": {"type": "Polygon", "coordinates": [[[-73.28, 42.75], [-73.29, 42.8], [-73.28, 42.81], [-73.29, 42.82], [-73.29, 42.83], [-73.28, 42.83], [-73.27, 42.95], [-73.27, 42.96], [-73.27, 42.98], [-73.27, 42.98], [-73.27, 43.0], [-73.27, 43.02], [-73.27, 43.05], [-73.27, 43.08], [-73.26, 43.11], [-73.26, 43.14], [-73.26, 43.16], [-73.26, 43.18], [-73.26, 43.19], [-73.26, 43.21], [-73.26, 43.22], [-73.26, 43.23], [-73.26, 43.25], [-73.26, 43.25], [-73.26, 43.25], [-73.26, 43.26], [-73.26, 43.27], [-73.26, 43.27], [-73.26, 43.3], [-73.25, 43.31], [-73.25, 43.31], [-73.25, 43.32], [-73.25, 43.32], [-73.25, 43.33], [-73.25, 43.33], [-73.25, 43.34], [-73.25, 43.34], [-73.25, 43.35], [-73.25, 43.35], [-73.25, 43.36], [-73.25, 43.36], [-73.25, 43.36], [-73.25, 43.36], [-73.25, 43.36], [-73.25, 43.38], [-73.25, 43.39], [-73.25, 43.41], [-73.25, 43.41], [-73.25, 43.44], [-73.25, 43.46], [-73.25, 43.46], [-73.25, 43.49], [-73.25, 43.49], [-73.25, 43.52], [-73.25, 43.52], [-73.25, 43.52], [-73.25, 43.52], [-73.25, 43.52], [-73.25, 43.53], [-73.25, 43.53], [-73.24, 43.53], [-73.24, 43.53], [-73.24, 43.53], [-73.24, 43.53], [-73.24, 43.53], [-73.24, 43.53], [-73.24, 43.53], [-73.24, 43.53], [-73.24, 43.54], [-73.24, 43.54], [-73.24, 43.53], [-73.24, 43.53], [-73.24, 43.54], [-73.24, 43.54], [-73.24, 43.54], [-73.25, 43.54], [-73.25, 43.54], [-73.25, 43.54], [-73.25, 43.54], [-73.25, 43.54], [-73.25, 43.55], [-73.25, 43.55], [-73.25, 43.55], [-73.25, 43.55], [-73.25, 43.55], [-73.25, 43.55], [-73.25, 43.55], [-73.25, 43.55], [-73.25, 43.55], [-73.25, 43.55], [-73.25, 43.55], [-73.25, 43.55], [-73.25, 43.55], [-73.25, 43.56], [-73.25, 43.56], [-73.25, 43.56], [-73.26, 43.56], [-73.26, 43.56], [-73.26, 43.56], [-73.26, 43.56], [-73.26, 43.56], [-73.26, 43.57], [-73.26, 43.57], [-73.26, 43.57], [-73.26, 43.57], [-73.26, 43.57], [-73.26, 43.57], [-73.26, 43.57], [-73.26, 43.57], [-73.27, 43.57], [-73.27, 43.57], [-73.27, 43.57], [-73.27, 43.57], [-73.27, 43.57], [-73.27, 43.57], [-73.27, 43.57], [-73.27, 43.57], [-73.27, 43.57], [-73.27, 43.57], [-73.27, 43.57], [-73.27, 43.57], [-73.27, 43.57], [-73.28, 43.57], [-73.28, 43.57], [-73.28, 43.57], [-73.28, 43.58], [-73.28, 43.58], [-73.28, 43.58], [-73.28, 43.58], [-73.28, 43.58], [-73.29, 43.58], [-73.29, 43.58], [-73.29, 43.58], [-73.29, 43.58], [-73.29, 43.58], [-73.29, 43.58], [-73.3, 43.58], [-73.3, 43.58], [-73.29, 43.58], [-73.29, 43.58], [-73.3, 43.59], [-73.3, 43.59], [-73.3, 43.59], [-73.29, 43.59], [-73.29, 43.6], [-73.29, 43.6], [-73.29, 43.6], [-73.29, 43.6], [-73.29, 43.6], [-73.29, 43.6], [-73.29, 43.61], [-73.3, 43.61], [-73.3, 43.61], [-73.3, 43.61], [-73.3, 43.61], [-73.3, 43.61], [-73.3, 43.61], [-73.3, 43.61], [-73.3, 43.61], [-73.3, 43.61], [-73.3, 43.61], [-73.3, 43.61], [-73.3, 43.62], [-73.3, 43.62], [-73.3, 43.62], [-73.3, 43.62], [-73.3, 43.62], [-73.3, 43.62], [-73.3, 43.63], [-73.31, 43.63], [-73.31, 43.63], [-73.31, 43.63], [-73.31, 43.62], [-73.31, 43.62], [-73.31, 43.63], [-73.31, 43.63], [-73.32, 43.63], [-73.32, 43.63], [-73.32, 43.63], [-73.32, 43.63], [-73.32, 43.63], [-73.33, 43.63], [-73.33, 43.63], [-73.33, 43.63], [-73.33, 43.63], [-73.33, 43.63], [-73.34, 43.63], [-73.34, 43.63], [-73.34, 43.63], [-73.34, 43.62], [-73.34, 43.62], [-73.34, 43.63], [-73.34, 43.63], [-73.35, 43.63], [-73.35, 43.62], [-73.35, 43.62], [-73.35, 43.62], [-73.35, 43.62], [-73.35, 43.62], [-73.35, 43.63], [-73.35, 43.63], [-73.36, 43.63], [-73.36, 43.62], [-73.37, 43.62], [-73.37, 43.62], [-73.37, 43.62], [-73.37, 43.62], [-73.37, 43.62], [-73.37, 43.62], [-73.37, 43.62], [-73.38, 43.61], [-73.38, 43.61], [-73.37, 43.61], [-73.37, 43.61], [-73.37, 43.61], [-73.38, 43.61], [-73.37, 43.61], [-73.37, 43.61], [-73.37, 43.61], [-73.37, 43.6], [-73.37, 43.6], [-73.38, 43.6], [-73.38, 43.6], [-73.38, 43.6], [-73.38, 43.6], [-73.38, 43.6], [-73.38, 43.6], [-73.38, 43.6], [-73.38, 43.6], [-73.38, 43.6], [-73.38, 43.59], [-73.38, 43.59], [-73.39, 43.59], [-73.39, 43.59], [-73.39, 43.59], [-73.38, 43.59], [-73.38, 43.59], [-73.38, 43.59], [-73.38, 43.59], [-73.38, 43.58], [-73.38, 43.58], [-73.39, 43.57], [-73.39, 43.57], [-73.4, 43.57], [-73.4, 43.57], [-73.4, 43.57], [-73.4, 43.57], [-73.4, 43.57], [-73.41, 43.57], [-73.42, 43.58], [-73.42, 43.58], [-73.42, 43.58], [-73.43, 43.58], [-73.43, 43.59], [-73.43, 43.59], [-73.42, 43.6], [-73.42, 43.6], [-73.42, 43.6], [-73.42, 43.61], [-73.42, 43.61], [-73.42, 43.62], [-73.42, 43.62], [-73.42, 43.62], [-73.42, 43.63], [-73.42, 43.63], [-73.43, 43.63], [-73.43, 43.64], [-73.43, 43.64], [-73.43, 43.64], [-73.43, 43.64], [-73.43, 43.64], [-73.43, 43.64], [-73.43, 43.64], [-73.42, 43.64], [-73.42, 43.65], [-73.42, 43.65], [-73.42, 43.65], [-73.42, 43.65], [-73.42, 43.65], [-73.41, 43.66], [-73.41, 43.66], [-73.41, 43.66], [-73.41, 43.66], [-73.41, 43.66], [-73.41, 43.67], [-73.41, 43.67], [-73.41, 43.67], [-73.41, 43.67], [-73.41, 43.67], [-73.41, 43.67], [-73.41, 43.67], [-73.41, 43.67], [-73.41, 43.67], [-73.41, 43.67], [-73.41, 43.67], [-73.4, 43.68], [-73.4, 43.68], [-73.4, 43.68], [-73.4, 43.69], [-73.4, 43.69], [-73.41, 43.69], [-73.4, 43.69], [-73.4, 43.69], [-73.4, 43.7], [-73.4, 43.7], [-73.4, 43.7], [-73.39, 43.7], [-73.39, 43.7], [-73.39, 43.7], [-73.39, 43.7], [-73.39, 43.7], [-73.39, 43.7], [-73.39, 43.71], [-73.39, 43.71], [-73.39, 43.71], [-73.39, 43.71], [-73.39, 43.71], [-73.38, 43.72], [-73.38, 43.72], [-73.37, 43.72], [-73.37, 43.72], [-73.37, 43.72], [-73.37, 43.72], [-73.37, 43.73], [-73.37, 43.73], [-73.37, 43.73], [-73.37, 43.73], [-73.37, 43.73], [-73.37, 43.73], [-73.37, 43.73], [-73.37, 43.75], [-73.37, 43.75], [-73.36, 43.75], [-73.36, 43.75], [-73.36, 43.76], [-73.36, 43.76], [-73.35, 43.77], [-73.35, 43.78], [-73.36, 43.78], [-73.36, 43.78], [-73.36, 43.79], [-73.37, 43.79], [-73.37, 43.8], [-73.37, 43.8], [-73.38, 43.8], [-73.38, 43.81], [-73.38, 43.81], [-73.38, 43.81], [-73.38, 43.81], [-73.39, 43.82], [-73.39, 43.82], [-73.39, 43.83], [-73.37, 43.84], [-73.37, 43.84], [-73.37, 43.84], [-73.37, 43.84], [-73.37, 43.84], [-73.37, 43.85], [-73.37, 43.85], [-73.37, 43.85], [-73.38, 43.85], [-73.38, 43.85], [-73.38, 43.86], [-73.38, 43.86], [-73.37, 43.87], [-73.38, 43.88], [-73.4, 43.91], [-73.41, 43.93], [-73.41, 43.94], [-73.41, 43.96], [-73.41, 43.98], [-73.41, 43.98], [-73.41, 43.98], [-73.41, 44.01], [-73.41, 44.01], [-73.41, 44.02], [-73.42, 44.03], [-73.42, 44.03], [-73.42, 44.03], [-73.43, 44.04], [-73.43, 44.04], [-73.44, 44.04], [-73.44, 44.05], [-73.44, 44.05], [-73.43, 44.07], [-73.42, 44.09], [-73.42, 44.1], [-73.41, 44.1], [-73.41, 44.11], [-73.41, 44.12], [-73.42, 44.13], [-73.41, 44.13], [-73.41, 44.14], [-73.4, 44.14], [-73.4, 44.15], [-73.4, 44.16], [-73.4, 44.17], [-73.4, 44.17], [-73.4, 44.17], [-73.39, 44.18], [-73.39, 44.18], [-73.39, 44.18], [-73.39, 44.19], [-73.39, 44.19], [-73.39, 44.19], [-73.39, 44.19], [-73.38, 44.19], [-73.38, 44.2], [-73.38, 44.2], [-73.38, 44.2], [-73.37, 44.2], [-73.36, 44.21], [-73.36, 44.21], [-73.36, 44.22], [-73.36, 44.22], [-73.36, 44.22], [-73.35, 44.23], [-73.35, 44.23], [-73.35, 44.23], [-73.34, 44.23], [-73.34, 44.24], [-73.33, 44.24], [-73.33, 44.24], [-73.32, 44.24], [-73.32, 44.25], [-73.32, 44.25], [-73.32, 44.26], [-73.31, 44.27], [-73.31, 44.28], [-73.32, 44.3], [-73.32, 44.31], [-73.32, 44.33], [-73.33, 44.34], [-73.33, 44.34], [-73.33, 44.36], [-73.33, 44.36], [-73.33, 44.37], [-73.33, 44.38], [-73.31, 44.39], [-73.31, 44.4], [-73.31, 44.4], [-73.3, 44.42], [-73.29, 44.43], [-73.29, 44.44], [-73.29, 44.44], [-73.29, 44.44], [-73.29, 44.44], [-73.29, 44.44], [-73.29, 44.44], [-73.3, 44.45], [-73.3, 44.45], [-73.3, 44.45], [-73.3, 44.45], [-73.3, 44.45], [-73.3, 44.45], [-73.3, 44.45], [-73.3, 44.45], [-73.3, 44.45], [-73.3, 44.46], [-73.3, 44.46], [-73.3, 44.46], [-73.3, 44.47], [-73.3, 44.47], [-73.3, 44.47], [-73.3, 44.47], [-73.3, 44.47], [-73.3, 44.47], [-73.3, 44.47], [-73.3, 44.48], [-73.3, 44.48], [-73.3, 44.48], [-73.3, 44.49], [-73.3, 44.49], [-73.3, 44.49], [-73.3, 44.49], [-73.3, 44.49], [-73.31, 44.49], [-73.31, 44.49], [-73.31, 44.49], [-73.31, 44.5], [-73.31, 44.5], [-73.31, 44.5], [-73.31, 44.5], [-73.31, 44.5], [-73.31, 44.5], [-73.31, 44.5], [-73.31, 44.5], [-73.31, 44.5], [-73.31, 44.5], [-73.31, 44.5], [-73.31, 44.51], [-73.31, 44.51], [-73.31, 44.51], [-73.31, 44.51], [-73.32, 44.51], [-73.32, 44.51], [-73.32, 44.52], [-73.32, 44.52], [-73.32, 44.52], [-73.32, 44.52], [-73.32, 44.53], [-73.32, 44.53], [-73.32, 44.53], [-73.32, 44.53], [-73.32, 44.53], [-73.32, 44.53], [-73.32, 44.53], [-73.33, 44.53], [-73.33, 44.53], [-73.33, 44.53], [-73.33, 44.53], [-73.33, 44.53], [-73.33, 44.53], [-73.33, 44.53], [-73.33, 44.53], [-73.33, 44.53], [-73.33, 44.53], [-73.33, 44.53], [-73.33, 44.53], [-73.33, 44.54], [-73.33, 44.54], [-73.34, 44.54], [-73.34, 44.54], [-73.34, 44.54], [-73.34, 44.55], [-73.34, 44.55], [-73.34, 44.55], [-73.34, 44.55], [-73.34, 44.55], [-73.34, 44.55], [-73.34, 44.55], [-73.34, 44.55], [-73.34, 44.55], [-73.34, 44.55], [-73.34, 44.55], [-73.35, 44.56], [-73.35, 44.56], [-73.35, 44.56], [-73.35, 44.56], [-73.35, 44.56], [-73.35, 44.56], [-73.35, 44.56], [-73.36, 44.56], [-73.36, 44.56], [-73.36, 44.56], [-73.37, 44.57], [-73.37, 44.58], [-73.38, 44.58], [-73.38, 44.59], [-73.38, 44.59], [-73.38, 44.59], [-73.38, 44.6], [-73.38, 44.6], [-73.38, 44.61], [-73.38, 44.61], [-73.39, 44.62], [-73.39, 44.62], [-73.39, 44.62], [-73.39, 44.62], [-73.39, 44.63], [-73.39, 44.63], [-73.39, 44.63], [-73.39, 44.64], [-73.38, 44.64], [-73.38, 44.64], [-73.38, 44.64], [-73.38, 44.65], [-73.38, 44.65], [-73.38, 44.65], [-73.38, 44.66], [-73.38, 44.66], [-73.37, 44.66], [-73.37, 44.66], [-73.37, 44.66], [-73.37, 44.66], [-73.37, 44.66], [-73.37, 44.66], [-73.37, 44.67], [-73.37, 44.67], [-73.37, 44.67], [-73.37, 44.67], [-73.37, 44.67], [-73.37, 44.68], [-73.37, 44.68], [-73.37, 44.68], [-73.37, 44.68], [-73.37, 44.68], [-73.37, 44.68], [-73.37, 44.68], [-73.37, 44.68], [-73.37, 44.69], [-73.37, 44.69], [-73.36, 44.69], [-73.36, 44.69], [-73.36, 44.69], [-73.36, 44.69], [-73.36, 44.69], [-73.36, 44.7], [-73.37, 44.7], [-73.37, 44.7], [-73.37, 44.71], [-73.37, 44.72], [-73.37, 44.72], [-73.37, 44.73], [-73.37, 44.74], [-73.36, 44.74], [-73.36, 44.75], [-73.36, 44.75], [-73.35, 44.76], [-73.35, 44.76], [-73.35, 44.76], [-73.35, 44.77], [-73.35, 44.77], [-73.35, 44.78], [-73.34, 44.78], [-73.34, 44.78], [-73.34, 44.78], [-73.33, 44.78], [-73.33, 44.79], [-73.33, 44.79], [-73.33, 44.8], [-73.33, 44.8], [-73.33, 44.8], [-73.33, 44.8], [-73.33, 44.8], [-73.33, 44.8], [-73.34, 44.8], [-73.34, 44.81], [-73.34, 44.81], [-73.34, 44.81], [-73.34, 44.81], [-73.34, 44.81], [-73.34, 44.81], [-73.35, 44.81], [-73.35, 44.81], [-73.35, 44.82], [-73.35, 44.82], [-73.35, 44.82], [-73.35, 44.82], [-73.35, 44.82], [-73.35, 44.82], [-73.36, 44.82], [-73.36, 44.82], [-73.36, 44.82], [-73.36, 44.83], [-73.37, 44.83], [-73.37, 44.83], [-73.37, 44.83], [-73.37, 44.83], [-73.37, 44.83], [-73.37, 44.83], [-73.37, 44.84], [-73.37, 44.84], [-73.38, 44.84], [-73.38, 44.84], [-73.38, 44.84], [-73.38, 44.84], [-73.38, 44.85], [-73.38, 44.85], [-73.38, 44.85], [-73.38, 44.86], [-73.38, 44.86], [-73.38, 44.86], [-73.38, 44.86], [-73.37, 44.86], [-73.37, 44.86], [-73.37, 44.86], [-73.37, 44.86], [-73.37, 44.87], [-73.37, 44.87], [-73.37, 44.88], [-73.36, 44.88], [-73.36, 44.89], [-73.36, 44.9], [-73.35, 44.91], [-73.35, 44.91], [-73.34, 44.92], [-73.34, 44.92], [-73.34, 44.94], [-73.34, 44.95], [-73.34, 44.95], [-73.34, 44.96], [-73.34, 44.96], [-73.34, 44.97], [-73.34, 44.97], [-73.34, 44.97], [-73.35, 44.98], [-73.35, 44.98], [-73.35, 44.99], [-73.35, 45.0], [-73.34, 45.01], [-73.06, 45.02], [-72.97, 45.01], [-72.86, 45.02], [-72.83, 44.68], [-72.81, 44.43], [-72.8, 44.22], [-72.81, 44.02], [-72.86, 43.84], [-72.87, 43.54], [-72.9, 43.16], [-72.9, 42.99], [-72.99, 42.88], [-73.13, 42.8], [-73.28, 42.75]]]}}, {"type": "Feature", "properties": {"STATE": "Vermont", "STATE_FIPS": "50", "CD_2DIG": "03", "STATE_CODE": 43, "CLIMDIV": 4303, "ID": 4303, "CD_NEW": 1, "FIPS_CD": "5003", "NCDC_GEO_I": 269.0, "NAME": "SOUTHEASTERN", "ST_ABBRV": "VT", "SHAPE_AREA": 0.0, "SHAPE_LEN": 0.0}, "geometry": {"type": "Polygon", "coordinates": [[[-72.17, 43.89], [-72.17, 43.88], [-72.17, 43.87], [-72.18, 43.87], [-72.19, 43.86], [-72.18, 43.85], [-72.18, 43.83], [-72.19, 43.82], [-72.18, 43.81], [-72.2, 43.79], [-72.2, 43.79], [-72.21, 43.77], [-72.22, 43.77], [-72.24, 43.75], [-72.26, 43.73], [-72.27, 43.73], [-72.29, 43.71], [-72.31, 43.7], [-72.3, 43.67], [-72.31, 43.66], [-72.32, 43.64], [-72.33, 43.64], [-72.33, 43.62], [-72.33, 43.6], [-72.35, 43.59], [-72.37, 43.58], [-72.38, 43.57], [-72.38, 43.56], [-72.38, 43.54], [-72.39, 43.53], [-72.4, 43.51], [-72.38, 43.5], [-72.38, 43.49], [-72.38, 43.48], [-72.39, 43.47], [-72.39, 43.45], [-72.4, 43.44], [-72.4, 43.39], [-72.42, 43.38], [-72.41, 43.36], [-72.39, 43.35], [-72.4, 43.35], [-72.41, 43.33], [-72.4, 43.31], [-72.4, 43.3], [-72.41, 43.28], [-72.42, 43.26], [-72.43, 43.26], [-72.44, 43.25], [-72.43, 43.23], [-72.44, 43.22], [-72.44, 43.2], [-72.45, 43.19], [-72.44, 43.18], [-72.45, 43.17], [-72.45, 43.16], [-72.46, 43.15], [-72.45, 43.14], [-72.43, 43.12], [-72.43, 43.11], [-72.44, 43.1], [-72.43, 43.08], [-72.45, 43.07], [-72.47, 43.05], [-72.46, 43.04], [-72.46, 43.03], [-72.46, 43.02], [-72.44, 43.01], [-72.45, 43.0], [-72.46, 43.0], [-72.46, 42.98], [-72.47, 42.97], [-72.48, 42.97], [-72.49, 42.97], [-72.52, 42.96], [-72.53, 42.96], [-72.53, 42.94], [-72.52, 42.92], [-72.53, 42.91], [-72.53, 42.9], [-72.54, 42.89], [-72.55, 42.88], [-72.56, 42.88], [-72.55, 42.86], [-72.56, 42.85], [-72.55, 42.84], [-72.54, 42.81], [-72.52, 42.79], [-72.51, 42.78], [-72.51, 42.77], [-72.51, 42.76], [-72.49, 42.77], [-72.48, 42.76], [-72.47, 42.75], [-72.46, 42.73], [-72.46, 42.73], [-72.46, 42.73], [-72.5, 42.73], [-72.53, 42.73], [-72.55, 42.73], [-72.57, 42.73], [-72.57, 42.73], [-72.58, 42.73], [-72.6, 42.73], [-72.61, 42.73], [-72.62, 42.73], [-72.64, 42.73], [-72.66, 42.73], [-72.68, 42.73], [-72.69, 42.73], [-72.75, 42.73], [-72.76, 42.74], [-72.92, 42.74], [-73.05, 42.74], [-73.26, 42.75], [-73.28, 42.75], [-73.13, 42.8], [-72.99, 42.88], [-72.9, 42.99], [-72.9, 43.16], [-72.87, 43.54], [-72.8, 43.48], [-72.68, 43.49], [-72.6, 43.61], [-72.58, 43.72], [-72.54, 43.78], [-72.51, 43.87], [-72.47, 43.92], [-72.39, 43.98], [-72.3, 43.99], [-72.22, 43.96], [-72.17, 43.89]]]}}, {"type": "Feature", "properties": {"STATE": "Vermont", "STATE_FIPS": "50", "CD_2DIG": "01", "STATE_CODE": 43, "CLIMDIV": 4301, "ID": 4301, "CD_NEW": 3, "FIPS_CD": "5001", "NCDC_GEO_I": 270.0, "NAME": "NORTHEASTERN", "ST_ABBRV": "VT", "SHAPE_AREA": 0.0, "SHAPE_LEN": 0.0}, "geometry": {"type": "Polygon", "coordinates": [[[-71.5, 45.01], [-71.46, 45.01], [-71.47, 45.01], [-71.48, 45.01], [-71.48, 45.01], [-71.48, 45.0], [-71.49, 45.0], [-71.49, 45.0], [-71.49, 45.0], [-71.5, 45.0], [-71.5, 45.01], [-71.5, 45.01], [-71.51, 45.01], [-71.51, 45.01], [-71.51, 45.0], [-71.52, 45.0], [-71.52, 45.0], [-71.53, 45.0], [-71.53, 45.0], [-71.53, 45.0], [-71.53, 44.99], [-71.53, 44.99], [-71.54, 44.99], [-71.54, 44.99], [-71.54, 44.99], [-71.54, 44.99], [-71.54, 44.98], [-71.54, 44.98], [-71.54, 44.98], [-71.53, 44.98], [-71.53, 44.97], [-71.52, 44.97], [-71.52, 44.97], [-71.52, 44.97], [-71.52, 44.97], [-71.52, 44.97], [-71.52, 44.96], [-71.52, 44.96], [-71.52, 44.96], [-71.52, 44.96], [-71.52, 44.95], [-71.52, 44.95], [-71.52, 44.95], [-71.52, 44.94], [-71.52, 44.94], [-71.52, 44.94], [-71.52, 44.94], [-71.52, 44.94], [-71.52, 44.94], [-71.52, 44.94], [-71.52, 44.94], [-71.51, 44.93], [-71.51, 44.93], [-71.52, 44.93], [-71.52, 44.93], [-71.51, 44.92], [-71.51, 44.92], [-71.5, 44.92], [-71.5, 44.92], [-71.5, 44.91], [-71.5, 44.91], [-71.5, 44.91], [-71.5, 44.91], [-71.49, 44.91], [-71.49, 44.91], [-71.5, 44.91], [-71.5, 44.91], [-71.5, 44.91], [-71.5, 44.9], [-71.5, 44.9], [-71.5, 44.9], [-71.51, 44.89], [-71.51, 44.89], [-71.51, 44.89], [-71.51, 44.89], [-71.51, 44.89], [-71.52, 44.89], [-71.52, 44.89], [-71.52, 44.89], [-71.52, 44.88], [-71.52, 44.88], [-71.52, 44.88], [-71.53, 44.88], [-71.53, 44.88], [-71.53, 44.88], [-71.53, 44.87], [-71.53, 44.87], [-71.53, 44.87], [-71.54, 44.87], [-71.54, 44.87], [-71.55, 44.86], [-71.55, 44.86], [-71.55, 44.86], [-71.55, 44.86], [-71.55, 44.86], [-71.55, 44.85], [-71.56, 44.85], [-71.56, 44.85], [-71.56, 44.85], [-71.55, 44.85], [-71.55, 44.84], [-71.55, 44.84], [-71.56, 44.84], [-71.56, 44.83], [-71.56, 44.83], [-71.56, 44.83], [-71.56, 44.82], [-71.57, 44.82], [-71.57, 44.82], [-71.58, 44.82], [-71.58, 44.81], [-71.58, 44.81], [-71.57, 44.81], [-71.57, 44.81], [-71.57, 44.81], [-71.57, 44.8], [-71.57, 44.8], [-71.57, 44.8], [-71.57, 44.8], [-71.57, 44.79], [-71.58, 44.79], [-71.59, 44.78], [-71.6, 44.77], [-71.6, 44.77], [-71.6, 44.77], [-71.61, 44.77], [-71.61, 44.77], [-71.61, 44.76], [-71.61, 44.76], [-71.62, 44.76], [-71.62, 44.76], [-71.62, 44.76], [-71.63, 44.75], [-71.63, 44.75], [-71.63, 44.75], [-71.63, 44.75], [-71.63, 44.74], [-71.63, 44.74], [-71.63, 44.74], [-71.62, 44.73], [-71.62, 44.73], [-71.62, 44.72], [-71.62, 44.72], [-71.62, 44.72], [-71.61, 44.72], [-71.61, 44.71], [-71.61, 44.71], [-71.6, 44.71], [-71.6, 44.71], [-71.6, 44.7], [-71.6, 44.7], [-71.6, 44.7], [-71.6, 44.7], [-71.6, 44.7], [-71.59, 44.7], [-71.59, 44.7], [-71.6, 44.69], [-71.6, 44.69], [-71.59, 44.68], [-71.59, 44.67], [-71.58, 44.67], [-71.58, 44.67], [-71.59, 44.67], [-71.59, 44.67], [-71.59, 44.66], [-71.59, 44.66], [-71.59, 44.66], [-71.58, 44.66], [-71.58, 44.66], [-71.58, 44.66], [-71.58, 44.65], [-71.58, 44.65], [-71.57, 44.65], [-71.57, 44.65], [-71.57, 44.65], [-71.57, 44.65], [-71.57, 44.65], [-71.57, 44.65], [-71.56, 44.65], [-71.56, 44.65], [-71.56, 44.64], [-71.56, 44.64], [-71.56, 44.64], [-71.56, 44.64], [-71.56, 44.64], [-71.56, 44.63], [-71.55, 44.63], [-71.55, 44.63], [-71.55, 44.63], [-71.56, 44.63], [-71.56, 44.63], [-71.55, 44.63], [-71.55, 44.62], [-71.55, 44.62], [-71.55, 44.62], [-71.56, 44.62], [-71.56, 44.61], [-71.56, 44.6], [-71.56, 44.6], [-71.56, 44.6], [-71.56, 44.6], [-71.55, 44.6], [-71.55, 44.6], [-71.55, 44.6], [-71.55, 44.6], [-71.55, 44.6], [-71.55, 44.6], [-71.56, 44.6], [-71.56, 44.6], [-71.55, 44.59], [-71.55, 44.6], [-71.55, 44.6], [-71.55, 44.6], [-71.55, 44.59], [-71.55, 44.59], [-71.54, 44.59], [-71.54, 44.59], [-71.54, 44.59], [-71.54, 44.59], [-71.54, 44.59], [-71.54, 44.59], [-71.54, 44.59], [-71.54, 44.58], [-71.54, 44.58], [-71.55, 44.58], [-71.55, 44.58], [-71.55, 44.58], [-71.55, 44.58], [-71.55, 44.57], [-71.55, 44.57], [-71.56, 44.57], [-71.56, 44.57], [-71.56, 44.57], [-71.56, 44.57], [-71.56, 44.57], [-71.56, 44.56], [-71.56, 44.56], [-71.58, 44.56], [-71.59, 44.56], [-71.6, 44.56], [-71.6, 44.56], [-71.59, 44.55], [-71.58, 44.55], [-71.58, 44.55], [-71.58, 44.54], [-71.57, 44.53], [-71.58, 44.53], [-71.58, 44.52], [-71.59, 44.52], [-71.59, 44.52], [-71.59, 44.51], [-71.58, 44.51], [-71.58, 44.51], [-71.58, 44.5], [-71.58, 44.5], [-71.58, 44.5], [-71.59, 44.51], [-71.59, 44.51], [-71.59, 44.51], [-71.59, 44.5], [-71.59, 44.5], [-71.59, 44.5], [-71.59, 44.5], [-71.6, 44.49], [-71.6, 44.49], [-71.61, 44.48], [-71.61, 44.48], [-71.62, 44.49], [-71.62, 44.48], [-71.62, 44.48], [-71.63, 44.47], [-71.63, 44.47], [-71.63, 44.48], [-71.63, 44.48], [-71.63, 44.48], [-71.63, 44.48], [-71.64, 44.48], [-71.64, 44.48], [-71.65, 44.48], [-71.65, 44.47], [-71.65, 44.47], [-71.65, 44.47], [-71.65, 44.47], [-71.64, 44.47], [-71.64, 44.46], [-71.64, 44.46], [-71.64, 44.46], [-71.65, 44.46], [-71.66, 44.45], [-71.66, 44.44], [-71.66, 44.44], [-71.66, 44.44], [-71.66, 44.44], [-71.68, 44.44], [-71.68, 44.44], [-71.68, 44.43], [-71.68, 44.43], [-71.68, 44.43], [-71.69, 44.42], [-71.7, 44.41], [-71.7, 44.41], [-71.7, 44.41], [-71.7, 44.41], [-71.72, 44.41], [-71.72, 44.41], [-71.74, 44.41], [-71.74, 44.4], [-71.74, 44.4], [-71.75, 44.4], [-71.75, 44.4], [-71.76, 44.41], [-71.76, 44.41], [-71.77, 44.41], [-71.77, 44.4], [-71.77, 44.4], [-71.78, 44.4], [-71.78, 44.4], [-71.78, 44.4], [-71.78, 44.4], [-71.79, 44.4], [-71.79, 44.4], [-71.79, 44.4], [-71.8, 44.4], [-71.8, 44.39], [-71.8, 44.39], [-71.8, 44.39], [-71.8, 44.39], [-71.8, 44.39], [-71.8, 44.38], [-71.8, 44.38], [-71.8, 44.38], [-71.81, 44.38], [-71.81, 44.38], [-71.81, 44.38], [-71.81, 44.38], [-71.81, 44.38], [-71.82, 44.38], [-71.81, 44.37], [-71.81, 44.37], [-71.81, 44.37], [-71.81, 44.37], [-71.82, 44.37], [-71.82, 44.37], [-71.82, 44.37], [-71.81, 44.36], [-71.81, 44.36], [-71.81, 44.36], [-71.81, 44.36], [-71.82, 44.35], [-71.82, 44.35], [-71.82, 44.35], [-71.84, 44.35], [-71.84, 44.35], [-71.84, 44.35], [-71.84, 44.35], [-71.84, 44.34], [-71.84, 44.34], [-71.85, 44.34], [-71.85, 44.34], [-71.85, 44.34], [-71.86, 44.34], [-71.86, 44.34], [-71.86, 44.34], [-71.86, 44.34], [-71.86, 44.34], [-71.86, 44.34], [-71.87, 44.34], [-71.87, 44.34], [-71.87, 44.34], [-71.87, 44.34], [-71.88, 44.34], [-71.88, 44.34], [-71.88, 44.34], [-71.88, 44.34], [-71.88, 44.34], [-71.88, 44.34], [-71.89, 44.34], [-71.89, 44.34], [-71.91, 44.35], [-71.92, 44.35], [-71.92, 44.35], [-71.94, 44.34], [-71.94, 44.34], [-71.94, 44.34], [-71.96, 44.34], [-71.96, 44.34], [-71.96, 44.34], [-71.98, 44.34], [-71.99, 44.33], [-72.0, 44.32], [-72.01, 44.32], [-72.01, 44.32], [-72.01, 44.32], [-72.01, 44.32], [-72.02, 44.32], [-72.02, 44.32], [-72.03, 44.32], [-72.03, 44.32], [-72.03, 44.31], [-72.03, 44.3], [-72.04, 44.3], [-72.04, 44.3], [-72.04, 44.3], [-72.04, 44.29], [-72.05, 44.29], [-72.06, 44.29], [-72.06, 44.28], [-72.07, 44.28], [-72.07, 44.27], [-72.07, 44.27], [-72.06, 44.27], [-72.06, 44.27], [-72.06, 44.27], [-72.06, 44.27], [-72.06, 44.27], [-72.06, 44.26], [-72.06, 44.26], [-72.06, 44.26], [-72.06, 44.27], [-72.06, 44.27], [-72.06, 44.26], [-72.06, 44.26], [-72.06, 44.26], [-72.06, 44.26], [-72.06, 44.26], [-72.06, 44.26], [-72.06, 44.25], [-72.06, 44.25], [-72.06, 44.25], [-72.05, 44.25], [-72.05, 44.24], [-72.05, 44.23], [-72.05, 44.23], [-72.05, 44.22], [-72.05, 44.22], [-72.05, 44.22], [-72.06, 44.21], [-72.06, 44.21], [-72.06, 44.21], [-72.06, 44.2], [-72.06, 44.19], [-72.07, 44.19], [-72.07, 44.19], [-72.07, 44.19], [-72.06, 44.19], [-72.06, 44.18], [-72.06, 44.18], [-72.06, 44.18], [-72.05, 44.17], [-72.05, 44.17], [-72.05, 44.17], [-72.05, 44.16], [-72.05, 44.16], [-72.05, 44.16], [-72.04, 44.16], [-72.04, 44.16], [-72.04, 44.16], [-72.04, 44.16], [-72.04, 44.15], [-72.04, 44.14], [-72.04, 44.14], [-72.04, 44.14], [-72.04, 44.14], [-72.04, 44.14], [-72.03, 44.13], [-72.04, 44.13], [-72.04, 44.13], [-72.04, 44.12], [-72.04, 44.13], [-72.05, 44.12], [-72.05, 44.12], [-72.05, 44.12], [-72.05, 44.12], [-72.06, 44.11], [-72.05, 44.11], [-72.05, 44.1], [-72.05, 44.1], [-72.04, 44.1], [-72.04, 44.1], [-72.04, 44.1], [-72.04, 44.1], [-72.04, 44.1], [-72.04, 44.1], [-72.03, 44.1], [-72.03, 44.1], [-72.03, 44.09], [-72.03, 44.09], [-72.04, 44.08], [-72.04, 44.08], [-72.03, 44.08], [-72.03, 44.08], [-72.04, 44.08], [-72.04, 44.08], [-72.04, 44.08], [-72.04, 44.08], [-72.05, 44.08], [-72.05, 44.08], [-72.05, 44.08], [-72.05, 44.08], [-72.05, 44.07], [-72.05, 44.07], [-72.05, 44.06], [-72.06, 44.06], [-72.07, 44.06], [-72.07, 44.06], [-72.07, 44.05], [-72.06, 44.05], [-72.07, 44.05], [-72.08, 44.04], [-72.08, 44.04], [-72.08, 44.04], [-72.08, 44.04], [-72.08, 44.03], [-72.08, 44.03], [-72.08, 44.03], [-72.08, 44.03], [-72.08, 44.02], [-72.09, 44.02], [-72.09, 44.02], [-72.1, 44.02], [-72.1, 44.02], [-72.1, 44.02], [-72.09, 44.02], [-72.09, 44.01], [-72.09, 44.01], [-72.09, 44.01], [-72.09, 44.01], [-72.09, 44.01], [-72.09, 44.01], [-72.1, 44.01], [-72.1, 44.02], [-72.1, 44.01], [-72.1, 44.01], [-72.1, 44.0], [-72.11, 44.0], [-72.11, 44.0], [-72.11, 44.0], [-72.11, 44.0], [-72.12, 44.0], [-72.11, 43.98], [-72.11, 43.98], [-72.11, 43.98], [-72.11, 43.98], [-72.11, 43.98], [-72.11, 43.97], [-72.11, 43.97], [-72.11, 43.97], [-72.11, 43.97], [-72.11, 43.97], [-72.11, 43.97], [-72.1, 43.97], [-72.1, 43.97], [-72.1, 43.97], [-72.09, 43.97], [-72.09, 43.97], [-72.09, 43.97], [-72.1, 43.96], [-72.1, 43.96], [-72.1, 43.96], [-72.1, 43.96], [-72.1, 43.96], [-72.1, 43.96], [-72.1, 43.96], [-72.11, 43.95], [-72.11, 43.95], [-72.12, 43.95], [-72.12, 43.94], [-72.12, 43.94], [-72.12, 43.94], [-72.12, 43.93], [-72.12, 43.92], [-72.13, 43.92], [-72.13, 43.91], [-72.14, 43.91], [-72.14, 43.91], [-72.14, 43.91], [-72.15, 43.9], [-72.16, 43.9], [-72.16, 43.89], [-72.17, 43.89], [-72.17, 43.89], [-72.22, 43.96], [-72.3, 43.99], [-72.39, 43.98], [-72.47, 43.92], [-72.51, 43.87], [-72.54, 43.78], [-72.58, 43.72], [-72.6, 43.61], [-72.68, 43.49], [-72.8, 43.48], [-72.87, 43.54], [-72.86, 43.84], [-72.81, 44.02], [-72.8, 44.22], [-72.81, 44.43], [-72.83, 44.68], [-72.86, 45.02], [-72.7, 45.02], [-72.64, 45.01], [-72.59, 45.01], [-72.56, 45.01], [-72.45, 45.01], [-72.33, 45.0], [-72.27, 45.0], [-72.16, 45.01], [-72.1, 45.01], [-72.03, 45.01], [-71.95, 45.01], [-71.91, 45.01], [-71.8, 45.01], [-71.73, 45.01], [-71.69, 45.01], [-71.61, 45.01], [-71.5, 45.01]]]}}]}