{"type": "FeatureCollection", "features": [{"type": "Feature", "properties": {"STATE": "Virginia", "STATE_FIPS": "51", "CD_2DIG": "01", "STATE_CODE": 44, "CLIMDIV": 4401, "ID": 4401, "CD_NEW": 1, "FIPS_CD": "5101", "NCDC_GEO_I": 109.0, "NAME": "TIDEWATER", "ST_ABBRV": "VA", "SHAPE_AREA": 0.0, "SHAPE_LEN": 0.0}, "geometry": {"type": "MultiPolygon", "coordinates": [[[[-77.29, 38.52], [-77.3, 38.5], [-77.31, 38.5], [-77.32, 38.47], [-77.33, 38.44], [-77.32, 38.42], [-77.32, 38.41], [-77.3, 38.38], [-77.29, 38.36], [-77.29, 38.35], [-77.28, 38.34], [-77.27, 38.33], [-77.24, 38.33], [-77.2, 38.34], [-77.18, 38.34], [-77.16, 38.35], [-77.15, 38.35], [-77.14, 38.37], [-77.12, 38.37], [-77.11, 38.37], [-77.08, 38.37], [-77.07, 38.38], [-77.05, 38.4], [-77.04, 38.4], [-77.01, 38.38], [-77.02, 38.37], [-77.01, 38.36], [-77.02, 38.34], [-77.02, 38.33], [-77.03, 38.31], [-77.03, 38.31], [-77.02, 38.3], [-77.0, 38.28], [-76.99, 38.27], [-76.98, 38.27], [-76.96, 38.26], [-76.96, 38.24], [-76.96, 38.23], [-76.95, 38.21], [-76.94, 38.2], [-76.91, 38.2], [-76.88, 38.17], [-76.86, 38.17], [-76.84, 38.16], [-76.82, 38.16], [-76.8, 38.17], [-76.76, 38.17], [-76.75, 38.16], [-76.7, 38.16], [-76.61, 38.15], [-76.6, 38.13], [-76.6, 38.11], [-76.6, 38.11], [-76.58, 38.1], [-76.55, 38.08], [-76.54, 38.07], [-76.53, 38.06], [-76.52, 38.04], [-76.52, 38.03], [-76.5, 38.02], [-76.48, 38.02], [-76.47, 38.01], [-76.43, 37.98], [-76.41, 37.97], [-76.39, 37.96], [-76.36, 37.95], [-76.34, 37.95], [-76.3, 37.93], [-76.27, 37.91], [-76.24, 37.89], [-76.24, 37.89], [-76.24, 37.87], [-76.25, 37.84], [-76.26, 37.83], [-76.27, 37.82], [-76.28, 37.81], [-76.28, 37.82], [-76.29, 37.82], [-76.3, 37.83], [-76.31, 37.83], [-76.32, 37.82], [-76.31, 37.82], [-76.31, 37.8], [-76.32, 37.79], [-76.31, 37.78], [-76.3, 37.79], [-76.29, 37.78], [-76.31, 37.78], [-76.31, 37.77], [-76.32, 37.75], [-76.31, 37.74], [-76.31, 37.73], [-76.33, 37.74], [-76.32, 37.72], [-76.31, 37.72], [-76.3, 37.7], [-76.3, 37.69], [-76.31, 37.68], [-76.33, 37.69], [-76.32, 37.68], [-76.34, 37.66], [-76.34, 37.65], [-76.33, 37.65], [-76.33, 37.63], [-76.33, 37.63], [-76.32, 37.63], [-76.31, 37.64], [-76.31, 37.64], [-76.29, 37.64], [-76.28, 37.62], [-76.28, 37.61], [-76.3, 37.62], [-76.31, 37.63], [-76.32, 37.62], [-76.33, 37.62], [-76.34, 37.62], [-76.36, 37.62], [-76.36, 37.61], [-76.38, 37.63], [-76.39, 37.63], [-76.4, 37.63], [-76.42, 37.64], [-76.43, 37.64], [-76.44, 37.62], [-76.43, 37.61], [-76.43, 37.58], [-76.41, 37.58], [-76.38, 37.57], [-76.36, 37.57], [-76.33, 37.57], [-76.31, 37.56], [-76.3, 37.56], [-76.3, 37.55], [-76.31, 37.55], [-76.33, 37.55], [-76.35, 37.54], [-76.36, 37.52], [-76.35, 37.51], [-76.34, 37.5], [-76.33, 37.5], [-76.33, 37.49], [-76.3, 37.49], [-76.29, 37.48], [-76.29, 37.47], [-76.28, 37.46], [-76.26, 37.45], [-76.25, 37.44], [-76.25, 37.41], [-76.25, 37.38], [-76.26, 37.37], [-76.26, 37.36], [-76.27, 37.37], [-76.28, 37.36], [-76.27, 37.34], [-76.27, 37.32], [-76.28, 37.32], [-76.3, 37.32], [-76.31, 37.33], [-76.31, 37.34], [-76.3, 37.35], [-76.32, 37.35], [-76.34, 37.36], [-76.33, 37.39], [-76.35, 37.4], [-76.34, 37.41], [-76.35, 37.42], [-76.35, 37.4], [-76.34, 37.39], [-76.35, 37.37], [-76.36, 37.37], [-76.37, 37.38], [-76.39, 37.39], [-76.4, 37.4], [-76.4, 37.41], [-76.4, 37.42], [-76.42, 37.42], [-76.44, 37.42], [-76.44, 37.44], [-76.45, 37.43], [-76.45, 37.42], [-76.44, 37.42], [-76.42, 37.41], [-76.42, 37.4], [-76.42, 37.39], [-76.42, 37.38], [-76.43, 37.38], [-76.45, 37.38], [-76.45, 37.39], [-76.46, 37.4], [-76.48, 37.4], [-76.48, 37.39], [-76.46, 37.39], [-76.47, 37.38], [-76.47, 37.37], [-76.46, 37.36], [-76.45, 37.36], [-76.42, 37.34], [-76.4, 37.34], [-76.42, 37.33], [-76.42, 37.32], [-76.45, 37.33], [-76.46, 37.33], [-76.46, 37.32], [-76.45, 37.31], [-76.44, 37.31], [-76.41, 37.31], [-76.39, 37.31], [-76.4, 37.3], [-76.39, 37.3], [-76.38, 37.29], [-76.39, 37.27], [-76.42, 37.26], [-76.44, 37.26], [-76.46, 37.25], [-76.48, 37.25], [-76.48, 37.26], [-76.5, 37.24], [-76.5, 37.23], [-76.49, 37.23], [-76.47, 37.22], [-76.45, 37.22], [-76.42, 37.22], [-76.42, 37.21], [-76.41, 37.2], [-76.4, 37.21], [-76.39, 37.19], [-76.4, 37.19], [-76.39, 37.18], [-76.41, 37.17], [-76.41, 37.16], [-76.43, 37.15], [-76.41, 37.15], [-76.4, 37.16], [-76.38, 37.16], [-76.37, 37.14], [-76.37, 37.15], [-76.35, 37.15], [-76.34, 37.16], [-76.33, 37.14], [-76.33, 37.14], [-76.31, 37.14], [-76.29, 37.12], [-76.31, 37.11], [-76.32, 37.11], [-76.34, 37.1], [-76.35, 37.11], [-76.36, 37.12], [-76.38, 37.11], [-76.37, 37.11], [-76.35, 37.1], [-76.35, 37.09], [-76.34, 37.09], [-76.34, 37.08], [-76.35, 37.07], [-76.36, 37.05], [-76.36, 37.05], [-76.34, 37.07], [-76.34, 37.07], [-76.34, 37.08], [-76.32, 37.09], [-76.31, 37.09], [-76.29, 37.1], [-76.28, 37.1], [-76.27, 37.09], [-76.28, 37.07], [-76.28, 37.06], [-76.29, 37.03], [-76.3, 37.02], [-76.3, 37.0], [-76.31, 37.0], [-76.31, 37.01], [-76.3, 37.01], [-76.3, 37.03], [-76.3, 37.03], [-76.32, 37.01], [-76.34, 37.01], [-76.36, 37.0], [-76.38, 37.0], [-76.38, 36.99], [-76.41, 36.97], [-76.42, 36.95], [-76.41, 36.92], [-76.39, 36.91], [-76.38, 36.92], [-76.36, 36.92], [-76.35, 36.92], [-76.34, 36.93], [-76.33, 36.93], [-76.33, 36.95], [-76.33, 36.96], [-76.32, 36.96], [-76.3, 36.96], [-76.29, 36.95], [-76.27, 36.95], [-76.27, 36.97], [-76.26, 36.96], [-76.23, 36.94], [-76.19, 36.93], [-76.18, 36.93], [-76.14, 36.92], [-76.09, 36.91], [-76.06, 36.92], [-76.04, 36.93], [-76.03, 36.93], [-76.01, 36.93], [-76.0, 36.92], [-75.99, 36.91], [-75.98, 36.88], [-75.97, 36.85], [-75.96, 36.81], [-75.95, 36.76], [-75.93, 36.7], [-75.89, 36.63], [-75.87, 36.59], [-75.87, 36.55], [-76.01, 36.55], [-76.01, 36.57], [-76.03, 36.58], [-76.04, 36.58], [-76.05, 36.59], [-76.06, 36.6], [-76.06, 36.59], [-76.05, 36.59], [-76.05, 36.58], [-76.04, 36.56], [-76.04, 36.55], [-76.31, 36.55], [-76.47, 36.55], [-76.54, 36.55], [-76.74, 36.55], [-76.8, 36.55], [-76.92, 36.55], [-76.92, 36.54], [-77.1, 36.54], [-77.15, 36.54], [-77.17, 36.55], [-77.2, 36.54], [-77.34, 36.54], [-77.4, 36.54], [-77.5, 36.55], [-77.62, 36.55], [-77.77, 36.55], [-77.68, 36.68], [-77.66, 36.71], [-77.66, 36.89], [-77.65, 36.9], [-77.65, 36.89], [-77.64, 36.88], [-77.63, 36.89], [-77.62, 36.88], [-77.46, 36.96], [-77.4, 36.99], [-77.39, 37.03], [-77.4, 37.06], [-77.4, 37.1], [-77.4, 37.15], [-77.4, 37.17], [-77.41, 37.17], [-77.42, 37.16], [-77.42, 37.18], [-77.45, 37.19], [-77.45, 37.2], [-77.44, 37.21], [-77.45, 37.22], [-77.42, 37.23], [-77.42, 37.25], [-77.41, 37.26], [-77.42, 37.26], [-77.43, 37.27], [-77.43, 37.28], [-77.41, 37.28], [-77.39, 37.29], [-77.38, 37.28], [-77.37, 37.3], [-77.36, 37.28], [-77.35, 37.31], [-77.34, 37.32], [-77.32, 37.31], [-77.29, 37.31], [-77.28, 37.32], [-77.26, 37.34], [-77.25, 37.36], [-77.24, 37.37], [-77.25, 37.39], [-77.24, 37.39], [-77.23, 37.38], [-77.22, 37.38], [-77.22, 37.38], [-77.21, 37.39], [-77.22, 37.41], [-77.2, 37.45], [-77.18, 37.49], [-77.19, 37.5], [-77.19, 37.51], [-77.21, 37.51], [-77.22, 37.53], [-77.23, 37.53], [-77.23, 37.55], [-77.22, 37.55], [-77.21, 37.56], [-77.17, 37.6], [-77.14, 37.59], [-77.13, 37.61], [-77.14, 37.62], [-77.13, 37.63], [-77.12, 37.64], [-77.12, 37.64], [-77.11, 37.65], [-77.12, 37.66], [-77.14, 37.67], [-77.15, 37.66], [-77.16, 37.67], [-77.17, 37.66], [-77.18, 37.66], [-77.19, 37.66], [-77.18, 37.68], [-77.19, 37.69], [-77.2, 37.69], [-77.2, 37.68], [-77.21, 37.69], [-77.24, 37.69], [-77.24, 37.7], [-77.23, 37.71], [-77.23, 37.72], [-77.25, 37.73], [-77.25, 37.71], [-77.26, 37.71], [-77.27, 37.72], [-77.28, 37.71], [-77.29, 37.71], [-77.3, 37.72], [-77.29, 37.74], [-77.32, 37.73], [-77.32, 37.74], [-77.3, 37.74], [-77.3, 37.76], [-77.33, 37.75], [-77.34, 37.76], [-77.32, 37.77], [-77.33, 37.78], [-77.33, 37.79], [-77.35, 37.79], [-77.33, 37.81], [-77.31, 37.82], [-77.29, 37.84], [-77.29, 37.84], [-77.28, 37.84], [-77.26, 37.86], [-77.25, 37.88], [-77.25, 37.89], [-77.24, 37.91], [-77.21, 37.9], [-77.22, 37.89], [-77.21, 37.89], [-77.19, 37.89], [-77.18, 37.89], [-77.18, 37.91], [-77.19, 37.91], [-77.18, 37.93], [-77.18, 37.94], [-77.18, 37.95], [-77.17, 37.96], [-77.15, 37.97], [-77.12, 37.97], [-77.11, 37.97], [-77.1, 37.97], [-77.09, 37.96], [-77.07, 37.97], [-77.08, 38.0], [-77.09, 38.01], [-77.1, 38.01], [-77.11, 38.02], [-77.13, 38.02], [-77.13, 38.02], [-77.12, 38.03], [-77.13, 38.04], [-77.14, 38.05], [-77.15, 38.06], [-77.16, 38.06], [-77.17, 38.08], [-77.15, 38.09], [-77.14, 38.1], [-77.14, 38.12], [-77.13, 38.12], [-77.12, 38.12], [-77.1, 38.13], [-77.11, 38.13], [-77.12, 38.15], [-77.13, 38.16], [-77.15, 38.17], [-77.16, 38.17], [-77.17, 38.17], [-77.19, 38.17], [-77.21, 38.2], [-77.23, 38.2], [-77.23, 38.19], [-77.24, 38.19], [-77.25, 38.19], [-77.25, 38.2], [-77.24, 38.21], [-77.25, 38.23], [-77.24, 38.23], [-77.23, 38.24], [-77.23, 38.24], [-77.24, 38.25], [-77.25, 38.25], [-77.28, 38.25], [-77.28, 38.23], [-77.28, 38.22], [-77.29, 38.22], [-77.29, 38.24], [-77.3, 38.24], [-77.31, 38.23], [-77.32, 38.24], [-77.33, 38.25], [-77.34, 38.25], [-77.35, 38.25], [-77.36, 38.24], [-77.38, 38.25], [-77.39, 38.25], [-77.41, 38.25], [-77.42, 38.26], [-77.42, 38.27], [-77.43, 38.27], [-77.44, 38.28], [-77.45, 38.28], [-77.47, 38.32], [-77.48, 38.32], [-77.48, 38.32], [-77.5, 38.33], [-77.53, 38.32], [-77.53, 38.31], [-77.54, 38.32], [-77.54, 38.32], [-77.56, 38.33], [-77.57, 38.34], [-77.57, 38.35], [-77.58, 38.35], [-77.6, 38.33], [-77.61, 38.34], [-77.6, 38.35], [-77.61, 38.36], [-77.62, 38.37], [-77.62, 38.39], [-77.63, 38.39], [-77.64, 38.42], [-77.63, 38.42], [-77.63, 38.45], [-77.63, 38.47], [-77.57, 38.52], [-77.53, 38.56], [-77.49, 38.59], [-77.47, 38.59], [-77.46, 38.58], [-77.45, 38.58], [-77.43, 38.57], [-77.42, 38.56], [-77.4, 38.55], [-77.39, 38.54], [-77.38, 38.53], [-77.37, 38.52], [-77.36, 38.52], [-77.33, 38.51], [-77.33, 38.5], [-77.31, 38.5], [-77.3, 38.5], [-77.29, 38.52]]], [[[-75.62, 37.99], [-75.38, 38.02], [-75.38, 38.01], [-75.39, 38.01], [-75.4, 38.0], [-75.41, 37.99], [-75.42, 37.99], [-75.43, 37.99], [-75.43, 37.97], [-75.44, 37.96], [-75.44, 37.95], [-75.45, 37.95], [-75.44, 37.94], [-75.45, 37.93], [-75.44, 37.92], [-75.45, 37.91], [-75.47, 37.91], [-75.48, 37.91], [-75.49, 37.88], [-75.5, 37.87], [-75.5, 37.86], [-75.48, 37.86], [-75.48, 37.86], [-75.48, 37.85], [-75.48, 37.85], [-75.49, 37.85], [-75.49, 37.85], [-75.49, 37.85], [-75.49, 37.84], [-75.51, 37.85], [-75.51, 37.83], [-75.52, 37.82], [-75.52, 37.82], [-75.53, 37.81], [-75.53, 37.8], [-75.54, 37.79], [-75.53, 37.78], [-75.54, 37.77], [-75.56, 37.76], [-75.56, 37.75], [-75.58, 37.74], [-75.6, 37.72], [-75.6, 37.71], [-75.61, 37.71], [-75.62, 37.69], [-75.61, 37.68], [-75.61, 37.68], [-75.63, 37.66], [-75.63, 37.65], [-75.64, 37.66], [-75.65, 37.65], [-75.66, 37.64], [-75.67, 37.62], [-75.68, 37.62], [-75.69, 37.61], [-75.69, 37.6], [-75.7, 37.59], [-75.7, 37.58], [-75.7, 37.57], [-75.68, 37.57], [-75.67, 37.57], [-75.68, 37.56], [-75.69, 37.55], [-75.68, 37.54], [-75.67, 37.53], [-75.69, 37.53], [-75.71, 37.53], [-75.71, 37.54], [-75.71, 37.56], [-75.73, 37.55], [-75.74, 37.53], [-75.75, 37.52], [-75.75, 37.51], [-75.74, 37.49], [-75.74, 37.49], [-75.75, 37.5], [-75.76, 37.5], [-75.78, 37.49], [-75.8, 37.47], [-75.8, 37.48], [-75.79, 37.49], [-75.79, 37.5], [-75.78, 37.51], [-75.78, 37.51], [-75.76, 37.53], [-75.75, 37.54], [-75.75, 37.55], [-75.76, 37.54], [-75.77, 37.53], [-75.78, 37.5], [-75.8, 37.51], [-75.79, 37.49], [-75.81, 37.48], [-75.81, 37.46], [-75.82, 37.46], [-75.82, 37.45], [-75.81, 37.44], [-75.82, 37.43], [-75.82, 37.41], [-75.84, 37.41], [-75.85, 37.4], [-75.86, 37.4], [-75.87, 37.38], [-75.87, 37.38], [-75.89, 37.36], [-75.89, 37.36], [-75.9, 37.34], [-75.9, 37.33], [-75.91, 37.31], [-75.92, 37.3], [-75.92, 37.29], [-75.93, 37.28], [-75.93, 37.27], [-75.92, 37.25], [-75.93, 37.25], [-75.94, 37.24], [-75.92, 37.23], [-75.94, 37.21], [-75.94, 37.2], [-75.94, 37.16], [-75.94, 37.15], [-75.94, 37.13], [-75.96, 37.12], [-75.97, 37.13], [-75.98, 37.16], [-76.0, 37.19], [-76.01, 37.21], [-76.01, 37.22], [-76.0, 37.24], [-76.02, 37.24], [-76.03, 37.26], [-76.02, 37.27], [-76.01, 37.28], [-76.02, 37.29], [-76.0, 37.31], [-75.99, 37.31], [-75.99, 37.33], [-76.01, 37.31], [-76.02, 37.3], [-76.02, 37.33], [-76.0, 37.35], [-75.99, 37.37], [-75.99, 37.38], [-75.98, 37.38], [-75.97, 37.39], [-75.96, 37.4], [-75.97, 37.4], [-75.96, 37.41], [-75.96, 37.43], [-75.98, 37.41], [-75.98, 37.44], [-75.97, 37.45], [-75.96, 37.47], [-75.95, 37.47], [-75.94, 37.47], [-75.93, 37.48], [-75.92, 37.48], [-75.91, 37.49], [-75.91, 37.5], [-75.92, 37.49], [-75.93, 37.49], [-75.94, 37.48], [-75.96, 37.48], [-75.96, 37.48], [-75.95, 37.51], [-75.94, 37.53], [-75.94, 37.54], [-75.93, 37.55], [-75.92, 37.55], [-75.9, 37.55], [-75.88, 37.55], [-75.85, 37.55], [-75.86, 37.56], [-75.88, 37.55], [-75.89, 37.55], [-75.9, 37.56], [-75.92, 37.56], [-75.92, 37.56], [-75.94, 37.56], [-75.93, 37.58], [-75.92, 37.59], [-75.91, 37.58], [-75.92, 37.6], [-75.92, 37.6], [-75.92, 37.61], [-75.91, 37.63], [-75.9, 37.62], [-75.89, 37.62], [-75.88, 37.62], [-75.89, 37.63], [-75.89, 37.65], [-75.89, 37.65], [-75.87, 37.67], [-75.85, 37.67], [-75.84, 37.68], [-75.85, 37.68], [-75.85, 37.69], [-75.84, 37.7], [-75.84, 37.71], [-75.81, 37.72], [-75.81, 37.73], [-75.83, 37.73], [-75.83, 37.74], [-75.81, 37.75], [-75.79, 37.75], [-75.79, 37.76], [-75.77, 37.76], [-75.77, 37.77], [-75.78, 37.77], [-75.79, 37.78], [-75.81, 37.78], [-75.81, 37.79], [-75.79, 37.8], [-75.78, 37.81], [-75.76, 37.8], [-75.75, 37.79], [-75.73, 37.79], [-75.71, 37.8], [-75.72, 37.81], [-75.72, 37.82], [-75.7, 37.84], [-75.7, 37.85], [-75.69, 37.85], [-75.68, 37.85], [-75.68, 37.86], [-75.69, 37.86], [-75.68, 37.88], [-75.68, 37.89], [-75.7, 37.9], [-75.71, 37.9], [-75.72, 37.91], [-75.73, 37.91], [-75.73, 37.92], [-75.72, 37.94], [-75.7, 37.93], [-75.69, 37.93], [-75.68, 37.94], [-75.66, 37.94], [-75.64, 37.94], [-75.64, 37.94], [-75.64, 37.96], [-75.65, 37.96], [-75.64, 37.98], [-75.62, 37.99]]], [[[-75.24, 38.03], [-75.29, 37.97], [-75.3, 37.95], [-75.32, 37.92], [-75.33, 37.9], [-75.35, 37.87], [-75.37, 37.86], [-75.37, 37.86], [-75.39, 37.87], [-75.39, 37.88], [-75.36, 37.87], [-75.35, 37.87], [-75.34, 37.89], [-75.37, 37.89], [-75.38, 37.91], [-75.37, 37.91], [-75.34, 37.92], [-75.33, 37.93], [-75.31, 37.95], [-75.31, 37.96], [-75.29, 37.98], [-75.3, 37.98], [-75.3, 37.99], [-75.29, 37.99], [-75.28, 38.0], [-75.28, 38.01], [-75.28, 38.02], [-75.25, 38.03], [-75.24, 38.03]]], [[[-75.32, 37.98], [-75.31, 37.98], [-75.33, 37.97], [-75.33, 37.96], [-75.34, 37.95], [-75.35, 37.92], [-75.37, 37.92], [-75.38, 37.92], [-75.38, 37.9], [-75.4, 37.9], [-75.41, 37.9], [-75.4, 37.92], [-75.38, 37.93], [-75.37, 37.94], [-75.33, 37.97], [-75.33, 37.98], [-75.32, 37.98]]], [[[-75.42, 37.89], [-75.43, 37.88], [-75.45, 37.86], [-75.47, 37.85], [-75.5, 37.82], [-75.5, 37.83], [-75.49, 37.84], [-75.49, 37.85], [-75.49, 37.85], [-75.48, 37.85], [-75.48, 37.85], [-75.48, 37.85], [-75.47, 37.86], [-75.46, 37.89], [-75.45, 37.89], [-75.43, 37.88], [-75.42, 37.89]]], [[[-76.29, 37.52], [-76.28, 37.51], [-76.27, 37.49], [-76.27, 37.48], [-76.29, 37.49], [-76.3, 37.49], [-76.31, 37.5], [-76.29, 37.52]]], [[[-75.51, 37.82], [-75.5, 37.82], [-75.52, 37.8], [-75.53, 37.81], [-75.52, 37.82], [-75.51, 37.82]]], [[[-75.98, 37.1], [-75.96, 37.1], [-75.96, 37.09], [-75.98, 37.08], [-75.98, 37.1], [-75.98, 37.1]]], [[[-75.42, 37.95], [-75.43, 37.94], [-75.44, 37.95], [-75.42, 37.95]]]]}}, {"type": "Feature", "properties": {"STATE": "Virginia", "STATE_FIPS": "51", "CD_2DIG": "04", "STATE_CODE": 44, "CLIMDIV": 4404, "ID": 4404, "CD_NEW": 4, "FIPS_CD": "5104", "NCDC_GEO_I": 110.0, "NAME": "NORTHERN", "ST_ABBRV": "VA", "SHAPE_AREA": 0.0, "SHAPE_LEN": 0.0}, "geometry": {"type": "Polygon", "coordinates": [[[-77.72, 39.32], [-77.7, 39.32], [-77.68, 39.32], [-77.67, 39.32], [-77.65, 39.31], [-77.62, 39.3], [-77.59, 39.3], [-77.57, 39.31], [-77.56, 39.3], [-77.56, 39.29], [-77.54, 39.27], [-77.51, 39.25], [-77.49, 39.25], [-77.47, 39.23], [-77.46, 39.23], [-77.46, 39.22], [-77.47, 39.21], [-77.48, 39.19], [-77.48, 39.19], [-77.51, 39.18], [-77.52, 39.17], [-77.53, 39.15], [-77.52, 39.13], [-77.52, 39.12], [-77.49, 39.11], [-77.48, 39.11], [-77.46, 39.08], [-77.45, 39.07], [-77.43, 39.07], [-77.39, 39.06], [-77.34, 39.06], [-77.31, 39.05], [-77.29, 39.05], [-77.28, 39.04], [-77.25, 39.03], [-77.24, 39.02], [-77.26, 39.0], [-77.24, 38.98], [-77.22, 38.97], [-77.2, 38.97], [-77.18, 38.97], [-77.15, 38.96], [-77.14, 38.95], [-77.13, 38.94], [-77.12, 38.93], [-77.1, 38.91], [-77.09, 38.9], [-77.07, 38.9], [-77.06, 38.89], [-77.05, 38.87], [-77.04, 38.87], [-77.03, 38.86], [-77.03, 38.84], [-77.04, 38.84], [-77.04, 38.83], [-77.04, 38.81], [-77.04, 38.8], [-77.04, 38.77], [-77.04, 38.72], [-77.05, 38.71], [-77.07, 38.71], [-77.09, 38.71], [-77.1, 38.7], [-77.12, 38.69], [-77.13, 38.67], [-77.14, 38.65], [-77.13, 38.64], [-77.19, 38.62], [-77.2, 38.62], [-77.25, 38.59], [-77.26, 38.56], [-77.28, 38.55], [-77.28, 38.54], [-77.29, 38.52], [-77.3, 38.5], [-77.31, 38.5], [-77.33, 38.5], [-77.33, 38.51], [-77.36, 38.52], [-77.37, 38.52], [-77.38, 38.53], [-77.39, 38.54], [-77.4, 38.55], [-77.42, 38.56], [-77.43, 38.57], [-77.45, 38.58], [-77.46, 38.58], [-77.47, 38.59], [-77.49, 38.59], [-77.53, 38.56], [-77.57, 38.52], [-77.63, 38.47], [-77.63, 38.45], [-77.63, 38.42], [-77.64, 38.42], [-77.63, 38.39], [-77.62, 38.39], [-77.62, 38.37], [-77.63, 38.37], [-77.63, 38.36], [-77.64, 38.36], [-77.64, 38.37], [-77.64, 38.38], [-77.66, 38.38], [-77.67, 38.37], [-77.68, 38.36], [-77.69, 38.36], [-77.7, 38.36], [-77.71, 38.35], [-77.73, 38.32], [-77.78, 38.28], [-77.83, 38.23], [-77.87, 38.2], [-77.91, 38.16], [-77.95, 38.12], [-77.97, 38.12], [-77.98, 38.12], [-78.0, 38.14], [-78.02, 38.14], [-78.04, 38.13], [-78.06, 38.14], [-78.07, 38.14], [-78.09, 38.15], [-78.1, 38.15], [-78.12, 38.14], [-78.13, 38.14], [-78.15, 38.14], [-78.16, 38.14], [-78.17, 38.13], [-78.19, 38.13], [-78.21, 38.13], [-78.25, 38.15], [-78.34, 38.18], [-78.37, 38.19], [-78.46, 38.21], [-78.5, 38.22], [-78.59, 38.25], [-78.66, 38.28], [-78.65, 38.29], [-78.64, 38.29], [-78.63, 38.3], [-78.6, 38.31], [-78.6, 38.31], [-78.59, 38.32], [-78.57, 38.33], [-78.55, 38.34], [-78.55, 38.35], [-78.55, 38.35], [-78.54, 38.37], [-78.53, 38.37], [-78.52, 38.38], [-78.52, 38.39], [-78.5, 38.4], [-78.49, 38.42], [-78.54, 38.43], [-78.55, 38.43], [-78.56, 38.45], [-78.57, 38.45], [-78.58, 38.45], [-78.59, 38.46], [-78.6, 38.46], [-78.62, 38.47], [-78.62, 38.48], [-78.63, 38.48], [-78.63, 38.49], [-78.64, 38.5], [-78.65, 38.49], [-78.69, 38.51], [-78.68, 38.53], [-78.67, 38.55], [-78.66, 38.57], [-78.65, 38.59], [-78.64, 38.6], [-78.68, 38.63], [-78.77, 38.69], [-78.87, 38.76], [-78.85, 38.79], [-78.84, 38.81], [-78.82, 38.84], [-78.81, 38.86], [-78.79, 38.89], [-78.78, 38.89], [-78.76, 38.9], [-78.75, 38.92], [-78.74, 38.93], [-78.72, 38.93], [-78.72, 38.91], [-78.7, 38.92], [-78.7, 38.91], [-78.69, 38.92], [-78.68, 38.93], [-78.66, 38.95], [-78.65, 38.97], [-78.64, 38.97], [-78.63, 38.98], [-78.62, 38.98], [-78.62, 38.97], [-78.6, 38.96], [-78.59, 38.97], [-78.58, 38.99], [-78.57, 39.0], [-78.55, 39.02], [-78.57, 39.03], [-78.54, 39.06], [-78.53, 39.07], [-78.5, 39.1], [-78.48, 39.11], [-78.48, 39.11], [-78.46, 39.11], [-78.44, 39.13], [-78.44, 39.14], [-78.43, 39.15], [-78.41, 39.16], [-78.4, 39.17], [-78.43, 39.18], [-78.43, 39.2], [-78.44, 39.2], [-78.42, 39.21], [-78.41, 39.23], [-78.4, 39.24], [-78.42, 39.26], [-78.4, 39.28], [-78.39, 39.28], [-78.39, 39.29], [-78.36, 39.32], [-78.35, 39.34], [-78.34, 39.35], [-78.37, 39.36], [-78.35, 39.38], [-78.34, 39.39], [-78.36, 39.41], [-78.36, 39.42], [-78.35, 39.43], [-78.35, 39.44], [-78.35, 39.44], [-78.35, 39.46], [-78.35, 39.47], [-78.29, 39.43], [-78.26, 39.41], [-78.21, 39.38], [-78.19, 39.36], [-78.16, 39.34], [-78.14, 39.33], [-78.11, 39.31], [-78.03, 39.26], [-77.83, 39.13], [-77.82, 39.14], [-77.82, 39.15], [-77.82, 39.16], [-77.81, 39.17], [-77.8, 39.19], [-77.8, 39.2], [-77.79, 39.22], [-77.77, 39.24], [-77.75, 39.3], [-77.73, 39.31], [-77.72, 39.32]]]}}, {"type": "Feature", "properties": {"STATE": "Virginia", "STATE_FIPS": "51", "CD_2DIG": "05", "STATE_CODE": 44, "CLIMDIV": 4405, "ID": 4405, "CD_NEW": 5, "FIPS_CD": "5105", "NCDC_GEO_I": 111.0, "NAME": "CENTRAL MOUNTAIN", "ST_ABBRV": "VA", "SHAPE_AREA": 0.0, "SHAPE_LEN": 0.0}, "geometry": {"type": "Polygon", "coordinates": [[[-78.87, 38.76], [-78.77, 38.69], [-78.68, 38.63], [-78.64, 38.6], [-78.65, 38.59], [-78.66, 38.57], [-78.67, 38.55], [-78.68, 38.53], [-78.69, 38.51], [-78.65, 38.49], [-78.64, 38.5], [-78.63, 38.49], [-78.63, 38.48], [-78.62, 38.48], [-78.62, 38.47], [-78.6, 38.46], [-78.59, 38.46], [-78.58, 38.45], [-78.57, 38.45], [-78.56, 38.45], [-78.55, 38.43], [-78.54, 38.43], [-78.49, 38.42], [-78.5, 38.4], [-78.52, 38.39], [-78.52, 38.38], [-78.53, 38.37], [-78.54, 38.37], [-78.55, 38.35], [-78.55, 38.35], [-78.55, 38.34], [-78.57, 38.33], [-78.59, 38.32], [-78.6, 38.31], [-78.6, 38.31], [-78.63, 38.3], [-78.64, 38.29], [-78.65, 38.29], [-78.66, 38.28], [-78.66, 38.26], [-78.66, 38.26], [-78.67, 38.25], [-78.68, 38.25], [-78.7, 38.25], [-78.71, 38.25], [-78.71, 38.24], [-78.72, 38.23], [-78.74, 38.22], [-78.75, 38.2], [-78.75, 38.19], [-78.77, 38.18], [-78.78, 38.14], [-78.78, 38.13], [-78.79, 38.13], [-78.79, 38.12], [-78.78, 38.11], [-78.78, 38.08], [-78.79, 38.08], [-78.79, 38.07], [-78.82, 38.06], [-78.86, 38.04], [-78.86, 38.03], [-78.87, 38.03], [-78.88, 38.02], [-78.88, 38.01], [-78.89, 37.99], [-78.91, 37.99], [-78.91, 37.98], [-78.89, 37.97], [-78.9, 37.96], [-78.9, 37.95], [-78.92, 37.95], [-78.93, 37.94], [-78.94, 37.94], [-78.96, 37.93], [-78.96, 37.92], [-78.97, 37.91], [-78.98, 37.91], [-78.99, 37.9], [-79.01, 37.88], [-79.02, 37.89], [-79.04, 37.89], [-79.05, 37.91], [-79.06, 37.92], [-79.07, 37.91], [-79.09, 37.91], [-79.1, 37.9], [-79.12, 37.9], [-79.15, 37.89], [-79.15, 37.87], [-79.14, 37.86], [-79.16, 37.84], [-79.15, 37.83], [-79.17, 37.8], [-79.19, 37.79], [-79.2, 37.79], [-79.21, 37.79], [-79.22, 37.8], [-79.22, 37.8], [-79.23, 37.81], [-79.25, 37.81], [-79.26, 37.79], [-79.26, 37.79], [-79.27, 37.78], [-79.3, 37.75], [-79.31, 37.73], [-79.32, 37.71], [-79.32, 37.71], [-79.32, 37.69], [-79.34, 37.68], [-79.35, 37.66], [-79.36, 37.66], [-79.37, 37.65], [-79.38, 37.64], [-79.4, 37.63], [-79.42, 37.63], [-79.43, 37.62], [-79.44, 37.62], [-79.46, 37.61], [-79.45, 37.59], [-79.45, 37.58], [-79.44, 37.58], [-79.43, 37.57], [-79.44, 37.56], [-79.46, 37.56], [-79.46, 37.55], [-79.48, 37.55], [-79.51, 37.53], [-79.5, 37.52], [-79.51, 37.52], [-79.52, 37.51], [-79.53, 37.51], [-79.55, 37.49], [-79.56, 37.5], [-79.57, 37.49], [-79.58, 37.47], [-79.58, 37.46], [-79.58, 37.45], [-79.59, 37.45], [-79.6, 37.45], [-79.62, 37.46], [-79.63, 37.45], [-79.64, 37.46], [-79.64, 37.47], [-79.66, 37.49], [-79.68, 37.48], [-79.69, 37.48], [-79.71, 37.45], [-79.74, 37.44], [-79.75, 37.43], [-79.76, 37.43], [-79.79, 37.41], [-79.8, 37.41], [-79.81, 37.4], [-79.79, 37.38], [-79.78, 37.38], [-79.78, 37.38], [-79.78, 37.37], [-79.79, 37.35], [-79.8, 37.34], [-79.81, 37.34], [-79.84, 37.32], [-79.85, 37.31], [-79.84, 37.3], [-79.85, 37.3], [-79.85, 37.28], [-79.86, 37.27], [-79.85, 37.25], [-79.84, 37.23], [-79.85, 37.22], [-79.85, 37.21], [-79.87, 37.22], [-79.88, 37.21], [-79.89, 37.2], [-79.89, 37.2], [-79.9, 37.18], [-79.91, 37.18], [-79.91, 37.17], [-79.92, 37.16], [-79.94, 37.15], [-79.96, 37.14], [-79.99, 37.14], [-80.0, 37.15], [-80.0, 37.17], [-80.01, 37.17], [-80.02, 37.17], [-80.03, 37.17], [-80.04, 37.17], [-80.07, 37.16], [-80.09, 37.16], [-80.09, 37.15], [-80.11, 37.15], [-80.11, 37.14], [-80.13, 37.12], [-80.15, 37.12], [-80.16, 37.11], [-80.17, 37.11], [-80.18, 37.11], [-80.18, 37.13], [-80.18, 37.16], [-80.19, 37.23], [-80.26, 37.31], [-80.26, 37.34], [-80.33, 37.37], [-80.34, 37.36], [-80.35, 37.35], [-80.4, 37.33], [-80.41, 37.33], [-80.43, 37.31], [-80.45, 37.33], [-80.44, 37.34], [-80.48, 37.42], [-80.44, 37.44], [-80.43, 37.45], [-80.36, 37.48], [-80.37, 37.48], [-80.34, 37.49], [-80.33, 37.49], [-80.3, 37.51], [-80.28, 37.53], [-80.29, 37.54], [-80.31, 37.53], [-80.33, 37.54], [-80.31, 37.55], [-80.33, 37.56], [-80.26, 37.6], [-80.24, 37.61], [-80.23, 37.62], [-80.22, 37.63], [-80.24, 37.64], [-80.27, 37.65], [-80.28, 37.66], [-80.3, 37.69], [-80.29, 37.7], [-80.26, 37.72], [-80.25, 37.73], [-80.26, 37.74], [-80.26, 37.76], [-80.25, 37.76], [-80.25, 37.77], [-80.24, 37.77], [-80.23, 37.78], [-80.22, 37.78], [-80.23, 37.79], [-80.22, 37.81], [-80.21, 37.82], [-80.19, 37.83], [-80.18, 37.84], [-80.18, 37.85], [-80.16, 37.88], [-80.15, 37.88], [-80.14, 37.88], [-80.11, 37.91], [-80.1, 37.92], [-80.09, 37.93], [-80.07, 37.95], [-80.06, 37.95], [-80.01, 37.99], [-80.0, 38.0], [-80.0, 38.01], [-79.98, 38.03], [-79.96, 38.06], [-79.96, 38.07], [-79.95, 38.08], [-79.93, 38.1], [-79.93, 38.11], [-79.94, 38.11], [-79.95, 38.13], [-79.93, 38.14], [-79.92, 38.15], [-79.91, 38.17], [-79.92, 38.18], [-79.91, 38.19], [-79.9, 38.19], [-79.89, 38.2], [-79.88, 38.21], [-79.85, 38.23], [-79.85, 38.24], [-79.83, 38.24], [-79.83, 38.25], [-79.82, 38.25], [-79.81, 38.26], [-79.79, 38.27], [-79.79, 38.27], [-79.8, 38.29], [-79.8, 38.29], [-79.81, 38.3], [-79.8, 38.32], [-79.77, 38.34], [-79.77, 38.35], [-79.76, 38.36], [-79.74, 38.35], [-79.73, 38.36], [-79.73, 38.37], [-79.73, 38.39], [-79.71, 38.42], [-79.69, 38.43], [-79.69, 38.44], [-79.69, 38.46], [-79.7, 38.48], [-79.69, 38.48], [-79.7, 38.49], [-79.69, 38.49], [-79.68, 38.5], [-79.68, 38.51], [-79.66, 38.52], [-79.67, 38.53], [-79.67, 38.55], [-79.66, 38.57], [-79.65, 38.59], [-79.57, 38.56], [-79.55, 38.56], [-79.54, 38.55], [-79.54, 38.55], [-79.52, 38.53], [-79.5, 38.5], [-79.48, 38.46], [-79.37, 38.43], [-79.31, 38.41], [-79.3, 38.41], [-79.28, 38.42], [-79.28, 38.43], [-79.27, 38.44], [-79.25, 38.46], [-79.24, 38.45], [-79.24, 38.47], [-79.23, 38.48], [-79.22, 38.48], [-79.21, 38.49], [-79.21, 38.5], [-79.21, 38.51], [-79.21, 38.52], [-79.19, 38.54], [-79.18, 38.55], [-79.18, 38.57], [-79.16, 38.58], [-79.16, 38.59], [-79.16, 38.6], [-79.15, 38.62], [-79.14, 38.64], [-79.13, 38.65], [-79.12, 38.66], [-79.11, 38.66], [-79.09, 38.66], [-79.09, 38.69], [-79.09, 38.7], [-79.09, 38.72], [-79.07, 38.75], [-79.06, 38.76], [-79.05, 38.77], [-79.05, 38.79], [-79.05, 38.79], [-79.03, 38.79], [-79.02, 38.8], [-79.02, 38.81], [-79.02, 38.82], [-79.01, 38.82], [-79.0, 38.85], [-78.99, 38.85], [-78.87, 38.76]]]}}, {"type": "Feature", "properties": {"STATE": "Virginia", "STATE_FIPS": "51", "CD_2DIG": "02", "STATE_CODE": 44, "CLIMDIV": 4402, "ID": 4402, "CD_NEW": 2, "FIPS_CD": "5102", "NCDC_GEO_I": 112.0, "NAME": "EASTERN PIEDMONT", "ST_ABBRV": "VA", "SHAPE_AREA": 0.0, "SHAPE_LEN": 0.0}, "geometry": {"type": "Polygon", "coordinates": [[[-77.62, 38.37], [-77.61, 38.36], [-77.6, 38.35], [-77.61, 38.34], [-77.6, 38.33], [-77.58, 38.35], [-77.57, 38.35], [-77.57, 38.34], [-77.56, 38.33], [-77.54, 38.32], [-77.54, 38.32], [-77.53, 38.31], [-77.53, 38.32], [-77.5, 38.33], [-77.48, 38.32], [-77.48, 38.32], [-77.47, 38.32], [-77.45, 38.28], [-77.44, 38.28], [-77.43, 38.27], [-77.42, 38.27], [-77.42, 38.26], [-77.41, 38.25], [-77.39, 38.25], [-77.38, 38.25], [-77.36, 38.24], [-77.35, 38.25], [-77.34, 38.25], [-77.33, 38.25], [-77.32, 38.24], [-77.31, 38.23], [-77.3, 38.24], [-77.29, 38.24], [-77.29, 38.22], [-77.28, 38.22], [-77.28, 38.23], [-77.28, 38.25], [-77.25, 38.25], [-77.24, 38.25], [-77.23, 38.24], [-77.23, 38.24], [-77.24, 38.23], [-77.25, 38.23], [-77.24, 38.21], [-77.25, 38.2], [-77.25, 38.19], [-77.24, 38.19], [-77.23, 38.19], [-77.23, 38.2], [-77.21, 38.2], [-77.19, 38.17], [-77.17, 38.17], [-77.16, 38.17], [-77.15, 38.17], [-77.13, 38.16], [-77.12, 38.15], [-77.11, 38.13], [-77.1, 38.13], [-77.12, 38.12], [-77.13, 38.12], [-77.14, 38.12], [-77.14, 38.1], [-77.15, 38.09], [-77.17, 38.08], [-77.16, 38.06], [-77.15, 38.06], [-77.14, 38.05], [-77.13, 38.04], [-77.12, 38.03], [-77.13, 38.02], [-77.13, 38.02], [-77.11, 38.02], [-77.1, 38.01], [-77.09, 38.01], [-77.08, 38.0], [-77.07, 37.97], [-77.09, 37.96], [-77.1, 37.97], [-77.11, 37.97], [-77.12, 37.97], [-77.15, 37.97], [-77.17, 37.96], [-77.18, 37.95], [-77.18, 37.94], [-77.18, 37.93], [-77.19, 37.91], [-77.18, 37.91], [-77.18, 37.89], [-77.19, 37.89], [-77.21, 37.89], [-77.22, 37.89], [-77.21, 37.9], [-77.24, 37.91], [-77.25, 37.89], [-77.25, 37.88], [-77.26, 37.86], [-77.28, 37.84], [-77.29, 37.84], [-77.29, 37.84], [-77.31, 37.82], [-77.33, 37.81], [-77.35, 37.79], [-77.33, 37.79], [-77.33, 37.78], [-77.32, 37.77], [-77.34, 37.76], [-77.33, 37.75], [-77.3, 37.76], [-77.3, 37.74], [-77.32, 37.74], [-77.32, 37.73], [-77.29, 37.74], [-77.3, 37.72], [-77.29, 37.71], [-77.28, 37.71], [-77.27, 37.72], [-77.26, 37.71], [-77.25, 37.71], [-77.25, 37.73], [-77.23, 37.72], [-77.23, 37.71], [-77.24, 37.7], [-77.24, 37.69], [-77.21, 37.69], [-77.2, 37.68], [-77.2, 37.69], [-77.19, 37.69], [-77.18, 37.68], [-77.19, 37.66], [-77.18, 37.66], [-77.17, 37.66], [-77.16, 37.67], [-77.15, 37.66], [-77.14, 37.67], [-77.12, 37.66], [-77.11, 37.65], [-77.12, 37.64], [-77.12, 37.64], [-77.13, 37.63], [-77.14, 37.62], [-77.13, 37.61], [-77.14, 37.59], [-77.17, 37.6], [-77.21, 37.56], [-77.22, 37.55], [-77.23, 37.55], [-77.23, 37.53], [-77.22, 37.53], [-77.21, 37.51], [-77.19, 37.51], [-77.19, 37.5], [-77.18, 37.49], [-77.2, 37.45], [-77.22, 37.41], [-77.21, 37.39], [-77.22, 37.38], [-77.22, 37.38], [-77.23, 37.38], [-77.24, 37.39], [-77.25, 37.39], [-77.24, 37.37], [-77.25, 37.36], [-77.26, 37.34], [-77.28, 37.32], [-77.29, 37.31], [-77.32, 37.31], [-77.34, 37.32], [-77.35, 37.31], [-77.36, 37.28], [-77.37, 37.3], [-77.38, 37.28], [-77.39, 37.29], [-77.41, 37.28], [-77.43, 37.28], [-77.43, 37.27], [-77.42, 37.26], [-77.41, 37.26], [-77.42, 37.25], [-77.42, 37.23], [-77.45, 37.22], [-77.44, 37.21], [-77.45, 37.2], [-77.45, 37.19], [-77.42, 37.18], [-77.42, 37.16], [-77.41, 37.17], [-77.4, 37.17], [-77.4, 37.15], [-77.4, 37.1], [-77.4, 37.06], [-77.39, 37.03], [-77.4, 36.99], [-77.46, 36.96], [-77.62, 36.88], [-77.63, 36.89], [-77.64, 36.88], [-77.65, 36.89], [-77.65, 36.9], [-77.66, 36.89], [-77.66, 36.71], [-77.68, 36.68], [-77.77, 36.55], [-77.9, 36.54], [-78.14, 36.54], [-78.25, 36.54], [-78.46, 36.54], [-78.52, 36.54], [-78.61, 36.54], [-78.67, 36.54], [-78.73, 36.54], [-78.74, 36.55], [-78.73, 36.58], [-78.72, 36.58], [-78.72, 36.59], [-78.71, 36.62], [-78.71, 36.64], [-78.7, 36.67], [-78.7, 36.68], [-78.68, 36.69], [-78.65, 36.69], [-78.64, 36.68], [-78.62, 36.67], [-78.61, 36.66], [-78.6, 36.65], [-78.59, 36.65], [-78.58, 36.64], [-78.56, 36.64], [-78.6, 36.66], [-78.62, 36.67], [-78.64, 36.69], [-78.65, 36.7], [-78.51, 36.87], [-78.49, 36.89], [-78.47, 37.0], [-78.44, 37.08], [-78.46, 37.09], [-78.48, 37.09], [-78.49, 37.09], [-78.5, 37.11], [-78.5, 37.11], [-78.51, 37.13], [-78.53, 37.14], [-78.54, 37.14], [-78.55, 37.15], [-78.57, 37.15], [-78.58, 37.14], [-78.6, 37.15], [-78.62, 37.16], [-78.62, 37.16], [-78.63, 37.17], [-78.64, 37.19], [-78.67, 37.2], [-78.68, 37.2], [-78.69, 37.2], [-78.69, 37.21], [-78.69, 37.22], [-78.68, 37.24], [-78.68, 37.26], [-78.67, 37.27], [-78.64, 37.31], [-78.63, 37.32], [-78.61, 37.33], [-78.61, 37.34], [-78.6, 37.34], [-78.6, 37.35], [-78.59, 37.4], [-78.62, 37.39], [-78.64, 37.39], [-78.64, 37.42], [-78.65, 37.42], [-78.68, 37.43], [-78.7, 37.46], [-78.75, 37.49], [-78.83, 37.55], [-78.82, 37.56], [-78.82, 37.56], [-78.82, 37.57], [-78.83, 37.58], [-78.83, 37.59], [-78.81, 37.6], [-78.81, 37.61], [-78.82, 37.62], [-78.82, 37.63], [-78.8, 37.64], [-78.79, 37.64], [-78.74, 37.63], [-78.71, 37.64], [-78.71, 37.65], [-78.72, 37.66], [-78.71, 37.67], [-78.69, 37.68], [-78.69, 37.68], [-78.7, 37.69], [-78.69, 37.7], [-78.68, 37.7], [-78.66, 37.68], [-78.65, 37.68], [-78.64, 37.69], [-78.64, 37.69], [-78.66, 37.7], [-78.65, 37.72], [-78.65, 37.72], [-78.64, 37.74], [-78.61, 37.76], [-78.59, 37.76], [-78.55, 37.76], [-78.53, 37.76], [-78.51, 37.76], [-78.5, 37.76], [-78.5, 37.77], [-78.5, 37.79], [-78.49, 37.8], [-78.42, 37.88], [-78.37, 37.94], [-78.31, 38.0], [-78.25, 38.06], [-78.21, 38.13], [-78.19, 38.13], [-78.17, 38.13], [-78.16, 38.14], [-78.15, 38.14], [-78.13, 38.14], [-78.12, 38.14], [-78.1, 38.15], [-78.09, 38.15], [-78.07, 38.14], [-78.06, 38.14], [-78.04, 38.13], [-78.02, 38.14], [-78.0, 38.14], [-77.98, 38.12], [-77.97, 38.12], [-77.95, 38.12], [-77.91, 38.16], [-77.87, 38.2], [-77.83, 38.23], [-77.78, 38.28], [-77.73, 38.32], [-77.71, 38.35], [-77.7, 38.36], [-77.69, 38.36], [-77.68, 38.36], [-77.67, 38.37], [-77.66, 38.38], [-77.64, 38.38], [-77.64, 38.37], [-77.64, 38.36], [-77.63, 38.36], [-77.63, 38.37], [-77.62, 38.37]]]}}, {"type": "Feature", "properties": {"STATE": "Virginia", "STATE_FIPS": "51", "CD_2DIG": "03", "STATE_CODE": 44, "CLIMDIV": 4403, "ID": 4403, "CD_NEW": 3, "FIPS_CD": "5103", "NCDC_GEO_I": 113.0, "NAME": "WESTERN PIEDMONT", "ST_ABBRV": "VA", "SHAPE_AREA": 0.0, "SHAPE_LEN": 0.0}, "geometry": {"type": "Polygon", "coordinates": [[[-78.21, 38.13], [-78.25, 38.06], [-78.31, 38.0], [-78.37, 37.94], [-78.42, 37.88], [-78.49, 37.8], [-78.5, 37.79], [-78.5, 37.77], [-78.5, 37.76], [-78.51, 37.76], [-78.53, 37.76], [-78.55, 37.76], [-78.59, 37.76], [-78.61, 37.76], [-78.64, 37.74], [-78.65, 37.72], [-78.65, 37.72], [-78.66, 37.7], [-78.64, 37.69], [-78.64, 37.69], [-78.65, 37.68], [-78.66, 37.68], [-78.68, 37.7], [-78.69, 37.7], [-78.7, 37.69], [-78.69, 37.68], [-78.69, 37.68], [-78.71, 37.67], [-78.72, 37.66], [-78.71, 37.65], [-78.71, 37.64], [-78.74, 37.63], [-78.79, 37.64], [-78.8, 37.64], [-78.82, 37.63], [-78.82, 37.62], [-78.81, 37.61], [-78.81, 37.6], [-78.83, 37.59], [-78.83, 37.58], [-78.82, 37.57], [-78.82, 37.56], [-78.82, 37.56], [-78.83, 37.55], [-78.75, 37.49], [-78.7, 37.46], [-78.68, 37.43], [-78.65, 37.42], [-78.64, 37.42], [-78.64, 37.39], [-78.62, 37.39], [-78.59, 37.4], [-78.6, 37.35], [-78.6, 37.34], [-78.61, 37.34], [-78.61, 37.33], [-78.63, 37.32], [-78.64, 37.31], [-78.67, 37.27], [-78.68, 37.26], [-78.68, 37.24], [-78.69, 37.22], [-78.69, 37.21], [-78.69, 37.2], [-78.68, 37.2], [-78.67, 37.2], [-78.64, 37.19], [-78.63, 37.17], [-78.62, 37.16], [-78.62, 37.16], [-78.6, 37.15], [-78.58, 37.14], [-78.57, 37.15], [-78.55, 37.15], [-78.54, 37.14], [-78.53, 37.14], [-78.51, 37.13], [-78.5, 37.11], [-78.5, 37.11], [-78.49, 37.09], [-78.48, 37.09], [-78.46, 37.09], [-78.44, 37.08], [-78.47, 37.0], [-78.49, 36.89], [-78.51, 36.87], [-78.65, 36.7], [-78.64, 36.69], [-78.62, 36.67], [-78.6, 36.66], [-78.56, 36.64], [-78.58, 36.64], [-78.59, 36.65], [-78.6, 36.65], [-78.61, 36.66], [-78.62, 36.67], [-78.64, 36.68], [-78.65, 36.69], [-78.68, 36.69], [-78.7, 36.68], [-78.7, 36.67], [-78.71, 36.64], [-78.71, 36.62], [-78.72, 36.59], [-78.72, 36.58], [-78.73, 36.58], [-78.74, 36.55], [-78.73, 36.54], [-78.85, 36.54], [-79.07, 36.54], [-79.13, 36.54], [-79.22, 36.54], [-79.25, 36.54], [-79.44, 36.54], [-79.51, 36.54], [-79.62, 36.54], [-79.71, 36.54], [-79.82, 36.54], [-79.99, 36.54], [-80.1, 36.54], [-80.25, 36.54], [-80.3, 36.54], [-80.44, 36.55], [-80.61, 36.56], [-80.62, 36.59], [-80.62, 36.59], [-80.63, 36.61], [-80.62, 36.61], [-80.62, 36.62], [-80.6, 36.64], [-80.6, 36.65], [-80.59, 36.66], [-80.59, 36.66], [-80.58, 36.66], [-80.56, 36.65], [-80.55, 36.64], [-80.54, 36.64], [-80.53, 36.64], [-80.47, 36.67], [-80.46, 36.69], [-80.45, 36.7], [-80.46, 36.71], [-80.46, 36.72], [-80.45, 36.73], [-80.46, 36.74], [-80.44, 36.75], [-80.43, 36.74], [-80.4, 36.74], [-80.4, 36.76], [-80.39, 36.77], [-80.39, 36.78], [-80.39, 36.8], [-80.37, 36.8], [-80.36, 36.8], [-80.34, 36.81], [-80.34, 36.83], [-80.33, 36.83], [-80.32, 36.84], [-80.31, 36.84], [-80.29, 36.85], [-80.29, 36.86], [-80.27, 36.86], [-80.26, 36.86], [-80.25, 36.87], [-80.24, 36.87], [-80.2, 36.9], [-80.2, 36.92], [-80.19, 36.92], [-80.17, 36.95], [-80.16, 36.95], [-80.16, 36.95], [-80.15, 36.95], [-80.14, 36.96], [-80.14, 36.98], [-80.14, 36.99], [-80.12, 36.99], [-80.14, 37.0], [-80.13, 37.01], [-80.12, 37.01], [-80.11, 37.05], [-80.12, 37.06], [-80.11, 37.07], [-80.11, 37.08], [-80.12, 37.09], [-80.11, 37.1], [-80.12, 37.11], [-80.12, 37.12], [-80.13, 37.12], [-80.11, 37.14], [-80.11, 37.15], [-80.09, 37.15], [-80.09, 37.16], [-80.07, 37.16], [-80.04, 37.17], [-80.03, 37.17], [-80.02, 37.17], [-80.01, 37.17], [-80.0, 37.17], [-80.0, 37.15], [-79.99, 37.14], [-79.96, 37.14], [-79.94, 37.15], [-79.92, 37.16], [-79.91, 37.17], [-79.91, 37.18], [-79.9, 37.18], [-79.89, 37.2], [-79.89, 37.2], [-79.88, 37.21], [-79.87, 37.22], [-79.85, 37.21], [-79.85, 37.22], [-79.84, 37.23], [-79.85, 37.25], [-79.86, 37.27], [-79.85, 37.28], [-79.85, 37.3], [-79.84, 37.3], [-79.85, 37.31], [-79.84, 37.32], [-79.81, 37.34], [-79.8, 37.34], [-79.79, 37.35], [-79.78, 37.37], [-79.78, 37.38], [-79.78, 37.38], [-79.79, 37.38], [-79.81, 37.4], [-79.8, 37.41], [-79.79, 37.41], [-79.76, 37.43], [-79.75, 37.43], [-79.74, 37.44], [-79.71, 37.45], [-79.69, 37.48], [-79.68, 37.48], [-79.66, 37.49], [-79.64, 37.47], [-79.64, 37.46], [-79.63, 37.45], [-79.62, 37.46], [-79.6, 37.45], [-79.59, 37.45], [-79.58, 37.45], [-79.58, 37.46], [-79.58, 37.47], [-79.57, 37.49], [-79.56, 37.5], [-79.55, 37.49], [-79.53, 37.51], [-79.52, 37.51], [-79.51, 37.52], [-79.5, 37.52], [-79.51, 37.53], [-79.48, 37.55], [-79.46, 37.55], [-79.46, 37.56], [-79.44, 37.56], [-79.43, 37.57], [-79.44, 37.58], [-79.45, 37.58], [-79.45, 37.59], [-79.46, 37.61], [-79.44, 37.62], [-79.43, 37.62], [-79.42, 37.63], [-79.4, 37.63], [-79.38, 37.64], [-79.37, 37.65], [-79.36, 37.66], [-79.35, 37.66], [-79.34, 37.68], [-79.32, 37.69], [-79.32, 37.71], [-79.32, 37.71], [-79.31, 37.73], [-79.3, 37.75], [-79.27, 37.78], [-79.26, 37.79], [-79.26, 37.79], [-79.25, 37.81], [-79.23, 37.81], [-79.22, 37.8], [-79.22, 37.8], [-79.21, 37.79], [-79.2, 37.79], [-79.19, 37.79], [-79.17, 37.8], [-79.15, 37.83], [-79.16, 37.84], [-79.14, 37.86], [-79.15, 37.87], [-79.15, 37.89], [-79.12, 37.9], [-79.1, 37.9], [-79.09, 37.91], [-79.07, 37.91], [-79.06, 37.92], [-79.05, 37.91], [-79.04, 37.89], [-79.02, 37.89], [-79.01, 37.88], [-78.99, 37.9], [-78.98, 37.91], [-78.97, 37.91], [-78.96, 37.92], [-78.96, 37.93], [-78.94, 37.94], [-78.93, 37.94], [-78.92, 37.95], [-78.9, 37.95], [-78.9, 37.96], [-78.89, 37.97], [-78.91, 37.98], [-78.91, 37.99], [-78.89, 37.99], [-78.88, 38.01], [-78.88, 38.02], [-78.87, 38.03], [-78.86, 38.03], [-78.86, 38.04], [-78.82, 38.06], [-78.79, 38.07], [-78.79, 38.08], [-78.78, 38.08], [-78.78, 38.11], [-78.79, 38.12], [-78.79, 38.13], [-78.78, 38.13], [-78.78, 38.14], [-78.77, 38.18], [-78.75, 38.19], [-78.75, 38.2], [-78.74, 38.22], [-78.72, 38.23], [-78.71, 38.24], [-78.71, 38.25], [-78.7, 38.25], [-78.68, 38.25], [-78.67, 38.25], [-78.66, 38.26], [-78.66, 38.26], [-78.66, 38.28], [-78.59, 38.25], [-78.5, 38.22], [-78.46, 38.21], [-78.37, 38.19], [-78.34, 38.18], [-78.25, 38.15], [-78.21, 38.13]]]}}, {"type": "Feature", "properties": {"STATE": "Virginia", "STATE_FIPS": "51", "CD_2DIG": "06", "STATE_CODE": 44, "CLIMDIV": 4406, "ID": 4406, "CD_NEW": 6, "FIPS_CD": "5106", "NCDC_GEO_I": 114.0, "NAME": "SOUTHWESTERN MOUNTAIN", "ST_ABBRV": "VA", "SHAPE_AREA": 0.0, "SHAPE_LEN": 0.0}, "geometry": {"type": "Polygon", "coordinates": [[[-81.93, 37.51], [-81.94, 37.51], [-81.98, 37.48], [-81.99, 37.48], [-82.0, 37.48], [-81.99, 37.46], [-81.99, 37.45], [-81.98, 37.46], [-81.97, 37.45], [-81.96, 37.45], [-81.95, 37.44], [-81.94, 37.44], [-81.94, 37.43], [-81.94, 37.42], [-81.93, 37.41], [-81.93, 37.39], [-81.94, 37.38], [-81.93, 37.37], [-81.93, 37.36], [-81.91, 37.34], [-81.9, 37.34], [-81.9, 37.33], [-81.87, 37.33], [-81.87, 37.32], [-81.86, 37.32], [-81.85, 37.3], [-81.85, 37.29], [-81.84, 37.29], [-81.83, 37.28], [-81.8, 37.29], [-81.79, 37.28], [-81.77, 37.27], [-81.75, 37.26], [-81.74, 37.25], [-81.74, 37.24], [-81.74, 37.24], [-81.73, 37.24], [-81.72, 37.24], [-81.72, 37.23], [-81.7, 37.22], [-81.69, 37.21], [-81.68, 37.21], [-81.68, 37.2], [-81.56, 37.21], [-81.55, 37.21], [-81.54, 37.22], [-81.51, 37.23], [-81.5, 37.25], [-81.48, 37.25], [-81.46, 37.26], [-81.46, 37.27], [-81.44, 37.27], [-81.43, 37.27], [-81.42, 37.27], [-81.41, 37.28], [-81.41, 37.3], [-81.39, 37.32], [-81.37, 37.32], [-81.36, 37.34], [-81.32, 37.3], [-81.23, 37.23], [-81.2, 37.24], [-81.17, 37.26], [-81.1, 37.28], [-81.08, 37.28], [-81.04, 37.29], [-80.99, 37.3], [-80.97, 37.29], [-80.95, 37.29], [-80.92, 37.31], [-80.9, 37.32], [-80.87, 37.34], [-80.85, 37.35], [-80.88, 37.38], [-80.86, 37.41], [-80.87, 37.42], [-80.86, 37.43], [-80.85, 37.42], [-80.84, 37.43], [-80.81, 37.4], [-80.8, 37.4], [-80.78, 37.39], [-80.77, 37.37], [-80.74, 37.38], [-80.71, 37.39], [-80.67, 37.41], [-80.65, 37.42], [-80.63, 37.43], [-80.59, 37.45], [-80.59, 37.46], [-80.55, 37.47], [-80.54, 37.47], [-80.51, 37.48], [-80.49, 37.46], [-80.5, 37.44], [-80.49, 37.44], [-80.48, 37.42], [-80.44, 37.34], [-80.45, 37.33], [-80.43, 37.31], [-80.41, 37.33], [-80.4, 37.33], [-80.35, 37.35], [-80.34, 37.36], [-80.33, 37.37], [-80.26, 37.34], [-80.26, 37.31], [-80.19, 37.23], [-80.18, 37.16], [-80.18, 37.13], [-80.18, 37.11], [-80.17, 37.11], [-80.16, 37.11], [-80.15, 37.12], [-80.13, 37.12], [-80.12, 37.12], [-80.12, 37.11], [-80.11, 37.1], [-80.12, 37.09], [-80.11, 37.08], [-80.11, 37.07], [-80.12, 37.06], [-80.11, 37.05], [-80.12, 37.01], [-80.13, 37.01], [-80.14, 37.0], [-80.12, 36.99], [-80.14, 36.99], [-80.14, 36.98], [-80.14, 36.96], [-80.15, 36.95], [-80.16, 36.95], [-80.16, 36.95], [-80.17, 36.95], [-80.19, 36.92], [-80.2, 36.92], [-80.2, 36.9], [-80.24, 36.87], [-80.25, 36.87], [-80.26, 36.86], [-80.27, 36.86], [-80.29, 36.86], [-80.29, 36.85], [-80.31, 36.84], [-80.32, 36.84], [-80.33, 36.83], [-80.34, 36.83], [-80.34, 36.81], [-80.36, 36.8], [-80.37, 36.8], [-80.39, 36.8], [-80.39, 36.78], [-80.39, 36.77], [-80.4, 36.76], [-80.4, 36.74], [-80.43, 36.74], [-80.44, 36.75], [-80.46, 36.74], [-80.45, 36.73], [-80.46, 36.72], [-80.46, 36.71], [-80.45, 36.7], [-80.46, 36.69], [-80.47, 36.67], [-80.53, 36.64], [-80.54, 36.64], [-80.55, 36.64], [-80.56, 36.65], [-80.58, 36.66], [-80.59, 36.66], [-80.59, 36.66], [-80.6, 36.65], [-80.6, 36.64], [-80.62, 36.62], [-80.62, 36.61], [-80.63, 36.61], [-80.62, 36.59], [-80.62, 36.59], [-80.61, 36.56], [-80.65, 36.56], [-80.69, 36.56], [-80.73, 36.56], [-80.77, 36.56], [-80.8, 36.56], [-80.84, 36.56], [-80.9, 36.56], [-80.96, 36.56], [-81.0, 36.56], [-81.06, 36.57], [-81.08, 36.57], [-81.17, 36.57], [-81.18, 36.57], [-81.25, 36.57], [-81.31, 36.58], [-81.37, 36.57], [-81.44, 36.58], [-81.48, 36.58], [-81.49, 36.58], [-81.52, 36.58], [-81.6, 36.59], [-81.68, 36.59], [-81.65, 36.61], [-81.74, 36.61], [-81.92, 36.62], [-81.93, 36.59], [-82.17, 36.59], [-82.22, 36.6], [-82.37, 36.6], [-82.47, 36.59], [-82.48, 36.6], [-82.66, 36.59], [-82.83, 36.59], [-82.87, 36.59], [-83.12, 36.59], [-83.26, 36.59], [-83.28, 36.6], [-83.37, 36.6], [-83.5, 36.6], [-83.62, 36.6], [-83.68, 36.6], [-83.65, 36.62], [-83.65, 36.62], [-83.63, 36.63], [-83.61, 36.63], [-83.58, 36.64], [-83.56, 36.65], [-83.54, 36.66], [-83.53, 36.66], [-83.51, 36.67], [-83.49, 36.67], [-83.48, 36.67], [-83.47, 36.66], [-83.42, 36.67], [-83.4, 36.68], [-83.39, 36.69], [-83.36, 36.69], [-83.34, 36.7], [-83.31, 36.71], [-83.29, 36.71], [-83.22, 36.73], [-83.19, 36.74], [-83.16, 36.74], [-83.16, 36.74], [-83.14, 36.74], [-83.13, 36.75], [-83.13, 36.76], [-83.13, 36.78], [-83.13, 36.78], [-83.12, 36.79], [-83.1, 36.8], [-83.1, 36.81], [-83.1, 36.83], [-83.07, 36.84], [-83.07, 36.85], [-83.05, 36.85], [-83.03, 36.86], [-83.02, 36.85], [-83.01, 36.85], [-83.0, 36.86], [-82.98, 36.86], [-82.97, 36.86], [-82.96, 36.86], [-82.94, 36.87], [-82.92, 36.87], [-82.89, 36.88], [-82.87, 36.9], [-82.88, 36.91], [-82.86, 36.93], [-82.86, 36.94], [-82.86, 36.95], [-82.87, 36.96], [-82.87, 36.97], [-82.87, 36.98], [-82.86, 36.98], [-82.85, 36.99], [-82.84, 36.98], [-82.83, 36.99], [-82.83, 37.01], [-82.82, 37.0], [-82.8, 37.01], [-82.78, 37.01], [-82.76, 37.03], [-82.75, 37.02], [-82.74, 37.04], [-82.72, 37.05], [-82.72, 37.06], [-82.73, 37.07], [-82.72, 37.08], [-82.72, 37.08], [-82.72, 37.11], [-82.73, 37.11], [-82.69, 37.13], [-82.66, 37.15], [-82.65, 37.15], [-82.63, 37.15], [-82.62, 37.17], [-82.6, 37.18], [-82.59, 37.18], [-82.58, 37.19], [-82.55, 37.2], [-82.53, 37.21], [-82.52, 37.21], [-82.5, 37.23], [-82.46, 37.24], [-82.46, 37.24], [-82.44, 37.25], [-82.43, 37.25], [-82.42, 37.25], [-82.36, 37.26], [-82.36, 37.27], [-82.34, 37.27], [-82.34, 37.28], [-82.32, 37.28], [-82.32, 37.29], [-82.2, 37.37], [-82.14, 37.41], [-82.06, 37.47], [-82.05, 37.48], [-81.97, 37.54], [-81.97, 37.53], [-81.94, 37.52], [-81.95, 37.52], [-81.93, 37.51]]]}}]}