{"type": "FeatureCollection", "features": [{"type": "Feature", "properties": {"STATE": "Wisconsin", "STATE_FIPS": "55", "CD_2DIG": "01", "STATE_CODE": 47, "CLIMDIV": 4701, "ID": 4701, "CD_NEW": 1, "FIPS_CD": "5501", "NCDC_GEO_I": 231.0, "NAME": "NORTHWEST", "ST_ABBRV": "WI", "SHAPE_AREA": 0.0, "SHAPE_LEN": 0.0}, "geometry": {"type": "MultiPolygon", "coordinates": [[[[-90.93, 46.59], [-90.93, 46.5], [-90.92, 46.5], [-90.92, 46.42], [-90.92, 46.37], [-90.92, 46.33], [-90.93, 46.3], [-90.93, 46.28], [-90.92, 46.26], [-90.92, 46.06], [-90.92, 46.03], [-90.93, 46.0], [-90.93, 45.98], [-90.88, 45.98], [-90.72, 45.98], [-90.68, 45.98], [-90.68, 45.95], [-90.68, 45.89], [-90.68, 45.87], [-90.68, 45.84], [-90.68, 45.68], [-90.68, 45.59], [-90.68, 45.52], [-90.68, 45.49], [-90.68, 45.38], [-90.85, 45.38], [-90.93, 45.38], [-90.93, 45.28], [-90.93, 45.23], [-90.93, 45.12], [-90.92, 45.12], [-90.92, 45.05], [-90.92, 44.95], [-90.92, 44.86], [-91.21, 44.86], [-91.53, 44.86], [-91.65, 44.86], [-91.65, 44.97], [-91.65, 45.09], [-91.65, 45.12], [-91.67, 45.12], [-91.67, 45.21], [-91.75, 45.21], [-91.83, 45.21], [-92.18, 45.21], [-92.24, 45.21], [-92.38, 45.21], [-92.5, 45.21], [-92.56, 45.21], [-92.76, 45.21], [-92.75, 45.22], [-92.76, 45.23], [-92.76, 45.25], [-92.75, 45.26], [-92.75, 45.27], [-92.76, 45.28], [-92.76, 45.29], [-92.74, 45.3], [-92.71, 45.32], [-92.7, 45.34], [-92.7, 45.35], [-92.7, 45.36], [-92.68, 45.37], [-92.68, 45.38], [-92.66, 45.39], [-92.65, 45.4], [-92.65, 45.41], [-92.65, 45.42], [-92.65, 45.44], [-92.65, 45.45], [-92.68, 45.46], [-92.69, 45.48], [-92.7, 45.49], [-92.71, 45.5], [-92.73, 45.51], [-92.73, 45.54], [-92.76, 45.56], [-92.77, 45.57], [-92.79, 45.57], [-92.8, 45.56], [-92.82, 45.56], [-92.84, 45.57], [-92.87, 45.57], [-92.88, 45.58], [-92.89, 45.59], [-92.88, 45.61], [-92.89, 45.63], [-92.88, 45.66], [-92.88, 45.67], [-92.87, 45.72], [-92.85, 45.72], [-92.85, 45.73], [-92.83, 45.73], [-92.81, 45.74], [-92.8, 45.75], [-92.78, 45.76], [-92.78, 45.78], [-92.77, 45.8], [-92.76, 45.8], [-92.76, 45.81], [-92.77, 45.83], [-92.76, 45.83], [-92.74, 45.85], [-92.74, 45.86], [-92.72, 45.88], [-92.71, 45.89], [-92.68, 45.91], [-92.68, 45.91], [-92.66, 45.92], [-92.64, 45.92], [-92.64, 45.93], [-92.62, 45.93], [-92.6, 45.94], [-92.55, 45.95], [-92.55, 45.97], [-92.53, 45.98], [-92.5, 45.98], [-92.49, 45.98], [-92.47, 45.97], [-92.46, 45.98], [-92.46, 45.99], [-92.45, 45.99], [-92.44, 46.02], [-92.42, 46.03], [-92.41, 46.03], [-92.39, 46.02], [-92.37, 46.01], [-92.35, 46.02], [-92.34, 46.03], [-92.34, 46.04], [-92.34, 46.06], [-92.32, 46.07], [-92.29, 46.07], [-92.29, 46.11], [-92.29, 46.19], [-92.29, 46.3], [-92.29, 46.37], [-92.29, 46.5], [-92.29, 46.63], [-92.29, 46.66], [-92.27, 46.66], [-92.27, 46.65], [-92.26, 46.66], [-92.24, 46.65], [-92.23, 46.65], [-92.21, 46.65], [-92.2, 46.66], [-92.21, 46.66], [-92.19, 46.68], [-92.18, 46.68], [-92.18, 46.69], [-92.18, 46.7], [-92.2, 46.7], [-92.21, 46.7], [-92.19, 46.72], [-92.17, 46.72], [-92.17, 46.71], [-92.15, 46.71], [-92.14, 46.73], [-92.12, 46.73], [-92.12, 46.74], [-92.1, 46.75], [-92.07, 46.73], [-92.07, 46.73], [-92.03, 46.7], [-92.02, 46.7], [-92.02, 46.69], [-92.01, 46.68], [-92.0, 46.68], [-91.97, 46.69], [-91.94, 46.68], [-91.89, 46.69], [-91.86, 46.69], [-91.84, 46.69], [-91.81, 46.69], [-91.79, 46.69], [-91.76, 46.71], [-91.73, 46.72], [-91.68, 46.73], [-91.64, 46.74], [-91.6, 46.75], [-91.58, 46.76], [-91.54, 46.75], [-91.51, 46.76], [-91.49, 46.77], [-91.46, 46.77], [-91.43, 46.78], [-91.41, 46.79], [-91.39, 46.79], [-91.36, 46.8], [-91.34, 46.82], [-91.31, 46.83], [-91.28, 46.83], [-91.26, 46.84], [-91.23, 46.86], [-91.22, 46.87], [-91.2, 46.87], [-91.19, 46.89], [-91.18, 46.88], [-91.19, 46.88], [-91.2, 46.86], [-91.19, 46.85], [-91.17, 46.84], [-91.17, 46.85], [-91.15, 46.86], [-91.14, 46.87], [-91.13, 46.87], [-91.14, 46.86], [-91.11, 46.86], [-91.1, 46.86], [-91.09, 46.88], [-91.08, 46.88], [-91.07, 46.88], [-91.05, 46.88], [-91.04, 46.89], [-91.03, 46.9], [-91.02, 46.91], [-91.0, 46.92], [-90.99, 46.93], [-90.97, 46.94], [-90.97, 46.94], [-90.92, 46.93], [-90.91, 46.93], [-90.91, 46.94], [-90.88, 46.95], [-90.88, 46.96], [-90.86, 46.96], [-90.83, 46.96], [-90.83, 46.94], [-90.83, 46.94], [-90.81, 46.93], [-90.81, 46.94], [-90.79, 46.94], [-90.78, 46.92], [-90.78, 46.91], [-90.77, 46.91], [-90.75, 46.9], [-90.75, 46.89], [-90.77, 46.88], [-90.77, 46.87], [-90.78, 46.86], [-90.79, 46.85], [-90.79, 46.84], [-90.79, 46.83], [-90.8, 46.82], [-90.82, 46.81], [-90.84, 46.79], [-90.85, 46.79], [-90.86, 46.78], [-90.86, 46.77], [-90.87, 46.76], [-90.88, 46.76], [-90.88, 46.75], [-90.87, 46.73], [-90.85, 46.7], [-90.85, 46.69], [-90.87, 46.68], [-90.89, 46.67], [-90.91, 46.66], [-90.92, 46.63], [-90.94, 46.61], [-90.95, 46.6], [-90.95, 46.59], [-90.93, 46.59]]], [[[-90.93, 46.99], [-90.93, 46.98], [-90.93, 46.96], [-90.97, 46.96], [-90.97, 46.97], [-90.98, 46.98], [-90.98, 46.99], [-90.96, 46.99], [-90.95, 46.99], [-90.93, 47.0], [-90.93, 46.99]]], [[[-90.79, 46.97], [-90.8, 46.97], [-90.79, 46.98], [-90.79, 46.97]]], [[[-90.87, 46.99], [-90.85, 46.99], [-90.86, 46.98], [-90.87, 46.99]]]]}}, {"type": "Feature", "properties": {"STATE": "Wisconsin", "STATE_FIPS": "55", "CD_2DIG": "02", "STATE_CODE": 47, "CLIMDIV": 4702, "ID": 4702, "CD_NEW": 2, "FIPS_CD": "5502", "NCDC_GEO_I": 232.0, "NAME": "NORTH CENTRAL", "ST_ABBRV": "WI", "SHAPE_AREA": 0.0, "SHAPE_LEN": 0.0}, "geometry": {"type": "MultiPolygon", "coordinates": [[[[-90.42, 46.57], [-90.4, 46.54], [-90.39, 46.53], [-90.37, 46.54], [-90.35, 46.54], [-90.34, 46.55], [-90.33, 46.55], [-90.33, 46.55], [-90.31, 46.54], [-90.32, 46.52], [-90.28, 46.52], [-90.27, 46.52], [-90.26, 46.5], [-90.23, 46.51], [-90.22, 46.5], [-90.2, 46.48], [-90.19, 46.47], [-90.19, 46.46], [-90.18, 46.46], [-90.18, 46.44], [-90.16, 46.43], [-90.16, 46.42], [-90.16, 46.41], [-90.15, 46.4], [-90.14, 46.39], [-90.13, 46.38], [-90.13, 46.37], [-90.12, 46.36], [-90.12, 46.35], [-90.12, 46.34], [-89.92, 46.3], [-89.76, 46.27], [-89.53, 46.22], [-89.46, 46.21], [-89.38, 46.19], [-89.19, 46.16], [-89.09, 46.14], [-88.93, 46.07], [-88.93, 45.98], [-89.05, 45.98], [-89.05, 45.78], [-89.05, 45.67], [-89.05, 45.6], [-89.05, 45.46], [-89.13, 45.47], [-89.18, 45.47], [-89.33, 45.47], [-89.38, 45.47], [-89.42, 45.47], [-89.42, 45.36], [-89.43, 45.25], [-89.43, 45.12], [-89.35, 45.12], [-89.22, 45.12], [-89.22, 45.0], [-89.22, 44.83], [-89.22, 44.72], [-89.22, 44.68], [-89.35, 44.68], [-89.49, 44.69], [-89.56, 44.69], [-89.75, 44.68], [-89.95, 44.68], [-90.12, 44.69], [-90.32, 44.69], [-90.32, 44.66], [-90.32, 44.53], [-90.32, 44.42], [-90.44, 44.42], [-90.65, 44.42], [-90.8, 44.42], [-90.8, 44.42], [-90.8, 44.51], [-90.92, 44.51], [-90.92, 44.62], [-90.92, 44.75], [-90.92, 44.86], [-90.92, 44.95], [-90.92, 45.05], [-90.92, 45.12], [-90.93, 45.12], [-90.93, 45.23], [-90.93, 45.28], [-90.93, 45.38], [-90.85, 45.38], [-90.68, 45.38], [-90.68, 45.49], [-90.68, 45.52], [-90.68, 45.59], [-90.68, 45.68], [-90.68, 45.84], [-90.68, 45.87], [-90.68, 45.89], [-90.68, 45.95], [-90.68, 45.98], [-90.72, 45.98], [-90.88, 45.98], [-90.93, 45.98], [-90.93, 46.0], [-90.92, 46.03], [-90.92, 46.06], [-90.92, 46.26], [-90.93, 46.28], [-90.93, 46.3], [-90.92, 46.33], [-90.92, 46.37], [-90.92, 46.42], [-90.92, 46.5], [-90.93, 46.5], [-90.93, 46.59], [-90.91, 46.58], [-90.9, 46.59], [-90.89, 46.59], [-90.88, 46.6], [-90.87, 46.6], [-90.83, 46.62], [-90.83, 46.62], [-90.8, 46.62], [-90.78, 46.63], [-90.76, 46.64], [-90.74, 46.66], [-90.73, 46.67], [-90.71, 46.67], [-90.71, 46.67], [-90.63, 46.63], [-90.59, 46.6], [-90.55, 46.58], [-90.54, 46.58], [-90.53, 46.59], [-90.5, 46.59], [-90.46, 46.57], [-90.43, 46.56], [-90.42, 46.57]]], [[[-90.61, 46.87], [-90.6, 46.87], [-90.59, 46.86], [-90.57, 46.85], [-90.58, 46.84], [-90.61, 46.84], [-90.64, 46.83], [-90.68, 46.82], [-90.68, 46.81], [-90.68, 46.8], [-90.67, 46.8], [-90.66, 46.8], [-90.66, 46.79], [-90.68, 46.78], [-90.7, 46.78], [-90.72, 46.78], [-90.74, 46.77], [-90.75, 46.77], [-90.76, 46.76], [-90.79, 46.75], [-90.79, 46.76], [-90.78, 46.77], [-90.79, 46.78], [-90.78, 46.79], [-90.77, 46.79], [-90.76, 46.8], [-90.73, 46.8], [-90.73, 46.81], [-90.71, 46.82], [-90.67, 46.84], [-90.64, 46.85], [-90.63, 46.87], [-90.62, 46.87], [-90.61, 46.87]]], [[[-90.41, 47.08], [-90.4, 47.08], [-90.39, 47.07], [-90.4, 47.04], [-90.41, 47.04], [-90.4, 47.03], [-90.41, 47.01], [-90.42, 47.01], [-90.43, 47.0], [-90.46, 47.0], [-90.47, 47.0], [-90.46, 47.02], [-90.46, 47.04], [-90.45, 47.07], [-90.44, 47.07], [-90.41, 47.08]]]]}}, {"type": "Feature", "properties": {"STATE": "Wisconsin", "STATE_FIPS": "55", "CD_2DIG": "03", "STATE_CODE": 47, "CLIMDIV": 4703, "ID": 4703, "CD_NEW": 3, "FIPS_CD": "5503", "NCDC_GEO_I": 233.0, "NAME": "NORTHEAST", "ST_ABBRV": "WI", "SHAPE_AREA": 0.0, "SHAPE_LEN": 0.0}, "geometry": {"type": "Polygon", "coordinates": [[[-87.59, 45.09], [-87.59, 45.09], [-87.61, 45.08], [-87.63, 45.05], [-87.62, 45.01], [-87.63, 44.98], [-87.65, 44.98], [-87.65, 44.98], [-87.66, 44.97], [-87.7, 44.97], [-87.76, 44.97], [-87.78, 44.96], [-87.81, 44.95], [-87.84, 44.93], [-87.84, 44.92], [-87.84, 44.91], [-87.83, 44.9], [-87.83, 44.88], [-87.84, 44.88], [-87.85, 44.86], [-87.87, 44.84], [-87.88, 44.84], [-87.9, 44.83], [-87.9, 44.82], [-87.92, 44.8], [-87.92, 44.79], [-87.94, 44.76], [-87.95, 44.75], [-87.97, 44.74], [-87.97, 44.73], [-87.98, 44.72], [-87.98, 44.7], [-87.99, 44.68], [-88.13, 44.68], [-88.2, 44.67], [-88.23, 44.67], [-88.23, 44.68], [-88.25, 44.68], [-88.25, 44.66], [-88.24, 44.66], [-88.25, 44.58], [-88.31, 44.59], [-88.39, 44.59], [-88.61, 44.59], [-88.61, 44.68], [-88.65, 44.68], [-88.87, 44.68], [-88.94, 44.68], [-89.05, 44.68], [-89.22, 44.68], [-89.22, 44.72], [-89.22, 44.83], [-89.22, 45.0], [-89.22, 45.12], [-89.35, 45.12], [-89.43, 45.12], [-89.43, 45.25], [-89.42, 45.36], [-89.42, 45.47], [-89.38, 45.47], [-89.33, 45.47], [-89.18, 45.47], [-89.13, 45.47], [-89.05, 45.46], [-89.05, 45.6], [-89.05, 45.67], [-89.05, 45.78], [-89.05, 45.98], [-88.93, 45.98], [-88.93, 46.07], [-88.85, 46.04], [-88.84, 46.03], [-88.81, 46.02], [-88.79, 46.03], [-88.78, 46.02], [-88.76, 46.02], [-88.74, 46.03], [-88.72, 46.02], [-88.71, 46.01], [-88.7, 46.02], [-88.68, 46.01], [-88.66, 45.99], [-88.64, 45.99], [-88.62, 45.99], [-88.6, 46.02], [-88.59, 46.01], [-88.59, 46.01], [-88.57, 46.02], [-88.55, 46.01], [-88.53, 46.02], [-88.51, 46.02], [-88.5, 46.0], [-88.49, 45.99], [-88.47, 45.99], [-88.47, 46.0], [-88.46, 46.0], [-88.45, 45.99], [-88.41, 45.98], [-88.39, 45.98], [-88.38, 45.99], [-88.36, 45.98], [-88.32, 45.96], [-88.31, 45.96], [-88.29, 45.95], [-88.29, 45.96], [-88.27, 45.96], [-88.25, 45.96], [-88.25, 45.96], [-88.24, 45.95], [-88.23, 45.95], [-88.2, 45.95], [-88.2, 45.95], [-88.18, 45.95], [-88.17, 45.94], [-88.15, 45.94], [-88.14, 45.93], [-88.12, 45.92], [-88.1, 45.92], [-88.1, 45.92], [-88.11, 45.9], [-88.11, 45.9], [-88.1, 45.88], [-88.08, 45.88], [-88.07, 45.87], [-88.08, 45.86], [-88.13, 45.82], [-88.13, 45.81], [-88.11, 45.8], [-88.1, 45.79], [-88.09, 45.79], [-88.08, 45.79], [-88.07, 45.78], [-88.04, 45.78], [-88.04, 45.79], [-88.03, 45.79], [-87.99, 45.8], [-87.99, 45.79], [-87.98, 45.78], [-87.99, 45.77], [-87.97, 45.76], [-87.96, 45.76], [-87.94, 45.76], [-87.92, 45.76], [-87.9, 45.75], [-87.88, 45.75], [-87.86, 45.75], [-87.86, 45.74], [-87.85, 45.73], [-87.84, 45.72], [-87.81, 45.71], [-87.81, 45.7], [-87.8, 45.7], [-87.79, 45.69], [-87.78, 45.67], [-87.8, 45.67], [-87.82, 45.66], [-87.82, 45.65], [-87.81, 45.64], [-87.8, 45.63], [-87.79, 45.62], [-87.78, 45.61], [-87.77, 45.6], [-87.78, 45.59], [-87.79, 45.58], [-87.79, 45.57], [-87.8, 45.56], [-87.83, 45.57], [-87.83, 45.56], [-87.81, 45.54], [-87.8, 45.51], [-87.79, 45.5], [-87.8, 45.48], [-87.81, 45.48], [-87.81, 45.46], [-87.83, 45.46], [-87.86, 45.43], [-87.86, 45.42], [-87.85, 45.41], [-87.86, 45.4], [-87.86, 45.39], [-87.88, 45.38], [-87.87, 45.37], [-87.88, 45.36], [-87.89, 45.35], [-87.88, 45.35], [-87.87, 45.36], [-87.85, 45.35], [-87.84, 45.35], [-87.83, 45.35], [-87.81, 45.35], [-87.79, 45.35], [-87.78, 45.35], [-87.75, 45.35], [-87.74, 45.36], [-87.72, 45.38], [-87.69, 45.39], [-87.67, 45.38], [-87.67, 45.38], [-87.66, 45.37], [-87.66, 45.36], [-87.65, 45.35], [-87.65, 45.34], [-87.66, 45.33], [-87.66, 45.32], [-87.69, 45.3], [-87.7, 45.28], [-87.7, 45.27], [-87.71, 45.27], [-87.71, 45.24], [-87.73, 45.23], [-87.73, 45.21], [-87.74, 45.2], [-87.74, 45.18], [-87.72, 45.16], [-87.7, 45.15], [-87.68, 45.14], [-87.68, 45.13], [-87.66, 45.11], [-87.63, 45.11], [-87.63, 45.1], [-87.59, 45.09]]]}}, {"type": "Feature", "properties": {"STATE": "Wisconsin", "STATE_FIPS": "55", "CD_2DIG": "04", "STATE_CODE": 47, "CLIMDIV": 4704, "ID": 4704, "CD_NEW": 4, "FIPS_CD": "5504", "NCDC_GEO_I": 234.0, "NAME": "WEST CENTRAL", "ST_ABBRV": "WI", "SHAPE_AREA": 0.0, "SHAPE_LEN": 0.0}, "geometry": {"type": "Polygon", "coordinates": [[[-90.92, 44.86], [-90.92, 44.75], [-90.92, 44.62], [-90.92, 44.51], [-90.8, 44.51], [-90.8, 44.42], [-90.8, 44.42], [-90.65, 44.42], [-90.44, 44.42], [-90.32, 44.42], [-90.32, 44.39], [-90.32, 44.25], [-90.31, 44.25], [-90.31, 44.21], [-90.31, 44.18], [-90.31, 44.07], [-90.31, 43.96], [-90.31, 43.94], [-90.31, 43.85], [-90.31, 43.75], [-90.31, 43.73], [-90.43, 43.73], [-90.51, 43.73], [-90.66, 43.73], [-90.8, 43.73], [-90.9, 43.73], [-91.03, 43.72], [-91.12, 43.72], [-91.26, 43.73], [-91.26, 43.74], [-91.24, 43.77], [-91.26, 43.79], [-91.27, 43.81], [-91.28, 43.84], [-91.28, 43.85], [-91.3, 43.86], [-91.31, 43.87], [-91.32, 43.89], [-91.34, 43.9], [-91.35, 43.91], [-91.36, 43.92], [-91.36, 43.93], [-91.39, 43.95], [-91.41, 43.96], [-91.42, 43.98], [-91.43, 43.99], [-91.44, 44.0], [-91.47, 44.01], [-91.48, 44.01], [-91.51, 44.02], [-91.55, 44.02], [-91.58, 44.03], [-91.6, 44.03], [-91.61, 44.05], [-91.63, 44.06], [-91.64, 44.06], [-91.65, 44.06], [-91.66, 44.07], [-91.67, 44.09], [-91.68, 44.1], [-91.7, 44.1], [-91.71, 44.1], [-91.71, 44.12], [-91.72, 44.13], [-91.73, 44.13], [-91.75, 44.13], [-91.77, 44.15], [-91.8, 44.15], [-91.82, 44.16], [-91.83, 44.18], [-91.88, 44.2], [-91.88, 44.22], [-91.89, 44.23], [-91.89, 44.24], [-91.89, 44.25], [-91.9, 44.26], [-91.9, 44.27], [-91.9, 44.28], [-91.92, 44.29], [-91.92, 44.3], [-91.91, 44.31], [-91.92, 44.32], [-91.93, 44.34], [-91.94, 44.34], [-91.96, 44.36], [-91.97, 44.37], [-91.99, 44.37], [-92.0, 44.38], [-92.02, 44.38], [-92.04, 44.39], [-92.05, 44.4], [-92.08, 44.4], [-92.09, 44.41], [-92.11, 44.41], [-92.12, 44.42], [-92.16, 44.43], [-92.2, 44.43], [-92.22, 44.44], [-92.23, 44.45], [-92.25, 44.46], [-92.27, 44.47], [-92.28, 44.48], [-92.3, 44.49], [-92.3, 44.5], [-92.3, 44.52], [-92.32, 44.54], [-92.33, 44.55], [-92.35, 44.56], [-92.37, 44.56], [-92.39, 44.56], [-92.42, 44.56], [-92.43, 44.57], [-92.46, 44.56], [-92.48, 44.57], [-92.49, 44.57], [-92.52, 44.58], [-92.54, 44.57], [-92.55, 44.57], [-92.55, 44.58], [-92.57, 44.6], [-92.58, 44.6], [-92.6, 44.61], [-92.61, 44.61], [-92.62, 44.62], [-92.62, 44.63], [-92.62, 44.64], [-92.63, 44.65], [-92.66, 44.66], [-92.7, 44.69], [-92.74, 44.72], [-92.79, 44.74], [-92.8, 44.75], [-92.81, 44.75], [-92.81, 44.77], [-92.8, 44.78], [-92.79, 44.79], [-92.78, 44.81], [-92.77, 44.82], [-92.77, 44.84], [-92.77, 44.86], [-92.76, 44.87], [-92.77, 44.89], [-92.77, 44.9], [-92.76, 44.91], [-92.75, 44.94], [-92.75, 44.96], [-92.77, 44.97], [-92.77, 45.0], [-92.76, 45.02], [-92.77, 45.03], [-92.79, 45.04], [-92.8, 45.06], [-92.8, 45.07], [-92.79, 45.08], [-92.77, 45.09], [-92.74, 45.11], [-92.74, 45.12], [-92.75, 45.12], [-92.75, 45.15], [-92.76, 45.15], [-92.75, 45.17], [-92.76, 45.18], [-92.77, 45.19], [-92.76, 45.21], [-92.56, 45.21], [-92.5, 45.21], [-92.38, 45.21], [-92.24, 45.21], [-92.18, 45.21], [-91.83, 45.21], [-91.75, 45.21], [-91.67, 45.21], [-91.67, 45.12], [-91.65, 45.12], [-91.65, 45.09], [-91.65, 44.97], [-91.65, 44.86], [-91.53, 44.86], [-91.21, 44.86], [-90.92, 44.86]]]}}, {"type": "Feature", "properties": {"STATE": "Wisconsin", "STATE_FIPS": "55", "CD_2DIG": "05", "STATE_CODE": 47, "CLIMDIV": 4705, "ID": 4705, "CD_NEW": 5, "FIPS_CD": "5505", "NCDC_GEO_I": 235.0, "NAME": "CENTRAL", "ST_ABBRV": "WI", "SHAPE_AREA": 0.0, "SHAPE_LEN": 0.0}, "geometry": {"type": "Polygon", "coordinates": [[[-89.22, 44.68], [-89.05, 44.68], [-88.94, 44.68], [-88.87, 44.68], [-88.65, 44.68], [-88.61, 44.68], [-88.61, 44.59], [-88.74, 44.59], [-88.74, 44.47], [-88.74, 44.37], [-88.74, 44.3], [-88.74, 44.24], [-88.89, 44.24], [-88.89, 44.11], [-88.89, 44.0], [-88.89, 43.87], [-88.89, 43.79], [-88.89, 43.72], [-88.89, 43.63], [-89.01, 43.63], [-89.13, 43.63], [-89.13, 43.64], [-89.19, 43.64], [-89.38, 43.64], [-89.62, 43.64], [-89.72, 43.64], [-89.79, 43.64], [-89.97, 43.64], [-90.18, 43.64], [-90.31, 43.64], [-90.31, 43.73], [-90.31, 43.75], [-90.31, 43.85], [-90.31, 43.94], [-90.31, 43.96], [-90.31, 44.07], [-90.31, 44.18], [-90.31, 44.21], [-90.31, 44.25], [-90.32, 44.25], [-90.32, 44.39], [-90.32, 44.42], [-90.32, 44.53], [-90.32, 44.66], [-90.32, 44.69], [-90.12, 44.69], [-89.95, 44.68], [-89.75, 44.68], [-89.56, 44.69], [-89.49, 44.69], [-89.35, 44.68], [-89.22, 44.68]]]}}, {"type": "Feature", "properties": {"STATE": "Wisconsin", "STATE_FIPS": "55", "CD_2DIG": "06", "STATE_CODE": 47, "CLIMDIV": 4706, "ID": 4706, "CD_NEW": 6, "FIPS_CD": "5506", "NCDC_GEO_I": 236.0, "NAME": "EAST CENTRAL", "ST_ABBRV": "WI", "SHAPE_AREA": 0.0, "SHAPE_LEN": 0.0}, "geometry": {"type": "MultiPolygon", "coordinates": [[[[-87.79, 43.54], [-87.9, 43.54], [-88.04, 43.54], [-88.16, 43.54], [-88.26, 43.54], [-88.4, 43.54], [-88.4, 43.63], [-88.54, 43.63], [-88.66, 43.63], [-88.85, 43.63], [-88.89, 43.63], [-88.89, 43.72], [-88.89, 43.79], [-88.89, 43.87], [-88.89, 44.0], [-88.89, 44.11], [-88.89, 44.24], [-88.74, 44.24], [-88.74, 44.3], [-88.74, 44.37], [-88.74, 44.47], [-88.74, 44.59], [-88.61, 44.59], [-88.39, 44.59], [-88.31, 44.59], [-88.25, 44.58], [-88.24, 44.66], [-88.25, 44.66], [-88.25, 44.68], [-88.23, 44.68], [-88.23, 44.67], [-88.2, 44.67], [-88.13, 44.68], [-87.99, 44.68], [-88.0, 44.66], [-88.0, 44.64], [-88.01, 44.64], [-88.01, 44.63], [-88.01, 44.62], [-88.01, 44.6], [-88.02, 44.58], [-88.03, 44.58], [-88.04, 44.56], [-88.01, 44.54], [-87.98, 44.53], [-87.96, 44.53], [-87.94, 44.53], [-87.93, 44.54], [-87.9, 44.57], [-87.91, 44.58], [-87.88, 44.6], [-87.87, 44.61], [-87.86, 44.62], [-87.84, 44.62], [-87.81, 44.64], [-87.78, 44.64], [-87.77, 44.64], [-87.75, 44.65], [-87.75, 44.67], [-87.73, 44.68], [-87.72, 44.69], [-87.72, 44.71], [-87.72, 44.72], [-87.72, 44.73], [-87.71, 44.74], [-87.69, 44.76], [-87.68, 44.76], [-87.66, 44.78], [-87.66, 44.79], [-87.65, 44.8], [-87.64, 44.81], [-87.61, 44.84], [-87.59, 44.84], [-87.58, 44.85], [-87.57, 44.85], [-87.56, 44.85], [-87.57, 44.83], [-87.55, 44.82], [-87.54, 44.83], [-87.54, 44.84], [-87.53, 44.85], [-87.52, 44.85], [-87.5, 44.86], [-87.49, 44.85], [-87.46, 44.88], [-87.44, 44.88], [-87.42, 44.88], [-87.41, 44.86], [-87.39, 44.83], [-87.38, 44.83], [-87.39, 44.84], [-87.38, 44.86], [-87.39, 44.87], [-87.38, 44.89], [-87.4, 44.9], [-87.41, 44.9], [-87.39, 44.93], [-87.37, 44.96], [-87.36, 44.98], [-87.35, 45.0], [-87.34, 45.01], [-87.33, 45.01], [-87.32, 45.03], [-87.32, 45.04], [-87.31, 45.04], [-87.3, 45.05], [-87.29, 45.05], [-87.28, 45.05], [-87.28, 45.06], [-87.28, 45.07], [-87.27, 45.08], [-87.26, 45.09], [-87.26, 45.12], [-87.25, 45.13], [-87.24, 45.13], [-87.24, 45.15], [-87.23, 45.17], [-87.22, 45.16], [-87.2, 45.16], [-87.19, 45.15], [-87.17, 45.15], [-87.18, 45.17], [-87.17, 45.18], [-87.15, 45.19], [-87.15, 45.19], [-87.12, 45.19], [-87.12, 45.22], [-87.12, 45.24], [-87.11, 45.25], [-87.11, 45.26], [-87.1, 45.26], [-87.08, 45.25], [-87.07, 45.26], [-87.08, 45.27], [-87.07, 45.28], [-87.07, 45.3], [-87.06, 45.3], [-87.05, 45.29], [-87.02, 45.29], [-87.02, 45.3], [-87.0, 45.29], [-87.0, 45.3], [-86.98, 45.29], [-86.97, 45.28], [-86.99, 45.26], [-86.98, 45.25], [-86.99, 45.23], [-86.98, 45.23], [-86.98, 45.22], [-87.0, 45.21], [-87.01, 45.23], [-87.03, 45.23], [-87.04, 45.23], [-87.03, 45.22], [-87.04, 45.21], [-87.04, 45.2], [-87.05, 45.17], [-87.04, 45.16], [-87.03, 45.15], [-87.05, 45.14], [-87.06, 45.15], [-87.07, 45.16], [-87.08, 45.16], [-87.08, 45.14], [-87.07, 45.13], [-87.06, 45.12], [-87.05, 45.11], [-87.06, 45.09], [-87.07, 45.08], [-87.08, 45.1], [-87.1, 45.09], [-87.1, 45.08], [-87.09, 45.08], [-87.08, 45.07], [-87.08, 45.06], [-87.09, 45.06], [-87.1, 45.07], [-87.12, 45.07], [-87.12, 45.07], [-87.12, 45.04], [-87.14, 45.01], [-87.16, 45.01], [-87.19, 44.97], [-87.19, 44.95], [-87.18, 44.94], [-87.17, 44.93], [-87.19, 44.92], [-87.21, 44.91], [-87.22, 44.91], [-87.22, 44.9], [-87.21, 44.89], [-87.2, 44.88], [-87.22, 44.87], [-87.24, 44.86], [-87.26, 44.85], [-87.27, 44.84], [-87.28, 44.81], [-87.31, 44.8], [-87.32, 44.78], [-87.32, 44.77], [-87.34, 44.75], [-87.34, 44.72], [-87.35, 44.7], [-87.38, 44.67], [-87.38, 44.66], [-87.39, 44.64], [-87.41, 44.63], [-87.42, 44.62], [-87.42, 44.61], [-87.44, 44.6], [-87.45, 44.57], [-87.47, 44.55], [-87.47, 44.53], [-87.48, 44.51], [-87.48, 44.5], [-87.49, 44.48], [-87.5, 44.45], [-87.5, 44.44], [-87.51, 44.42], [-87.52, 44.39], [-87.52, 44.38], [-87.52, 44.37], [-87.53, 44.36], [-87.53, 44.34], [-87.54, 44.33], [-87.54, 44.31], [-87.54, 44.29], [-87.52, 44.26], [-87.51, 44.23], [-87.51, 44.21], [-87.52, 44.18], [-87.53, 44.17], [-87.54, 44.16], [-87.56, 44.14], [-87.6, 44.13], [-87.62, 44.12], [-87.65, 44.1], [-87.65, 44.09], [-87.66, 44.08], [-87.65, 44.07], [-87.66, 44.05], [-87.67, 44.04], [-87.68, 44.02], [-87.7, 43.99], [-87.7, 43.96], [-87.72, 43.94], [-87.73, 43.9], [-87.74, 43.88], [-87.74, 43.87], [-87.73, 43.85], [-87.73, 43.84], [-87.73, 43.81], [-87.71, 43.78], [-87.7, 43.76], [-87.7, 43.76], [-87.7, 43.75], [-87.71, 43.74], [-87.7, 43.71], [-87.7, 43.68], [-87.73, 43.65], [-87.76, 43.6], [-87.79, 43.57], [-87.79, 43.55], [-87.79, 43.54]]], [[[-86.93, 45.4], [-86.92, 45.41], [-86.89, 45.41], [-86.88, 45.41], [-86.86, 45.41], [-86.85, 45.41], [-86.85, 45.4], [-86.84, 45.39], [-86.85, 45.37], [-86.86, 45.36], [-86.87, 45.35], [-86.87, 45.33], [-86.88, 45.33], [-86.89, 45.34], [-86.9, 45.33], [-86.92, 45.35], [-86.93, 45.35], [-86.94, 45.35], [-86.94, 45.34], [-86.95, 45.34], [-86.96, 45.35], [-86.94, 45.35], [-86.96, 45.38], [-86.94, 45.42], [-86.93, 45.42], [-86.93, 45.4]]], [[[-87.33, 45.2], [-87.34, 45.17], [-87.35, 45.17], [-87.38, 45.18], [-87.38, 45.2], [-87.35, 45.2], [-87.33, 45.2]]], [[[-86.81, 45.41], [-86.83, 45.4], [-86.83, 45.43], [-86.82, 45.43], [-86.81, 45.42], [-86.81, 45.41]]], [[[-86.93, 45.33], [-86.92, 45.33], [-86.91, 45.32], [-86.92, 45.32], [-86.93, 45.33]]]]}}, {"type": "Feature", "properties": {"STATE": "Wisconsin", "STATE_FIPS": "55", "CD_2DIG": "07", "STATE_CODE": 47, "CLIMDIV": 4707, "ID": 4707, "CD_NEW": 7, "FIPS_CD": "5507", "NCDC_GEO_I": 237.0, "NAME": "SOUTHWEST", "ST_ABBRV": "WI", "SHAPE_AREA": 0.0, "SHAPE_LEN": 0.0}, "geometry": {"type": "Polygon", "coordinates": [[[-89.79, 43.64], [-89.78, 43.63], [-89.78, 43.63], [-89.77, 43.62], [-89.78, 43.61], [-89.76, 43.6], [-89.75, 43.61], [-89.74, 43.6], [-89.72, 43.6], [-89.72, 43.6], [-89.73, 43.58], [-89.73, 43.57], [-89.69, 43.57], [-89.67, 43.57], [-89.64, 43.56], [-89.62, 43.57], [-89.6, 43.56], [-89.6, 43.44], [-89.6, 43.38], [-89.62, 43.37], [-89.66, 43.36], [-89.68, 43.36], [-89.7, 43.34], [-89.7, 43.33], [-89.72, 43.32], [-89.73, 43.3], [-89.71, 43.28], [-89.72, 43.27], [-89.73, 43.26], [-89.75, 43.25], [-89.76, 43.25], [-89.77, 43.24], [-89.81, 43.24], [-89.82, 43.23], [-89.84, 43.21], [-89.84, 43.02], [-89.84, 42.98], [-89.84, 42.88], [-89.84, 42.77], [-89.84, 42.72], [-89.84, 42.51], [-89.95, 42.51], [-90.07, 42.51], [-90.16, 42.51], [-90.27, 42.51], [-90.39, 42.51], [-90.64, 42.51], [-90.64, 42.52], [-90.65, 42.54], [-90.65, 42.55], [-90.66, 42.57], [-90.68, 42.58], [-90.69, 42.59], [-90.69, 42.61], [-90.7, 42.63], [-90.72, 42.64], [-90.77, 42.65], [-90.84, 42.66], [-90.89, 42.67], [-90.92, 42.69], [-90.94, 42.68], [-90.95, 42.69], [-90.98, 42.7], [-91.0, 42.71], [-91.01, 42.72], [-91.02, 42.72], [-91.03, 42.73], [-91.03, 42.74], [-91.05, 42.74], [-91.07, 42.76], [-91.06, 42.76], [-91.07, 42.77], [-91.07, 42.78], [-91.08, 42.81], [-91.08, 42.83], [-91.09, 42.83], [-91.1, 42.83], [-91.09, 42.85], [-91.1, 42.86], [-91.1, 42.88], [-91.12, 42.9], [-91.14, 42.9], [-91.15, 42.91], [-91.14, 42.93], [-91.15, 42.94], [-91.15, 42.96], [-91.16, 42.98], [-91.16, 42.99], [-91.17, 43.04], [-91.18, 43.07], [-91.18, 43.07], [-91.18, 43.1], [-91.18, 43.13], [-91.18, 43.13], [-91.16, 43.14], [-91.14, 43.16], [-91.14, 43.17], [-91.12, 43.19], [-91.12, 43.2], [-91.11, 43.21], [-91.08, 43.23], [-91.06, 43.24], [-91.06, 43.25], [-91.07, 43.26], [-91.07, 43.27], [-91.09, 43.29], [-91.11, 43.31], [-91.13, 43.33], [-91.15, 43.33], [-91.18, 43.35], [-91.2, 43.35], [-91.21, 43.37], [-91.21, 43.37], [-91.2, 43.4], [-91.2, 43.42], [-91.23, 43.45], [-91.23, 43.46], [-91.22, 43.47], [-91.22, 43.48], [-91.22, 43.5], [-91.22, 43.51], [-91.23, 43.52], [-91.24, 43.54], [-91.24, 43.55], [-91.23, 43.56], [-91.23, 43.58], [-91.24, 43.59], [-91.26, 43.6], [-91.27, 43.62], [-91.27, 43.63], [-91.26, 43.64], [-91.26, 43.65], [-91.27, 43.65], [-91.27, 43.68], [-91.27, 43.7], [-91.27, 43.71], [-91.26, 43.73], [-91.12, 43.72], [-91.03, 43.72], [-90.9, 43.73], [-90.8, 43.73], [-90.66, 43.73], [-90.51, 43.73], [-90.43, 43.73], [-90.31, 43.73], [-90.31, 43.64], [-90.18, 43.64], [-89.97, 43.64], [-89.79, 43.64]]]}}, {"type": "Feature", "properties": {"STATE": "Wisconsin", "STATE_FIPS": "55", "CD_2DIG": "08", "STATE_CODE": 47, "CLIMDIV": 4708, "ID": 4708, "CD_NEW": 8, "FIPS_CD": "5508", "NCDC_GEO_I": 238.0, "NAME": "SOUTH CENTRAL", "ST_ABBRV": "WI", "SHAPE_AREA": 0.0, "SHAPE_LEN": 0.0}, "geometry": {"type": "Polygon", "coordinates": [[[-88.89, 43.63], [-88.85, 43.63], [-88.66, 43.63], [-88.54, 43.63], [-88.4, 43.63], [-88.4, 43.54], [-88.4, 43.45], [-88.4, 43.37], [-88.42, 43.37], [-88.42, 43.28], [-88.42, 43.19], [-88.46, 43.2], [-88.54, 43.2], [-88.54, 43.13], [-88.54, 43.01], [-88.54, 42.9], [-88.54, 42.84], [-88.6, 42.84], [-88.78, 42.84], [-88.78, 42.75], [-88.78, 42.67], [-88.78, 42.58], [-88.78, 42.49], [-88.81, 42.49], [-88.94, 42.5], [-88.99, 42.5], [-89.07, 42.5], [-89.13, 42.5], [-89.26, 42.5], [-89.35, 42.5], [-89.56, 42.5], [-89.67, 42.51], [-89.84, 42.51], [-89.84, 42.72], [-89.84, 42.77], [-89.84, 42.88], [-89.84, 42.98], [-89.84, 43.02], [-89.84, 43.21], [-89.82, 43.23], [-89.81, 43.24], [-89.77, 43.24], [-89.76, 43.25], [-89.75, 43.25], [-89.73, 43.26], [-89.72, 43.27], [-89.71, 43.28], [-89.73, 43.3], [-89.72, 43.32], [-89.7, 43.33], [-89.7, 43.34], [-89.68, 43.36], [-89.66, 43.36], [-89.62, 43.37], [-89.6, 43.38], [-89.6, 43.44], [-89.6, 43.56], [-89.62, 43.57], [-89.64, 43.56], [-89.67, 43.57], [-89.69, 43.57], [-89.73, 43.57], [-89.73, 43.58], [-89.72, 43.6], [-89.72, 43.6], [-89.74, 43.6], [-89.75, 43.61], [-89.76, 43.6], [-89.78, 43.61], [-89.77, 43.62], [-89.78, 43.63], [-89.78, 43.63], [-89.79, 43.64], [-89.72, 43.64], [-89.62, 43.64], [-89.38, 43.64], [-89.19, 43.64], [-89.13, 43.64], [-89.13, 43.63], [-89.01, 43.63], [-88.89, 43.63]]]}}, {"type": "Feature", "properties": {"STATE": "Wisconsin", "STATE_FIPS": "55", "CD_2DIG": "09", "STATE_CODE": 47, "CLIMDIV": 4709, "ID": 4709, "CD_NEW": 9, "FIPS_CD": "5509", "NCDC_GEO_I": 239.0, "NAME": "SOUTHEAST", "ST_ABBRV": "WI", "SHAPE_AREA": 0.0, "SHAPE_LEN": 0.0}, "geometry": {"type": "Polygon", "coordinates": [[[-87.79, 43.54], [-87.79, 43.53], [-87.79, 43.49], [-87.81, 43.46], [-87.83, 43.44], [-87.85, 43.41], [-87.87, 43.39], [-87.88, 43.37], [-87.88, 43.35], [-87.89, 43.32], [-87.89, 43.3], [-87.9, 43.28], [-87.91, 43.25], [-87.91, 43.23], [-87.9, 43.21], [-87.9, 43.2], [-87.89, 43.19], [-87.88, 43.17], [-87.9, 43.14], [-87.9, 43.13], [-87.89, 43.11], [-87.88, 43.1], [-87.87, 43.08], [-87.86, 43.07], [-87.88, 43.05], [-87.88, 43.05], [-87.9, 43.04], [-87.89, 43.01], [-87.88, 42.99], [-87.86, 42.98], [-87.85, 42.96], [-87.84, 42.94], [-87.85, 42.93], [-87.84, 42.91], [-87.85, 42.9], [-87.84, 42.89], [-87.84, 42.87], [-87.83, 42.85], [-87.82, 42.83], [-87.79, 42.81], [-87.76, 42.78], [-87.77, 42.77], [-87.78, 42.75], [-87.78, 42.73], [-87.79, 42.7], [-87.8, 42.68], [-87.82, 42.64], [-87.82, 42.62], [-87.82, 42.61], [-87.81, 42.58], [-87.81, 42.56], [-87.81, 42.54], [-87.81, 42.52], [-87.8, 42.49], [-87.92, 42.49], [-88.05, 42.5], [-88.12, 42.5], [-88.2, 42.5], [-88.22, 42.5], [-88.38, 42.49], [-88.6, 42.5], [-88.66, 42.49], [-88.78, 42.49], [-88.78, 42.58], [-88.78, 42.67], [-88.78, 42.75], [-88.78, 42.84], [-88.6, 42.84], [-88.54, 42.84], [-88.54, 42.9], [-88.54, 43.01], [-88.54, 43.13], [-88.54, 43.2], [-88.46, 43.2], [-88.42, 43.19], [-88.42, 43.28], [-88.42, 43.37], [-88.4, 43.37], [-88.4, 43.45], [-88.4, 43.54], [-88.26, 43.54], [-88.16, 43.54], [-88.04, 43.54], [-87.9, 43.54], [-87.79, 43.54]]]}}]}