{"type": "FeatureCollection", "features": [{"type": "Feature", "properties": {"STATE": "Wyoming", "STATE_FIPS": "56", "CD_2DIG": "01", "STATE_CODE": 48, "CLIMDIV": 4801, "ID": 4801, "CD_NEW": 1, "FIPS_CD": "5601", "NCDC_GEO_I": 313.0, "NAME": "YELLOWSTONE DRAINAGE", "ST_ABBRV": "WY", "SHAPE_AREA": 0.0, "SHAPE_LEN": 0.0}, "geometry": {"type": "MultiPolygon", "coordinates": [[[[-108.7, 45.0], [-108.71, 44.99], [-108.73, 44.96], [-108.75, 44.93], [-108.8, 44.89], [-108.83, 44.87], [-108.85, 44.85], [-108.86, 44.83], [-108.87, 44.82], [-108.91, 44.8], [-108.95, 44.78], [-108.97, 44.77], [-109.0, 44.76], [-109.01, 44.76], [-109.04, 44.76], [-109.07, 44.76], [-109.08, 44.76], [-109.11, 44.74], [-109.13, 44.73], [-109.15, 44.73], [-109.16, 44.72], [-109.18, 44.71], [-109.18, 44.69], [-109.16, 44.68], [-109.13, 44.67], [-109.13, 44.66], [-109.16, 44.65], [-109.19, 44.64], [-109.21, 44.64], [-109.23, 44.63], [-109.25, 44.64], [-109.26, 44.64], [-109.27, 44.62], [-109.29, 44.62], [-109.3, 44.63], [-109.31, 44.62], [-109.34, 44.63], [-109.35, 44.61], [-109.36, 44.61], [-109.37, 44.62], [-109.37, 44.65], [-109.37, 44.65], [-109.38, 44.66], [-109.4, 44.65], [-109.42, 44.66], [-109.43, 44.65], [-109.44, 44.63], [-109.47, 44.63], [-109.48, 44.61], [-109.5, 44.61], [-109.5, 44.6], [-109.53, 44.59], [-109.54, 44.59], [-109.55, 44.57], [-109.56, 44.58], [-109.58, 44.6], [-109.62, 44.6], [-109.62, 44.6], [-109.65, 44.62], [-109.67, 44.61], [-109.7, 44.63], [-109.72, 44.62], [-109.75, 44.6], [-109.76, 44.6], [-109.77, 44.61], [-109.78, 44.64], [-109.8, 44.63], [-109.81, 44.64], [-109.83, 44.64], [-109.85, 44.64], [-109.85, 44.67], [-109.86, 44.67], [-109.88, 44.66], [-109.91, 44.64], [-109.96, 44.63], [-109.98, 44.62], [-109.99, 44.63], [-110.01, 44.63], [-110.02, 44.63], [-110.04, 44.63], [-110.05, 44.62], [-110.07, 44.61], [-110.08, 44.59], [-110.09, 44.58], [-110.11, 44.58], [-110.13, 44.57], [-110.13, 44.56], [-110.17, 44.55], [-110.17, 44.54], [-110.15, 44.53], [-110.15, 44.51], [-110.14, 44.49], [-110.14, 44.48], [-110.15, 44.44], [-110.14, 44.43], [-110.13, 44.41], [-110.1, 44.41], [-110.08, 44.38], [-110.08, 44.38], [-110.07, 44.36], [-110.06, 44.34], [-110.06, 44.34], [-110.03, 44.33], [-110.01, 44.33], [-110.0, 44.33], [-109.99, 44.32], [-109.98, 44.32], [-109.96, 44.32], [-109.96, 44.31], [-109.96, 44.29], [-109.94, 44.28], [-109.91, 44.28], [-109.88, 44.26], [-109.83, 44.24], [-109.78, 44.21], [-109.77, 44.19], [-109.76, 44.15], [-109.76, 44.14], [-109.77, 44.13], [-109.77, 44.11], [-109.75, 44.1], [-109.75, 44.08], [-109.75, 44.06], [-109.74, 44.04], [-109.74, 44.03], [-109.77, 44.02], [-109.8, 44.01], [-109.82, 43.99], [-109.83, 43.97], [-109.85, 43.96], [-109.87, 43.96], [-109.9, 43.95], [-109.94, 43.96], [-109.96, 43.97], [-109.98, 43.95], [-109.99, 43.95], [-110.02, 43.97], [-110.05, 44.0], [-110.06, 44.01], [-110.1, 44.0], [-110.13, 44.0], [-110.14, 44.01], [-110.14, 44.02], [-110.15, 44.04], [-110.16, 44.04], [-110.2, 44.05], [-110.21, 44.06], [-110.2, 44.09], [-110.2, 44.11], [-110.2, 44.11], [-110.2, 44.14], [-110.21, 44.14], [-110.22, 44.15], [-110.22, 44.16], [-110.19, 44.18], [-110.19, 44.18], [-110.2, 44.19], [-110.21, 44.19], [-110.24, 44.18], [-110.3, 44.2], [-110.31, 44.2], [-110.33, 44.22], [-110.34, 44.23], [-110.37, 44.22], [-110.38, 44.22], [-110.38, 44.24], [-110.38, 44.25], [-110.38, 44.26], [-110.38, 44.28], [-110.37, 44.28], [-110.36, 44.31], [-110.37, 44.32], [-110.38, 44.33], [-110.41, 44.34], [-110.45, 44.35], [-110.46, 44.33], [-110.47, 44.34], [-110.47, 44.35], [-110.49, 44.35], [-110.5, 44.34], [-110.53, 44.34], [-110.55, 44.34], [-110.57, 44.35], [-110.61, 44.38], [-110.63, 44.4], [-110.66, 44.41], [-110.67, 44.42], [-110.67, 44.43], [-110.67, 44.44], [-110.66, 44.46], [-110.67, 44.48], [-110.69, 44.49], [-110.73, 44.49], [-110.75, 44.48], [-110.75, 44.48], [-110.72, 44.44], [-110.72, 44.43], [-110.75, 44.41], [-110.77, 44.4], [-110.78, 44.4], [-110.83, 44.39], [-110.84, 44.38], [-110.85, 44.37], [-110.84, 44.35], [-110.85, 44.35], [-110.86, 44.34], [-110.88, 44.35], [-110.89, 44.37], [-110.91, 44.39], [-110.93, 44.4], [-110.96, 44.43], [-110.97, 44.43], [-111.01, 44.42], [-111.02, 44.42], [-111.04, 44.43], [-111.05, 44.43], [-111.05, 44.43], [-111.05, 44.43], [-111.05, 44.44], [-111.05, 44.44], [-111.05, 44.44], [-111.05, 44.46], [-111.05, 44.47], [-111.05, 44.47], [-111.05, 44.48], [-111.05, 44.49], [-111.05, 44.54], [-111.05, 44.56], [-111.05, 44.62], [-111.06, 44.62], [-111.06, 44.73], [-111.06, 44.75], [-111.06, 44.87], [-111.06, 44.87], [-111.06, 44.93], [-111.06, 44.93], [-111.06, 44.94], [-111.06, 45.0], [-111.06, 45.0], [-111.0, 45.0], [-111.0, 45.0], [-110.88, 45.0], [-110.79, 45.0], [-110.71, 44.99], [-110.63, 44.99], [-110.49, 44.99], [-110.4, 44.99], [-110.36, 45.0], [-110.28, 45.0], [-110.2, 45.0], [-110.11, 45.0], [-110.0, 45.0], [-109.88, 45.0], [-109.75, 45.0], [-109.66, 45.0], [-109.57, 45.0], [-109.39, 45.0], [-109.1, 45.01], [-109.08, 45.0], [-109.07, 45.0], [-109.07, 45.0], [-109.07, 45.0], [-109.06, 45.0], [-109.06, 45.0], [-109.0, 45.0], [-108.74, 45.0], [-108.7, 45.0], [-108.7, 45.0]]], [[[-111.05, 44.13], [-111.05, 44.13], [-111.05, 44.16], [-111.05, 44.16], [-111.04, 44.15], [-111.05, 44.13], [-111.05, 44.13]]]]}}, {"type": "Feature", "properties": {"STATE": "Wyoming", "STATE_FIPS": "56", "CD_2DIG": "02", "STATE_CODE": 48, "CLIMDIV": 4802, "ID": 4802, "CD_NEW": 2, "FIPS_CD": "5602", "NCDC_GEO_I": 314.0, "NAME": "SNAKE DRAINAGE", "ST_ABBRV": "WY", "SHAPE_AREA": 0.0, "SHAPE_LEN": 0.0}, "geometry": {"type": "Polygon", "coordinates": [[[-109.87, 43.96], [-109.87, 43.94], [-109.87, 43.94], [-109.87, 43.93], [-109.85, 43.93], [-109.85, 43.92], [-109.86, 43.9], [-109.86, 43.9], [-109.83, 43.88], [-109.84, 43.87], [-109.84, 43.86], [-109.84, 43.85], [-109.86, 43.84], [-109.87, 43.84], [-109.86, 43.82], [-109.88, 43.82], [-109.9, 43.81], [-109.94, 43.8], [-109.95, 43.8], [-109.96, 43.79], [-110.0, 43.8], [-110.02, 43.8], [-110.04, 43.79], [-110.05, 43.76], [-110.09, 43.75], [-110.09, 43.74], [-110.06, 43.73], [-110.06, 43.72], [-110.04, 43.7], [-110.03, 43.69], [-110.06, 43.67], [-110.07, 43.65], [-110.07, 43.64], [-110.04, 43.63], [-110.04, 43.62], [-110.06, 43.6], [-110.06, 43.59], [-110.05, 43.58], [-109.98, 43.56], [-109.96, 43.54], [-109.95, 43.52], [-109.95, 43.5], [-109.96, 43.48], [-109.96, 43.47], [-109.94, 43.46], [-109.93, 43.46], [-109.91, 43.46], [-109.9, 43.49], [-109.86, 43.47], [-109.84, 43.47], [-109.82, 43.46], [-109.79, 43.46], [-109.79, 43.45], [-109.77, 43.44], [-109.77, 43.42], [-109.77, 43.4], [-109.79, 43.4], [-109.79, 43.4], [-109.79, 43.38], [-109.8, 43.37], [-109.81, 43.37], [-109.84, 43.38], [-109.9, 43.38], [-109.95, 43.39], [-109.97, 43.4], [-110.01, 43.43], [-110.03, 43.44], [-110.04, 43.45], [-110.07, 43.45], [-110.09, 43.44], [-110.1, 43.44], [-110.1, 43.42], [-110.09, 43.41], [-110.11, 43.39], [-110.12, 43.38], [-110.13, 43.37], [-110.15, 43.37], [-110.16, 43.38], [-110.19, 43.37], [-110.2, 43.36], [-110.22, 43.35], [-110.24, 43.36], [-110.25, 43.35], [-110.27, 43.34], [-110.26, 43.31], [-110.26, 43.3], [-110.25, 43.29], [-110.24, 43.28], [-110.22, 43.28], [-110.21, 43.28], [-110.2, 43.28], [-110.17, 43.24], [-110.17, 43.22], [-110.2, 43.21], [-110.2, 43.18], [-110.19, 43.15], [-110.19, 43.15], [-110.2, 43.12], [-110.21, 43.11], [-110.26, 43.1], [-110.29, 43.08], [-110.3, 43.07], [-110.34, 43.07], [-110.37, 43.07], [-110.4, 43.06], [-110.46, 43.05], [-110.47, 43.05], [-110.48, 43.03], [-110.48, 43.0], [-110.5, 42.99], [-110.51, 42.99], [-110.54, 42.98], [-110.55, 42.97], [-110.56, 42.97], [-110.57, 42.98], [-110.57, 42.99], [-110.58, 42.99], [-110.6, 43.01], [-110.62, 43.01], [-110.64, 42.99], [-110.64, 42.97], [-110.64, 42.97], [-110.61, 42.94], [-110.59, 42.93], [-110.6, 42.92], [-110.61, 42.91], [-110.59, 42.89], [-110.6, 42.87], [-110.57, 42.83], [-110.58, 42.81], [-110.57, 42.8], [-110.61, 42.8], [-110.62, 42.8], [-110.63, 42.79], [-110.63, 42.74], [-110.63, 42.72], [-110.63, 42.7], [-110.64, 42.69], [-110.62, 42.68], [-110.61, 42.66], [-110.61, 42.65], [-110.63, 42.63], [-110.62, 42.61], [-110.63, 42.6], [-110.63, 42.58], [-110.62, 42.57], [-110.61, 42.56], [-110.61, 42.54], [-110.62, 42.54], [-110.64, 42.53], [-110.64, 42.52], [-110.66, 42.53], [-110.68, 42.52], [-110.69, 42.53], [-110.7, 42.55], [-110.71, 42.56], [-110.73, 42.58], [-110.74, 42.58], [-110.77, 42.59], [-110.76, 42.57], [-110.77, 42.57], [-110.8, 42.55], [-110.8, 42.54], [-110.82, 42.54], [-110.83, 42.52], [-110.84, 42.5], [-110.85, 42.49], [-110.87, 42.48], [-110.89, 42.48], [-110.9, 42.5], [-110.91, 42.53], [-110.92, 42.53], [-110.94, 42.54], [-110.97, 42.54], [-110.99, 42.53], [-111.0, 42.51], [-111.0, 42.5], [-111.01, 42.5], [-111.03, 42.52], [-111.04, 42.52], [-111.05, 42.52], [-111.05, 42.52], [-111.05, 42.58], [-111.04, 42.72], [-111.04, 42.83], [-111.04, 42.98], [-111.04, 43.11], [-111.04, 43.25], [-111.05, 43.37], [-111.05, 43.42], [-111.05, 43.48], [-111.05, 43.5], [-111.05, 43.51], [-111.05, 43.62], [-111.05, 43.8], [-111.05, 43.91], [-111.05, 44.0], [-111.05, 44.02], [-111.05, 44.11], [-111.05, 44.12], [-111.05, 44.13], [-111.05, 44.13], [-111.04, 44.15], [-111.05, 44.16], [-111.05, 44.16], [-111.05, 44.17], [-111.05, 44.22], [-111.05, 44.27], [-111.05, 44.35], [-111.05, 44.37], [-111.05, 44.43], [-111.05, 44.43], [-111.04, 44.43], [-111.02, 44.42], [-111.01, 44.42], [-110.97, 44.43], [-110.96, 44.43], [-110.93, 44.4], [-110.91, 44.39], [-110.89, 44.37], [-110.88, 44.35], [-110.86, 44.34], [-110.85, 44.35], [-110.84, 44.35], [-110.85, 44.37], [-110.84, 44.38], [-110.83, 44.39], [-110.78, 44.4], [-110.77, 44.4], [-110.75, 44.41], [-110.72, 44.43], [-110.72, 44.44], [-110.75, 44.48], [-110.75, 44.48], [-110.73, 44.49], [-110.69, 44.49], [-110.67, 44.48], [-110.66, 44.46], [-110.67, 44.44], [-110.67, 44.43], [-110.67, 44.42], [-110.66, 44.41], [-110.63, 44.4], [-110.61, 44.38], [-110.57, 44.35], [-110.55, 44.34], [-110.53, 44.34], [-110.5, 44.34], [-110.49, 44.35], [-110.47, 44.35], [-110.47, 44.34], [-110.46, 44.33], [-110.45, 44.35], [-110.41, 44.34], [-110.38, 44.33], [-110.37, 44.32], [-110.36, 44.31], [-110.37, 44.28], [-110.38, 44.28], [-110.38, 44.26], [-110.38, 44.25], [-110.38, 44.24], [-110.38, 44.22], [-110.37, 44.22], [-110.34, 44.23], [-110.33, 44.22], [-110.31, 44.2], [-110.3, 44.2], [-110.24, 44.18], [-110.21, 44.19], [-110.2, 44.19], [-110.19, 44.18], [-110.19, 44.18], [-110.22, 44.16], [-110.22, 44.15], [-110.21, 44.14], [-110.2, 44.14], [-110.2, 44.11], [-110.2, 44.11], [-110.2, 44.09], [-110.21, 44.06], [-110.2, 44.05], [-110.16, 44.04], [-110.15, 44.04], [-110.14, 44.02], [-110.14, 44.01], [-110.13, 44.0], [-110.1, 44.0], [-110.06, 44.01], [-110.05, 44.0], [-110.02, 43.97], [-109.99, 43.95], [-109.98, 43.95], [-109.96, 43.97], [-109.94, 43.96], [-109.9, 43.95], [-109.87, 43.96]]]}}, {"type": "Feature", "properties": {"STATE": "Wyoming", "STATE_FIPS": "56", "CD_2DIG": "04", "STATE_CODE": 48, "CLIMDIV": 4804, "ID": 4804, "CD_NEW": 4, "FIPS_CD": "5604", "NCDC_GEO_I": 315.0, "NAME": "BIG HORN", "ST_ABBRV": "WY", "SHAPE_AREA": 0.0, "SHAPE_LEN": 0.0}, "geometry": {"type": "Polygon", "coordinates": [[[-107.22, 45.0], [-107.24, 44.99], [-107.25, 44.99], [-107.27, 45.0], [-107.32, 45.0], [-107.33, 44.99], [-107.33, 44.98], [-107.34, 44.97], [-107.34, 44.95], [-107.35, 44.94], [-107.39, 44.93], [-107.4, 44.92], [-107.44, 44.91], [-107.45, 44.91], [-107.47, 44.88], [-107.5, 44.89], [-107.51, 44.88], [-107.51, 44.86], [-107.52, 44.84], [-107.57, 44.83], [-107.63, 44.8], [-107.66, 44.8], [-107.69, 44.8], [-107.7, 44.79], [-107.71, 44.77], [-107.72, 44.77], [-107.74, 44.78], [-107.75, 44.78], [-107.76, 44.75], [-107.75, 44.73], [-107.74, 44.72], [-107.71, 44.71], [-107.69, 44.71], [-107.68, 44.68], [-107.65, 44.69], [-107.62, 44.7], [-107.61, 44.7], [-107.58, 44.69], [-107.56, 44.68], [-107.53, 44.66], [-107.54, 44.64], [-107.52, 44.63], [-107.5, 44.64], [-107.48, 44.64], [-107.48, 44.62], [-107.46, 44.61], [-107.45, 44.61], [-107.43, 44.61], [-107.41, 44.6], [-107.4, 44.6], [-107.38, 44.59], [-107.37, 44.57], [-107.36, 44.55], [-107.34, 44.55], [-107.33, 44.54], [-107.33, 44.52], [-107.31, 44.51], [-107.3, 44.5], [-107.3, 44.47], [-107.29, 44.45], [-107.25, 44.46], [-107.23, 44.46], [-107.2, 44.45], [-107.2, 44.44], [-107.2, 44.41], [-107.2, 44.41], [-107.17, 44.4], [-107.17, 44.4], [-107.17, 44.38], [-107.15, 44.37], [-107.15, 44.36], [-107.17, 44.35], [-107.17, 44.34], [-107.16, 44.33], [-107.13, 44.32], [-107.1, 44.3], [-107.11, 44.29], [-107.11, 44.27], [-107.1, 44.26], [-107.1, 44.25], [-107.08, 44.24], [-107.08, 44.23], [-107.05, 44.22], [-107.06, 44.2], [-107.08, 44.18], [-107.07, 44.17], [-107.08, 44.17], [-107.1, 44.16], [-107.12, 44.12], [-107.12, 44.11], [-107.12, 44.07], [-107.13, 44.05], [-107.13, 44.04], [-107.1, 44.02], [-107.07, 44.0], [-107.07, 43.99], [-107.1, 43.99], [-107.1, 43.97], [-107.11, 43.96], [-107.1, 43.95], [-107.09, 43.94], [-107.09, 43.93], [-107.09, 43.91], [-107.1, 43.9], [-107.08, 43.89], [-107.09, 43.88], [-107.11, 43.86], [-107.11, 43.84], [-107.12, 43.82], [-107.11, 43.79], [-107.11, 43.79], [-107.13, 43.77], [-107.15, 43.76], [-107.15, 43.75], [-107.15, 43.72], [-107.16, 43.71], [-107.16, 43.7], [-107.16, 43.66], [-107.17, 43.63], [-107.18, 43.62], [-107.2, 43.61], [-107.22, 43.6], [-107.22, 43.58], [-107.22, 43.56], [-107.23, 43.55], [-107.24, 43.54], [-107.24, 43.51], [-107.25, 43.5], [-107.25, 43.48], [-107.26, 43.46], [-107.26, 43.44], [-107.26, 43.43], [-107.27, 43.44], [-107.29, 43.44], [-107.33, 43.43], [-107.35, 43.44], [-107.36, 43.45], [-107.37, 43.45], [-107.39, 43.45], [-107.41, 43.45], [-107.42, 43.45], [-107.44, 43.46], [-107.45, 43.46], [-107.49, 43.46], [-107.5, 43.45], [-107.52, 43.45], [-107.53, 43.45], [-107.58, 43.49], [-107.6, 43.49], [-107.61, 43.48], [-107.62, 43.48], [-107.63, 43.49], [-107.62, 43.51], [-107.62, 43.52], [-107.62, 43.53], [-107.63, 43.54], [-107.64, 43.55], [-107.65, 43.58], [-107.67, 43.59], [-107.71, 43.59], [-107.72, 43.58], [-107.75, 43.56], [-107.77, 43.54], [-107.78, 43.53], [-107.78, 43.51], [-107.79, 43.5], [-107.82, 43.5], [-107.85, 43.5], [-107.89, 43.5], [-107.91, 43.49], [-107.93, 43.46], [-107.94, 43.46], [-107.97, 43.45], [-108.0, 43.44], [-108.02, 43.44], [-108.03, 43.44], [-108.04, 43.45], [-108.06, 43.45], [-108.08, 43.45], [-108.08, 43.46], [-108.11, 43.48], [-108.14, 43.49], [-108.15, 43.52], [-108.15, 43.54], [-108.17, 43.54], [-108.19, 43.56], [-108.2, 43.56], [-108.21, 43.58], [-108.23, 43.58], [-108.24, 43.57], [-108.25, 43.55], [-108.26, 43.54], [-108.28, 43.54], [-108.28, 43.52], [-108.27, 43.51], [-108.27, 43.5], [-108.28, 43.49], [-108.3, 43.46], [-108.31, 43.46], [-108.32, 43.46], [-108.36, 43.47], [-108.38, 43.47], [-108.41, 43.48], [-108.44, 43.49], [-108.46, 43.49], [-108.5, 43.5], [-108.54, 43.52], [-108.55, 43.52], [-108.58, 43.54], [-108.62, 43.56], [-108.63, 43.57], [-108.66, 43.58], [-108.69, 43.58], [-108.71, 43.6], [-108.72, 43.6], [-108.75, 43.6], [-108.77, 43.6], [-108.78, 43.6], [-108.79, 43.6], [-108.82, 43.61], [-108.84, 43.61], [-108.86, 43.62], [-108.87, 43.63], [-108.89, 43.64], [-108.9, 43.63], [-108.92, 43.63], [-108.95, 43.61], [-108.98, 43.62], [-109.0, 43.61], [-109.02, 43.61], [-109.06, 43.62], [-109.08, 43.64], [-109.11, 43.65], [-109.15, 43.67], [-109.16, 43.66], [-109.19, 43.66], [-109.21, 43.68], [-109.26, 43.72], [-109.25, 43.75], [-109.25, 43.77], [-109.27, 43.78], [-109.28, 43.8], [-109.28, 43.8], [-109.31, 43.81], [-109.32, 43.82], [-109.32, 43.82], [-109.33, 43.84], [-109.34, 43.84], [-109.36, 43.84], [-109.37, 43.85], [-109.37, 43.86], [-109.38, 43.88], [-109.4, 43.89], [-109.41, 43.89], [-109.41, 43.91], [-109.44, 43.91], [-109.44, 43.93], [-109.47, 43.93], [-109.47, 43.95], [-109.48, 43.95], [-109.5, 43.95], [-109.5, 43.94], [-109.52, 43.94], [-109.54, 43.96], [-109.56, 43.95], [-109.58, 43.94], [-109.59, 43.95], [-109.6, 43.95], [-109.61, 43.94], [-109.61, 43.93], [-109.63, 43.92], [-109.65, 43.91], [-109.66, 43.88], [-109.67, 43.87], [-109.66, 43.85], [-109.72, 43.84], [-109.75, 43.83], [-109.75, 43.81], [-109.77, 43.82], [-109.78, 43.8], [-109.8, 43.81], [-109.81, 43.82], [-109.83, 43.82], [-109.84, 43.82], [-109.86, 43.82], [-109.87, 43.84], [-109.86, 43.84], [-109.84, 43.85], [-109.84, 43.86], [-109.84, 43.87], [-109.83, 43.88], [-109.86, 43.9], [-109.86, 43.9], [-109.85, 43.92], [-109.85, 43.93], [-109.87, 43.93], [-109.87, 43.94], [-109.87, 43.94], [-109.87, 43.96], [-109.85, 43.96], [-109.83, 43.97], [-109.82, 43.99], [-109.8, 44.01], [-109.77, 44.02], [-109.74, 44.03], [-109.74, 44.04], [-109.75, 44.06], [-109.75, 44.08], [-109.75, 44.1], [-109.77, 44.11], [-109.77, 44.13], [-109.76, 44.14], [-109.76, 44.15], [-109.77, 44.19], [-109.78, 44.21], [-109.83, 44.24], [-109.88, 44.26], [-109.91, 44.28], [-109.94, 44.28], [-109.96, 44.29], [-109.96, 44.31], [-109.96, 44.32], [-109.98, 44.32], [-109.99, 44.32], [-110.0, 44.33], [-110.01, 44.33], [-110.03, 44.33], [-110.06, 44.34], [-110.06, 44.34], [-110.07, 44.36], [-110.08, 44.38], [-110.08, 44.38], [-110.1, 44.41], [-110.13, 44.41], [-110.14, 44.43], [-110.15, 44.44], [-110.14, 44.48], [-110.14, 44.49], [-110.15, 44.51], [-110.15, 44.53], [-110.17, 44.54], [-110.17, 44.55], [-110.13, 44.56], [-110.13, 44.57], [-110.11, 44.58], [-110.09, 44.58], [-110.08, 44.59], [-110.07, 44.61], [-110.05, 44.62], [-110.04, 44.63], [-110.02, 44.63], [-110.01, 44.63], [-109.99, 44.63], [-109.98, 44.62], [-109.96, 44.63], [-109.91, 44.64], [-109.88, 44.66], [-109.86, 44.67], [-109.85, 44.67], [-109.85, 44.64], [-109.83, 44.64], [-109.81, 44.64], [-109.8, 44.63], [-109.78, 44.64], [-109.77, 44.61], [-109.76, 44.6], [-109.75, 44.6], [-109.72, 44.62], [-109.7, 44.63], [-109.67, 44.61], [-109.65, 44.62], [-109.62, 44.6], [-109.62, 44.6], [-109.58, 44.6], [-109.56, 44.58], [-109.55, 44.57], [-109.54, 44.59], [-109.53, 44.59], [-109.5, 44.6], [-109.5, 44.61], [-109.48, 44.61], [-109.47, 44.63], [-109.44, 44.63], [-109.43, 44.65], [-109.42, 44.66], [-109.4, 44.65], [-109.38, 44.66], [-109.37, 44.65], [-109.37, 44.65], [-109.37, 44.62], [-109.36, 44.61], [-109.35, 44.61], [-109.34, 44.63], [-109.31, 44.62], [-109.3, 44.63], [-109.29, 44.62], [-109.27, 44.62], [-109.26, 44.64], [-109.25, 44.64], [-109.23, 44.63], [-109.21, 44.64], [-109.19, 44.64], [-109.16, 44.65], [-109.13, 44.66], [-109.13, 44.67], [-109.16, 44.68], [-109.18, 44.69], [-109.18, 44.71], [-109.16, 44.72], [-109.15, 44.73], [-109.13, 44.73], [-109.11, 44.74], [-109.08, 44.76], [-109.07, 44.76], [-109.04, 44.76], [-109.01, 44.76], [-109.0, 44.76], [-108.97, 44.77], [-108.95, 44.78], [-108.91, 44.8], [-108.87, 44.82], [-108.86, 44.83], [-108.85, 44.85], [-108.83, 44.87], [-108.8, 44.89], [-108.75, 44.93], [-108.73, 44.96], [-108.71, 44.99], [-108.7, 45.0], [-108.63, 45.0], [-108.62, 45.0], [-108.58, 45.0], [-108.57, 45.0], [-108.5, 45.0], [-108.38, 45.0], [-108.35, 45.0], [-108.27, 45.0], [-108.26, 45.0], [-108.26, 45.0], [-108.25, 45.0], [-108.23, 45.0], [-108.15, 45.0], [-108.0, 45.0], [-108.0, 45.0], [-107.75, 45.0], [-107.63, 45.0], [-107.63, 45.0], [-107.63, 45.0], [-107.61, 45.0], [-107.56, 45.0], [-107.5, 45.0], [-107.5, 45.0], [-107.5, 45.0], [-107.49, 45.0], [-107.46, 45.0], [-107.41, 45.0], [-107.38, 45.0], [-107.35, 45.0], [-107.28, 45.0], [-107.28, 45.0], [-107.25, 45.0], [-107.24, 45.0], [-107.22, 45.0]]]}}, {"type": "Feature", "properties": {"STATE": "Wyoming", "STATE_FIPS": "56", "CD_2DIG": "05", "STATE_CODE": 48, "CLIMDIV": 4805, "ID": 4805, "CD_NEW": 5, "FIPS_CD": "5605", "NCDC_GEO_I": 316.0, "NAME": "POWDER, LITTLE MISSOURI, TONGU", "ST_ABBRV": "WY", "SHAPE_AREA": 0.0, "SHAPE_LEN": 0.0}, "geometry": {"type": "Polygon", "coordinates": [[[-104.27, 45.0], [-104.27, 44.99], [-104.28, 44.98], [-104.3, 44.98], [-104.32, 44.98], [-104.33, 44.95], [-104.34, 44.95], [-104.36, 44.96], [-104.38, 44.96], [-104.41, 44.97], [-104.42, 44.97], [-104.47, 44.93], [-104.49, 44.92], [-104.52, 44.9], [-104.52, 44.88], [-104.53, 44.87], [-104.55, 44.86], [-104.56, 44.86], [-104.57, 44.85], [-104.59, 44.84], [-104.62, 44.82], [-104.63, 44.81], [-104.68, 44.78], [-104.69, 44.76], [-104.7, 44.73], [-104.71, 44.73], [-104.73, 44.73], [-104.75, 44.74], [-104.76, 44.73], [-104.78, 44.73], [-104.8, 44.71], [-104.81, 44.7], [-104.82, 44.67], [-104.82, 44.65], [-104.82, 44.64], [-104.82, 44.63], [-104.85, 44.61], [-104.86, 44.6], [-104.87, 44.58], [-104.87, 44.56], [-104.87, 44.54], [-104.88, 44.53], [-104.89, 44.53], [-104.92, 44.54], [-104.95, 44.54], [-104.96, 44.55], [-104.98, 44.55], [-105.0, 44.54], [-105.02, 44.54], [-105.03, 44.53], [-105.03, 44.49], [-105.05, 44.46], [-105.07, 44.46], [-105.08, 44.45], [-105.08, 44.41], [-105.12, 44.4], [-105.12, 44.4], [-105.12, 44.37], [-105.13, 44.36], [-105.14, 44.35], [-105.15, 44.34], [-105.17, 44.34], [-105.19, 44.34], [-105.2, 44.35], [-105.21, 44.35], [-105.23, 44.34], [-105.26, 44.35], [-105.27, 44.34], [-105.33, 44.35], [-105.35, 44.34], [-105.36, 44.34], [-105.38, 44.32], [-105.39, 44.31], [-105.42, 44.3], [-105.45, 44.31], [-105.46, 44.31], [-105.49, 44.32], [-105.53, 44.32], [-105.59, 44.31], [-105.64, 44.31], [-105.67, 44.31], [-105.66, 44.29], [-105.64, 44.27], [-105.64, 44.24], [-105.63, 44.23], [-105.63, 44.22], [-105.64, 44.22], [-105.67, 44.22], [-105.68, 44.2], [-105.67, 44.18], [-105.68, 44.18], [-105.72, 44.17], [-105.73, 44.15], [-105.74, 44.14], [-105.74, 44.13], [-105.73, 44.12], [-105.73, 44.11], [-105.74, 44.09], [-105.73, 44.08], [-105.74, 44.06], [-105.74, 44.05], [-105.75, 44.04], [-105.76, 44.03], [-105.76, 44.01], [-105.75, 44.0], [-105.74, 43.99], [-105.74, 43.98], [-105.76, 43.96], [-105.77, 43.95], [-105.79, 43.95], [-105.8, 43.94], [-105.8, 43.93], [-105.79, 43.92], [-105.78, 43.89], [-105.79, 43.88], [-105.8, 43.87], [-105.82, 43.87], [-105.83, 43.85], [-105.86, 43.84], [-105.87, 43.83], [-105.87, 43.82], [-105.88, 43.81], [-105.89, 43.79], [-105.88, 43.78], [-105.9, 43.75], [-105.89, 43.73], [-105.88, 43.72], [-105.86, 43.71], [-105.86, 43.7], [-105.85, 43.69], [-105.84, 43.7], [-105.82, 43.69], [-105.82, 43.68], [-105.82, 43.67], [-105.8, 43.67], [-105.8, 43.66], [-105.82, 43.64], [-105.8, 43.61], [-105.83, 43.6], [-105.84, 43.59], [-105.87, 43.6], [-105.89, 43.58], [-105.91, 43.57], [-105.93, 43.56], [-105.94, 43.55], [-105.93, 43.52], [-105.94, 43.51], [-105.97, 43.51], [-106.01, 43.5], [-106.02, 43.49], [-106.03, 43.47], [-106.05, 43.47], [-106.08, 43.46], [-106.1, 43.45], [-106.1, 43.44], [-106.09, 43.42], [-106.09, 43.41], [-106.07, 43.39], [-106.07, 43.36], [-106.05, 43.35], [-106.06, 43.33], [-106.04, 43.31], [-106.04, 43.29], [-106.03, 43.28], [-106.03, 43.25], [-106.02, 43.24], [-105.99, 43.23], [-105.98, 43.21], [-105.98, 43.2], [-105.99, 43.18], [-105.99, 43.17], [-106.03, 43.16], [-106.06, 43.15], [-106.08, 43.16], [-106.09, 43.15], [-106.11, 43.13], [-106.13, 43.13], [-106.13, 43.15], [-106.13, 43.16], [-106.18, 43.16], [-106.2, 43.16], [-106.24, 43.14], [-106.25, 43.12], [-106.27, 43.11], [-106.29, 43.12], [-106.32, 43.12], [-106.34, 43.12], [-106.36, 43.12], [-106.37, 43.12], [-106.39, 43.12], [-106.4, 43.1], [-106.42, 43.1], [-106.43, 43.11], [-106.45, 43.12], [-106.45, 43.13], [-106.45, 43.15], [-106.48, 43.16], [-106.49, 43.17], [-106.5, 43.18], [-106.53, 43.18], [-106.53, 43.2], [-106.53, 43.2], [-106.56, 43.19], [-106.57, 43.19], [-106.58, 43.18], [-106.61, 43.17], [-106.63, 43.17], [-106.65, 43.17], [-106.7, 43.18], [-106.71, 43.17], [-106.72, 43.16], [-106.75, 43.14], [-106.77, 43.11], [-106.78, 43.11], [-106.81, 43.12], [-106.82, 43.11], [-106.83, 43.11], [-106.86, 43.11], [-106.86, 43.1], [-106.88, 43.09], [-106.9, 43.09], [-106.92, 43.09], [-106.93, 43.07], [-106.95, 43.06], [-106.97, 43.05], [-106.98, 43.04], [-106.98, 43.02], [-106.99, 43.01], [-107.01, 42.99], [-107.04, 43.0], [-107.05, 42.98], [-107.08, 42.97], [-107.1, 42.96], [-107.11, 42.95], [-107.12, 42.94], [-107.16, 42.92], [-107.18, 42.9], [-107.21, 42.89], [-107.21, 42.89], [-107.22, 42.87], [-107.22, 42.84], [-107.23, 42.83], [-107.25, 42.81], [-107.28, 42.77], [-107.3, 42.77], [-107.32, 42.78], [-107.35, 42.82], [-107.36, 42.83], [-107.36, 42.84], [-107.38, 42.84], [-107.41, 42.85], [-107.43, 42.87], [-107.45, 42.89], [-107.48, 42.9], [-107.48, 42.91], [-107.47, 42.94], [-107.46, 42.95], [-107.45, 42.95], [-107.42, 42.95], [-107.39, 42.96], [-107.39, 42.97], [-107.39, 42.99], [-107.38, 43.0], [-107.35, 43.01], [-107.34, 43.02], [-107.3, 43.03], [-107.27, 43.05], [-107.26, 43.08], [-107.26, 43.09], [-107.22, 43.1], [-107.22, 43.11], [-107.21, 43.12], [-107.23, 43.13], [-107.23, 43.14], [-107.23, 43.15], [-107.24, 43.16], [-107.22, 43.2], [-107.23, 43.22], [-107.23, 43.23], [-107.22, 43.24], [-107.19, 43.26], [-107.18, 43.27], [-107.18, 43.29], [-107.19, 43.3], [-107.21, 43.32], [-107.24, 43.33], [-107.25, 43.35], [-107.27, 43.36], [-107.28, 43.37], [-107.27, 43.38], [-107.26, 43.39], [-107.26, 43.42], [-107.26, 43.43], [-107.26, 43.44], [-107.26, 43.46], [-107.25, 43.48], [-107.25, 43.5], [-107.24, 43.51], [-107.24, 43.54], [-107.23, 43.55], [-107.22, 43.56], [-107.22, 43.58], [-107.22, 43.6], [-107.2, 43.61], [-107.18, 43.62], [-107.17, 43.63], [-107.16, 43.66], [-107.16, 43.7], [-107.16, 43.71], [-107.15, 43.72], [-107.15, 43.75], [-107.15, 43.76], [-107.13, 43.77], [-107.11, 43.79], [-107.11, 43.79], [-107.12, 43.82], [-107.11, 43.84], [-107.11, 43.86], [-107.09, 43.88], [-107.08, 43.89], [-107.1, 43.9], [-107.09, 43.91], [-107.09, 43.93], [-107.09, 43.94], [-107.1, 43.95], [-107.11, 43.96], [-107.1, 43.97], [-107.1, 43.99], [-107.07, 43.99], [-107.07, 44.0], [-107.1, 44.02], [-107.13, 44.04], [-107.13, 44.05], [-107.12, 44.07], [-107.12, 44.11], [-107.12, 44.12], [-107.1, 44.16], [-107.08, 44.17], [-107.07, 44.17], [-107.08, 44.18], [-107.06, 44.2], [-107.05, 44.22], [-107.08, 44.23], [-107.08, 44.24], [-107.1, 44.25], [-107.1, 44.26], [-107.11, 44.27], [-107.11, 44.29], [-107.1, 44.3], [-107.13, 44.32], [-107.16, 44.33], [-107.17, 44.34], [-107.17, 44.35], [-107.15, 44.36], [-107.15, 44.37], [-107.17, 44.38], [-107.17, 44.4], [-107.17, 44.4], [-107.2, 44.41], [-107.2, 44.41], [-107.2, 44.44], [-107.2, 44.45], [-107.23, 44.46], [-107.25, 44.46], [-107.29, 44.45], [-107.3, 44.47], [-107.3, 44.5], [-107.31, 44.51], [-107.33, 44.52], [-107.33, 44.54], [-107.34, 44.55], [-107.36, 44.55], [-107.37, 44.57], [-107.38, 44.59], [-107.4, 44.6], [-107.41, 44.6], [-107.43, 44.61], [-107.45, 44.61], [-107.46, 44.61], [-107.48, 44.62], [-107.48, 44.64], [-107.5, 44.64], [-107.52, 44.63], [-107.54, 44.64], [-107.53, 44.66], [-107.56, 44.68], [-107.58, 44.69], [-107.61, 44.7], [-107.62, 44.7], [-107.65, 44.69], [-107.68, 44.68], [-107.69, 44.71], [-107.71, 44.71], [-107.74, 44.72], [-107.75, 44.73], [-107.76, 44.75], [-107.75, 44.78], [-107.74, 44.78], [-107.72, 44.77], [-107.71, 44.77], [-107.7, 44.79], [-107.69, 44.8], [-107.66, 44.8], [-107.63, 44.8], [-107.57, 44.83], [-107.52, 44.84], [-107.51, 44.86], [-107.51, 44.88], [-107.5, 44.89], [-107.47, 44.88], [-107.45, 44.91], [-107.44, 44.91], [-107.4, 44.92], [-107.39, 44.93], [-107.35, 44.94], [-107.34, 44.95], [-107.34, 44.97], [-107.33, 44.98], [-107.33, 44.99], [-107.32, 45.0], [-107.27, 45.0], [-107.25, 44.99], [-107.24, 44.99], [-107.22, 45.0], [-107.16, 45.0], [-107.11, 45.0], [-107.1, 45.0], [-107.09, 45.0], [-107.09, 45.0], [-107.08, 45.0], [-107.06, 45.0], [-107.0, 45.0], [-106.87, 45.0], [-106.63, 44.99], [-106.42, 44.99], [-106.25, 44.99], [-106.2, 44.99], [-106.13, 44.99], [-106.01, 44.99], [-106.0, 44.99], [-105.93, 44.99], [-105.92, 45.0], [-105.91, 45.0], [-105.91, 45.0], [-105.91, 45.0], [-105.9, 45.0], [-105.88, 45.0], [-105.85, 45.0], [-105.72, 45.0], [-105.49, 45.0], [-105.25, 45.0], [-105.0, 45.0], [-104.88, 45.0], [-104.77, 45.0], [-104.72, 45.0], [-104.57, 45.0], [-104.37, 45.0], [-104.27, 45.0]]]}}, {"type": "Feature", "properties": {"STATE": "Wyoming", "STATE_FIPS": "56", "CD_2DIG": "06", "STATE_CODE": 48, "CLIMDIV": 4806, "ID": 4806, "CD_NEW": 6, "FIPS_CD": "5606", "NCDC_GEO_I": 317.0, "NAME": "BELLE FOURCHE DRAINAGE", "ST_ABBRV": "WY", "SHAPE_AREA": 0.0, "SHAPE_LEN": 0.0}, "geometry": {"type": "Polygon", "coordinates": [[[-104.06, 45.0], [-104.06, 45.0], [-104.06, 45.0], [-104.06, 44.94], [-104.06, 44.91], [-104.06, 44.87], [-104.06, 44.81], [-104.06, 44.78], [-104.06, 44.77], [-104.06, 44.75], [-104.06, 44.75], [-104.06, 44.72], [-104.06, 44.7], [-104.06, 44.69], [-104.06, 44.69], [-104.06, 44.69], [-104.06, 44.69], [-104.06, 44.67], [-104.06, 44.67], [-104.06, 44.62], [-104.06, 44.58], [-104.06, 44.58], [-104.06, 44.56], [-104.06, 44.55], [-104.06, 44.54], [-104.06, 44.53], [-104.06, 44.38], [-104.06, 44.37], [-104.06, 44.36], [-104.06, 44.33], [-104.06, 44.25], [-104.05, 44.18], [-104.05, 44.14], [-104.05, 44.11], [-104.06, 44.11], [-104.07, 44.1], [-104.09, 44.11], [-104.13, 44.11], [-104.17, 44.11], [-104.18, 44.12], [-104.21, 44.13], [-104.22, 44.14], [-104.26, 44.15], [-104.28, 44.15], [-104.28, 44.15], [-104.3, 44.17], [-104.32, 44.17], [-104.32, 44.18], [-104.33, 44.2], [-104.34, 44.2], [-104.37, 44.18], [-104.39, 44.18], [-104.41, 44.15], [-104.41, 44.11], [-104.42, 44.11], [-104.44, 44.11], [-104.46, 44.13], [-104.49, 44.14], [-104.51, 44.15], [-104.54, 44.13], [-104.55, 44.14], [-104.57, 44.14], [-104.58, 44.16], [-104.6, 44.17], [-104.62, 44.17], [-104.65, 44.15], [-104.66, 44.15], [-104.71, 44.15], [-104.72, 44.15], [-104.74, 44.13], [-104.77, 44.11], [-104.79, 44.08], [-104.78, 44.07], [-104.76, 44.06], [-104.76, 44.06], [-104.77, 44.04], [-104.77, 44.03], [-104.75, 44.01], [-104.74, 44.0], [-104.74, 43.98], [-104.73, 43.96], [-104.72, 43.95], [-104.74, 43.94], [-104.76, 43.94], [-104.78, 43.96], [-104.81, 43.97], [-104.85, 43.99], [-104.85, 43.98], [-104.89, 43.95], [-104.91, 43.95], [-104.92, 43.95], [-104.92, 43.93], [-104.94, 43.94], [-104.95, 43.94], [-104.98, 43.93], [-105.01, 43.91], [-105.05, 43.89], [-105.07, 43.89], [-105.07, 43.89], [-105.1, 43.89], [-105.12, 43.88], [-105.13, 43.9], [-105.17, 43.92], [-105.19, 43.92], [-105.2, 43.91], [-105.19, 43.89], [-105.19, 43.87], [-105.2, 43.87], [-105.23, 43.86], [-105.25, 43.86], [-105.27, 43.85], [-105.29, 43.84], [-105.3, 43.84], [-105.31, 43.81], [-105.33, 43.8], [-105.37, 43.8], [-105.39, 43.81], [-105.4, 43.81], [-105.41, 43.81], [-105.42, 43.8], [-105.43, 43.77], [-105.45, 43.76], [-105.46, 43.75], [-105.49, 43.74], [-105.5, 43.73], [-105.5, 43.7], [-105.51, 43.69], [-105.53, 43.7], [-105.56, 43.71], [-105.59, 43.72], [-105.61, 43.71], [-105.63, 43.7], [-105.63, 43.69], [-105.63, 43.68], [-105.63, 43.67], [-105.65, 43.66], [-105.66, 43.65], [-105.66, 43.63], [-105.67, 43.63], [-105.69, 43.62], [-105.7, 43.62], [-105.71, 43.63], [-105.73, 43.63], [-105.75, 43.62], [-105.77, 43.62], [-105.8, 43.61], [-105.82, 43.64], [-105.8, 43.66], [-105.8, 43.67], [-105.82, 43.67], [-105.82, 43.68], [-105.82, 43.69], [-105.84, 43.7], [-105.85, 43.69], [-105.86, 43.7], [-105.86, 43.71], [-105.88, 43.72], [-105.89, 43.73], [-105.9, 43.75], [-105.88, 43.78], [-105.89, 43.79], [-105.88, 43.81], [-105.87, 43.82], [-105.87, 43.83], [-105.86, 43.84], [-105.83, 43.85], [-105.82, 43.87], [-105.8, 43.87], [-105.79, 43.88], [-105.78, 43.89], [-105.79, 43.92], [-105.8, 43.93], [-105.8, 43.94], [-105.79, 43.95], [-105.77, 43.95], [-105.76, 43.96], [-105.74, 43.98], [-105.74, 43.99], [-105.75, 44.0], [-105.76, 44.01], [-105.76, 44.03], [-105.75, 44.04], [-105.74, 44.05], [-105.74, 44.06], [-105.73, 44.08], [-105.74, 44.09], [-105.73, 44.11], [-105.73, 44.12], [-105.74, 44.13], [-105.74, 44.14], [-105.73, 44.15], [-105.72, 44.17], [-105.68, 44.18], [-105.67, 44.18], [-105.68, 44.2], [-105.67, 44.22], [-105.64, 44.22], [-105.63, 44.22], [-105.63, 44.23], [-105.64, 44.24], [-105.64, 44.27], [-105.66, 44.29], [-105.67, 44.31], [-105.64, 44.31], [-105.59, 44.31], [-105.53, 44.32], [-105.49, 44.32], [-105.46, 44.31], [-105.45, 44.31], [-105.42, 44.3], [-105.39, 44.31], [-105.38, 44.32], [-105.36, 44.34], [-105.35, 44.34], [-105.33, 44.35], [-105.27, 44.34], [-105.26, 44.35], [-105.23, 44.34], [-105.21, 44.35], [-105.2, 44.35], [-105.19, 44.34], [-105.17, 44.34], [-105.15, 44.34], [-105.14, 44.35], [-105.13, 44.36], [-105.12, 44.37], [-105.12, 44.4], [-105.12, 44.4], [-105.08, 44.41], [-105.08, 44.45], [-105.07, 44.46], [-105.05, 44.46], [-105.03, 44.49], [-105.03, 44.53], [-105.02, 44.54], [-105.0, 44.54], [-104.98, 44.55], [-104.96, 44.55], [-104.95, 44.54], [-104.92, 44.54], [-104.89, 44.53], [-104.88, 44.53], [-104.87, 44.54], [-104.87, 44.56], [-104.87, 44.58], [-104.86, 44.6], [-104.85, 44.61], [-104.82, 44.63], [-104.82, 44.64], [-104.82, 44.65], [-104.82, 44.67], [-104.81, 44.7], [-104.8, 44.71], [-104.78, 44.73], [-104.76, 44.73], [-104.75, 44.74], [-104.73, 44.73], [-104.71, 44.73], [-104.7, 44.73], [-104.69, 44.76], [-104.68, 44.78], [-104.63, 44.81], [-104.62, 44.82], [-104.59, 44.84], [-104.57, 44.85], [-104.56, 44.86], [-104.55, 44.86], [-104.53, 44.87], [-104.52, 44.88], [-104.52, 44.9], [-104.49, 44.92], [-104.47, 44.93], [-104.42, 44.97], [-104.41, 44.97], [-104.38, 44.96], [-104.36, 44.96], [-104.34, 44.95], [-104.33, 44.95], [-104.32, 44.98], [-104.3, 44.98], [-104.28, 44.98], [-104.27, 44.99], [-104.27, 45.0], [-104.12, 45.0], [-104.11, 45.0], [-104.07, 45.0], [-104.06, 45.0], [-104.06, 45.0]]]}}, {"type": "Feature", "properties": {"STATE": "Wyoming", "STATE_FIPS": "56", "CD_2DIG": "07", "STATE_CODE": 48, "CLIMDIV": 4807, "ID": 4807, "CD_NEW": 7, "FIPS_CD": "5607", "NCDC_GEO_I": 318.0, "NAME": "CHEYENNE & NIOBRARA DRAINAGE", "ST_ABBRV": "WY", "SHAPE_AREA": 0.0, "SHAPE_LEN": 0.0}, "geometry": {"type": "Polygon", "coordinates": [[[-104.05, 44.11], [-104.05, 44.03], [-104.05, 44.02], [-104.05, 44.0], [-104.05, 43.95], [-104.05, 43.94], [-104.06, 43.94], [-104.06, 43.94], [-104.06, 43.94], [-104.06, 43.89], [-104.06, 43.88], [-104.06, 43.87], [-104.06, 43.85], [-104.06, 43.75], [-104.05, 43.62], [-104.05, 43.58], [-104.05, 43.58], [-104.05, 43.58], [-104.05, 43.56], [-104.05, 43.53], [-104.05, 43.47], [-104.05, 43.43], [-104.05, 43.39], [-104.05, 43.37], [-104.05, 43.37], [-104.05, 43.33], [-104.05, 43.32], [-104.05, 43.31], [-104.05, 43.3], [-104.05, 43.3], [-104.05, 43.3], [-104.05, 43.29], [-104.05, 43.25], [-104.05, 43.25], [-104.05, 43.2], [-104.05, 43.2], [-104.05, 43.12], [-104.05, 43.1], [-104.05, 43.09], [-104.05, 43.07], [-104.05, 43.06], [-104.05, 43.04], [-104.05, 43.03], [-104.05, 43.02], [-104.05, 43.0], [-104.05, 43.0], [-104.05, 42.97], [-104.05, 42.95], [-104.05, 42.94], [-104.05, 42.93], [-104.05, 42.89], [-104.05, 42.87], [-104.05, 42.87], [-104.05, 42.87], [-104.05, 42.86], [-104.05, 42.84], [-104.05, 42.76], [-104.05, 42.75], [-104.05, 42.74], [-104.05, 42.7], [-104.05, 42.7], [-104.05, 42.66], [-104.05, 42.65], [-104.05, 42.65], [-104.05, 42.63], [-104.05, 42.63], [-104.05, 42.62], [-104.05, 42.61], [-104.05, 42.61], [-104.05, 42.61], [-104.05, 42.61], [-104.05, 42.61], [-104.05, 42.5], [-104.05, 42.42], [-104.08, 42.44], [-104.12, 42.47], [-104.14, 42.49], [-104.14, 42.51], [-104.15, 42.52], [-104.16, 42.53], [-104.2, 42.55], [-104.21, 42.56], [-104.22, 42.56], [-104.26, 42.56], [-104.28, 42.58], [-104.33, 42.61], [-104.35, 42.61], [-104.36, 42.61], [-104.37, 42.63], [-104.39, 42.64], [-104.41, 42.64], [-104.44, 42.64], [-104.47, 42.65], [-104.49, 42.64], [-104.51, 42.65], [-104.53, 42.65], [-104.56, 42.65], [-104.57, 42.65], [-104.59, 42.65], [-104.6, 42.65], [-104.62, 42.66], [-104.65, 42.68], [-104.65, 42.69], [-104.64, 42.73], [-104.65, 42.75], [-104.66, 42.76], [-104.67, 42.77], [-104.68, 42.77], [-104.71, 42.77], [-104.73, 42.77], [-104.74, 42.77], [-104.78, 42.78], [-104.8, 42.79], [-104.83, 42.8], [-104.84, 42.81], [-104.86, 42.82], [-104.88, 42.84], [-104.9, 42.83], [-104.92, 42.82], [-104.95, 42.82], [-104.97, 42.84], [-104.99, 42.83], [-105.02, 42.84], [-105.03, 42.84], [-105.05, 42.83], [-105.06, 42.84], [-105.07, 42.84], [-105.09, 42.85], [-105.12, 42.84], [-105.14, 42.85], [-105.16, 42.87], [-105.17, 42.87], [-105.17, 42.86], [-105.2, 42.86], [-105.25, 42.86], [-105.27, 42.88], [-105.3, 42.89], [-105.31, 42.91], [-105.33, 42.92], [-105.35, 42.94], [-105.39, 42.94], [-105.4, 42.94], [-105.43, 42.96], [-105.44, 42.97], [-105.46, 42.99], [-105.48, 43.0], [-105.51, 43.02], [-105.53, 43.02], [-105.56, 43.02], [-105.58, 43.02], [-105.59, 43.03], [-105.61, 43.05], [-105.62, 43.05], [-105.65, 43.06], [-105.66, 43.07], [-105.71, 43.08], [-105.76, 43.08], [-105.78, 43.09], [-105.8, 43.08], [-105.83, 43.08], [-105.85, 43.08], [-105.88, 43.07], [-105.89, 43.08], [-105.9, 43.07], [-105.91, 43.07], [-105.92, 43.07], [-105.94, 43.09], [-105.96, 43.1], [-105.96, 43.11], [-105.98, 43.13], [-105.98, 43.15], [-105.99, 43.17], [-105.99, 43.18], [-105.98, 43.2], [-105.98, 43.21], [-105.99, 43.23], [-106.02, 43.24], [-106.03, 43.25], [-106.03, 43.28], [-106.04, 43.29], [-106.04, 43.31], [-106.06, 43.33], [-106.05, 43.35], [-106.07, 43.36], [-106.07, 43.39], [-106.09, 43.41], [-106.09, 43.42], [-106.1, 43.44], [-106.1, 43.45], [-106.08, 43.46], [-106.05, 43.47], [-106.03, 43.47], [-106.02, 43.49], [-106.01, 43.5], [-105.97, 43.51], [-105.94, 43.51], [-105.93, 43.52], [-105.94, 43.55], [-105.93, 43.56], [-105.91, 43.57], [-105.89, 43.58], [-105.87, 43.6], [-105.84, 43.59], [-105.83, 43.6], [-105.8, 43.61], [-105.77, 43.62], [-105.75, 43.62], [-105.73, 43.63], [-105.71, 43.63], [-105.7, 43.62], [-105.69, 43.62], [-105.67, 43.63], [-105.66, 43.63], [-105.66, 43.65], [-105.65, 43.66], [-105.63, 43.67], [-105.63, 43.68], [-105.63, 43.69], [-105.63, 43.7], [-105.61, 43.71], [-105.59, 43.72], [-105.56, 43.71], [-105.53, 43.7], [-105.51, 43.69], [-105.5, 43.7], [-105.5, 43.73], [-105.49, 43.74], [-105.46, 43.75], [-105.45, 43.76], [-105.43, 43.77], [-105.42, 43.8], [-105.41, 43.81], [-105.4, 43.81], [-105.39, 43.81], [-105.37, 43.8], [-105.33, 43.8], [-105.31, 43.81], [-105.3, 43.84], [-105.29, 43.84], [-105.27, 43.85], [-105.25, 43.86], [-105.23, 43.86], [-105.2, 43.87], [-105.19, 43.87], [-105.19, 43.89], [-105.2, 43.91], [-105.19, 43.92], [-105.17, 43.92], [-105.13, 43.9], [-105.12, 43.88], [-105.1, 43.89], [-105.07, 43.89], [-105.07, 43.89], [-105.05, 43.89], [-105.01, 43.91], [-104.98, 43.93], [-104.95, 43.94], [-104.94, 43.94], [-104.92, 43.93], [-104.92, 43.95], [-104.91, 43.95], [-104.89, 43.95], [-104.85, 43.98], [-104.85, 43.99], [-104.81, 43.97], [-104.78, 43.96], [-104.76, 43.94], [-104.74, 43.94], [-104.72, 43.95], [-104.73, 43.96], [-104.74, 43.98], [-104.74, 44.0], [-104.75, 44.01], [-104.77, 44.03], [-104.77, 44.04], [-104.76, 44.06], [-104.76, 44.06], [-104.78, 44.07], [-104.79, 44.08], [-104.77, 44.11], [-104.74, 44.13], [-104.72, 44.15], [-104.71, 44.15], [-104.66, 44.15], [-104.65, 44.15], [-104.62, 44.17], [-104.6, 44.17], [-104.58, 44.16], [-104.57, 44.14], [-104.55, 44.14], [-104.54, 44.13], [-104.51, 44.15], [-104.49, 44.14], [-104.46, 44.13], [-104.44, 44.11], [-104.42, 44.11], [-104.41, 44.11], [-104.41, 44.15], [-104.39, 44.18], [-104.37, 44.18], [-104.34, 44.2], [-104.33, 44.2], [-104.32, 44.18], [-104.32, 44.17], [-104.3, 44.17], [-104.28, 44.15], [-104.28, 44.15], [-104.26, 44.15], [-104.22, 44.14], [-104.21, 44.13], [-104.18, 44.12], [-104.17, 44.11], [-104.13, 44.11], [-104.09, 44.11], [-104.07, 44.1], [-104.06, 44.11], [-104.05, 44.11]]]}}, {"type": "Feature", "properties": {"STATE": "Wyoming", "STATE_FIPS": "56", "CD_2DIG": "03", "STATE_CODE": 48, "CLIMDIV": 4803, "ID": 4803, "CD_NEW": 3, "FIPS_CD": "5603", "NCDC_GEO_I": 319.0, "NAME": "GREEN AND BEAR DRAINAGE", "ST_ABBRV": "WY", "SHAPE_AREA": 0.0, "SHAPE_LEN": 0.0}, "geometry": {"type": "Polygon", "coordinates": [[[-109.79, 43.4], [-109.78, 43.4], [-109.76, 43.38], [-109.74, 43.37], [-109.71, 43.37], [-109.7, 43.37], [-109.7, 43.35], [-109.7, 43.34], [-109.7, 43.33], [-109.68, 43.31], [-109.68, 43.3], [-109.68, 43.29], [-109.68, 43.24], [-109.67, 43.21], [-109.67, 43.21], [-109.66, 43.2], [-109.66, 43.17], [-109.65, 43.17], [-109.63, 43.16], [-109.62, 43.14], [-109.61, 43.12], [-109.6, 43.12], [-109.58, 43.11], [-109.57, 43.1], [-109.56, 43.07], [-109.56, 43.04], [-109.54, 43.01], [-109.53, 43.01], [-109.51, 43.01], [-109.49, 43.01], [-109.49, 43.0], [-109.46, 42.98], [-109.45, 42.97], [-109.43, 42.96], [-109.39, 42.94], [-109.38, 42.94], [-109.37, 42.94], [-109.36, 42.93], [-109.35, 42.91], [-109.32, 42.86], [-109.32, 42.86], [-109.29, 42.84], [-109.27, 42.82], [-109.25, 42.81], [-109.22, 42.8], [-109.21, 42.79], [-109.24, 42.78], [-109.24, 42.77], [-109.23, 42.75], [-109.22, 42.76], [-109.21, 42.77], [-109.19, 42.76], [-109.17, 42.75], [-109.16, 42.74], [-109.15, 42.74], [-109.14, 42.72], [-109.13, 42.71], [-109.13, 42.68], [-109.12, 42.67], [-109.12, 42.66], [-109.11, 42.65], [-109.1, 42.65], [-109.1, 42.63], [-109.1, 42.62], [-109.13, 42.61], [-109.13, 42.6], [-109.14, 42.57], [-109.16, 42.56], [-109.19, 42.55], [-109.19, 42.54], [-109.19, 42.52], [-109.18, 42.48], [-109.17, 42.48], [-109.14, 42.48], [-109.13, 42.47], [-109.12, 42.46], [-109.11, 42.45], [-109.09, 42.45], [-109.04, 42.43], [-109.03, 42.43], [-109.0, 42.41], [-108.97, 42.4], [-108.95, 42.4], [-108.94, 42.39], [-108.94, 42.38], [-108.92, 42.37], [-108.91, 42.35], [-108.87, 42.34], [-108.87, 42.33], [-108.87, 42.31], [-108.88, 42.3], [-108.87, 42.28], [-108.85, 42.26], [-108.86, 42.26], [-108.88, 42.24], [-108.88, 42.24], [-108.88, 42.22], [-108.87, 42.21], [-108.87, 42.19], [-108.87, 42.17], [-108.86, 42.15], [-108.84, 42.14], [-108.84, 42.12], [-108.85, 42.1], [-108.86, 42.09], [-108.88, 42.08], [-108.9, 42.06], [-108.91, 42.05], [-108.9, 42.02], [-108.92, 42.0], [-108.95, 41.98], [-108.95, 41.97], [-108.97, 41.97], [-109.0, 41.96], [-109.0, 41.95], [-109.01, 41.92], [-109.04, 41.91], [-109.06, 41.91], [-109.07, 41.91], [-109.07, 41.9], [-109.05, 41.88], [-109.02, 41.86], [-109.02, 41.84], [-109.03, 41.83], [-109.02, 41.81], [-108.99, 41.79], [-108.98, 41.79], [-108.98, 41.8], [-108.96, 41.81], [-108.95, 41.81], [-108.87, 41.82], [-108.84, 41.83], [-108.81, 41.84], [-108.79, 41.83], [-108.78, 41.82], [-108.76, 41.81], [-108.74, 41.8], [-108.72, 41.8], [-108.71, 41.8], [-108.69, 41.78], [-108.67, 41.78], [-108.64, 41.77], [-108.61, 41.76], [-108.6, 41.75], [-108.6, 41.73], [-108.59, 41.71], [-108.59, 41.68], [-108.61, 41.67], [-108.6, 41.66], [-108.59, 41.66], [-108.55, 41.66], [-108.52, 41.67], [-108.51, 41.67], [-108.5, 41.66], [-108.48, 41.66], [-108.45, 41.65], [-108.41, 41.65], [-108.39, 41.65], [-108.37, 41.65], [-108.36, 41.65], [-108.35, 41.64], [-108.34, 41.62], [-108.34, 41.61], [-108.35, 41.59], [-108.32, 41.56], [-108.3, 41.55], [-108.28, 41.56], [-108.24, 41.56], [-108.18, 41.58], [-108.13, 41.59], [-108.12, 41.6], [-108.13, 41.61], [-108.13, 41.63], [-108.08, 41.63], [-108.06, 41.64], [-108.03, 41.63], [-107.99, 41.59], [-107.97, 41.57], [-107.96, 41.56], [-107.94, 41.54], [-107.9, 41.51], [-107.88, 41.51], [-107.84, 41.51], [-107.82, 41.52], [-107.8, 41.53], [-107.78, 41.55], [-107.74, 41.56], [-107.73, 41.56], [-107.72, 41.54], [-107.71, 41.54], [-107.68, 41.54], [-107.68, 41.53], [-107.67, 41.52], [-107.64, 41.53], [-107.63, 41.52], [-107.61, 41.53], [-107.6, 41.53], [-107.58, 41.52], [-107.55, 41.52], [-107.54, 41.54], [-107.53, 41.55], [-107.51, 41.54], [-107.49, 41.52], [-107.48, 41.53], [-107.46, 41.55], [-107.44, 41.55], [-107.42, 41.55], [-107.4, 41.55], [-107.39, 41.53], [-107.37, 41.53], [-107.35, 41.54], [-107.33, 41.53], [-107.31, 41.52], [-107.32, 41.5], [-107.33, 41.48], [-107.32, 41.47], [-107.3, 41.46], [-107.3, 41.45], [-107.33, 41.44], [-107.34, 41.43], [-107.33, 41.41], [-107.34, 41.4], [-107.32, 41.39], [-107.29, 41.39], [-107.28, 41.37], [-107.26, 41.38], [-107.25, 41.39], [-107.24, 41.4], [-107.23, 41.39], [-107.2, 41.38], [-107.19, 41.37], [-107.16, 41.36], [-107.16, 41.35], [-107.16, 41.33], [-107.14, 41.33], [-107.13, 41.32], [-107.14, 41.31], [-107.16, 41.29], [-107.15, 41.28], [-107.13, 41.27], [-107.12, 41.24], [-107.12, 41.22], [-107.11, 41.22], [-107.1, 41.2], [-107.09, 41.2], [-107.08, 41.2], [-107.07, 41.2], [-107.03, 41.19], [-107.0, 41.18], [-106.99, 41.16], [-106.98, 41.15], [-107.0, 41.13], [-107.0, 41.11], [-106.99, 41.11], [-106.98, 41.11], [-106.96, 41.11], [-106.95, 41.11], [-106.94, 41.09], [-106.91, 41.09], [-106.89, 41.07], [-106.9, 41.06], [-106.91, 41.06], [-106.92, 41.05], [-106.93, 41.04], [-106.94, 41.03], [-106.93, 41.01], [-106.9, 41.01], [-106.88, 41.01], [-106.87, 41.0], [-107.0, 41.0], [-107.24, 41.0], [-107.37, 41.0], [-107.5, 41.0], [-107.75, 41.0], [-107.87, 41.0], [-108.05, 41.0], [-108.18, 41.0], [-108.38, 41.0], [-108.5, 41.0], [-108.53, 41.0], [-108.63, 41.0], [-108.88, 41.0], [-109.0, 41.0], [-109.02, 41.0], [-109.05, 41.0], [-109.19, 41.0], [-109.23, 41.0], [-109.25, 41.0], [-109.37, 41.0], [-109.5, 41.0], [-109.54, 41.0], [-109.62, 41.0], [-109.66, 41.0], [-109.81, 41.0], [-109.92, 41.0], [-109.98, 41.0], [-110.0, 41.0], [-110.01, 41.0], [-110.12, 41.0], [-110.13, 41.0], [-110.24, 41.0], [-110.25, 41.0], [-110.38, 40.99], [-110.5, 40.99], [-110.54, 41.0], [-110.68, 41.0], [-110.88, 41.0], [-111.05, 41.0], [-111.05, 41.12], [-111.05, 41.25], [-111.05, 41.36], [-111.05, 41.37], [-111.05, 41.37], [-111.05, 41.38], [-111.05, 41.38], [-111.05, 41.5], [-111.05, 41.62], [-111.05, 41.75], [-111.05, 41.94], [-111.05, 41.96], [-111.05, 41.98], [-111.05, 42.0], [-111.05, 42.01], [-111.05, 42.02], [-111.05, 42.1], [-111.05, 42.21], [-111.05, 42.42], [-111.05, 42.47], [-111.05, 42.49], [-111.05, 42.5], [-111.05, 42.52], [-111.05, 42.52], [-111.04, 42.52], [-111.03, 42.52], [-111.01, 42.5], [-111.0, 42.5], [-111.0, 42.51], [-110.99, 42.53], [-110.97, 42.54], [-110.94, 42.54], [-110.92, 42.53], [-110.91, 42.53], [-110.9, 42.5], [-110.89, 42.48], [-110.87, 42.48], [-110.85, 42.49], [-110.84, 42.5], [-110.83, 42.52], [-110.82, 42.54], [-110.8, 42.54], [-110.8, 42.55], [-110.77, 42.57], [-110.76, 42.57], [-110.77, 42.59], [-110.74, 42.58], [-110.73, 42.58], [-110.71, 42.56], [-110.7, 42.55], [-110.69, 42.53], [-110.68, 42.52], [-110.66, 42.53], [-110.64, 42.52], [-110.64, 42.53], [-110.62, 42.54], [-110.61, 42.54], [-110.61, 42.56], [-110.62, 42.57], [-110.63, 42.58], [-110.63, 42.6], [-110.62, 42.61], [-110.63, 42.63], [-110.61, 42.65], [-110.61, 42.66], [-110.62, 42.68], [-110.64, 42.69], [-110.63, 42.7], [-110.63, 42.72], [-110.63, 42.74], [-110.63, 42.79], [-110.62, 42.8], [-110.61, 42.8], [-110.57, 42.8], [-110.58, 42.81], [-110.57, 42.83], [-110.6, 42.87], [-110.59, 42.89], [-110.61, 42.91], [-110.6, 42.92], [-110.59, 42.93], [-110.61, 42.94], [-110.64, 42.97], [-110.64, 42.97], [-110.64, 42.99], [-110.62, 43.01], [-110.6, 43.01], [-110.58, 42.99], [-110.57, 42.99], [-110.57, 42.98], [-110.56, 42.97], [-110.55, 42.97], [-110.54, 42.98], [-110.51, 42.99], [-110.5, 42.99], [-110.48, 43.0], [-110.48, 43.03], [-110.47, 43.05], [-110.46, 43.05], [-110.4, 43.06], [-110.37, 43.07], [-110.34, 43.07], [-110.3, 43.07], [-110.29, 43.08], [-110.26, 43.1], [-110.21, 43.11], [-110.2, 43.12], [-110.19, 43.15], [-110.19, 43.15], [-110.2, 43.18], [-110.2, 43.21], [-110.17, 43.22], [-110.17, 43.24], [-110.2, 43.28], [-110.21, 43.28], [-110.22, 43.28], [-110.24, 43.28], [-110.25, 43.29], [-110.26, 43.3], [-110.26, 43.31], [-110.27, 43.34], [-110.25, 43.35], [-110.24, 43.36], [-110.22, 43.35], [-110.2, 43.36], [-110.19, 43.37], [-110.16, 43.38], [-110.15, 43.37], [-110.13, 43.37], [-110.12, 43.38], [-110.11, 43.39], [-110.09, 43.41], [-110.1, 43.42], [-110.1, 43.44], [-110.09, 43.44], [-110.07, 43.45], [-110.04, 43.45], [-110.03, 43.44], [-110.01, 43.43], [-109.97, 43.4], [-109.95, 43.39], [-109.9, 43.38], [-109.84, 43.38], [-109.81, 43.37], [-109.8, 43.37], [-109.79, 43.38], [-109.79, 43.4]]]}}, {"type": "Feature", "properties": {"STATE": "Wyoming", "STATE_FIPS": "56", "CD_2DIG": "10", "STATE_CODE": 48, "CLIMDIV": 4810, "ID": 4810, "CD_NEW": 10, "FIPS_CD": "5610", "NCDC_GEO_I": 320.0, "NAME": "UPPER PLATTE", "ST_ABBRV": "WY", "SHAPE_AREA": 0.0, "SHAPE_LEN": 0.0}, "geometry": {"type": "Polygon", "coordinates": [[[-107.28, 42.77], [-107.28, 42.76], [-107.27, 42.75], [-107.25, 42.76], [-107.24, 42.75], [-107.22, 42.75], [-107.2, 42.74], [-107.16, 42.73], [-107.12, 42.73], [-107.08, 42.72], [-107.07, 42.73], [-107.05, 42.73], [-107.03, 42.71], [-106.99, 42.71], [-106.97, 42.72], [-106.95, 42.72], [-106.92, 42.7], [-106.86, 42.7], [-106.84, 42.7], [-106.84, 42.68], [-106.82, 42.67], [-106.8, 42.66], [-106.8, 42.65], [-106.8, 42.64], [-106.84, 42.63], [-106.85, 42.62], [-106.86, 42.59], [-106.84, 42.57], [-106.84, 42.55], [-106.82, 42.52], [-106.84, 42.49], [-106.86, 42.48], [-106.86, 42.46], [-106.85, 42.46], [-106.83, 42.45], [-106.82, 42.44], [-106.81, 42.43], [-106.77, 42.44], [-106.74, 42.44], [-106.73, 42.44], [-106.72, 42.45], [-106.68, 42.45], [-106.6, 42.45], [-106.59, 42.43], [-106.59, 42.41], [-106.59, 42.4], [-106.58, 42.38], [-106.58, 42.37], [-106.56, 42.36], [-106.53, 42.37], [-106.52, 42.36], [-106.5, 42.36], [-106.48, 42.33], [-106.47, 42.32], [-106.46, 42.32], [-106.44, 42.32], [-106.41, 42.34], [-106.38, 42.35], [-106.36, 42.37], [-106.33, 42.38], [-106.31, 42.38], [-106.32, 42.41], [-106.31, 42.42], [-106.28, 42.42], [-106.26, 42.43], [-106.24, 42.43], [-106.21, 42.43], [-106.18, 42.43], [-106.17, 42.44], [-106.14, 42.44], [-106.12, 42.45], [-106.11, 42.45], [-106.09, 42.44], [-106.08, 42.43], [-106.07, 42.43], [-106.05, 42.45], [-106.03, 42.45], [-105.97, 42.45], [-105.96, 42.45], [-105.91, 42.47], [-105.9, 42.47], [-105.87, 42.47], [-105.87, 42.47], [-105.86, 42.44], [-105.84, 42.42], [-105.82, 42.42], [-105.82, 42.43], [-105.8, 42.42], [-105.77, 42.4], [-105.76, 42.38], [-105.77, 42.36], [-105.77, 42.34], [-105.77, 42.32], [-105.75, 42.31], [-105.74, 42.29], [-105.75, 42.26], [-105.74, 42.21], [-105.76, 42.19], [-105.76, 42.16], [-105.79, 42.14], [-105.8, 42.11], [-105.81, 42.1], [-105.8, 42.08], [-105.8, 42.06], [-105.79, 42.05], [-105.81, 42.03], [-105.8, 42.02], [-105.76, 42.03], [-105.75, 42.03], [-105.73, 42.01], [-105.71, 42.02], [-105.7, 42.02], [-105.68, 42.01], [-105.67, 42.01], [-105.66, 42.03], [-105.64, 42.03], [-105.64, 42.01], [-105.62, 42.01], [-105.62, 42.0], [-105.65, 41.99], [-105.68, 41.98], [-105.7, 41.97], [-105.7, 41.97], [-105.71, 41.96], [-105.72, 41.95], [-105.71, 41.93], [-105.73, 41.9], [-105.73, 41.89], [-105.73, 41.86], [-105.73, 41.86], [-105.74, 41.85], [-105.71, 41.83], [-105.71, 41.83], [-105.72, 41.82], [-105.7, 41.8], [-105.67, 41.8], [-105.65, 41.8], [-105.62, 41.81], [-105.61, 41.81], [-105.61, 41.78], [-105.6, 41.77], [-105.57, 41.75], [-105.57, 41.74], [-105.58, 41.72], [-105.57, 41.71], [-105.57, 41.69], [-105.55, 41.69], [-105.54, 41.68], [-105.54, 41.66], [-105.52, 41.65], [-105.51, 41.63], [-105.48, 41.62], [-105.47, 41.61], [-105.48, 41.59], [-105.49, 41.57], [-105.48, 41.55], [-105.49, 41.54], [-105.5, 41.52], [-105.51, 41.49], [-105.51, 41.49], [-105.47, 41.47], [-105.47, 41.46], [-105.46, 41.46], [-105.46, 41.45], [-105.46, 41.41], [-105.45, 41.4], [-105.44, 41.39], [-105.43, 41.37], [-105.43, 41.37], [-105.45, 41.32], [-105.45, 41.31], [-105.44, 41.28], [-105.45, 41.27], [-105.44, 41.23], [-105.45, 41.22], [-105.46, 41.21], [-105.46, 41.21], [-105.46, 41.19], [-105.46, 41.18], [-105.47, 41.17], [-105.46, 41.14], [-105.47, 41.12], [-105.47, 41.11], [-105.46, 41.09], [-105.45, 41.07], [-105.46, 41.06], [-105.48, 41.05], [-105.49, 41.04], [-105.52, 41.03], [-105.54, 41.02], [-105.56, 41.02], [-105.59, 41.03], [-105.61, 41.02], [-105.63, 41.01], [-105.64, 41.01], [-105.65, 41.01], [-105.66, 41.0], [-105.73, 41.0], [-106.0, 41.0], [-106.06, 41.0], [-106.22, 41.0], [-106.31, 41.0], [-106.39, 41.0], [-106.44, 41.0], [-106.63, 41.0], [-106.87, 41.0], [-106.88, 41.01], [-106.9, 41.01], [-106.93, 41.01], [-106.94, 41.03], [-106.93, 41.04], [-106.92, 41.05], [-106.91, 41.06], [-106.9, 41.06], [-106.89, 41.07], [-106.91, 41.09], [-106.94, 41.09], [-106.95, 41.11], [-106.96, 41.11], [-106.98, 41.11], [-106.99, 41.11], [-107.0, 41.11], [-107.0, 41.13], [-106.98, 41.15], [-106.99, 41.16], [-107.0, 41.18], [-107.03, 41.19], [-107.07, 41.2], [-107.08, 41.2], [-107.09, 41.2], [-107.1, 41.2], [-107.11, 41.22], [-107.12, 41.22], [-107.12, 41.24], [-107.13, 41.27], [-107.15, 41.28], [-107.16, 41.29], [-107.14, 41.31], [-107.13, 41.32], [-107.14, 41.33], [-107.16, 41.33], [-107.16, 41.35], [-107.16, 41.36], [-107.19, 41.37], [-107.2, 41.38], [-107.23, 41.39], [-107.24, 41.4], [-107.25, 41.39], [-107.26, 41.38], [-107.28, 41.37], [-107.29, 41.39], [-107.32, 41.39], [-107.34, 41.4], [-107.33, 41.41], [-107.34, 41.43], [-107.33, 41.44], [-107.3, 41.45], [-107.3, 41.46], [-107.32, 41.47], [-107.33, 41.48], [-107.32, 41.5], [-107.31, 41.52], [-107.33, 41.53], [-107.35, 41.54], [-107.37, 41.53], [-107.39, 41.53], [-107.4, 41.55], [-107.42, 41.55], [-107.44, 41.55], [-107.46, 41.55], [-107.48, 41.53], [-107.49, 41.52], [-107.51, 41.54], [-107.53, 41.55], [-107.54, 41.54], [-107.55, 41.52], [-107.58, 41.52], [-107.6, 41.53], [-107.61, 41.53], [-107.63, 41.52], [-107.64, 41.53], [-107.67, 41.52], [-107.68, 41.53], [-107.68, 41.54], [-107.71, 41.54], [-107.72, 41.54], [-107.73, 41.56], [-107.74, 41.56], [-107.78, 41.55], [-107.8, 41.53], [-107.82, 41.52], [-107.84, 41.51], [-107.88, 41.51], [-107.9, 41.51], [-107.94, 41.54], [-107.96, 41.56], [-107.97, 41.57], [-107.99, 41.59], [-108.03, 41.63], [-108.06, 41.64], [-108.08, 41.63], [-108.13, 41.63], [-108.13, 41.61], [-108.12, 41.6], [-108.13, 41.59], [-108.18, 41.58], [-108.24, 41.56], [-108.28, 41.56], [-108.3, 41.55], [-108.32, 41.56], [-108.35, 41.59], [-108.34, 41.61], [-108.34, 41.62], [-108.35, 41.64], [-108.36, 41.65], [-108.37, 41.65], [-108.39, 41.65], [-108.41, 41.65], [-108.45, 41.65], [-108.48, 41.66], [-108.5, 41.66], [-108.51, 41.67], [-108.52, 41.67], [-108.55, 41.66], [-108.59, 41.66], [-108.6, 41.66], [-108.61, 41.67], [-108.59, 41.68], [-108.59, 41.71], [-108.6, 41.73], [-108.6, 41.75], [-108.61, 41.76], [-108.64, 41.77], [-108.67, 41.78], [-108.69, 41.78], [-108.71, 41.8], [-108.72, 41.8], [-108.74, 41.8], [-108.76, 41.81], [-108.78, 41.82], [-108.79, 41.83], [-108.81, 41.84], [-108.84, 41.83], [-108.87, 41.82], [-108.95, 41.81], [-108.96, 41.81], [-108.98, 41.8], [-108.98, 41.79], [-108.99, 41.79], [-109.02, 41.81], [-109.03, 41.83], [-109.02, 41.84], [-109.02, 41.86], [-109.05, 41.88], [-109.07, 41.9], [-109.07, 41.91], [-109.06, 41.91], [-109.04, 41.91], [-109.01, 41.92], [-109.0, 41.95], [-109.0, 41.96], [-108.97, 41.97], [-108.95, 41.97], [-108.95, 41.98], [-108.92, 42.0], [-108.9, 42.02], [-108.91, 42.05], [-108.9, 42.06], [-108.88, 42.08], [-108.86, 42.09], [-108.85, 42.1], [-108.84, 42.12], [-108.84, 42.14], [-108.86, 42.15], [-108.87, 42.17], [-108.87, 42.19], [-108.87, 42.21], [-108.88, 42.22], [-108.88, 42.24], [-108.88, 42.24], [-108.86, 42.26], [-108.85, 42.26], [-108.87, 42.28], [-108.88, 42.3], [-108.87, 42.31], [-108.87, 42.33], [-108.87, 42.34], [-108.91, 42.35], [-108.92, 42.37], [-108.94, 42.38], [-108.94, 42.39], [-108.95, 42.4], [-108.97, 42.4], [-109.0, 42.41], [-109.03, 42.43], [-109.04, 42.43], [-109.09, 42.45], [-109.11, 42.45], [-109.12, 42.46], [-109.13, 42.47], [-109.14, 42.48], [-109.17, 42.48], [-109.18, 42.48], [-109.19, 42.52], [-109.19, 42.54], [-109.19, 42.55], [-109.16, 42.56], [-109.14, 42.57], [-109.13, 42.6], [-109.13, 42.61], [-109.1, 42.62], [-109.1, 42.63], [-109.1, 42.65], [-109.07, 42.65], [-109.06, 42.65], [-109.04, 42.64], [-109.02, 42.64], [-109.02, 42.63], [-109.02, 42.61], [-108.99, 42.61], [-108.98, 42.6], [-108.98, 42.58], [-108.95, 42.57], [-108.93, 42.56], [-108.91, 42.55], [-108.9, 42.56], [-108.87, 42.56], [-108.85, 42.57], [-108.82, 42.57], [-108.81, 42.56], [-108.79, 42.56], [-108.74, 42.55], [-108.71, 42.54], [-108.7, 42.53], [-108.69, 42.51], [-108.67, 42.5], [-108.66, 42.5], [-108.63, 42.5], [-108.62, 42.5], [-108.6, 42.49], [-108.59, 42.48], [-108.6, 42.47], [-108.58, 42.46], [-108.55, 42.46], [-108.51, 42.48], [-108.48, 42.49], [-108.45, 42.49], [-108.44, 42.49], [-108.42, 42.5], [-108.4, 42.51], [-108.38, 42.51], [-108.36, 42.51], [-108.34, 42.53], [-108.36, 42.55], [-108.35, 42.55], [-108.33, 42.57], [-108.31, 42.57], [-108.28, 42.6], [-108.28, 42.6], [-108.26, 42.62], [-108.25, 42.63], [-108.23, 42.65], [-108.2, 42.67], [-108.19, 42.68], [-108.17, 42.69], [-108.16, 42.71], [-108.15, 42.72], [-108.13, 42.73], [-108.13, 42.76], [-108.12, 42.76], [-108.09, 42.77], [-108.07, 42.76], [-108.05, 42.75], [-108.02, 42.75], [-108.02, 42.74], [-108.01, 42.73], [-107.99, 42.72], [-107.96, 42.73], [-107.94, 42.73], [-107.91, 42.74], [-107.9, 42.74], [-107.87, 42.74], [-107.85, 42.73], [-107.83, 42.71], [-107.82, 42.69], [-107.81, 42.68], [-107.8, 42.67], [-107.79, 42.67], [-107.76, 42.67], [-107.74, 42.68], [-107.71, 42.68], [-107.69, 42.7], [-107.65, 42.72], [-107.62, 42.75], [-107.62, 42.75], [-107.59, 42.75], [-107.57, 42.75], [-107.56, 42.77], [-107.53, 42.79], [-107.51, 42.78], [-107.48, 42.79], [-107.47, 42.8], [-107.42, 42.81], [-107.4, 42.8], [-107.39, 42.8], [-107.36, 42.82], [-107.36, 42.83], [-107.35, 42.82], [-107.32, 42.78], [-107.3, 42.77], [-107.28, 42.77]]]}}, {"type": "Feature", "properties": {"STATE": "Wyoming", "STATE_FIPS": "56", "CD_2DIG": "08", "STATE_CODE": 48, "CLIMDIV": 4808, "ID": 4808, "CD_NEW": 8, "FIPS_CD": "5608", "NCDC_GEO_I": 321.0, "NAME": "LOWER PLATTE", "ST_ABBRV": "WY", "SHAPE_AREA": 0.0, "SHAPE_LEN": 0.0}, "geometry": {"type": "Polygon", "coordinates": [[[-105.99, 43.17], [-105.98, 43.15], [-105.98, 43.13], [-105.96, 43.11], [-105.96, 43.1], [-105.94, 43.09], [-105.92, 43.07], [-105.91, 43.07], [-105.9, 43.07], [-105.89, 43.08], [-105.88, 43.07], [-105.85, 43.08], [-105.83, 43.08], [-105.8, 43.08], [-105.78, 43.09], [-105.76, 43.08], [-105.71, 43.08], [-105.66, 43.07], [-105.65, 43.06], [-105.62, 43.05], [-105.61, 43.05], [-105.59, 43.03], [-105.58, 43.02], [-105.56, 43.02], [-105.53, 43.02], [-105.51, 43.02], [-105.48, 43.0], [-105.46, 42.99], [-105.44, 42.97], [-105.43, 42.96], [-105.4, 42.94], [-105.39, 42.94], [-105.35, 42.94], [-105.33, 42.92], [-105.31, 42.91], [-105.3, 42.89], [-105.27, 42.88], [-105.25, 42.86], [-105.2, 42.86], [-105.17, 42.86], [-105.17, 42.87], [-105.16, 42.87], [-105.14, 42.85], [-105.12, 42.84], [-105.09, 42.85], [-105.07, 42.84], [-105.06, 42.84], [-105.05, 42.83], [-105.03, 42.84], [-105.02, 42.84], [-104.99, 42.83], [-104.97, 42.84], [-104.95, 42.82], [-104.92, 42.82], [-104.9, 42.83], [-104.88, 42.84], [-104.86, 42.82], [-104.84, 42.81], [-104.83, 42.8], [-104.8, 42.79], [-104.78, 42.78], [-104.74, 42.77], [-104.73, 42.77], [-104.71, 42.77], [-104.68, 42.77], [-104.67, 42.77], [-104.66, 42.76], [-104.65, 42.75], [-104.64, 42.73], [-104.65, 42.69], [-104.65, 42.68], [-104.62, 42.66], [-104.6, 42.65], [-104.59, 42.65], [-104.57, 42.65], [-104.56, 42.65], [-104.53, 42.65], [-104.51, 42.65], [-104.49, 42.64], [-104.47, 42.65], [-104.44, 42.64], [-104.41, 42.64], [-104.39, 42.64], [-104.37, 42.63], [-104.36, 42.61], [-104.35, 42.61], [-104.33, 42.61], [-104.28, 42.58], [-104.26, 42.56], [-104.22, 42.56], [-104.21, 42.56], [-104.2, 42.55], [-104.16, 42.53], [-104.15, 42.52], [-104.14, 42.51], [-104.14, 42.49], [-104.12, 42.47], [-104.08, 42.44], [-104.05, 42.42], [-104.05, 42.37], [-104.05, 42.36], [-104.05, 42.34], [-104.05, 42.33], [-104.05, 42.25], [-104.05, 42.25], [-104.05, 42.23], [-104.05, 42.15], [-104.05, 42.15], [-104.05, 42.14], [-104.05, 42.13], [-104.05, 42.13], [-104.05, 42.12], [-104.05, 42.03], [-104.05, 42.02], [-104.05, 42.02], [-104.05, 41.99], [-104.05, 41.99], [-104.05, 41.98], [-104.05, 41.96], [-104.05, 41.91], [-104.05, 41.87], [-104.05, 41.86], [-104.05, 41.86], [-104.05, 41.84], [-104.05, 41.84], [-104.05, 41.83], [-104.05, 41.83], [-104.05, 41.81], [-104.05, 41.81], [-104.05, 41.78], [-104.05, 41.78], [-104.05, 41.75], [-104.05, 41.62], [-104.05, 41.52], [-104.05, 41.52], [-104.05, 41.5], [-104.05, 41.5], [-104.05, 41.48], [-104.05, 41.41], [-104.05, 41.33], [-104.05, 41.28], [-104.05, 41.28], [-104.05, 41.25], [-104.05, 41.16], [-104.05, 41.12], [-104.05, 41.12], [-104.05, 41.11], [-104.05, 41.09], [-104.05, 41.09], [-104.05, 41.08], [-104.05, 41.05], [-104.05, 41.0], [-104.17, 41.0], [-104.36, 41.0], [-104.63, 41.0], [-104.8, 41.0], [-104.86, 41.0], [-105.16, 41.0], [-105.45, 41.0], [-105.66, 41.0], [-105.65, 41.01], [-105.64, 41.01], [-105.63, 41.01], [-105.61, 41.02], [-105.59, 41.03], [-105.56, 41.02], [-105.54, 41.02], [-105.52, 41.03], [-105.49, 41.04], [-105.48, 41.05], [-105.46, 41.06], [-105.45, 41.07], [-105.46, 41.09], [-105.47, 41.11], [-105.47, 41.12], [-105.46, 41.14], [-105.47, 41.17], [-105.46, 41.18], [-105.46, 41.19], [-105.46, 41.21], [-105.46, 41.21], [-105.45, 41.22], [-105.44, 41.23], [-105.45, 41.27], [-105.44, 41.28], [-105.45, 41.31], [-105.45, 41.32], [-105.43, 41.37], [-105.43, 41.37], [-105.44, 41.39], [-105.45, 41.4], [-105.46, 41.41], [-105.46, 41.45], [-105.46, 41.46], [-105.47, 41.46], [-105.47, 41.47], [-105.51, 41.49], [-105.51, 41.49], [-105.5, 41.52], [-105.49, 41.54], [-105.48, 41.55], [-105.49, 41.57], [-105.48, 41.59], [-105.47, 41.61], [-105.48, 41.62], [-105.51, 41.63], [-105.52, 41.65], [-105.54, 41.66], [-105.54, 41.68], [-105.55, 41.69], [-105.57, 41.69], [-105.57, 41.71], [-105.58, 41.72], [-105.57, 41.74], [-105.57, 41.75], [-105.6, 41.77], [-105.61, 41.78], [-105.61, 41.81], [-105.62, 41.81], [-105.65, 41.8], [-105.67, 41.8], [-105.7, 41.8], [-105.72, 41.82], [-105.71, 41.83], [-105.71, 41.83], [-105.74, 41.85], [-105.73, 41.86], [-105.73, 41.86], [-105.73, 41.89], [-105.73, 41.9], [-105.71, 41.93], [-105.72, 41.95], [-105.71, 41.96], [-105.7, 41.97], [-105.7, 41.97], [-105.68, 41.98], [-105.65, 41.99], [-105.62, 42.0], [-105.62, 42.01], [-105.64, 42.01], [-105.64, 42.03], [-105.66, 42.03], [-105.67, 42.01], [-105.68, 42.01], [-105.7, 42.02], [-105.71, 42.02], [-105.73, 42.01], [-105.75, 42.03], [-105.76, 42.03], [-105.8, 42.02], [-105.81, 42.03], [-105.79, 42.05], [-105.8, 42.06], [-105.8, 42.08], [-105.81, 42.1], [-105.8, 42.11], [-105.79, 42.14], [-105.76, 42.16], [-105.76, 42.19], [-105.74, 42.21], [-105.75, 42.26], [-105.74, 42.29], [-105.75, 42.31], [-105.77, 42.32], [-105.77, 42.34], [-105.77, 42.36], [-105.76, 42.38], [-105.77, 42.4], [-105.8, 42.42], [-105.82, 42.43], [-105.82, 42.42], [-105.84, 42.42], [-105.86, 42.44], [-105.87, 42.47], [-105.87, 42.47], [-105.9, 42.47], [-105.91, 42.47], [-105.96, 42.45], [-105.97, 42.45], [-106.03, 42.45], [-106.05, 42.45], [-106.07, 42.43], [-106.08, 42.43], [-106.09, 42.44], [-106.11, 42.45], [-106.12, 42.45], [-106.14, 42.44], [-106.17, 42.44], [-106.18, 42.43], [-106.21, 42.43], [-106.24, 42.43], [-106.26, 42.43], [-106.28, 42.42], [-106.31, 42.42], [-106.32, 42.41], [-106.31, 42.38], [-106.33, 42.38], [-106.36, 42.37], [-106.38, 42.35], [-106.41, 42.34], [-106.44, 42.32], [-106.46, 42.32], [-106.47, 42.32], [-106.48, 42.33], [-106.5, 42.36], [-106.52, 42.36], [-106.53, 42.37], [-106.56, 42.36], [-106.58, 42.37], [-106.58, 42.38], [-106.59, 42.4], [-106.59, 42.41], [-106.59, 42.43], [-106.6, 42.45], [-106.68, 42.45], [-106.72, 42.45], [-106.73, 42.44], [-106.74, 42.44], [-106.77, 42.44], [-106.81, 42.43], [-106.82, 42.44], [-106.83, 42.45], [-106.85, 42.46], [-106.86, 42.46], [-106.86, 42.48], [-106.84, 42.49], [-106.82, 42.52], [-106.84, 42.55], [-106.84, 42.57], [-106.86, 42.59], [-106.85, 42.62], [-106.84, 42.63], [-106.8, 42.64], [-106.8, 42.65], [-106.8, 42.66], [-106.82, 42.67], [-106.84, 42.68], [-106.84, 42.7], [-106.86, 42.7], [-106.92, 42.7], [-106.95, 42.72], [-106.97, 42.72], [-106.99, 42.71], [-107.03, 42.71], [-107.05, 42.73], [-107.07, 42.73], [-107.08, 42.72], [-107.12, 42.73], [-107.16, 42.73], [-107.2, 42.74], [-107.22, 42.75], [-107.24, 42.75], [-107.25, 42.76], [-107.27, 42.75], [-107.28, 42.76], [-107.28, 42.77], [-107.25, 42.81], [-107.23, 42.83], [-107.22, 42.84], [-107.22, 42.87], [-107.21, 42.89], [-107.21, 42.89], [-107.18, 42.9], [-107.16, 42.92], [-107.12, 42.94], [-107.11, 42.95], [-107.1, 42.96], [-107.08, 42.97], [-107.05, 42.98], [-107.04, 43.0], [-107.01, 42.99], [-106.99, 43.01], [-106.98, 43.02], [-106.98, 43.04], [-106.97, 43.05], [-106.95, 43.06], [-106.93, 43.07], [-106.92, 43.09], [-106.9, 43.09], [-106.88, 43.09], [-106.86, 43.1], [-106.86, 43.11], [-106.83, 43.11], [-106.82, 43.11], [-106.81, 43.12], [-106.78, 43.11], [-106.77, 43.11], [-106.75, 43.14], [-106.72, 43.16], [-106.71, 43.17], [-106.7, 43.18], [-106.65, 43.17], [-106.63, 43.17], [-106.61, 43.17], [-106.58, 43.18], [-106.57, 43.19], [-106.56, 43.19], [-106.53, 43.2], [-106.53, 43.2], [-106.53, 43.18], [-106.5, 43.18], [-106.49, 43.17], [-106.48, 43.16], [-106.45, 43.15], [-106.45, 43.13], [-106.45, 43.12], [-106.43, 43.11], [-106.42, 43.1], [-106.4, 43.1], [-106.39, 43.12], [-106.37, 43.12], [-106.36, 43.12], [-106.34, 43.12], [-106.32, 43.12], [-106.29, 43.12], [-106.27, 43.11], [-106.25, 43.12], [-106.24, 43.14], [-106.2, 43.16], [-106.18, 43.16], [-106.13, 43.16], [-106.13, 43.15], [-106.13, 43.13], [-106.11, 43.13], [-106.09, 43.15], [-106.08, 43.16], [-106.06, 43.15], [-106.03, 43.16], [-105.99, 43.17]]]}}, {"type": "Feature", "properties": {"STATE": "Wyoming", "STATE_FIPS": "56", "CD_2DIG": "09", "STATE_CODE": 48, "CLIMDIV": 4809, "ID": 4809, "CD_NEW": 9, "FIPS_CD": "5609", "NCDC_GEO_I": 322.0, "NAME": "WIND RIVER", "ST_ABBRV": "WY", "SHAPE_AREA": 0.0, "SHAPE_LEN": 0.0}, "geometry": {"type": "Polygon", "coordinates": [[[-107.26, 43.43], [-107.26, 43.42], [-107.26, 43.39], [-107.27, 43.38], [-107.28, 43.37], [-107.27, 43.36], [-107.25, 43.35], [-107.24, 43.33], [-107.21, 43.32], [-107.19, 43.3], [-107.18, 43.29], [-107.18, 43.27], [-107.19, 43.26], [-107.22, 43.24], [-107.23, 43.23], [-107.23, 43.22], [-107.22, 43.2], [-107.24, 43.16], [-107.23, 43.15], [-107.23, 43.14], [-107.23, 43.13], [-107.21, 43.12], [-107.22, 43.11], [-107.22, 43.1], [-107.26, 43.09], [-107.26, 43.08], [-107.27, 43.05], [-107.3, 43.03], [-107.34, 43.02], [-107.35, 43.01], [-107.38, 43.0], [-107.39, 42.99], [-107.39, 42.97], [-107.39, 42.96], [-107.42, 42.95], [-107.45, 42.95], [-107.46, 42.95], [-107.47, 42.94], [-107.48, 42.91], [-107.48, 42.9], [-107.45, 42.89], [-107.43, 42.87], [-107.41, 42.85], [-107.38, 42.84], [-107.36, 42.84], [-107.36, 42.83], [-107.36, 42.82], [-107.39, 42.8], [-107.4, 42.8], [-107.42, 42.81], [-107.47, 42.8], [-107.48, 42.79], [-107.51, 42.78], [-107.53, 42.79], [-107.56, 42.77], [-107.57, 42.75], [-107.59, 42.75], [-107.62, 42.75], [-107.62, 42.75], [-107.65, 42.72], [-107.69, 42.7], [-107.71, 42.68], [-107.74, 42.68], [-107.76, 42.67], [-107.79, 42.67], [-107.8, 42.67], [-107.81, 42.68], [-107.82, 42.69], [-107.83, 42.71], [-107.85, 42.73], [-107.87, 42.74], [-107.9, 42.74], [-107.91, 42.74], [-107.94, 42.73], [-107.96, 42.73], [-107.99, 42.72], [-108.01, 42.73], [-108.02, 42.74], [-108.02, 42.75], [-108.05, 42.75], [-108.07, 42.76], [-108.09, 42.77], [-108.12, 42.76], [-108.13, 42.76], [-108.13, 42.73], [-108.15, 42.72], [-108.16, 42.71], [-108.17, 42.69], [-108.19, 42.68], [-108.2, 42.67], [-108.23, 42.65], [-108.25, 42.63], [-108.26, 42.62], [-108.28, 42.6], [-108.28, 42.6], [-108.31, 42.57], [-108.33, 42.57], [-108.35, 42.55], [-108.36, 42.55], [-108.34, 42.53], [-108.36, 42.51], [-108.38, 42.51], [-108.4, 42.51], [-108.42, 42.5], [-108.44, 42.49], [-108.45, 42.49], [-108.48, 42.49], [-108.51, 42.48], [-108.55, 42.46], [-108.58, 42.46], [-108.6, 42.47], [-108.59, 42.48], [-108.6, 42.49], [-108.62, 42.5], [-108.63, 42.5], [-108.66, 42.5], [-108.67, 42.5], [-108.69, 42.51], [-108.7, 42.53], [-108.71, 42.54], [-108.74, 42.55], [-108.79, 42.56], [-108.81, 42.56], [-108.82, 42.57], [-108.85, 42.57], [-108.87, 42.56], [-108.9, 42.56], [-108.91, 42.55], [-108.93, 42.56], [-108.95, 42.57], [-108.98, 42.58], [-108.98, 42.6], [-108.99, 42.61], [-109.02, 42.61], [-109.02, 42.63], [-109.02, 42.64], [-109.04, 42.64], [-109.06, 42.65], [-109.07, 42.65], [-109.1, 42.65], [-109.11, 42.65], [-109.12, 42.66], [-109.12, 42.67], [-109.13, 42.68], [-109.13, 42.71], [-109.14, 42.72], [-109.15, 42.74], [-109.16, 42.74], [-109.17, 42.75], [-109.19, 42.76], [-109.21, 42.77], [-109.22, 42.76], [-109.23, 42.75], [-109.24, 42.77], [-109.24, 42.78], [-109.21, 42.79], [-109.22, 42.8], [-109.25, 42.81], [-109.27, 42.82], [-109.29, 42.84], [-109.32, 42.86], [-109.32, 42.86], [-109.35, 42.91], [-109.36, 42.93], [-109.37, 42.94], [-109.38, 42.94], [-109.39, 42.94], [-109.43, 42.96], [-109.45, 42.97], [-109.46, 42.98], [-109.49, 43.0], [-109.49, 43.01], [-109.51, 43.01], [-109.53, 43.01], [-109.54, 43.01], [-109.56, 43.04], [-109.56, 43.07], [-109.57, 43.1], [-109.58, 43.11], [-109.6, 43.12], [-109.61, 43.12], [-109.62, 43.14], [-109.63, 43.16], [-109.65, 43.17], [-109.66, 43.17], [-109.66, 43.2], [-109.67, 43.21], [-109.67, 43.21], [-109.68, 43.24], [-109.68, 43.29], [-109.68, 43.3], [-109.68, 43.31], [-109.7, 43.33], [-109.7, 43.34], [-109.7, 43.35], [-109.7, 43.37], [-109.71, 43.37], [-109.74, 43.37], [-109.76, 43.38], [-109.78, 43.4], [-109.79, 43.4], [-109.79, 43.4], [-109.77, 43.4], [-109.77, 43.42], [-109.77, 43.44], [-109.79, 43.45], [-109.79, 43.46], [-109.82, 43.46], [-109.84, 43.47], [-109.86, 43.47], [-109.9, 43.49], [-109.91, 43.46], [-109.93, 43.46], [-109.94, 43.46], [-109.96, 43.47], [-109.96, 43.48], [-109.95, 43.5], [-109.95, 43.52], [-109.96, 43.54], [-109.98, 43.56], [-110.05, 43.58], [-110.06, 43.59], [-110.06, 43.6], [-110.04, 43.62], [-110.04, 43.63], [-110.07, 43.64], [-110.07, 43.65], [-110.06, 43.67], [-110.03, 43.69], [-110.04, 43.7], [-110.06, 43.72], [-110.06, 43.73], [-110.09, 43.74], [-110.09, 43.75], [-110.05, 43.76], [-110.04, 43.79], [-110.02, 43.8], [-110.0, 43.8], [-109.96, 43.79], [-109.95, 43.8], [-109.94, 43.8], [-109.9, 43.81], [-109.88, 43.82], [-109.86, 43.82], [-109.84, 43.82], [-109.83, 43.82], [-109.81, 43.82], [-109.8, 43.81], [-109.78, 43.8], [-109.77, 43.82], [-109.75, 43.81], [-109.75, 43.83], [-109.72, 43.84], [-109.66, 43.85], [-109.67, 43.87], [-109.66, 43.88], [-109.65, 43.91], [-109.63, 43.92], [-109.61, 43.93], [-109.61, 43.94], [-109.6, 43.95], [-109.59, 43.95], [-109.58, 43.94], [-109.56, 43.95], [-109.54, 43.96], [-109.52, 43.94], [-109.5, 43.94], [-109.5, 43.95], [-109.48, 43.95], [-109.47, 43.95], [-109.47, 43.93], [-109.44, 43.93], [-109.44, 43.91], [-109.41, 43.91], [-109.41, 43.89], [-109.4, 43.89], [-109.38, 43.88], [-109.37, 43.86], [-109.37, 43.85], [-109.36, 43.84], [-109.34, 43.84], [-109.33, 43.84], [-109.32, 43.82], [-109.32, 43.82], [-109.31, 43.81], [-109.28, 43.8], [-109.28, 43.8], [-109.27, 43.78], [-109.25, 43.77], [-109.25, 43.75], [-109.26, 43.72], [-109.21, 43.68], [-109.19, 43.66], [-109.16, 43.66], [-109.15, 43.67], [-109.11, 43.65], [-109.08, 43.64], [-109.06, 43.62], [-109.02, 43.61], [-109.0, 43.61], [-108.98, 43.62], [-108.95, 43.61], [-108.92, 43.63], [-108.9, 43.63], [-108.89, 43.64], [-108.87, 43.63], [-108.86, 43.62], [-108.84, 43.61], [-108.82, 43.61], [-108.79, 43.6], [-108.78, 43.6], [-108.77, 43.6], [-108.75, 43.6], [-108.72, 43.6], [-108.71, 43.6], [-108.69, 43.58], [-108.66, 43.58], [-108.63, 43.57], [-108.62, 43.56], [-108.58, 43.54], [-108.55, 43.52], [-108.54, 43.52], [-108.5, 43.5], [-108.46, 43.49], [-108.44, 43.49], [-108.41, 43.48], [-108.38, 43.47], [-108.36, 43.47], [-108.32, 43.46], [-108.31, 43.46], [-108.3, 43.46], [-108.28, 43.49], [-108.27, 43.5], [-108.27, 43.51], [-108.28, 43.52], [-108.28, 43.54], [-108.26, 43.54], [-108.25, 43.55], [-108.24, 43.57], [-108.23, 43.58], [-108.21, 43.58], [-108.2, 43.56], [-108.19, 43.56], [-108.17, 43.54], [-108.15, 43.54], [-108.15, 43.52], [-108.14, 43.49], [-108.11, 43.48], [-108.08, 43.46], [-108.08, 43.45], [-108.06, 43.45], [-108.04, 43.45], [-108.03, 43.44], [-108.02, 43.44], [-108.0, 43.44], [-107.97, 43.45], [-107.94, 43.46], [-107.93, 43.46], [-107.91, 43.49], [-107.89, 43.5], [-107.85, 43.5], [-107.82, 43.5], [-107.79, 43.5], [-107.78, 43.51], [-107.78, 43.53], [-107.77, 43.54], [-107.75, 43.56], [-107.72, 43.58], [-107.71, 43.59], [-107.67, 43.59], [-107.65, 43.58], [-107.64, 43.55], [-107.63, 43.54], [-107.62, 43.53], [-107.62, 43.52], [-107.62, 43.51], [-107.63, 43.49], [-107.62, 43.48], [-107.61, 43.48], [-107.6, 43.49], [-107.58, 43.49], [-107.53, 43.45], [-107.52, 43.45], [-107.5, 43.45], [-107.49, 43.46], [-107.45, 43.46], [-107.44, 43.46], [-107.42, 43.45], [-107.41, 43.45], [-107.39, 43.45], [-107.37, 43.45], [-107.36, 43.45], [-107.35, 43.44], [-107.33, 43.43], [-107.29, 43.44], [-107.27, 43.44], [-107.26, 43.43]]]}}]}