{"type": "FeatureCollection", "features": [{"type": "Feature", "properties": {"ID": 1, "abbreviation": "AL", "name": "Alabama"}, "geometry": {"type": "MultiPolygon", "coordinates": [[[[-88.11, 30.26], [-88.1, 30.25], [-88.09, 30.26], [-88.07, 30.25], [-88.08, 30.24], [-88.11, 30.24], [-88.12, 30.25], [-88.14, 30.25], [-88.17, 30.25], [-88.21, 30.24], [-88.27, 30.23], [-88.26, 30.24], [-88.22, 30.25], [-88.18, 30.25], [-88.16, 30.25], [-88.14, 30.26], [-88.13, 30.25], [-88.12, 30.26], [-88.12, 30.27], [-88.11, 30.26]]], [[[-87.49, 30.29], [-87.52, 30.29], [-87.5, 30.3], [-87.49, 30.3], [-87.48, 30.3], [-87.46, 30.31], [-87.46, 30.3], [-87.49, 30.29]]], [[[-87.85, 35.01], [-87.66, 35.0], [-87.63, 35.0], [-87.52, 35.0], [-87.43, 35.0], [-87.31, 35.0], [-87.09, 35.0], [-86.94, 34.99], [-86.86, 34.99], [-86.64, 34.99], [-86.61, 34.99], [-86.46, 34.99], [-86.37, 34.99], [-86.32, 34.99], [-86.31, 34.99], [-86.25, 34.99], [-86.01, 34.99], [-85.82, 34.99], [-85.61, 34.98], [-85.6, 34.93], [-85.58, 34.82], [-85.56, 34.75], [-85.53, 34.63], [-85.51, 34.52], [-85.48, 34.38], [-85.47, 34.31], [-85.43, 34.13], [-85.42, 34.09], [-85.41, 34.02], [-85.4, 33.96], [-85.39, 33.9], [-85.37, 33.84], [-85.36, 33.75], [-85.33, 33.62], [-85.3, 33.48], [-85.28, 33.35], [-85.23, 33.11], [-85.2, 32.95], [-85.19, 32.87], [-85.18, 32.86], [-85.18, 32.85], [-85.16, 32.86], [-85.15, 32.84], [-85.17, 32.83], [-85.17, 32.83], [-85.17, 32.81], [-85.15, 32.79], [-85.14, 32.79], [-85.14, 32.79], [-85.13, 32.78], [-85.12, 32.77], [-85.14, 32.77], [-85.14, 32.76], [-85.13, 32.74], [-85.12, 32.74], [-85.11, 32.73], [-85.12, 32.72], [-85.12, 32.69], [-85.11, 32.68], [-85.1, 32.68], [-85.1, 32.67], [-85.09, 32.66], [-85.1, 32.64], [-85.08, 32.63], [-85.09, 32.62], [-85.08, 32.62], [-85.08, 32.6], [-85.07, 32.58], [-85.03, 32.55], [-85.03, 32.54], [-85.02, 32.54], [-85.01, 32.53], [-85.01, 32.52], [-85.0, 32.51], [-85.0, 32.49], [-85.0, 32.47], [-84.99, 32.45], [-84.97, 32.44], [-84.96, 32.42], [-84.98, 32.41], [-84.98, 32.39], [-84.99, 32.39], [-84.97, 32.38], [-84.99, 32.37], [-84.98, 32.36], [-85.0, 32.35], [-85.01, 32.34], [-85.01, 32.33], [-84.93, 32.3], [-84.92, 32.29], [-84.9, 32.27], [-84.89, 32.26], [-84.9, 32.26], [-84.92, 32.23], [-84.92, 32.22], [-84.93, 32.22], [-84.97, 32.22], [-84.98, 32.21], [-84.97, 32.2], [-84.97, 32.2], [-84.96, 32.2], [-84.97, 32.19], [-85.01, 32.18], [-85.03, 32.17], [-85.05, 32.14], [-85.06, 32.13], [-85.05, 32.1], [-85.05, 32.09], [-85.05, 32.08], [-85.06, 32.05], [-85.05, 32.04], [-85.06, 32.03], [-85.06, 32.01], [-85.06, 32.0], [-85.07, 31.98], [-85.07, 31.97], [-85.09, 31.96], [-85.08, 31.94], [-85.09, 31.93], [-85.1, 31.92], [-85.11, 31.91], [-85.11, 31.9], [-85.12, 31.89], [-85.13, 31.89], [-85.13, 31.88], [-85.14, 31.86], [-85.14, 31.85], [-85.14, 31.84], [-85.13, 31.82], [-85.13, 31.79], [-85.14, 31.78], [-85.13, 31.77], [-85.13, 31.76], [-85.12, 31.74], [-85.12, 31.73], [-85.13, 31.72], [-85.13, 31.7], [-85.11, 31.69], [-85.11, 31.68], [-85.09, 31.66], [-85.08, 31.66], [-85.09, 31.64], [-85.07, 31.63], [-85.06, 31.62], [-85.06, 31.61], [-85.06, 31.6], [-85.06, 31.58], [-85.06, 31.57], [-85.05, 31.56], [-85.04, 31.55], [-85.04, 31.54], [-85.05, 31.53], [-85.04, 31.52], [-85.07, 31.48], [-85.07, 31.47], [-85.07, 31.45], [-85.07, 31.43], [-85.07, 31.43], [-85.08, 31.41], [-85.08, 31.4], [-85.08, 31.38], [-85.09, 31.36], [-85.09, 31.36], [-85.09, 31.35], [-85.09, 31.34], [-85.08, 31.33], [-85.09, 31.29], [-85.1, 31.28], [-85.11, 31.28], [-85.11, 31.26], [-85.11, 31.26], [-85.1, 31.23], [-85.1, 31.23], [-85.1, 31.21], [-85.11, 31.2], [-85.11, 31.19], [-85.1, 31.18], [-85.1, 31.16], [-85.09, 31.16], [-85.08, 31.16], [-85.06, 31.14], [-85.05, 31.12], [-85.04, 31.11], [-85.03, 31.1], [-85.03, 31.08], [-85.03, 31.07], [-85.02, 31.06], [-85.01, 31.05], [-85.01, 31.03], [-85.0, 31.02], [-85.0, 31.01], [-85.0, 31.0], [-85.07, 31.0], [-85.24, 31.0], [-85.37, 31.0], [-85.5, 31.0], [-85.57, 31.0], [-85.75, 31.0], [-85.75, 30.99], [-85.87, 30.99], [-86.0, 30.99], [-86.12, 30.99], [-86.24, 30.99], [-86.29, 30.99], [-86.37, 30.99], [-86.38, 30.99], [-86.5, 30.99], [-86.56, 30.99], [-86.66, 31.0], [-86.7, 30.99], [-86.72, 31.0], [-86.93, 31.0], [-87.05, 31.0], [-87.15, 31.0], [-87.24, 31.0], [-87.25, 31.0], [-87.3, 31.0], [-87.41, 31.0], [-87.46, 31.0], [-87.6, 31.0], [-87.59, 30.96], [-87.59, 30.95], [-87.61, 30.92], [-87.62, 30.9], [-87.62, 30.9], [-87.62, 30.89], [-87.63, 30.88], [-87.63, 30.86], [-87.62, 30.85], [-87.63, 30.85], [-87.62, 30.83], [-87.6, 30.83], [-87.6, 30.82], [-87.58, 30.81], [-87.57, 30.8], [-87.56, 30.8], [-87.54, 30.78], [-87.55, 30.77], [-87.54, 30.76], [-87.54, 30.75], [-87.53, 30.74], [-87.51, 30.73], [-87.5, 30.72], [-87.48, 30.72], [-87.48, 30.71], [-87.47, 30.7], [-87.45, 30.7], [-87.44, 30.69], [-87.41, 30.68], [-87.4, 30.65], [-87.39, 30.63], [-87.4, 30.61], [-87.41, 30.6], [-87.41, 30.58], [-87.42, 30.57], [-87.43, 30.55], [-87.44, 30.53], [-87.45, 30.53], [-87.45, 30.51], [-87.43, 30.5], [-87.43, 30.5], [-87.43, 30.49], [-87.43, 30.49], [-87.43, 30.48], [-87.44, 30.48], [-87.42, 30.46], [-87.42, 30.46], [-87.42, 30.45], [-87.41, 30.45], [-87.4, 30.45], [-87.4, 30.42], [-87.41, 30.42], [-87.43, 30.42], [-87.44, 30.4], [-87.45, 30.4], [-87.45, 30.38], [-87.46, 30.37], [-87.46, 30.36], [-87.49, 30.34], [-87.49, 30.35], [-87.51, 30.34], [-87.51, 30.34], [-87.52, 30.32], [-87.52, 30.3], [-87.54, 30.29], [-87.56, 30.29], [-87.56, 30.29], [-87.56, 30.27], [-87.57, 30.27], [-87.61, 30.26], [-87.66, 30.25], [-87.68, 30.25], [-87.71, 30.24], [-87.74, 30.24], [-87.8, 30.23], [-87.83, 30.23], [-87.88, 30.23], [-87.94, 30.23], [-87.98, 30.23], [-88.01, 30.22], [-88.03, 30.22], [-88.02, 30.23], [-87.96, 30.24], [-87.95, 30.24], [-87.96, 30.25], [-87.94, 30.26], [-87.92, 30.25], [-87.92, 30.25], [-87.9, 30.24], [-87.88, 30.24], [-87.87, 30.24], [-87.85, 30.24], [-87.82, 30.25], [-87.8, 30.25], [-87.78, 30.26], [-87.77, 30.26], [-87.75, 30.28], [-87.76, 30.29], [-87.77, 30.31], [-87.8, 30.33], [-87.81, 30.33], [-87.83, 30.35], [-87.84, 30.37], [-87.84, 30.38], [-87.85, 30.38], [-87.87, 30.39], [-87.91, 30.41], [-87.91, 30.45], [-87.92, 30.47], [-87.93, 30.48], [-87.93, 30.5], [-87.92, 30.51], [-87.92, 30.52], [-87.9, 30.54], [-87.9, 30.55], [-87.9, 30.56], [-87.92, 30.59], [-87.91, 30.62], [-87.92, 30.63], [-87.92, 30.64], [-87.93, 30.64], [-87.93, 30.65], [-87.94, 30.66], [-87.93, 30.67], [-87.94, 30.67], [-87.95, 30.67], [-87.97, 30.67], [-88.0, 30.68], [-88.0, 30.69], [-87.99, 30.7], [-87.99, 30.72], [-87.99, 30.72], [-88.0, 30.71], [-88.01, 30.72], [-88.01, 30.73], [-88.0, 30.75], [-87.98, 30.76], [-87.99, 30.77], [-88.0, 30.77], [-88.01, 30.77], [-88.02, 30.76], [-88.02, 30.74], [-88.02, 30.7], [-88.03, 30.69], [-88.01, 30.69], [-88.02, 30.68], [-88.02, 30.67], [-88.03, 30.67], [-88.06, 30.66], [-88.06, 30.65], [-88.05, 30.63], [-88.06, 30.63], [-88.05, 30.61], [-88.06, 30.61], [-88.07, 30.59], [-88.08, 30.57], [-88.09, 30.56], [-88.08, 30.55], [-88.08, 30.53], [-88.09, 30.53], [-88.1, 30.51], [-88.1, 30.49], [-88.1, 30.47], [-88.11, 30.45], [-88.1, 30.43], [-88.11, 30.4], [-88.11, 30.38], [-88.11, 30.36], [-88.13, 30.34], [-88.14, 30.35], [-88.14, 30.34], [-88.16, 30.33], [-88.18, 30.32], [-88.19, 30.32], [-88.2, 30.32], [-88.19, 30.34], [-88.19, 30.34], [-88.19, 30.36], [-88.21, 30.36], [-88.22, 30.37], [-88.23, 30.37], [-88.24, 30.38], [-88.26, 30.38], [-88.27, 30.38], [-88.28, 30.39], [-88.29, 30.39], [-88.3, 30.39], [-88.3, 30.37], [-88.31, 30.37], [-88.31, 30.38], [-88.32, 30.39], [-88.34, 30.4], [-88.34, 30.4], [-88.36, 30.41], [-88.37, 30.39], [-88.38, 30.4], [-88.4, 30.39], [-88.4, 30.53], [-88.41, 30.61], [-88.41, 30.72], [-88.42, 30.88], [-88.43, 31.0], [-88.43, 31.11], [-88.43, 31.15], [-88.44, 31.28], [-88.45, 31.37], [-88.45, 31.49], [-88.46, 31.62], [-88.46, 31.71], [-88.47, 31.89], [-88.47, 31.95], [-88.45, 32.12], [-88.43, 32.25], [-88.42, 32.31], [-88.41, 32.38], [-88.39, 32.58], [-88.37, 32.75], [-88.35, 32.88], [-88.34, 32.99], [-88.33, 33.07], [-88.32, 33.18], [-88.29, 33.37], [-88.28, 33.5], [-88.27, 33.59], [-88.25, 33.72], [-88.23, 33.87], [-88.22, 33.94], [-88.21, 34.03], [-88.2, 34.09], [-88.19, 34.18], [-88.19, 34.2], [-88.19, 34.22], [-88.17, 34.32], [-88.17, 34.38], [-88.16, 34.46], [-88.15, 34.5], [-88.13, 34.63], [-88.12, 34.72], [-88.12, 34.75], [-88.11, 34.81], [-88.1, 34.89], [-88.14, 34.91], [-88.15, 34.92], [-88.17, 34.96], [-88.19, 34.97], [-88.2, 35.0], [-88.2, 35.01], [-88.16, 35.01], [-88.0, 35.01], [-87.85, 35.01]]]]}}]}