{"type": "FeatureCollection", "features": [{"type": "Feature", "properties": {"ID": 2, "abbreviation": "AZ", "name": "Arizona"}, "geometry": {"type": "Polygon", "coordinates": [[[-110.49, 37.0], [-110.47, 37.0], [-110.25, 37.0], [-110.02, 37.0], [-109.97, 37.0], [-109.94, 37.0], [-109.75, 37.0], [-109.63, 37.0], [-109.5, 37.0], [-109.36, 37.0], [-109.19, 37.0], [-109.12, 37.0], [-109.07, 37.0], [-109.05, 37.0], [-109.05, 37.0], [-109.05, 37.0], [-109.05, 37.0], [-109.05, 36.99], [-109.05, 36.98], [-109.05, 36.97], [-109.05, 36.97], [-109.05, 36.94], [-109.05, 36.93], [-109.05, 36.93], [-109.05, 36.88], [-109.05, 36.77], [-109.05, 36.72], [-109.05, 36.71], [-109.05, 36.7], [-109.05, 36.7], [-109.05, 36.7], [-109.05, 36.69], [-109.05, 36.68], [-109.05, 36.66], [-109.05, 36.65], [-109.05, 36.65], [-109.05, 36.63], [-109.05, 36.63], [-109.05, 36.61], [-109.05, 36.59], [-109.05, 36.5], [-109.05, 36.38], [-109.05, 36.37], [-109.05, 36.36], [-109.05, 36.35], [-109.05, 36.33], [-109.05, 36.32], [-109.05, 36.31], [-109.05, 36.3], [-109.05, 36.3], [-109.05, 36.3], [-109.05, 36.3], [-109.05, 36.29], [-109.05, 36.29], [-109.05, 36.29], [-109.05, 36.29], [-109.05, 36.26], [-109.05, 36.25], [-109.05, 36.25], [-109.05, 36.18], [-109.05, 36.18], [-109.05, 36.13], [-109.05, 36.12], [-109.05, 36.07], [-109.05, 36.05], [-109.05, 36.03], [-109.05, 36.03], [-109.05, 36.02], [-109.05, 36.01], [-109.05, 36.0], [-109.05, 35.99], [-109.05, 35.99], [-109.05, 35.99], [-109.05, 35.98], [-109.05, 35.96], [-109.05, 35.94], [-109.05, 35.92], [-109.05, 35.89], [-109.05, 35.89], [-109.05, 35.89], [-109.05, 35.88], [-109.05, 35.76], [-109.05, 35.63], [-109.05, 35.61], [-109.05, 35.55], [-109.05, 35.55], [-109.05, 35.54], [-109.05, 35.5], [-109.05, 35.42], [-109.05, 35.38], [-109.05, 35.38], [-109.05, 35.37], [-109.05, 35.36], [-109.05, 35.25], [-109.05, 35.25], [-109.05, 35.24], [-109.05, 35.22], [-109.05, 35.17], [-109.05, 35.15], [-109.05, 35.13], [-109.05, 34.95], [-109.05, 34.8], [-109.05, 34.79], [-109.05, 34.77], [-109.05, 34.75], [-109.05, 34.71], [-109.05, 34.7], [-109.05, 34.68], [-109.05, 34.52], [-109.05, 34.37], [-109.05, 34.17], [-109.05, 34.0], [-109.05, 33.88], [-109.05, 33.78], [-109.05, 33.62], [-109.05, 33.47], [-109.05, 33.41], [-109.05, 33.39], [-109.05, 33.39], [-109.05, 33.38], [-109.05, 33.38], [-109.05, 33.38], [-109.05, 33.37], [-109.05, 33.36], [-109.05, 33.36], [-109.05, 33.32], [-109.05, 33.31], [-109.05, 33.24], [-109.05, 33.22], [-109.05, 33.21], [-109.05, 33.21], [-109.05, 33.2], [-109.05, 33.2], [-109.05, 33.2], [-109.05, 33.18], [-109.05, 33.15], [-109.05, 33.14], [-109.05, 33.13], [-109.05, 33.12], [-109.05, 33.11], [-109.05, 33.1], [-109.05, 33.09], [-109.05, 33.09], [-109.05, 33.07], [-109.05, 32.99], [-109.05, 32.78], [-109.05, 32.75], [-109.05, 32.6], [-109.05, 32.43], [-109.05, 32.21], [-109.05, 32.07], [-109.05, 31.9], [-109.05, 31.76], [-109.05, 31.55], [-109.05, 31.48], [-109.05, 31.42], [-109.05, 31.37], [-109.05, 31.33], [-109.06, 31.33], [-109.07, 31.33], [-109.13, 31.33], [-109.25, 31.33], [-109.5, 31.33], [-109.72, 31.33], [-109.88, 31.33], [-110.0, 31.33], [-110.14, 31.33], [-110.25, 31.33], [-110.38, 31.33], [-110.46, 31.33], [-110.68, 31.33], [-110.75, 31.33], [-110.88, 31.33], [-111.0, 31.33], [-111.07, 31.33], [-111.29, 31.4], [-111.48, 31.46], [-111.66, 31.52], [-111.88, 31.59], [-111.98, 31.62], [-112.11, 31.66], [-112.25, 31.7], [-112.39, 31.75], [-112.55, 31.8], [-112.75, 31.86], [-112.87, 31.9], [-113.0, 31.94], [-113.13, 31.97], [-113.33, 32.04], [-113.49, 32.09], [-113.63, 32.13], [-113.78, 32.18], [-113.93, 32.22], [-114.07, 32.27], [-114.25, 32.32], [-114.5, 32.4], [-114.63, 32.44], [-114.79, 32.49], [-114.81, 32.49], [-114.82, 32.51], [-114.8, 32.51], [-114.81, 32.52], [-114.8, 32.54], [-114.81, 32.55], [-114.79, 32.56], [-114.8, 32.57], [-114.81, 32.56], [-114.81, 32.57], [-114.8, 32.57], [-114.8, 32.58], [-114.8, 32.59], [-114.81, 32.6], [-114.81, 32.62], [-114.8, 32.63], [-114.79, 32.62], [-114.76, 32.64], [-114.76, 32.65], [-114.75, 32.66], [-114.74, 32.68], [-114.73, 32.7], [-114.73, 32.7], [-114.72, 32.71], [-114.72, 32.72], [-114.71, 32.73], [-114.71, 32.73], [-114.71, 32.73], [-114.71, 32.74], [-114.71, 32.74], [-114.71, 32.74], [-114.7, 32.75], [-114.7, 32.75], [-114.69, 32.74], [-114.67, 32.74], [-114.63, 32.73], [-114.63, 32.73], [-114.63, 32.73], [-114.62, 32.73], [-114.62, 32.73], [-114.62, 32.73], [-114.62, 32.73], [-114.62, 32.73], [-114.62, 32.73], [-114.61, 32.73], [-114.61, 32.73], [-114.61, 32.73], [-114.59, 32.73], [-114.58, 32.73], [-114.58, 32.73], [-114.58, 32.73], [-114.58, 32.74], [-114.58, 32.74], [-114.58, 32.74], [-114.58, 32.74], [-114.57, 32.74], [-114.56, 32.74], [-114.56, 32.75], [-114.55, 32.75], [-114.55, 32.75], [-114.54, 32.75], [-114.54, 32.75], [-114.54, 32.75], [-114.54, 32.75], [-114.54, 32.76], [-114.54, 32.76], [-114.54, 32.76], [-114.53, 32.76], [-114.53, 32.76], [-114.53, 32.76], [-114.53, 32.76], [-114.53, 32.76], [-114.53, 32.77], [-114.53, 32.77], [-114.53, 32.77], [-114.53, 32.79], [-114.53, 32.79], [-114.53, 32.79], [-114.53, 32.8], [-114.53, 32.8], [-114.52, 32.81], [-114.51, 32.81], [-114.51, 32.81], [-114.51, 32.82], [-114.51, 32.82], [-114.49, 32.82], [-114.47, 32.85], [-114.47, 32.87], [-114.47, 32.87], [-114.47, 32.88], [-114.47, 32.88], [-114.46, 32.9], [-114.46, 32.91], [-114.46, 32.91], [-114.46, 32.91], [-114.46, 32.91], [-114.47, 32.92], [-114.48, 32.93], [-114.48, 32.94], [-114.47, 32.96], [-114.47, 32.97], [-114.47, 32.97], [-114.48, 32.98], [-114.48, 32.98], [-114.48, 32.98], [-114.48, 32.97], [-114.48, 32.97], [-114.48, 32.97], [-114.48, 32.97], [-114.48, 32.97], [-114.48, 32.97], [-114.48, 32.97], [-114.48, 32.97], [-114.49, 32.97], [-114.49, 32.97], [-114.49, 32.97], [-114.49, 32.97], [-114.49, 32.97], [-114.49, 32.97], [-114.5, 32.98], [-114.5, 33.0], [-114.51, 33.02], [-114.52, 33.03], [-114.53, 33.03], [-114.56, 33.04], [-114.57, 33.04], [-114.58, 33.04], [-114.58, 33.04], [-114.58, 33.04], [-114.58, 33.03], [-114.58, 33.03], [-114.59, 33.03], [-114.59, 33.03], [-114.59, 33.03], [-114.6, 33.03], [-114.62, 33.03], [-114.63, 33.03], [-114.64, 33.05], [-114.64, 33.05], [-114.65, 33.05], [-114.65, 33.05], [-114.65, 33.05], [-114.65, 33.04], [-114.66, 33.03], [-114.66, 33.03], [-114.66, 33.03], [-114.67, 33.03], [-114.67, 33.04], [-114.68, 33.05], [-114.67, 33.06], [-114.69, 33.07], [-114.69, 33.08], [-114.71, 33.09], [-114.71, 33.1], [-114.7, 33.13], [-114.69, 33.14], [-114.68, 33.16], [-114.68, 33.17], [-114.68, 33.19], [-114.68, 33.2], [-114.67, 33.22], [-114.67, 33.23], [-114.69, 33.25], [-114.67, 33.26], [-114.68, 33.27], [-114.69, 33.28], [-114.72, 33.29], [-114.73, 33.3], [-114.72, 33.31], [-114.71, 33.32], [-114.7, 33.34], [-114.7, 33.36], [-114.71, 33.38], [-114.71, 33.38], [-114.71, 33.38], [-114.71, 33.38], [-114.71, 33.38], [-114.71, 33.38], [-114.71, 33.39], [-114.72, 33.4], [-114.72, 33.41], [-114.72, 33.41], [-114.72, 33.41], [-114.71, 33.41], [-114.71, 33.41], [-114.71, 33.41], [-114.7, 33.41], [-114.7, 33.41], [-114.7, 33.41], [-114.7, 33.41], [-114.7, 33.41], [-114.7, 33.41], [-114.7, 33.41], [-114.7, 33.41], [-114.7, 33.41], [-114.7, 33.41], [-114.7, 33.42], [-114.69, 33.42], [-114.67, 33.42], [-114.67, 33.42], [-114.67, 33.42], [-114.67, 33.42], [-114.66, 33.41], [-114.66, 33.41], [-114.66, 33.41], [-114.66, 33.41], [-114.65, 33.41], [-114.65, 33.41], [-114.65, 33.41], [-114.64, 33.42], [-114.63, 33.43], [-114.62, 33.45], [-114.62, 33.46], [-114.6, 33.48], [-114.59, 33.5], [-114.57, 33.51], [-114.56, 33.52], [-114.56, 33.53], [-114.52, 33.55], [-114.54, 33.57], [-114.54, 33.59], [-114.54, 33.6], [-114.53, 33.6], [-114.53, 33.6], [-114.53, 33.61], [-114.53, 33.61], [-114.52, 33.61], [-114.52, 33.61], [-114.52, 33.61], [-114.52, 33.61], [-114.53, 33.62], [-114.53, 33.62], [-114.52, 33.63], [-114.53, 33.65], [-114.53, 33.65], [-114.53, 33.66], [-114.52, 33.66], [-114.51, 33.66], [-114.51, 33.66], [-114.52, 33.66], [-114.53, 33.66], [-114.53, 33.67], [-114.53, 33.68], [-114.52, 33.69], [-114.5, 33.7], [-114.49, 33.71], [-114.5, 33.72], [-114.51, 33.73], [-114.5, 33.75], [-114.51, 33.77], [-114.52, 33.8], [-114.53, 33.81], [-114.52, 33.83], [-114.53, 33.85], [-114.53, 33.86], [-114.53, 33.86], [-114.53, 33.86], [-114.52, 33.86], [-114.52, 33.86], [-114.52, 33.86], [-114.52, 33.86], [-114.52, 33.86], [-114.51, 33.86], [-114.51, 33.86], [-114.51, 33.86], [-114.51, 33.86], [-114.5, 33.87], [-114.5, 33.88], [-114.52, 33.9], [-114.51, 33.9], [-114.51, 33.91], [-114.53, 33.93], [-114.54, 33.93], [-114.52, 33.96], [-114.5, 33.96], [-114.48, 33.98], [-114.47, 33.98], [-114.47, 33.99], [-114.47, 33.99], [-114.47, 33.99], [-114.47, 33.99], [-114.47, 33.99], [-114.47, 33.99], [-114.47, 33.99], [-114.46, 33.99], [-114.46, 33.99], [-114.46, 34.0], [-114.46, 34.0], [-114.46, 34.0], [-114.47, 34.0], [-114.46, 34.01], [-114.46, 34.01], [-114.45, 34.01], [-114.45, 34.01], [-114.44, 34.02], [-114.44, 34.02], [-114.44, 34.03], [-114.44, 34.03], [-114.43, 34.04], [-114.44, 34.04], [-114.44, 34.05], [-114.44, 34.05], [-114.44, 34.06], [-114.43, 34.09], [-114.43, 34.09], [-114.43, 34.1], [-114.43, 34.1], [-114.42, 34.1], [-114.42, 34.1], [-114.42, 34.1], [-114.42, 34.11], [-114.41, 34.11], [-114.41, 34.11], [-114.41, 34.11], [-114.41, 34.11], [-114.41, 34.11], [-114.4, 34.11], [-114.39, 34.11], [-114.39, 34.11], [-114.39, 34.11], [-114.38, 34.11], [-114.38, 34.12], [-114.38, 34.12], [-114.38, 34.12], [-114.37, 34.12], [-114.37, 34.12], [-114.37, 34.12], [-114.36, 34.12], [-114.36, 34.13], [-114.35, 34.13], [-114.35, 34.13], [-114.35, 34.13], [-114.35, 34.13], [-114.35, 34.13], [-114.34, 34.13], [-114.33, 34.13], [-114.33, 34.13], [-114.33, 34.14], [-114.32, 34.14], [-114.32, 34.14], [-114.31, 34.14], [-114.29, 34.17], [-114.29, 34.17], [-114.29, 34.17], [-114.29, 34.17], [-114.28, 34.17], [-114.27, 34.17], [-114.26, 34.17], [-114.26, 34.17], [-114.26, 34.17], [-114.26, 34.17], [-114.26, 34.17], [-114.25, 34.17], [-114.24, 34.18], [-114.23, 34.19], [-114.23, 34.2], [-114.22, 34.21], [-114.19, 34.23], [-114.18, 34.24], [-114.17, 34.25], [-114.16, 34.25], [-114.16, 34.26], [-114.17, 34.26], [-114.17, 34.26], [-114.16, 34.26], [-114.15, 34.26], [-114.14, 34.26], [-114.14, 34.26], [-114.14, 34.26], [-114.13, 34.26], [-114.13, 34.26], [-114.13, 34.26], [-114.14, 34.28], [-114.14, 34.3], [-114.16, 34.32], [-114.17, 34.34], [-114.18, 34.35], [-114.2, 34.36], [-114.23, 34.37], [-114.23, 34.38], [-114.25, 34.39], [-114.26, 34.4], [-114.28, 34.4], [-114.29, 34.41], [-114.29, 34.42], [-114.3, 34.43], [-114.33, 34.44], [-114.34, 34.45], [-114.37, 34.45], [-114.39, 34.46], [-114.38, 34.48], [-114.38, 34.5], [-114.38, 34.51], [-114.38, 34.53], [-114.41, 34.57], [-114.42, 34.58], [-114.44, 34.59], [-114.42, 34.6], [-114.42, 34.61], [-114.44, 34.62], [-114.44, 34.64], [-114.46, 34.66], [-114.45, 34.67], [-114.47, 34.69], [-114.47, 34.71], [-114.49, 34.72], [-114.49, 34.72], [-114.49, 34.73], [-114.5, 34.73], [-114.5, 34.73], [-114.5, 34.73], [-114.52, 34.74], [-114.53, 34.75], [-114.55, 34.77], [-114.56, 34.77], [-114.57, 34.8], [-114.58, 34.82], [-114.58, 34.83], [-114.59, 34.84], [-114.6, 34.85], [-114.62, 34.86], [-114.63, 34.86], [-114.64, 34.88], [-114.64, 34.89], [-114.63, 34.91], [-114.63, 34.92], [-114.63, 34.94], [-114.63, 34.96], [-114.63, 34.97], [-114.63, 34.98], [-114.63, 35.0], [-114.64, 35.02], [-114.63, 35.03], [-114.63, 35.04], [-114.61, 35.06], [-114.6, 35.07], [-114.6, 35.07], [-114.62, 35.09], [-114.64, 35.1], [-114.65, 35.1], [-114.63, 35.12], [-114.62, 35.12], [-114.6, 35.12], [-114.58, 35.13], [-114.57, 35.14], [-114.57, 35.16], [-114.57, 35.18], [-114.57, 35.2], [-114.58, 35.21], [-114.58, 35.23], [-114.59, 35.26], [-114.6, 35.29], [-114.6, 35.3], [-114.6, 35.32], [-114.6, 35.35], [-114.62, 35.38], [-114.63, 35.41], [-114.65, 35.43], [-114.66, 35.45], [-114.67, 35.46], [-114.67, 35.48], [-114.68, 35.51], [-114.67, 35.52], [-114.67, 35.52], [-114.66, 35.53], [-114.66, 35.56], [-114.67, 35.57], [-114.68, 35.58], [-114.66, 35.59], [-114.65, 35.6], [-114.65, 35.61], [-114.67, 35.62], [-114.68, 35.64], [-114.69, 35.65], [-114.69, 35.66], [-114.68, 35.68], [-114.68, 35.69], [-114.7, 35.7], [-114.71, 35.71], [-114.7, 35.74], [-114.7, 35.76], [-114.7, 35.77], [-114.7, 35.79], [-114.71, 35.81], [-114.7, 35.81], [-114.7, 35.83], [-114.7, 35.85], [-114.7, 35.85], [-114.68, 35.86], [-114.66, 35.87], [-114.68, 35.89], [-114.7, 35.9], [-114.71, 35.91], [-114.71, 35.93], [-114.73, 35.94], [-114.73, 35.96], [-114.74, 35.98], [-114.74, 35.98], [-114.74, 35.99], [-114.74, 36.01], [-114.72, 36.03], [-114.73, 36.04], [-114.74, 36.04], [-114.74, 36.05], [-114.74, 36.07], [-114.75, 36.08], [-114.75, 36.09], [-114.74, 36.1], [-114.71, 36.11], [-114.69, 36.11], [-114.68, 36.11], [-114.67, 36.12], [-114.67, 36.12], [-114.66, 36.12], [-114.64, 36.14], [-114.63, 36.14], [-114.62, 36.13], [-114.6, 36.14], [-114.57, 36.15], [-114.54, 36.15], [-114.53, 36.15], [-114.51, 36.15], [-114.5, 36.14], [-114.51, 36.13], [-114.5, 36.13], [-114.49, 36.13], [-114.47, 36.14], [-114.46, 36.14], [-114.45, 36.13], [-114.43, 36.14], [-114.42, 36.15], [-114.4, 36.15], [-114.38, 36.14], [-114.37, 36.14], [-114.36, 36.13], [-114.35, 36.12], [-114.34, 36.11], [-114.33, 36.11], [-114.31, 36.08], [-114.31, 36.07], [-114.31, 36.07], [-114.31, 36.06], [-114.3, 36.06], [-114.29, 36.05], [-114.27, 36.04], [-114.27, 36.04], [-114.26, 36.03], [-114.24, 36.01], [-114.21, 36.02], [-114.19, 36.02], [-114.18, 36.03], [-114.15, 36.02], [-114.15, 36.03], [-114.14, 36.04], [-114.14, 36.06], [-114.12, 36.09], [-114.11, 36.1], [-114.12, 36.11], [-114.12, 36.12], [-114.1, 36.12], [-114.09, 36.14], [-114.09, 36.15], [-114.07, 36.18], [-114.06, 36.19], [-114.05, 36.19], [-114.05, 36.25], [-114.05, 36.29], [-114.05, 36.39], [-114.05, 36.46], [-114.05, 36.5], [-114.05, 36.62], [-114.05, 36.69], [-114.05, 36.75], [-114.05, 36.84], [-114.05, 36.96], [-114.05, 36.99], [-114.05, 37.0], [-114.05, 37.0], [-113.97, 37.0], [-113.8, 37.0], [-113.58, 37.0], [-113.41, 37.0], [-113.12, 37.0], [-113.11, 37.0], [-113.01, 37.0], [-112.88, 37.0], [-112.75, 37.0], [-112.54, 37.0], [-112.25, 37.0], [-112.13, 37.0], [-112.0, 37.0], [-111.89, 37.0], [-111.88, 37.0], [-111.75, 37.0], [-111.62, 37.0], [-111.39, 37.0], [-111.28, 37.0], [-111.24, 37.0], [-111.13, 37.0], [-111.08, 37.0], [-110.99, 37.0], [-110.76, 37.0], [-110.51, 37.0], [-110.49, 37.0]]]}}]}