{"type": "FeatureCollection", "features": [{"type": "Feature", "properties": {"ID": 4, "abbreviation": "CA", "name": "California"}, "geometry": {"type": "MultiPolygon", "coordinates": [[[[-117.21, 32.78], [-117.21, 32.77], [-117.23, 32.77], [-117.22, 32.79], [-117.21, 32.78]]], [[[-118.57, 33.03], [-118.56, 33.01], [-118.55, 33.0], [-118.54, 32.98], [-118.52, 32.96], [-118.51, 32.95], [-118.5, 32.93], [-118.48, 32.92], [-118.47, 32.91], [-118.45, 32.9], [-118.44, 32.89], [-118.4, 32.86], [-118.37, 32.84], [-118.35, 32.82], [-118.37, 32.82], [-118.39, 32.82], [-118.4, 32.82], [-118.4, 32.81], [-118.42, 32.81], [-118.43, 32.8], [-118.43, 32.81], [-118.45, 32.82], [-118.46, 32.83], [-118.47, 32.83], [-118.49, 32.85], [-118.5, 32.85], [-118.5, 32.86], [-118.51, 32.87], [-118.51, 32.88], [-118.52, 32.88], [-118.53, 32.9], [-118.54, 32.91], [-118.54, 32.92], [-118.55, 32.94], [-118.55, 32.95], [-118.56, 32.96], [-118.57, 32.96], [-118.58, 32.98], [-118.59, 33.01], [-118.6, 33.02], [-118.61, 33.01], [-118.61, 33.03], [-118.59, 33.03], [-118.59, 33.03], [-118.57, 33.03]]], [[[-119.53, 33.28], [-119.5, 33.27], [-119.49, 33.27], [-119.47, 33.26], [-119.45, 33.25], [-119.43, 33.23], [-119.44, 33.22], [-119.47, 33.21], [-119.48, 33.22], [-119.5, 33.22], [-119.53, 33.23], [-119.55, 33.23], [-119.56, 33.25], [-119.56, 33.25], [-119.57, 33.26], [-119.57, 33.28], [-119.56, 33.27], [-119.55, 33.28], [-119.53, 33.29], [-119.53, 33.28]]], [[[-118.6, 33.48], [-118.59, 33.47], [-118.57, 33.48], [-118.55, 33.47], [-118.54, 33.48], [-118.53, 33.47], [-118.52, 33.46], [-118.5, 33.45], [-118.5, 33.44], [-118.48, 33.45], [-118.47, 33.44], [-118.46, 33.44], [-118.44, 33.43], [-118.43, 33.43], [-118.4, 33.42], [-118.39, 33.42], [-118.38, 33.41], [-118.37, 33.41], [-118.37, 33.4], [-118.37, 33.39], [-118.35, 33.38], [-118.33, 33.36], [-118.32, 33.34], [-118.31, 33.34], [-118.3, 33.32], [-118.3, 33.31], [-118.33, 33.3], [-118.34, 33.3], [-118.36, 33.31], [-118.37, 33.32], [-118.41, 33.32], [-118.42, 33.32], [-118.44, 33.32], [-118.47, 33.33], [-118.48, 33.34], [-118.49, 33.36], [-118.48, 33.37], [-118.48, 33.39], [-118.49, 33.42], [-118.52, 33.43], [-118.53, 33.43], [-118.54, 33.43], [-118.55, 33.44], [-118.56, 33.43], [-118.57, 33.44], [-118.58, 33.45], [-118.59, 33.47], [-118.6, 33.47], [-118.6, 33.48]]], [[[-119.03, 33.48], [-119.04, 33.47], [-119.04, 33.47], [-119.04, 33.48], [-119.03, 33.49], [-119.03, 33.48]]], [[[-118.25, 33.75], [-118.24, 33.73], [-118.25, 33.72], [-118.26, 33.73], [-118.24, 33.73], [-118.25, 33.75], [-118.25, 33.75], [-118.25, 33.73], [-118.26, 33.73], [-118.27, 33.74], [-118.27, 33.75], [-118.26, 33.76], [-118.22, 33.77], [-118.22, 33.76], [-118.25, 33.75]]], [[[-119.41, 34.01], [-119.42, 34.01], [-119.43, 34.01], [-119.43, 34.02], [-119.42, 34.02], [-119.41, 34.01]]], [[[-120.04, 34.03], [-120.05, 34.01], [-120.05, 34.0], [-120.03, 33.99], [-120.0, 33.98], [-119.98, 33.98], [-119.98, 33.97], [-119.97, 33.95], [-119.98, 33.94], [-120.0, 33.94], [-120.02, 33.94], [-120.03, 33.93], [-120.05, 33.92], [-120.05, 33.91], [-120.07, 33.91], [-120.08, 33.91], [-120.09, 33.91], [-120.1, 33.9], [-120.11, 33.9], [-120.12, 33.89], [-120.14, 33.9], [-120.15, 33.91], [-120.17, 33.92], [-120.18, 33.93], [-120.19, 33.95], [-120.2, 33.95], [-120.21, 33.97], [-120.22, 33.98], [-120.22, 33.99], [-120.24, 33.99], [-120.25, 34.0], [-120.24, 34.01], [-120.22, 34.01], [-120.21, 34.0], [-120.18, 34.01], [-120.17, 34.01], [-120.15, 34.02], [-120.15, 34.02], [-120.13, 34.03], [-120.12, 34.02], [-120.09, 34.02], [-120.07, 34.02], [-120.07, 34.03], [-120.05, 34.04], [-120.05, 34.04], [-120.04, 34.03]]], [[[-120.36, 34.06], [-120.36, 34.05], [-120.33, 34.05], [-120.32, 34.04], [-120.31, 34.03], [-120.31, 34.02], [-120.32, 34.02], [-120.34, 34.02], [-120.35, 34.02], [-120.36, 34.01], [-120.37, 34.02], [-120.38, 34.02], [-120.41, 34.03], [-120.43, 34.03], [-120.44, 34.03], [-120.43, 34.05], [-120.42, 34.06], [-120.4, 34.05], [-120.39, 34.05], [-120.37, 34.07], [-120.37, 34.08], [-120.36, 34.07], [-120.36, 34.06]]], [[[-119.92, 34.08], [-119.9, 34.07], [-119.88, 34.08], [-119.87, 34.07], [-119.86, 34.07], [-119.83, 34.06], [-119.82, 34.05], [-119.81, 34.05], [-119.79, 34.06], [-119.77, 34.06], [-119.76, 34.06], [-119.74, 34.05], [-119.73, 34.05], [-119.71, 34.04], [-119.7, 34.03], [-119.69, 34.03], [-119.69, 34.02], [-119.67, 34.02], [-119.65, 34.02], [-119.63, 34.01], [-119.62, 34.02], [-119.6, 34.03], [-119.61, 34.04], [-119.58, 34.05], [-119.57, 34.05], [-119.56, 34.06], [-119.56, 34.05], [-119.53, 34.04], [-119.52, 34.03], [-119.53, 34.03], [-119.54, 34.02], [-119.55, 34.01], [-119.55, 34.0], [-119.57, 34.0], [-119.59, 33.99], [-119.61, 33.99], [-119.62, 33.99], [-119.64, 33.99], [-119.66, 33.99], [-119.67, 33.98], [-119.69, 33.97], [-119.71, 33.97], [-119.72, 33.96], [-119.74, 33.96], [-119.76, 33.96], [-119.81, 33.96], [-119.82, 33.96], [-119.83, 33.97], [-119.85, 33.97], [-119.87, 33.98], [-119.87, 33.98], [-119.89, 34.01], [-119.88, 34.01], [-119.88, 34.03], [-119.9, 34.05], [-119.92, 34.06], [-119.92, 34.07], [-119.92, 34.08]]], [[[-122.23, 37.76], [-122.23, 37.75], [-122.25, 37.75], [-122.27, 37.76], [-122.28, 37.77], [-122.29, 37.77], [-122.3, 37.78], [-122.33, 37.78], [-122.33, 37.8], [-122.3, 37.79], [-122.28, 37.79], [-122.27, 37.78], [-122.26, 37.78], [-122.23, 37.77], [-122.23, 37.76]]], [[[-122.36, 37.82], [-122.37, 37.81], [-122.38, 37.83], [-122.37, 37.83], [-122.36, 37.82]]], [[[-122.42, 37.85], [-122.43, 37.85], [-122.44, 37.86], [-122.43, 37.87], [-122.42, 37.86], [-122.42, 37.86], [-122.42, 37.85]]], [[[-122.26, 42.01], [-122.26, 42.01], [-122.25, 42.01], [-122.18, 42.01], [-122.16, 42.01], [-122.16, 42.01], [-122.16, 42.01], [-122.13, 42.01], [-122.1, 42.01], [-122.0, 42.0], [-121.85, 42.0], [-121.75, 42.0], [-121.57, 42.0], [-121.42, 42.0], [-121.34, 42.0], [-121.33, 42.0], [-121.32, 42.0], [-121.31, 42.0], [-121.3, 42.0], [-121.29, 42.0], [-121.27, 42.0], [-121.26, 42.0], [-121.25, 42.0], [-121.25, 42.0], [-121.25, 42.0], [-121.13, 42.0], [-121.04, 41.99], [-121.0, 41.99], [-120.81, 41.99], [-120.71, 41.99], [-120.7, 41.99], [-120.66, 41.99], [-120.65, 41.99], [-120.54, 41.99], [-120.5, 41.99], [-120.46, 41.99], [-120.38, 41.99], [-120.33, 41.99], [-120.33, 41.99], [-120.31, 41.99], [-120.31, 41.99], [-120.3, 41.99], [-120.3, 41.99], [-120.29, 41.99], [-120.29, 41.99], [-120.25, 41.99], [-120.23, 41.99], [-120.21, 41.99], [-120.12, 41.99], [-120.08, 41.99], [-120.05, 42.0], [-120.0, 42.0], [-120.0, 41.99], [-120.0, 41.87], [-120.0, 41.75], [-120.0, 41.62], [-120.0, 41.62], [-120.0, 41.52], [-120.0, 41.5], [-120.0, 41.37], [-120.0, 41.25], [-120.0, 41.12], [-120.0, 41.11], [-120.0, 41.02], [-120.0, 41.02], [-120.0, 41.01], [-120.0, 41.0], [-120.0, 40.88], [-120.0, 40.87], [-120.0, 40.87], [-120.0, 40.87], [-120.0, 40.83], [-120.0, 40.75], [-120.0, 40.72], [-120.0, 40.62], [-120.0, 40.61], [-120.0, 40.58], [-120.0, 40.55], [-120.0, 40.55], [-120.0, 40.5], [-120.0, 40.48], [-120.0, 40.45], [-120.0, 40.25], [-120.0, 40.22], [-120.0, 40.19], [-120.0, 40.02], [-120.0, 40.0], [-120.0, 39.96], [-120.0, 39.96], [-120.0, 39.89], [-120.0, 39.85], [-120.0, 39.72], [-120.0, 39.62], [-120.0, 39.5], [-120.0, 39.37], [-120.01, 39.23], [-120.0, 39.0], [-119.83, 38.88], [-119.64, 38.75], [-119.63, 38.74], [-119.46, 38.63], [-119.43, 38.61], [-119.4, 38.58], [-119.38, 38.57], [-119.33, 38.54], [-119.28, 38.5], [-119.25, 38.48], [-119.23, 38.47], [-119.1, 38.37], [-119.08, 38.36], [-119.03, 38.32], [-119.0, 38.3], [-118.95, 38.27], [-118.92, 38.25], [-118.88, 38.22], [-118.86, 38.21], [-118.8, 38.16], [-118.77, 38.14], [-118.71, 38.1], [-118.62, 38.03], [-118.57, 38.0], [-118.51, 37.95], [-118.5, 37.95], [-118.37, 37.86], [-118.35, 37.84], [-118.33, 37.82], [-118.32, 37.82], [-118.25, 37.77], [-118.13, 37.68], [-118.05, 37.62], [-118.04, 37.62], [-117.98, 37.57], [-117.9, 37.52], [-117.88, 37.5], [-117.71, 37.37], [-117.68, 37.35], [-117.58, 37.28], [-117.54, 37.25], [-117.54, 37.25], [-117.53, 37.24], [-117.5, 37.22], [-117.5, 37.22], [-117.45, 37.18], [-117.42, 37.16], [-117.41, 37.15], [-117.37, 37.12], [-117.27, 37.04], [-117.24, 37.03], [-117.09, 36.91], [-117.07, 36.9], [-117.04, 36.87], [-117.0, 36.85], [-117.0, 36.85], [-116.87, 36.75], [-116.75, 36.66], [-116.54, 36.5], [-116.5, 36.47], [-116.49, 36.46], [-116.38, 36.37], [-116.37, 36.37], [-116.25, 36.28], [-116.13, 36.18], [-116.1, 36.16], [-116.09, 36.16], [-116.04, 36.11], [-116.0, 36.08], [-116.0, 36.08], [-115.91, 36.02], [-115.9, 36.0], [-115.89, 36.0], [-115.89, 36.0], [-115.88, 35.99], [-115.88, 35.99], [-115.87, 35.98], [-115.86, 35.97], [-115.85, 35.97], [-115.75, 35.89], [-115.73, 35.87], [-115.69, 35.84], [-115.68, 35.83], [-115.67, 35.83], [-115.67, 35.83], [-115.65, 35.82], [-115.65, 35.81], [-115.63, 35.79], [-115.63, 35.79], [-115.5, 35.69], [-115.41, 35.62], [-115.4, 35.62], [-115.38, 35.59], [-115.3, 35.54], [-115.26, 35.5], [-115.22, 35.47], [-115.04, 35.33], [-114.94, 35.25], [-114.93, 35.24], [-114.85, 35.18], [-114.75, 35.09], [-114.63, 35.0], [-114.63, 34.98], [-114.63, 34.97], [-114.63, 34.96], [-114.63, 34.94], [-114.63, 34.92], [-114.63, 34.91], [-114.64, 34.89], [-114.64, 34.88], [-114.63, 34.86], [-114.62, 34.86], [-114.6, 34.85], [-114.59, 34.84], [-114.58, 34.83], [-114.58, 34.82], [-114.57, 34.8], [-114.56, 34.77], [-114.55, 34.77], [-114.53, 34.75], [-114.52, 34.74], [-114.5, 34.73], [-114.5, 34.73], [-114.5, 34.73], [-114.5, 34.73], [-114.5, 34.73], [-114.49, 34.73], [-114.49, 34.73], [-114.49, 34.73], [-114.49, 34.72], [-114.49, 34.72], [-114.49, 34.72], [-114.49, 34.72], [-114.47, 34.71], [-114.47, 34.69], [-114.45, 34.67], [-114.46, 34.66], [-114.44, 34.64], [-114.44, 34.62], [-114.42, 34.61], [-114.42, 34.6], [-114.44, 34.59], [-114.42, 34.58], [-114.41, 34.57], [-114.38, 34.53], [-114.38, 34.51], [-114.38, 34.5], [-114.38, 34.48], [-114.39, 34.46], [-114.37, 34.45], [-114.34, 34.45], [-114.33, 34.44], [-114.3, 34.43], [-114.29, 34.42], [-114.29, 34.41], [-114.28, 34.4], [-114.26, 34.4], [-114.25, 34.39], [-114.23, 34.38], [-114.23, 34.37], [-114.2, 34.36], [-114.18, 34.35], [-114.17, 34.34], [-114.16, 34.32], [-114.14, 34.3], [-114.14, 34.28], [-114.13, 34.26], [-114.13, 34.26], [-114.13, 34.26], [-114.14, 34.26], [-114.14, 34.26], [-114.14, 34.26], [-114.15, 34.26], [-114.16, 34.26], [-114.16, 34.26], [-114.16, 34.26], [-114.17, 34.26], [-114.17, 34.26], [-114.16, 34.26], [-114.16, 34.25], [-114.17, 34.25], [-114.18, 34.24], [-114.19, 34.23], [-114.22, 34.21], [-114.23, 34.2], [-114.23, 34.19], [-114.24, 34.18], [-114.25, 34.17], [-114.26, 34.17], [-114.26, 34.17], [-114.26, 34.17], [-114.27, 34.17], [-114.28, 34.17], [-114.29, 34.17], [-114.29, 34.17], [-114.29, 34.17], [-114.29, 34.17], [-114.31, 34.14], [-114.32, 34.14], [-114.32, 34.14], [-114.33, 34.14], [-114.33, 34.14], [-114.34, 34.13], [-114.35, 34.13], [-114.35, 34.13], [-114.35, 34.13], [-114.35, 34.13], [-114.36, 34.13], [-114.36, 34.12], [-114.37, 34.12], [-114.37, 34.12], [-114.37, 34.12], [-114.38, 34.12], [-114.38, 34.12], [-114.38, 34.11], [-114.38, 34.11], [-114.39, 34.11], [-114.39, 34.11], [-114.4, 34.11], [-114.41, 34.11], [-114.41, 34.11], [-114.41, 34.11], [-114.41, 34.11], [-114.42, 34.11], [-114.42, 34.1], [-114.42, 34.1], [-114.42, 34.1], [-114.42, 34.1], [-114.43, 34.1], [-114.43, 34.1], [-114.43, 34.09], [-114.43, 34.09], [-114.44, 34.06], [-114.44, 34.05], [-114.44, 34.05], [-114.44, 34.04], [-114.43, 34.04], [-114.44, 34.03], [-114.44, 34.03], [-114.44, 34.02], [-114.44, 34.02], [-114.45, 34.01], [-114.45, 34.01], [-114.46, 34.01], [-114.46, 34.01], [-114.47, 34.0], [-114.46, 34.0], [-114.46, 34.0], [-114.46, 33.99], [-114.47, 33.99], [-114.47, 33.99], [-114.47, 33.99], [-114.47, 33.99], [-114.47, 33.99], [-114.47, 33.99], [-114.47, 33.99], [-114.48, 33.98], [-114.48, 33.98], [-114.5, 33.96], [-114.52, 33.96], [-114.54, 33.93], [-114.53, 33.93], [-114.51, 33.91], [-114.51, 33.9], [-114.52, 33.9], [-114.5, 33.88], [-114.5, 33.87], [-114.51, 33.86], [-114.51, 33.86], [-114.51, 33.86], [-114.51, 33.86], [-114.52, 33.86], [-114.52, 33.86], [-114.52, 33.86], [-114.52, 33.86], [-114.52, 33.86], [-114.53, 33.86], [-114.53, 33.86], [-114.53, 33.86], [-114.53, 33.85], [-114.52, 33.83], [-114.53, 33.81], [-114.52, 33.8], [-114.51, 33.77], [-114.5, 33.75], [-114.51, 33.73], [-114.5, 33.72], [-114.49, 33.71], [-114.5, 33.7], [-114.52, 33.69], [-114.53, 33.68], [-114.53, 33.67], [-114.53, 33.66], [-114.52, 33.66], [-114.51, 33.66], [-114.51, 33.66], [-114.52, 33.66], [-114.53, 33.66], [-114.53, 33.65], [-114.53, 33.65], [-114.52, 33.63], [-114.53, 33.62], [-114.53, 33.62], [-114.52, 33.61], [-114.52, 33.61], [-114.52, 33.61], [-114.52, 33.61], [-114.53, 33.61], [-114.53, 33.61], [-114.53, 33.6], [-114.54, 33.59], [-114.54, 33.57], [-114.52, 33.55], [-114.56, 33.53], [-114.56, 33.52], [-114.57, 33.51], [-114.59, 33.5], [-114.6, 33.48], [-114.62, 33.46], [-114.62, 33.45], [-114.63, 33.43], [-114.64, 33.42], [-114.65, 33.41], [-114.65, 33.41], [-114.65, 33.41], [-114.66, 33.41], [-114.66, 33.41], [-114.67, 33.42], [-114.67, 33.42], [-114.67, 33.42], [-114.69, 33.42], [-114.7, 33.42], [-114.7, 33.41], [-114.7, 33.41], [-114.7, 33.41], [-114.7, 33.41], [-114.7, 33.41], [-114.7, 33.41], [-114.7, 33.41], [-114.7, 33.41], [-114.7, 33.41], [-114.71, 33.41], [-114.71, 33.41], [-114.71, 33.41], [-114.71, 33.41], [-114.72, 33.41], [-114.72, 33.41], [-114.72, 33.41], [-114.72, 33.4], [-114.71, 33.39], [-114.71, 33.39], [-114.71, 33.38], [-114.71, 33.38], [-114.71, 33.38], [-114.71, 33.38], [-114.71, 33.38], [-114.7, 33.36], [-114.7, 33.34], [-114.71, 33.32], [-114.72, 33.31], [-114.73, 33.3], [-114.72, 33.29], [-114.69, 33.28], [-114.68, 33.27], [-114.67, 33.26], [-114.69, 33.25], [-114.67, 33.23], [-114.67, 33.22], [-114.68, 33.2], [-114.68, 33.19], [-114.68, 33.17], [-114.68, 33.16], [-114.69, 33.14], [-114.7, 33.13], [-114.71, 33.1], [-114.71, 33.09], [-114.69, 33.08], [-114.69, 33.07], [-114.67, 33.06], [-114.68, 33.05], [-114.67, 33.04], [-114.67, 33.03], [-114.66, 33.03], [-114.66, 33.03], [-114.66, 33.03], [-114.65, 33.04], [-114.65, 33.05], [-114.65, 33.05], [-114.65, 33.05], [-114.64, 33.05], [-114.64, 33.05], [-114.63, 33.03], [-114.62, 33.03], [-114.6, 33.03], [-114.59, 33.03], [-114.59, 33.03], [-114.58, 33.03], [-114.58, 33.03], [-114.58, 33.04], [-114.58, 33.04], [-114.57, 33.04], [-114.56, 33.04], [-114.53, 33.03], [-114.52, 33.03], [-114.51, 33.02], [-114.5, 33.0], [-114.5, 32.98], [-114.49, 32.97], [-114.49, 32.97], [-114.49, 32.97], [-114.49, 32.97], [-114.49, 32.97], [-114.49, 32.97], [-114.48, 32.97], [-114.48, 32.97], [-114.48, 32.97], [-114.48, 32.97], [-114.48, 32.97], [-114.48, 32.97], [-114.48, 32.98], [-114.48, 32.98], [-114.48, 32.98], [-114.47, 32.97], [-114.47, 32.97], [-114.47, 32.96], [-114.48, 32.94], [-114.48, 32.93], [-114.48, 32.92], [-114.47, 32.92], [-114.47, 32.92], [-114.47, 32.92], [-114.47, 32.92], [-114.46, 32.91], [-114.46, 32.91], [-114.46, 32.91], [-114.46, 32.91], [-114.46, 32.9], [-114.47, 32.88], [-114.47, 32.88], [-114.47, 32.87], [-114.47, 32.85], [-114.49, 32.82], [-114.51, 32.82], [-114.51, 32.81], [-114.51, 32.81], [-114.52, 32.81], [-114.52, 32.8], [-114.52, 32.8], [-114.53, 32.8], [-114.53, 32.8], [-114.53, 32.8], [-114.53, 32.79], [-114.53, 32.79], [-114.53, 32.77], [-114.53, 32.77], [-114.53, 32.77], [-114.53, 32.77], [-114.53, 32.76], [-114.53, 32.76], [-114.54, 32.76], [-114.54, 32.75], [-114.54, 32.75], [-114.54, 32.75], [-114.55, 32.75], [-114.55, 32.75], [-114.56, 32.75], [-114.56, 32.74], [-114.57, 32.74], [-114.58, 32.74], [-114.58, 32.74], [-114.58, 32.74], [-114.58, 32.74], [-114.58, 32.73], [-114.59, 32.73], [-114.61, 32.73], [-114.61, 32.73], [-114.62, 32.73], [-114.62, 32.73], [-114.62, 32.73], [-114.62, 32.73], [-114.62, 32.73], [-114.62, 32.73], [-114.62, 32.73], [-114.62, 32.73], [-114.62, 32.73], [-114.63, 32.73], [-114.63, 32.73], [-114.64, 32.73], [-114.67, 32.73], [-114.69, 32.74], [-114.7, 32.75], [-114.7, 32.75], [-114.7, 32.74], [-114.7, 32.74], [-114.71, 32.74], [-114.71, 32.74], [-114.71, 32.74], [-114.71, 32.74], [-114.71, 32.74], [-114.71, 32.73], [-114.71, 32.73], [-114.71, 32.73], [-114.71, 32.73], [-114.71, 32.73], [-114.71, 32.73], [-114.72, 32.73], [-114.72, 32.72], [-114.91, 32.71], [-115.0, 32.7], [-115.13, 32.69], [-115.25, 32.68], [-115.38, 32.67], [-115.47, 32.67], [-115.63, 32.65], [-115.8, 32.64], [-116.05, 32.62], [-116.13, 32.62], [-116.21, 32.61], [-116.3, 32.6], [-116.39, 32.6], [-116.5, 32.59], [-116.79, 32.56], [-116.86, 32.56], [-116.93, 32.55], [-116.95, 32.55], [-117.03, 32.54], [-117.06, 32.54], [-117.12, 32.53], [-117.13, 32.55], [-117.13, 32.57], [-117.13, 32.6], [-117.13, 32.61], [-117.15, 32.64], [-117.16, 32.66], [-117.18, 32.68], [-117.19, 32.69], [-117.21, 32.69], [-117.22, 32.68], [-117.23, 32.7], [-117.21, 32.71], [-117.19, 32.71], [-117.19, 32.71], [-117.17, 32.7], [-117.16, 32.69], [-117.17, 32.68], [-117.15, 32.68], [-117.16, 32.67], [-117.15, 32.66], [-117.14, 32.64], [-117.14, 32.63], [-117.13, 32.63], [-117.13, 32.62], [-117.13, 32.61], [-117.12, 32.6], [-117.1, 32.61], [-117.1, 32.62], [-117.11, 32.63], [-117.12, 32.65], [-117.12, 32.67], [-117.13, 32.68], [-117.15, 32.69], [-117.17, 32.71], [-117.17, 32.72], [-117.2, 32.73], [-117.22, 32.73], [-117.24, 32.72], [-117.24, 32.69], [-117.24, 32.67], [-117.25, 32.67], [-117.26, 32.7], [-117.26, 32.73], [-117.25, 32.76], [-117.23, 32.76], [-117.23, 32.77], [-117.22, 32.77], [-117.21, 32.77], [-117.21, 32.78], [-117.21, 32.79], [-117.22, 32.8], [-117.23, 32.79], [-117.24, 32.78], [-117.24, 32.79], [-117.25, 32.79], [-117.25, 32.78], [-117.24, 32.77], [-117.25, 32.76], [-117.25, 32.78], [-117.26, 32.8], [-117.28, 32.82], [-117.28, 32.84], [-117.27, 32.85], [-117.26, 32.85], [-117.26, 32.86], [-117.25, 32.88], [-117.26, 32.91], [-117.26, 32.91], [-117.26, 32.93], [-117.27, 32.96], [-117.27, 32.97], [-117.28, 33.01], [-117.29, 33.03], [-117.3, 33.04], [-117.3, 33.06], [-117.32, 33.1], [-117.33, 33.12], [-117.34, 33.13], [-117.34, 33.14], [-117.36, 33.17], [-117.39, 33.2], [-117.4, 33.21], [-117.41, 33.22], [-117.47, 33.3], [-117.49, 33.32], [-117.51, 33.33], [-117.55, 33.36], [-117.56, 33.37], [-117.57, 33.38], [-117.59, 33.38], [-117.6, 33.39], [-117.6, 33.4], [-117.62, 33.42], [-117.64, 33.44], [-117.66, 33.45], [-117.68, 33.46], [-117.69, 33.46], [-117.71, 33.46], [-117.72, 33.47], [-117.73, 33.48], [-117.73, 33.49], [-117.74, 33.49], [-117.75, 33.51], [-117.79, 33.54], [-117.81, 33.55], [-117.81, 33.55], [-117.83, 33.57], [-117.84, 33.57], [-117.85, 33.58], [-117.87, 33.59], [-117.88, 33.59], [-117.91, 33.6], [-117.93, 33.61], [-117.94, 33.62], [-117.96, 33.63], [-118.01, 33.66], [-118.03, 33.68], [-118.05, 33.7], [-118.1, 33.74], [-118.1, 33.74], [-118.12, 33.74], [-118.12, 33.75], [-118.15, 33.76], [-118.17, 33.76], [-118.18, 33.76], [-118.2, 33.76], [-118.19, 33.75], [-118.19, 33.73], [-118.2, 33.74], [-118.21, 33.75], [-118.22, 33.76], [-118.22, 33.77], [-118.25, 33.76], [-118.27, 33.75], [-118.28, 33.74], [-118.27, 33.72], [-118.28, 33.72], [-118.29, 33.71], [-118.31, 33.71], [-118.34, 33.73], [-118.35, 33.73], [-118.36, 33.74], [-118.38, 33.74], [-118.4, 33.74], [-118.41, 33.75], [-118.42, 33.76], [-118.43, 33.77], [-118.42, 33.79], [-118.41, 33.79], [-118.4, 33.8], [-118.39, 33.8], [-118.39, 33.82], [-118.39, 33.84], [-118.4, 33.85], [-118.4, 33.87], [-118.44, 33.94], [-118.45, 33.96], [-118.45, 33.97], [-118.44, 33.98], [-118.46, 33.98], [-118.46, 33.97], [-118.48, 33.98], [-118.49, 34.0], [-118.52, 34.02], [-118.53, 34.03], [-118.55, 34.04], [-118.56, 34.04], [-118.57, 34.04], [-118.58, 34.04], [-118.6, 34.04], [-118.61, 34.04], [-118.64, 34.04], [-118.67, 34.04], [-118.68, 34.03], [-118.74, 34.03], [-118.76, 34.03], [-118.78, 34.02], [-118.79, 34.01], [-118.81, 34.0], [-118.82, 34.02], [-118.84, 34.03], [-118.85, 34.03], [-118.88, 34.04], [-118.91, 34.04], [-118.92, 34.05], [-118.94, 34.04], [-118.95, 34.05], [-118.98, 34.06], [-118.99, 34.07], [-119.01, 34.07], [-119.04, 34.08], [-119.06, 34.09], [-119.08, 34.1], [-119.1, 34.1], [-119.11, 34.09], [-119.13, 34.1], [-119.17, 34.12], [-119.18, 34.13], [-119.2, 34.14], [-119.22, 34.15], [-119.23, 34.16], [-119.23, 34.17], [-119.26, 34.21], [-119.27, 34.24], [-119.26, 34.25], [-119.27, 34.25], [-119.28, 34.27], [-119.29, 34.28], [-119.31, 34.27], [-119.32, 34.28], [-119.34, 34.29], [-119.35, 34.3], [-119.37, 34.32], [-119.37, 34.32], [-119.39, 34.32], [-119.4, 34.33], [-119.41, 34.34], [-119.43, 34.36], [-119.44, 34.36], [-119.46, 34.37], [-119.47, 34.38], [-119.49, 34.38], [-119.52, 34.39], [-119.53, 34.39], [-119.54, 34.4], [-119.56, 34.41], [-119.58, 34.41], [-119.59, 34.42], [-119.61, 34.42], [-119.63, 34.42], [-119.64, 34.42], [-119.65, 34.42], [-119.67, 34.42], [-119.68, 34.41], [-119.69, 34.4], [-119.71, 34.4], [-119.73, 34.4], [-119.79, 34.42], [-119.83, 34.42], [-119.84, 34.41], [-119.84, 34.4], [-119.86, 34.41], [-119.88, 34.41], [-119.89, 34.42], [-119.9, 34.42], [-119.92, 34.43], [-119.93, 34.44], [-119.95, 34.43], [-119.98, 34.45], [-119.99, 34.45], [-120.0, 34.46], [-120.02, 34.46], [-120.02, 34.46], [-120.04, 34.46], [-120.07, 34.46], [-120.1, 34.46], [-120.12, 34.47], [-120.13, 34.47], [-120.15, 34.47], [-120.17, 34.47], [-120.23, 34.47], [-120.24, 34.47], [-120.28, 34.47], [-120.3, 34.47], [-120.34, 34.46], [-120.36, 34.46], [-120.4, 34.46], [-120.42, 34.45], [-120.42, 34.45], [-120.44, 34.45], [-120.45, 34.45], [-120.47, 34.45], [-120.48, 34.48], [-120.5, 34.5], [-120.5, 34.51], [-120.51, 34.52], [-120.54, 34.54], [-120.55, 34.54], [-120.58, 34.56], [-120.6, 34.56], [-120.62, 34.55], [-120.64, 34.56], [-120.65, 34.58], [-120.64, 34.6], [-120.63, 34.64], [-120.61, 34.68], [-120.6, 34.7], [-120.6, 34.71], [-120.61, 34.71], [-120.62, 34.73], [-120.63, 34.74], [-120.63, 34.75], [-120.64, 34.76], [-120.62, 34.79], [-120.61, 34.84], [-120.61, 34.86], [-120.62, 34.87], [-120.64, 34.88], [-120.64, 34.89], [-120.65, 34.9], [-120.67, 34.9], [-120.66, 34.92], [-120.66, 34.93], [-120.66, 34.94], [-120.65, 34.96], [-120.65, 34.98], [-120.64, 35.02], [-120.63, 35.05], [-120.63, 35.09], [-120.63, 35.1], [-120.64, 35.13], [-120.65, 35.15], [-120.67, 35.15], [-120.69, 35.16], [-120.7, 35.17], [-120.71, 35.18], [-120.72, 35.17], [-120.74, 35.18], [-120.76, 35.17], [-120.76, 35.16], [-120.78, 35.17], [-120.79, 35.18], [-120.79, 35.18], [-120.83, 35.2], [-120.86, 35.21], [-120.86, 35.22], [-120.87, 35.22], [-120.87, 35.23], [-120.9, 35.25], [-120.9, 35.26], [-120.9, 35.27], [-120.88, 35.29], [-120.87, 35.31], [-120.86, 35.34], [-120.86, 35.33], [-120.85, 35.32], [-120.84, 35.32], [-120.83, 35.34], [-120.84, 35.34], [-120.84, 35.35], [-120.85, 35.36], [-120.85, 35.37], [-120.86, 35.38], [-120.87, 35.4], [-120.88, 35.43], [-120.91, 35.45], [-120.95, 35.45], [-120.95, 35.45], [-120.97, 35.46], [-120.98, 35.46], [-120.99, 35.46], [-121.01, 35.46], [-121.01, 35.47], [-121.03, 35.49], [-121.04, 35.5], [-121.05, 35.5], [-121.06, 35.51], [-121.08, 35.53], [-121.09, 35.53], [-121.1, 35.55], [-121.11, 35.58], [-121.13, 35.6], [-121.14, 35.61], [-121.16, 35.63], [-121.18, 35.64], [-121.19, 35.64], [-121.2, 35.64], [-121.22, 35.65], [-121.24, 35.65], [-121.26, 35.66], [-121.28, 35.67], [-121.29, 35.69], [-121.29, 35.7], [-121.31, 35.7], [-121.31, 35.71], [-121.31, 35.72], [-121.32, 35.74], [-121.32, 35.75], [-121.32, 35.76], [-121.33, 35.78], [-121.36, 35.81], [-121.37, 35.81], [-121.39, 35.82], [-121.41, 35.84], [-121.41, 35.86], [-121.42, 35.86], [-121.45, 35.87], [-121.45, 35.88], [-121.46, 35.89], [-121.46, 35.9], [-121.47, 35.91], [-121.47, 35.92], [-121.48, 35.93], [-121.48, 35.94], [-121.48, 35.95], [-121.49, 35.97], [-121.49, 35.99], [-121.5, 36.0], [-121.51, 36.01], [-121.54, 36.02], [-121.57, 36.02], [-121.59, 36.05], [-121.59, 36.05], [-121.59, 36.06], [-121.61, 36.07], [-121.62, 36.09], [-121.62, 36.1], [-121.63, 36.11], [-121.63, 36.12], [-121.64, 36.13], [-121.65, 36.14], [-121.68, 36.17], [-121.7, 36.18], [-121.7, 36.18], [-121.72, 36.2], [-121.75, 36.21], [-121.78, 36.23], [-121.8, 36.23], [-121.81, 36.23], [-121.84, 36.25], [-121.84, 36.26], [-121.85, 36.27], [-121.87, 36.29], [-121.89, 36.3], [-121.9, 36.31], [-121.89, 36.32], [-121.89, 36.34], [-121.91, 36.36], [-121.9, 36.36], [-121.91, 36.37], [-121.9, 36.38], [-121.91, 36.4], [-121.91, 36.4], [-121.92, 36.42], [-121.91, 36.42], [-121.93, 36.45], [-121.93, 36.46], [-121.94, 36.47], [-121.94, 36.49], [-121.94, 36.51], [-121.95, 36.51], [-121.94, 36.52], [-121.93, 36.53], [-121.93, 36.55], [-121.94, 36.56], [-121.96, 36.57], [-121.97, 36.58], [-121.96, 36.59], [-121.96, 36.61], [-121.95, 36.61], [-121.94, 36.62], [-121.94, 36.64], [-121.93, 36.64], [-121.91, 36.62], [-121.9, 36.62], [-121.89, 36.6], [-121.89, 36.6], [-121.87, 36.6], [-121.86, 36.61], [-121.84, 36.63], [-121.82, 36.66], [-121.82, 36.68], [-121.81, 36.71], [-121.81, 36.75], [-121.8, 36.78], [-121.79, 36.8], [-121.79, 36.81], [-121.81, 36.84], [-121.83, 36.88], [-121.86, 36.93], [-121.87, 36.94], [-121.9, 36.97], [-121.92, 36.97], [-121.94, 36.98], [-121.95, 36.97], [-121.97, 36.96], [-121.98, 36.95], [-121.98, 36.96], [-121.99, 36.96], [-122.01, 36.96], [-122.02, 36.96], [-122.03, 36.95], [-122.04, 36.95], [-122.05, 36.95], [-122.07, 36.95], [-122.09, 36.95], [-122.11, 36.96], [-122.12, 36.97], [-122.14, 36.97], [-122.14, 36.97], [-122.15, 36.98], [-122.16, 36.99], [-122.18, 37.0], [-122.19, 37.01], [-122.21, 37.01], [-122.22, 37.02], [-122.22, 37.02], [-122.23, 37.04], [-122.25, 37.06], [-122.26, 37.07], [-122.29, 37.1], [-122.31, 37.12], [-122.31, 37.12], [-122.33, 37.11], [-122.34, 37.12], [-122.34, 37.13], [-122.35, 37.15], [-122.36, 37.15], [-122.36, 37.17], [-122.38, 37.18], [-122.4, 37.18], [-122.41, 37.2], [-122.41, 37.21], [-122.41, 37.22], [-122.42, 37.24], [-122.41, 37.26], [-122.41, 37.29], [-122.4, 37.33], [-122.4, 37.34], [-122.4, 37.36], [-122.41, 37.37], [-122.41, 37.38], [-122.42, 37.39], [-122.42, 37.4], [-122.44, 37.43], [-122.45, 37.44], [-122.45, 37.47], [-122.46, 37.49], [-122.47, 37.5], [-122.49, 37.5], [-122.5, 37.5], [-122.52, 37.52], [-122.52, 37.54], [-122.51, 37.56], [-122.52, 37.58], [-122.52, 37.59], [-122.5, 37.6], [-122.5, 37.61], [-122.49, 37.65], [-122.49, 37.66], [-122.5, 37.69], [-122.51, 37.73], [-122.51, 37.78], [-122.51, 37.79], [-122.49, 37.79], [-122.48, 37.81], [-122.46, 37.8], [-122.41, 37.81], [-122.4, 37.81], [-122.39, 37.79], [-122.39, 37.78], [-122.38, 37.75], [-122.37, 37.74], [-122.37, 37.73], [-122.36, 37.73], [-122.37, 37.72], [-122.37, 37.72], [-122.38, 37.71], [-122.39, 37.71], [-122.39, 37.7], [-122.39, 37.68], [-122.38, 37.68], [-122.38, 37.66], [-122.38, 37.66], [-122.39, 37.63], [-122.38, 37.63], [-122.36, 37.63], [-122.37, 37.62], [-122.35, 37.61], [-122.36, 37.61], [-122.37, 37.61], [-122.38, 37.61], [-122.36, 37.6], [-122.36, 37.59], [-122.32, 37.59], [-122.32, 37.58], [-122.31, 37.58], [-122.28, 37.58], [-122.27, 37.57], [-122.26, 37.57], [-122.25, 37.57], [-122.24, 37.55], [-122.23, 37.55], [-122.22, 37.54], [-122.2, 37.54], [-122.2, 37.54], [-122.2, 37.52], [-122.18, 37.52], [-122.18, 37.51], [-122.16, 37.5], [-122.14, 37.51], [-122.13, 37.5], [-122.12, 37.49], [-122.12, 37.48], [-122.11, 37.46], [-122.1, 37.46], [-122.1, 37.46], [-122.09, 37.45], [-122.07, 37.45], [-122.06, 37.45], [-122.04, 37.45], [-122.03, 37.46], [-122.0, 37.46], [-121.98, 37.46], [-121.97, 37.46], [-121.97, 37.47], [-121.98, 37.47], [-121.99, 37.47], [-122.03, 37.47], [-122.05, 37.47], [-122.06, 37.5], [-122.08, 37.5], [-122.11, 37.5], [-122.11, 37.51], [-122.11, 37.52], [-122.12, 37.54], [-122.13, 37.56], [-122.14, 37.58], [-122.15, 37.59], [-122.15, 37.6], [-122.15, 37.62], [-122.15, 37.64], [-122.16, 37.67], [-122.18, 37.68], [-122.19, 37.7], [-122.19, 37.7], [-122.21, 37.71], [-122.22, 37.7], [-122.25, 37.72], [-122.25, 37.73], [-122.26, 37.74], [-122.25, 37.75], [-122.22, 37.75], [-122.22, 37.76], [-122.23, 37.77], [-122.24, 37.77], [-122.24, 37.78], [-122.26, 37.79], [-122.28, 37.8], [-122.31, 37.79], [-122.32, 37.8], [-122.32, 37.81], [-122.31, 37.82], [-122.31, 37.83], [-122.3, 37.83], [-122.3, 37.83], [-122.3, 37.86], [-122.32, 37.89], [-122.31, 37.89], [-122.32, 37.91], [-122.34, 37.91], [-122.34, 37.91], [-122.36, 37.91], [-122.37, 37.9], [-122.38, 37.91], [-122.39, 37.91], [-122.39, 37.92], [-122.4, 37.93], [-122.41, 37.93], [-122.42, 37.95], [-122.41, 37.96], [-122.4, 37.95], [-122.39, 37.96], [-122.38, 37.98], [-122.37, 37.98], [-122.36, 37.99], [-122.37, 38.01], [-122.35, 38.01], [-122.33, 38.0], [-122.32, 38.01], [-122.3, 38.01], [-122.28, 38.02], [-122.27, 38.04], [-122.27, 38.04], [-122.26, 38.05], [-122.27, 38.06], [-122.27, 38.07], [-122.28, 38.08], [-122.3, 38.1], [-122.31, 38.11], [-122.33, 38.12], [-122.36, 38.13], [-122.36, 38.13], [-122.39, 38.14], [-122.4, 38.14], [-122.41, 38.14], [-122.43, 38.13], [-122.44, 38.12], [-122.48, 38.11], [-122.49, 38.11], [-122.49, 38.1], [-122.48, 38.07], [-122.49, 38.06], [-122.49, 38.05], [-122.5, 38.03], [-122.5, 38.02], [-122.49, 38.01], [-122.48, 38.01], [-122.46, 38.0], [-122.45, 37.99], [-122.46, 37.98], [-122.47, 37.98], [-122.47, 37.98], [-122.48, 37.97], [-122.5, 37.97], [-122.49, 37.95], [-122.49, 37.94], [-122.51, 37.94], [-122.5, 37.93], [-122.49, 37.92], [-122.47, 37.92], [-122.47, 37.91], [-122.46, 37.89], [-122.45, 37.89], [-122.44, 37.88], [-122.45, 37.87], [-122.46, 37.87], [-122.47, 37.87], [-122.47, 37.89], [-122.49, 37.9], [-122.5, 37.89], [-122.5, 37.87], [-122.49, 37.86], [-122.48, 37.86], [-122.48, 37.85], [-122.47, 37.84], [-122.48, 37.83], [-122.49, 37.82], [-122.52, 37.82], [-122.53, 37.82], [-122.54, 37.83], [-122.55, 37.84], [-122.56, 37.85], [-122.58, 37.86], [-122.6, 37.87], [-122.62, 37.88], [-122.64, 37.89], [-122.65, 37.9], [-122.66, 37.91], [-122.67, 37.92], [-122.68, 37.93], [-122.69, 37.92], [-122.68, 37.91], [-122.7, 37.89], [-122.71, 37.9], [-122.73, 37.9], [-122.74, 37.93], [-122.76, 37.94], [-122.77, 37.94], [-122.78, 37.95], [-122.79, 37.97], [-122.81, 37.98], [-122.82, 38.0], [-122.85, 38.02], [-122.87, 38.02], [-122.91, 38.03], [-122.91, 38.03], [-122.93, 38.04], [-122.94, 38.05], [-122.93, 38.06], [-122.95, 38.06], [-122.95, 38.05], [-122.94, 38.03], [-122.96, 38.03], [-122.98, 38.01], [-122.98, 38.0], [-123.0, 37.99], [-123.01, 38.0], [-123.0, 38.03], [-122.97, 38.1], [-122.95, 38.13], [-122.95, 38.15], [-122.95, 38.16], [-122.96, 38.18], [-122.97, 38.18], [-122.97, 38.2], [-122.98, 38.21], [-122.98, 38.23], [-122.96, 38.21], [-122.95, 38.21], [-122.95, 38.2], [-122.94, 38.19], [-122.92, 38.18], [-122.92, 38.17], [-122.91, 38.16], [-122.91, 38.15], [-122.9, 38.14], [-122.89, 38.13], [-122.87, 38.11], [-122.84, 38.09], [-122.83, 38.09], [-122.84, 38.11], [-122.85, 38.11], [-122.85, 38.12], [-122.86, 38.12], [-122.86, 38.13], [-122.87, 38.14], [-122.88, 38.14], [-122.9, 38.17], [-122.9, 38.17], [-122.92, 38.19], [-122.93, 38.21], [-122.94, 38.22], [-122.95, 38.22], [-122.95, 38.23], [-122.97, 38.23], [-122.97, 38.25], [-122.98, 38.27], [-122.99, 38.27], [-123.0, 38.3], [-123.02, 38.31], [-123.04, 38.31], [-123.04, 38.32], [-123.05, 38.33], [-123.05, 38.33], [-123.06, 38.32], [-123.07, 38.31], [-123.07, 38.32], [-123.07, 38.34], [-123.07, 38.36], [-123.08, 38.38], [-123.09, 38.39], [-123.1, 38.39], [-123.1, 38.41], [-123.11, 38.42], [-123.13, 38.45], [-123.16, 38.47], [-123.17, 38.48], [-123.2, 38.49], [-123.21, 38.5], [-123.25, 38.51], [-123.26, 38.52], [-123.28, 38.53], [-123.29, 38.54], [-123.3, 38.55], [-123.31, 38.56], [-123.33, 38.57], [-123.34, 38.58], [-123.34, 38.58], [-123.35, 38.6], [-123.37, 38.6], [-123.37, 38.61], [-123.38, 38.62], [-123.4, 38.65], [-123.41, 38.65], [-123.41, 38.66], [-123.42, 38.67], [-123.43, 38.68], [-123.43, 38.69], [-123.44, 38.7], [-123.45, 38.7], [-123.46, 38.71], [-123.49, 38.73], [-123.49, 38.74], [-123.51, 38.74], [-123.52, 38.75], [-123.53, 38.76], [-123.55, 38.78], [-123.56, 38.79], [-123.56, 38.79], [-123.58, 38.8], [-123.59, 38.8], [-123.6, 38.81], [-123.6, 38.82], [-123.62, 38.83], [-123.63, 38.84], [-123.65, 38.85], [-123.65, 38.87], [-123.66, 38.87], [-123.68, 38.88], [-123.69, 38.89], [-123.7, 38.9], [-123.71, 38.92], [-123.73, 38.92], [-123.73, 38.94], [-123.74, 38.95], [-123.73, 38.96], [-123.71, 38.97], [-123.7, 39.0], [-123.69, 39.02], [-123.69, 39.04], [-123.69, 39.04], [-123.69, 39.05], [-123.7, 39.07], [-123.7, 39.08], [-123.72, 39.12], [-123.72, 39.13], [-123.74, 39.15], [-123.73, 39.16], [-123.75, 39.17], [-123.76, 39.19], [-123.77, 39.19], [-123.77, 39.2], [-123.78, 39.21], [-123.78, 39.23], [-123.78, 39.24], [-123.79, 39.26], [-123.8, 39.28], [-123.8, 39.29], [-123.79, 39.3], [-123.81, 39.3], [-123.81, 39.31], [-123.8, 39.32], [-123.82, 39.33], [-123.83, 39.35], [-123.82, 39.36], [-123.82, 39.37], [-123.82, 39.39], [-123.82, 39.41], [-123.81, 39.41], [-123.82, 39.43], [-123.81, 39.45], [-123.8, 39.49], [-123.78, 39.51], [-123.77, 39.55], [-123.77, 39.56], [-123.78, 39.58], [-123.78, 39.58], [-123.79, 39.6], [-123.78, 39.61], [-123.79, 39.64], [-123.79, 39.66], [-123.79, 39.67], [-123.79, 39.69], [-123.8, 39.7], [-123.81, 39.71], [-123.83, 39.72], [-123.83, 39.73], [-123.84, 39.76], [-123.84, 39.78], [-123.84, 39.8], [-123.85, 39.81], [-123.85, 39.82], [-123.85, 39.83], [-123.88, 39.85], [-123.91, 39.86], [-123.93, 39.91], [-123.96, 39.92], [-123.98, 39.96], [-124.0, 39.97], [-124.0, 39.98], [-124.04, 40.02], [-124.06, 40.02], [-124.07, 40.02], [-124.08, 40.03], [-124.08, 40.04], [-124.08, 40.07], [-124.11, 40.1], [-124.13, 40.11], [-124.15, 40.12], [-124.19, 40.13], [-124.22, 40.16], [-124.24, 40.18], [-124.26, 40.18], [-124.27, 40.2], [-124.29, 40.2], [-124.32, 40.23], [-124.33, 40.24], [-124.35, 40.25], [-124.36, 40.26], [-124.36, 40.28], [-124.35, 40.29], [-124.35, 40.31], [-124.35, 40.32], [-124.35, 40.33], [-124.36, 40.34], [-124.36, 40.37], [-124.37, 40.39], [-124.39, 40.41], [-124.4, 40.42], [-124.4, 40.43], [-124.41, 40.44], [-124.39, 40.47], [-124.38, 40.49], [-124.39, 40.51], [-124.37, 40.54], [-124.36, 40.56], [-124.33, 40.61], [-124.31, 40.64], [-124.3, 40.66], [-124.28, 40.69], [-124.25, 40.74], [-124.24, 40.75], [-124.23, 40.75], [-124.24, 40.74], [-124.26, 40.72], [-124.27, 40.7], [-124.26, 40.7], [-124.23, 40.69], [-124.21, 40.71], [-124.22, 40.72], [-124.21, 40.74], [-124.2, 40.75], [-124.2, 40.77], [-124.2, 40.77], [-124.19, 40.79], [-124.18, 40.8], [-124.14, 40.81], [-124.13, 40.81], [-124.12, 40.81], [-124.11, 40.81], [-124.11, 40.81], [-124.09, 40.82], [-124.08, 40.83], [-124.09, 40.85], [-124.1, 40.86], [-124.12, 40.85], [-124.13, 40.86], [-124.15, 40.87], [-124.16, 40.86], [-124.17, 40.84], [-124.17, 40.83], [-124.19, 40.81], [-124.19, 40.8], [-124.2, 40.78], [-124.21, 40.77], [-124.22, 40.76], [-124.23, 40.76], [-124.2, 40.8], [-124.18, 40.84], [-124.16, 40.87], [-124.15, 40.9], [-124.14, 40.93], [-124.11, 41.0], [-124.11, 41.03], [-124.12, 41.03], [-124.12, 41.05], [-124.14, 41.06], [-124.15, 41.07], [-124.16, 41.07], [-124.15, 41.09], [-124.16, 41.1], [-124.16, 41.12], [-124.17, 41.13], [-124.16, 41.14], [-124.15, 41.14], [-124.14, 41.15], [-124.12, 41.19], [-124.11, 41.22], [-124.11, 41.24], [-124.1, 41.26], [-124.09, 41.3], [-124.07, 41.38], [-124.07, 41.42], [-124.07, 41.47], [-124.07, 41.5], [-124.08, 41.51], [-124.08, 41.53], [-124.08, 41.53], [-124.08, 41.55], [-124.09, 41.56], [-124.1, 41.57], [-124.1, 41.59], [-124.1, 41.59], [-124.1, 41.6], [-124.12, 41.62], [-124.12, 41.64], [-124.13, 41.66], [-124.14, 41.67], [-124.14, 41.68], [-124.14, 41.71], [-124.15, 41.73], [-124.16, 41.74], [-124.18, 41.75], [-124.18, 41.74], [-124.2, 41.74], [-124.22, 41.75], [-124.24, 41.77], [-124.25, 41.77], [-124.26, 41.78], [-124.24, 41.79], [-124.24, 41.81], [-124.22, 41.85], [-124.21, 41.89], [-124.2, 41.92], [-124.2, 41.94], [-124.21, 41.95], [-124.21, 41.96], [-124.2, 41.98], [-124.21, 42.0], [-124.13, 42.0], [-123.98, 42.0], [-123.97, 42.0], [-123.93, 42.0], [-123.83, 42.0], [-123.83, 42.0], [-123.81, 42.0], [-123.79, 42.0], [-123.79, 42.0], [-123.77, 42.0], [-123.77, 42.0], [-123.75, 42.0], [-123.73, 42.0], [-123.73, 42.0], [-123.66, 42.0], [-123.62, 42.0], [-123.55, 42.0], [-123.53, 42.0], [-123.53, 42.0], [-123.52, 42.0], [-123.52, 42.0], [-123.52, 42.0], [-123.52, 42.0], [-123.51, 42.0], [-123.51, 42.0], [-123.51, 42.0], [-123.5, 42.0], [-123.5, 42.0], [-123.5, 42.0], [-123.48, 42.0], [-123.43, 42.0], [-123.4, 42.0], [-123.38, 42.0], [-123.35, 42.0], [-123.19, 42.01], [-123.15, 42.01], [-123.05, 42.0], [-122.88, 42.0], [-122.71, 42.0], [-122.63, 42.0], [-122.5, 42.01], [-122.4, 42.01], [-122.38, 42.01], [-122.29, 42.01], [-122.26, 42.01]]]]}}]}