{"type": "FeatureCollection", "features": [{"type": "Feature", "properties": {"ID": 5, "abbreviation": "CO", "name": "Colorado"}, "geometry": {"type": "Polygon", "coordinates": [[[-106.87, 41.0], [-106.63, 41.0], [-106.44, 41.0], [-106.39, 41.0], [-106.31, 41.0], [-106.22, 41.0], [-106.06, 41.0], [-106.0, 41.0], [-105.73, 41.0], [-105.66, 41.0], [-105.45, 41.0], [-105.16, 41.0], [-104.86, 41.0], [-104.8, 41.0], [-104.63, 41.0], [-104.36, 41.0], [-104.17, 41.0], [-104.05, 41.0], [-104.02, 41.0], [-103.97, 41.0], [-103.91, 41.0], [-103.9, 41.0], [-103.9, 41.0], [-103.78, 41.0], [-103.76, 41.0], [-103.75, 41.0], [-103.73, 41.0], [-103.65, 41.0], [-103.63, 41.0], [-103.62, 41.0], [-103.62, 41.0], [-103.62, 41.0], [-103.58, 41.0], [-103.56, 41.0], [-103.53, 41.0], [-103.49, 41.0], [-103.37, 41.0], [-103.14, 41.0], [-103.0, 41.0], [-102.87, 41.0], [-102.56, 41.0], [-102.36, 41.0], [-102.29, 41.0], [-102.29, 41.0], [-102.27, 41.0], [-102.27, 41.0], [-102.24, 41.0], [-102.23, 41.0], [-102.21, 41.0], [-102.19, 41.0], [-102.14, 41.0], [-102.12, 41.0], [-102.07, 41.0], [-102.07, 41.0], [-102.05, 41.0], [-102.05, 41.0], [-102.05, 40.97], [-102.05, 40.87], [-102.05, 40.87], [-102.05, 40.85], [-102.05, 40.83], [-102.05, 40.82], [-102.05, 40.79], [-102.05, 40.79], [-102.05, 40.76], [-102.05, 40.74], [-102.05, 40.68], [-102.05, 40.67], [-102.05, 40.65], [-102.05, 40.64], [-102.05, 40.63], [-102.05, 40.63], [-102.05, 40.5], [-102.05, 40.49], [-102.05, 40.47], [-102.05, 40.44], [-102.05, 40.43], [-102.05, 40.42], [-102.05, 40.4], [-102.05, 40.39], [-102.05, 40.36], [-102.05, 40.34], [-102.05, 40.24], [-102.05, 40.22], [-102.05, 40.22], [-102.05, 40.22], [-102.05, 40.22], [-102.05, 40.21], [-102.05, 40.21], [-102.05, 40.2], [-102.05, 40.19], [-102.05, 40.19], [-102.05, 40.18], [-102.05, 40.16], [-102.05, 40.15], [-102.05, 40.12], [-102.05, 40.09], [-102.05, 40.05], [-102.05, 39.98], [-102.05, 39.75], [-102.05, 39.61], [-102.05, 39.54], [-102.05, 39.37], [-102.05, 39.23], [-102.05, 39.15], [-102.05, 39.1], [-102.05, 39.02], [-102.05, 39.0], [-102.05, 38.98], [-102.05, 38.97], [-102.05, 38.86], [-102.05, 38.74], [-102.04, 38.62], [-102.05, 38.45], [-102.04, 38.44], [-102.04, 38.42], [-102.04, 38.42], [-102.04, 38.41], [-102.04, 38.4], [-102.04, 38.4], [-102.05, 38.4], [-102.04, 38.39], [-102.05, 38.38], [-102.04, 38.35], [-102.04, 38.26], [-102.04, 38.11], [-102.04, 37.98], [-102.04, 37.88], [-102.04, 37.8], [-102.04, 37.69], [-102.04, 37.54], [-102.04, 37.3], [-102.04, 37.14], [-102.04, 37.05], [-102.04, 37.04], [-102.04, 37.02], [-102.04, 37.01], [-102.04, 37.0], [-102.04, 36.99], [-102.05, 36.99], [-102.07, 36.99], [-102.08, 36.99], [-102.08, 36.99], [-102.13, 36.99], [-102.21, 36.99], [-102.37, 36.99], [-102.39, 36.99], [-102.45, 36.99], [-102.5, 36.99], [-102.52, 36.99], [-102.54, 36.99], [-102.57, 37.0], [-102.7, 37.0], [-102.74, 37.0], [-102.76, 37.0], [-102.78, 37.0], [-102.81, 37.0], [-102.82, 37.0], [-102.83, 37.0], [-102.83, 37.0], [-102.82, 37.0], [-102.83, 37.0], [-102.84, 37.0], [-102.99, 37.0], [-103.0, 37.0], [-103.0, 37.0], [-103.0, 37.0], [-103.12, 37.0], [-103.25, 37.0], [-103.41, 37.0], [-103.55, 37.0], [-103.63, 37.0], [-103.69, 37.0], [-103.72, 37.0], [-103.74, 37.0], [-103.75, 37.0], [-103.77, 37.0], [-103.78, 37.0], [-103.79, 37.0], [-103.82, 37.0], [-104.13, 37.0], [-104.25, 36.99], [-104.34, 36.99], [-104.61, 36.99], [-104.65, 36.99], [-104.88, 36.99], [-105.0, 36.99], [-105.03, 36.99], [-105.12, 37.0], [-105.21, 37.0], [-105.45, 37.0], [-105.63, 37.0], [-105.66, 37.0], [-105.9, 37.0], [-105.97, 37.0], [-106.15, 36.99], [-106.2, 36.99], [-106.34, 36.99], [-106.5, 36.99], [-106.59, 36.99], [-106.7, 36.99], [-106.75, 36.99], [-106.87, 36.99], [-106.88, 37.0], [-107.0, 37.0], [-107.78, 37.0], [-107.99, 37.0], [-108.25, 37.0], [-108.25, 37.0], [-108.5, 37.0], [-108.68, 37.0], [-108.88, 37.0], [-109.0, 37.0], [-109.03, 37.0], [-109.03, 37.0], [-109.05, 37.0], [-109.05, 37.0], [-109.05, 37.0], [-109.05, 37.02], [-109.05, 37.11], [-109.05, 37.18], [-109.05, 37.37], [-109.04, 37.5], [-109.04, 37.53], [-109.04, 37.61], [-109.04, 37.67], [-109.04, 37.8], [-109.04, 37.84], [-109.04, 37.84], [-109.04, 37.86], [-109.04, 37.87], [-109.04, 37.87], [-109.04, 37.87], [-109.04, 37.91], [-109.04, 37.97], [-109.04, 37.97], [-109.04, 37.98], [-109.04, 37.99], [-109.04, 38.0], [-109.04, 38.0], [-109.04, 38.02], [-109.04, 38.02], [-109.04, 38.16], [-109.04, 38.16], [-109.06, 38.28], [-109.06, 38.47], [-109.06, 38.49], [-109.06, 38.5], [-109.06, 38.6], [-109.06, 38.72], [-109.06, 38.8], [-109.05, 38.87], [-109.05, 39.0], [-109.05, 39.12], [-109.05, 39.37], [-109.05, 39.37], [-109.05, 39.39], [-109.05, 39.41], [-109.05, 39.5], [-109.05, 39.5], [-109.05, 39.52], [-109.05, 39.6], [-109.05, 39.62], [-109.05, 39.66], [-109.05, 39.75], [-109.05, 39.83], [-109.05, 39.87], [-109.05, 40.0], [-109.05, 40.12], [-109.05, 40.23], [-109.05, 40.44], [-109.05, 40.54], [-109.05, 40.58], [-109.05, 40.58], [-109.05, 40.6], [-109.05, 40.62], [-109.05, 40.71], [-109.05, 40.83], [-109.05, 40.84], [-109.05, 40.89], [-109.05, 41.0], [-109.05, 41.0], [-109.05, 41.0], [-109.02, 41.0], [-109.0, 41.0], [-108.88, 41.0], [-108.63, 41.0], [-108.53, 41.0], [-108.5, 41.0], [-108.38, 41.0], [-108.18, 41.0], [-108.05, 41.0], [-107.87, 41.0], [-107.75, 41.0], [-107.5, 41.0], [-107.37, 41.0], [-107.24, 41.0], [-107.0, 41.0], [-106.87, 41.0]]]}}]}