{"type": "FeatureCollection", "features": [{"type": "Feature", "properties": {"ID": 6, "abbreviation": "CT", "name": "Connecticut"}, "geometry": {"type": "MultiPolygon", "coordinates": [[[[-72.33, 41.29], [-72.33, 41.28], [-72.34, 41.3], [-72.33, 41.29]]], [[[-73.43, 42.05], [-73.38, 42.05], [-73.37, 42.05], [-73.31, 42.05], [-73.29, 42.05], [-73.29, 42.05], [-73.26, 42.05], [-73.25, 42.05], [-73.23, 42.05], [-73.23, 42.05], [-73.22, 42.04], [-73.2, 42.04], [-73.19, 42.04], [-73.17, 42.04], [-73.13, 42.04], [-73.13, 42.04], [-73.12, 42.04], [-73.1, 42.04], [-73.08, 42.04], [-73.06, 42.04], [-73.05, 42.04], [-73.05, 42.04], [-73.04, 42.04], [-73.04, 42.04], [-73.02, 42.04], [-73.01, 42.04], [-72.98, 42.04], [-72.97, 42.04], [-72.94, 42.04], [-72.93, 42.04], [-72.92, 42.04], [-72.9, 42.04], [-72.89, 42.04], [-72.86, 42.04], [-72.86, 42.04], [-72.85, 42.04], [-72.83, 42.04], [-72.82, 42.04], [-72.81, 42.04], [-72.81, 42.03], [-72.82, 42.0], [-72.77, 42.0], [-72.77, 42.0], [-72.77, 42.0], [-72.77, 42.0], [-72.77, 42.01], [-72.76, 42.01], [-72.76, 42.01], [-72.76, 42.01], [-72.76, 42.01], [-72.76, 42.01], [-72.76, 42.01], [-72.76, 42.01], [-72.76, 42.01], [-72.76, 42.01], [-72.76, 42.01], [-72.76, 42.02], [-72.76, 42.02], [-72.76, 42.02], [-72.76, 42.02], [-72.76, 42.02], [-72.76, 42.02], [-72.76, 42.02], [-72.76, 42.02], [-72.76, 42.02], [-72.77, 42.02], [-72.77, 42.02], [-72.77, 42.02], [-72.77, 42.02], [-72.76, 42.02], [-72.76, 42.02], [-72.76, 42.02], [-72.76, 42.03], [-72.75, 42.03], [-72.75, 42.03], [-72.75, 42.03], [-72.75, 42.03], [-72.75, 42.03], [-72.75, 42.03], [-72.76, 42.03], [-72.76, 42.03], [-72.76, 42.03], [-72.76, 42.03], [-72.76, 42.04], [-72.75, 42.04], [-72.75, 42.04], [-72.75, 42.04], [-72.72, 42.04], [-72.71, 42.04], [-72.7, 42.04], [-72.64, 42.03], [-72.61, 42.03], [-72.61, 42.03], [-72.58, 42.03], [-72.57, 42.03], [-72.53, 42.03], [-72.46, 42.03], [-72.34, 42.03], [-72.14, 42.03], [-72.06, 42.03], [-71.99, 42.03], [-71.89, 42.02], [-71.8, 42.02], [-71.8, 42.01], [-71.8, 42.0], [-71.8, 42.0], [-71.8, 41.99], [-71.8, 41.96], [-71.8, 41.93], [-71.79, 41.81], [-71.79, 41.78], [-71.79, 41.7], [-71.79, 41.69], [-71.79, 41.66], [-71.79, 41.64], [-71.79, 41.64], [-71.79, 41.63], [-71.79, 41.55], [-71.79, 41.51], [-71.79, 41.5], [-71.8, 41.47], [-71.8, 41.45], [-71.8, 41.42], [-71.82, 41.42], [-71.83, 41.41], [-71.84, 41.41], [-71.84, 41.41], [-71.84, 41.41], [-71.84, 41.41], [-71.84, 41.41], [-71.84, 41.41], [-71.84, 41.4], [-71.84, 41.4], [-71.84, 41.4], [-71.84, 41.4], [-71.84, 41.4], [-71.84, 41.4], [-71.84, 41.4], [-71.84, 41.4], [-71.84, 41.4], [-71.84, 41.39], [-71.84, 41.39], [-71.84, 41.39], [-71.83, 41.39], [-71.83, 41.39], [-71.83, 41.39], [-71.83, 41.38], [-71.83, 41.38], [-71.83, 41.38], [-71.83, 41.38], [-71.83, 41.38], [-71.83, 41.38], [-71.83, 41.38], [-71.83, 41.38], [-71.83, 41.38], [-71.83, 41.38], [-71.83, 41.38], [-71.83, 41.38], [-71.83, 41.37], [-71.84, 41.37], [-71.84, 41.36], [-71.84, 41.36], [-71.84, 41.36], [-71.84, 41.36], [-71.84, 41.36], [-71.84, 41.36], [-71.84, 41.36], [-71.84, 41.35], [-71.83, 41.35], [-71.83, 41.34], [-71.83, 41.34], [-71.84, 41.34], [-71.84, 41.33], [-71.85, 41.33], [-71.85, 41.32], [-71.86, 41.32], [-71.86, 41.34], [-71.87, 41.34], [-71.88, 41.35], [-71.9, 41.33], [-71.91, 41.34], [-71.93, 41.33], [-71.93, 41.34], [-71.97, 41.34], [-71.96, 41.35], [-71.97, 41.35], [-71.98, 41.34], [-71.99, 41.32], [-72.0, 41.32], [-72.01, 41.31], [-72.02, 41.32], [-72.03, 41.31], [-72.05, 41.32], [-72.07, 41.32], [-72.09, 41.32], [-72.09, 41.32], [-72.1, 41.3], [-72.11, 41.3], [-72.13, 41.3], [-72.13, 41.3], [-72.14, 41.3], [-72.15, 41.31], [-72.16, 41.31], [-72.17, 41.32], [-72.18, 41.32], [-72.19, 41.32], [-72.2, 41.32], [-72.2, 41.3], [-72.2, 41.29], [-72.21, 41.29], [-72.22, 41.3], [-72.23, 41.3], [-72.25, 41.3], [-72.25, 41.29], [-72.26, 41.28], [-72.27, 41.28], [-72.3, 41.28], [-72.31, 41.28], [-72.32, 41.28], [-72.33, 41.29], [-72.34, 41.3], [-72.35, 41.31], [-72.36, 41.29], [-72.35, 41.29], [-72.36, 41.27], [-72.37, 41.26], [-72.38, 41.27], [-72.39, 41.26], [-72.4, 41.28], [-72.42, 41.28], [-72.42, 41.27], [-72.45, 41.28], [-72.46, 41.28], [-72.47, 41.27], [-72.48, 41.27], [-72.5, 41.27], [-72.51, 41.26], [-72.52, 41.26], [-72.52, 41.27], [-72.53, 41.27], [-72.54, 41.25], [-72.55, 41.25], [-72.57, 41.27], [-72.58, 41.27], [-72.6, 41.27], [-72.62, 41.27], [-72.64, 41.27], [-72.66, 41.27], [-72.66, 41.27], [-72.68, 41.26], [-72.69, 41.25], [-72.7, 41.25], [-72.71, 41.25], [-72.72, 41.26], [-72.74, 41.26], [-72.75, 41.26], [-72.75, 41.27], [-72.78, 41.27], [-72.8, 41.26], [-72.81, 41.25], [-72.82, 41.26], [-72.83, 41.26], [-72.84, 41.26], [-72.85, 41.26], [-72.86, 41.25], [-72.88, 41.24], [-72.9, 41.24], [-72.9, 41.25], [-72.89, 41.26], [-72.91, 41.27], [-72.9, 41.28], [-72.91, 41.29], [-72.92, 41.3], [-72.94, 41.27], [-72.93, 41.27], [-72.93, 41.26], [-72.96, 41.25], [-72.97, 41.24], [-72.99, 41.24], [-72.99, 41.22], [-73.0, 41.22], [-73.01, 41.21], [-73.03, 41.21], [-73.04, 41.2], [-73.04, 41.21], [-73.06, 41.21], [-73.07, 41.2], [-73.09, 41.19], [-73.1, 41.17], [-73.11, 41.17], [-73.11, 41.16], [-73.13, 41.15], [-73.18, 41.17], [-73.18, 41.16], [-73.22, 41.15], [-73.23, 41.14], [-73.24, 41.14], [-73.24, 41.13], [-73.26, 41.12], [-73.27, 41.12], [-73.28, 41.13], [-73.29, 41.13], [-73.31, 41.12], [-73.32, 41.11], [-73.33, 41.11], [-73.34, 41.11], [-73.35, 41.11], [-73.36, 41.11], [-73.38, 41.11], [-73.39, 41.09], [-73.41, 41.09], [-73.41, 41.08], [-73.42, 41.08], [-73.43, 41.07], [-73.44, 41.06], [-73.46, 41.06], [-73.47, 41.05], [-73.49, 41.04], [-73.5, 41.06], [-73.5, 41.04], [-73.52, 41.03], [-73.52, 41.02], [-73.53, 41.02], [-73.53, 41.03], [-73.54, 41.03], [-73.55, 41.03], [-73.56, 41.02], [-73.57, 41.02], [-73.58, 41.02], [-73.6, 41.02], [-73.61, 41.01], [-73.62, 41.01], [-73.63, 41.0], [-73.64, 41.01], [-73.65, 40.99], [-73.66, 40.99], [-73.66, 41.0], [-73.66, 41.0], [-73.66, 41.0], [-73.66, 41.01], [-73.66, 41.01], [-73.66, 41.01], [-73.66, 41.01], [-73.66, 41.02], [-73.66, 41.02], [-73.67, 41.03], [-73.68, 41.05], [-73.71, 41.07], [-73.72, 41.09], [-73.72, 41.09], [-73.73, 41.1], [-73.73, 41.1], [-73.73, 41.1], [-73.71, 41.11], [-73.7, 41.11], [-73.66, 41.13], [-73.6, 41.16], [-73.54, 41.19], [-73.51, 41.2], [-73.49, 41.21], [-73.49, 41.21], [-73.49, 41.21], [-73.49, 41.21], [-73.48, 41.21], [-73.51, 41.25], [-73.52, 41.26], [-73.54, 41.28], [-73.55, 41.29], [-73.55, 41.29], [-73.55, 41.3], [-73.55, 41.32], [-73.54, 41.38], [-73.54, 41.41], [-73.54, 41.45], [-73.53, 41.5], [-73.53, 41.57], [-73.52, 41.62], [-73.52, 41.67], [-73.52, 41.67], [-73.52, 41.67], [-73.52, 41.69], [-73.52, 41.69], [-73.52, 41.7], [-73.51, 41.73], [-73.51, 41.75], [-73.51, 41.76], [-73.51, 41.79], [-73.51, 41.8], [-73.51, 41.81], [-73.51, 41.82], [-73.5, 41.83], [-73.5, 41.85], [-73.5, 41.86], [-73.5, 41.86], [-73.5, 41.87], [-73.5, 41.88], [-73.5, 41.89], [-73.5, 41.89], [-73.5, 41.91], [-73.5, 41.91], [-73.49, 41.95], [-73.49, 41.95], [-73.49, 41.95], [-73.49, 41.96], [-73.49, 41.97], [-73.49, 41.97], [-73.49, 42.0], [-73.49, 42.02], [-73.49, 42.02], [-73.49, 42.05], [-73.48, 42.05], [-73.44, 42.05], [-73.44, 42.05], [-73.43, 42.05], [-73.43, 42.05]]]]}}]}