{"type": "FeatureCollection", "features": [{"type": "Feature", "properties": {"ID": 9, "abbreviation": "GA", "name": "Georgia"}, "geometry": {"type": "MultiPolygon", "coordinates": [[[[-81.5, 30.8], [-81.51, 30.8], [-81.52, 30.8], [-81.52, 30.81], [-81.51, 30.82], [-81.5, 30.82], [-81.5, 30.82], [-81.5, 30.8]]], [[[-81.51, 30.83], [-81.52, 30.82], [-81.53, 30.84], [-81.52, 30.84], [-81.51, 30.83]]], [[[-81.45, 30.96], [-81.44, 30.95], [-81.47, 30.93], [-81.48, 30.93], [-81.5, 30.92], [-81.51, 30.93], [-81.5, 30.94], [-81.51, 30.96], [-81.49, 30.96], [-81.48, 30.96], [-81.47, 30.97], [-81.46, 30.97], [-81.45, 30.96]]], [[[-81.45, 30.72], [-81.46, 30.71], [-81.47, 30.72], [-81.48, 30.74], [-81.47, 30.75], [-81.47, 30.77], [-81.47, 30.78], [-81.48, 30.79], [-81.47, 30.82], [-81.48, 30.82], [-81.47, 30.84], [-81.48, 30.85], [-81.49, 30.86], [-81.51, 30.88], [-81.51, 30.89], [-81.5, 30.89], [-81.49, 30.9], [-81.48, 30.91], [-81.46, 30.91], [-81.46, 30.92], [-81.44, 30.93], [-81.43, 30.95], [-81.43, 30.96], [-81.42, 30.97], [-81.41, 30.98], [-81.4, 30.96], [-81.4, 30.93], [-81.41, 30.91], [-81.41, 30.89], [-81.42, 30.85], [-81.43, 30.83], [-81.44, 30.82], [-81.45, 30.8], [-81.46, 30.77], [-81.46, 30.74], [-81.45, 30.73], [-81.45, 30.72]]], [[[-81.42, 31.02], [-81.43, 31.01], [-81.43, 31.03], [-81.43, 31.04], [-81.42, 31.05], [-81.43, 31.06], [-81.43, 31.09], [-81.44, 31.09], [-81.42, 31.1], [-81.42, 31.12], [-81.41, 31.12], [-81.4, 31.1], [-81.4, 31.08], [-81.4, 31.06], [-81.42, 31.03], [-81.42, 31.02]]], [[[-81.41, 31.17], [-81.43, 31.16], [-81.43, 31.16], [-81.42, 31.17], [-81.41, 31.17]]], [[[-81.41, 31.2], [-81.42, 31.19], [-81.43, 31.2], [-81.42, 31.21], [-81.43, 31.22], [-81.43, 31.23], [-81.42, 31.24], [-81.42, 31.24], [-81.4, 31.25], [-81.39, 31.25], [-81.39, 31.25], [-81.4, 31.24], [-81.4, 31.22], [-81.4, 31.21], [-81.4, 31.21], [-81.41, 31.2]]], [[[-81.34, 31.31], [-81.33, 31.31], [-81.32, 31.31], [-81.31, 31.3], [-81.3, 31.29], [-81.27, 31.29], [-81.28, 31.28], [-81.27, 31.25], [-81.28, 31.25], [-81.29, 31.23], [-81.29, 31.22], [-81.31, 31.21], [-81.3, 31.21], [-81.32, 31.21], [-81.34, 31.19], [-81.36, 31.17], [-81.36, 31.16], [-81.36, 31.15], [-81.37, 31.14], [-81.37, 31.13], [-81.39, 31.13], [-81.41, 31.14], [-81.42, 31.15], [-81.42, 31.16], [-81.41, 31.17], [-81.41, 31.18], [-81.42, 31.19], [-81.41, 31.2], [-81.4, 31.2], [-81.4, 31.21], [-81.39, 31.22], [-81.4, 31.23], [-81.38, 31.25], [-81.39, 31.26], [-81.39, 31.26], [-81.38, 31.27], [-81.38, 31.29], [-81.4, 31.3], [-81.39, 31.31], [-81.38, 31.31], [-81.35, 31.31], [-81.34, 31.31]]], [[[-81.27, 31.32], [-81.28, 31.32], [-81.3, 31.32], [-81.32, 31.33], [-81.33, 31.35], [-81.34, 31.36], [-81.32, 31.37], [-81.31, 31.37], [-81.29, 31.37], [-81.28, 31.35], [-81.28, 31.33], [-81.27, 31.32]]], [[[-81.31, 31.44], [-81.32, 31.43], [-81.33, 31.44], [-81.34, 31.45], [-81.33, 31.45], [-81.32, 31.45], [-81.31, 31.44]]], [[[-81.29, 31.48], [-81.29, 31.48], [-81.3, 31.47], [-81.3, 31.47], [-81.3, 31.46], [-81.31, 31.45], [-81.32, 31.46], [-81.33, 31.48], [-81.32, 31.48], [-81.3, 31.48], [-81.3, 31.48], [-81.29, 31.48]]], [[[-81.27, 31.39], [-81.28, 31.38], [-81.29, 31.4], [-81.31, 31.43], [-81.3, 31.44], [-81.3, 31.46], [-81.3, 31.46], [-81.3, 31.47], [-81.29, 31.48], [-81.29, 31.48], [-81.3, 31.49], [-81.27, 31.5], [-81.26, 31.5], [-81.25, 31.51], [-81.24, 31.53], [-81.21, 31.53], [-81.2, 31.53], [-81.19, 31.53], [-81.18, 31.53], [-81.18, 31.52], [-81.19, 31.5], [-81.2, 31.47], [-81.23, 31.45], [-81.23, 31.43], [-81.24, 31.43], [-81.26, 31.4], [-81.27, 31.39]]], [[[-81.08, 31.83], [-81.06, 31.82], [-81.04, 31.82], [-81.04, 31.82], [-81.04, 31.81], [-81.05, 31.8], [-81.07, 31.77], [-81.1, 31.75], [-81.12, 31.73], [-81.13, 31.72], [-81.14, 31.72], [-81.15, 31.75], [-81.17, 31.76], [-81.17, 31.77], [-81.16, 31.78], [-81.16, 31.79], [-81.18, 31.79], [-81.17, 31.82], [-81.16, 31.82], [-81.16, 31.84], [-81.14, 31.85], [-81.13, 31.85], [-81.11, 31.85], [-81.09, 31.85], [-81.08, 31.83]]], [[[-83.1, 34.99], [-83.11, 34.98], [-83.12, 34.97], [-83.12, 34.95], [-83.13, 34.95], [-83.13, 34.93], [-83.14, 34.92], [-83.16, 34.93], [-83.16, 34.92], [-83.17, 34.92], [-83.17, 34.91], [-83.19, 34.9], [-83.2, 34.89], [-83.2, 34.88], [-83.21, 34.88], [-83.23, 34.88], [-83.24, 34.87], [-83.25, 34.86], [-83.25, 34.85], [-83.27, 34.85], [-83.27, 34.84], [-83.27, 34.83], [-83.28, 34.82], [-83.29, 34.82], [-83.3, 34.8], [-83.31, 34.8], [-83.32, 34.79], [-83.32, 34.77], [-83.33, 34.75], [-83.35, 34.74], [-83.35, 34.73], [-83.35, 34.72], [-83.35, 34.7], [-83.35, 34.7], [-83.34, 34.69], [-83.34, 34.68], [-83.32, 34.68], [-83.32, 34.67], [-83.3, 34.67], [-83.29, 34.65], [-83.28, 34.64], [-83.28, 34.64], [-83.26, 34.64], [-83.24, 34.62], [-83.24, 34.62], [-83.23, 34.61], [-83.21, 34.61], [-83.2, 34.6], [-83.17, 34.61], [-83.17, 34.59], [-83.15, 34.59], [-83.16, 34.58], [-83.14, 34.57], [-83.14, 34.56], [-83.12, 34.56], [-83.1, 34.54], [-83.1, 34.53], [-83.08, 34.53], [-83.08, 34.52], [-83.08, 34.51], [-83.07, 34.5], [-83.06, 34.5], [-83.05, 34.5], [-83.03, 34.48], [-83.03, 34.48], [-83.0, 34.47], [-82.99, 34.48], [-82.98, 34.48], [-82.96, 34.48], [-82.95, 34.48], [-82.94, 34.49], [-82.92, 34.48], [-82.9, 34.49], [-82.88, 34.48], [-82.87, 34.47], [-82.87, 34.46], [-82.86, 34.46], [-82.86, 34.44], [-82.85, 34.43], [-82.85, 34.42], [-82.85, 34.41], [-82.84, 34.38], [-82.84, 34.37], [-82.82, 34.36], [-82.8, 34.34], [-82.79, 34.33], [-82.79, 34.31], [-82.78, 34.3], [-82.77, 34.29], [-82.76, 34.28], [-82.74, 34.25], [-82.74, 34.25], [-82.74, 34.22], [-82.74, 34.21], [-82.73, 34.2], [-82.73, 34.18], [-82.73, 34.17], [-82.72, 34.15], [-82.7, 34.14], [-82.69, 34.14], [-82.68, 34.13], [-82.67, 34.11], [-82.66, 34.1], [-82.65, 34.1], [-82.64, 34.09], [-82.65, 34.08], [-82.64, 34.07], [-82.63, 34.06], [-82.61, 34.04], [-82.59, 34.03], [-82.6, 34.02], [-82.59, 34.0], [-82.58, 33.99], [-82.58, 33.98], [-82.57, 33.97], [-82.56, 33.96], [-82.56, 33.95], [-82.54, 33.94], [-82.52, 33.94], [-82.51, 33.94], [-82.49, 33.91], [-82.48, 33.9], [-82.46, 33.88], [-82.44, 33.87], [-82.42, 33.86], [-82.41, 33.87], [-82.38, 33.85], [-82.37, 33.84], [-82.35, 33.83], [-82.33, 33.82], [-82.31, 33.81], [-82.3, 33.8], [-82.3, 33.79], [-82.29, 33.78], [-82.28, 33.77], [-82.26, 33.76], [-82.25, 33.75], [-82.24, 33.73], [-82.23, 33.7], [-82.22, 33.69], [-82.21, 33.67], [-82.2, 33.66], [-82.2, 33.65], [-82.2, 33.63], [-82.17, 33.61], [-82.16, 33.61], [-82.15, 33.6], [-82.14, 33.59], [-82.13, 33.59], [-82.12, 33.6], [-82.11, 33.6], [-82.09, 33.58], [-82.07, 33.58], [-82.06, 33.57], [-82.05, 33.56], [-82.02, 33.54], [-82.01, 33.53], [-82.0, 33.52], [-81.99, 33.5], [-81.99, 33.49], [-81.93, 33.47], [-81.93, 33.46], [-81.91, 33.44], [-81.92, 33.43], [-81.93, 33.43], [-81.93, 33.42], [-81.91, 33.42], [-81.92, 33.41], [-81.93, 33.41], [-81.94, 33.4], [-81.94, 33.4], [-81.93, 33.38], [-81.92, 33.38], [-81.93, 33.37], [-81.94, 33.37], [-81.95, 33.37], [-81.94, 33.36], [-81.94, 33.35], [-81.92, 33.35], [-81.92, 33.33], [-81.91, 33.33], [-81.89, 33.32], [-81.88, 33.31], [-81.85, 33.31], [-81.85, 33.31], [-81.85, 33.3], [-81.86, 33.3], [-81.86, 33.29], [-81.85, 33.28], [-81.84, 33.27], [-81.84, 33.26], [-81.85, 33.25], [-81.84, 33.24], [-81.83, 33.23], [-81.81, 33.22], [-81.81, 33.21], [-81.79, 33.21], [-81.78, 33.21], [-81.77, 33.22], [-81.76, 33.2], [-81.76, 33.2], [-81.76, 33.19], [-81.77, 33.18], [-81.77, 33.17], [-81.76, 33.16], [-81.74, 33.14], [-81.73, 33.13], [-81.72, 33.13], [-81.7, 33.12], [-81.68, 33.11], [-81.66, 33.1], [-81.65, 33.09], [-81.64, 33.09], [-81.61, 33.1], [-81.6, 33.09], [-81.59, 33.07], [-81.58, 33.07], [-81.57, 33.05], [-81.57, 33.05], [-81.54, 33.04], [-81.51, 33.03], [-81.5, 33.02], [-81.49, 33.01], [-81.49, 33.0], [-81.5, 32.99], [-81.49, 32.98], [-81.5, 32.96], [-81.51, 32.97], [-81.51, 32.95], [-81.5, 32.94], [-81.5, 32.94], [-81.48, 32.92], [-81.48, 32.91], [-81.48, 32.9], [-81.47, 32.89], [-81.48, 32.88], [-81.47, 32.88], [-81.45, 32.87], [-81.46, 32.85], [-81.44, 32.85], [-81.44, 32.84], [-81.43, 32.84], [-81.42, 32.82], [-81.43, 32.81], [-81.42, 32.78], [-81.43, 32.77], [-81.42, 32.77], [-81.41, 32.76], [-81.42, 32.75], [-81.41, 32.75], [-81.41, 32.74], [-81.42, 32.73], [-81.42, 32.71], [-81.43, 32.7], [-81.41, 32.69], [-81.4, 32.68], [-81.4, 32.67], [-81.4, 32.66], [-81.39, 32.65], [-81.41, 32.64], [-81.41, 32.63], [-81.42, 32.63], [-81.41, 32.61], [-81.38, 32.59], [-81.36, 32.58], [-81.36, 32.57], [-81.32, 32.56], [-81.3, 32.56], [-81.3, 32.55], [-81.28, 32.55], [-81.27, 32.54], [-81.27, 32.53], [-81.25, 32.52], [-81.23, 32.52], [-81.24, 32.51], [-81.23, 32.5], [-81.2, 32.47], [-81.19, 32.47], [-81.2, 32.45], [-81.21, 32.45], [-81.2, 32.44], [-81.21, 32.44], [-81.2, 32.42], [-81.18, 32.39], [-81.18, 32.38], [-81.17, 32.37], [-81.17, 32.36], [-81.16, 32.35], [-81.14, 32.35], [-81.14, 32.34], [-81.13, 32.34], [-81.14, 32.33], [-81.13, 32.32], [-81.12, 32.31], [-81.12, 32.29], [-81.12, 32.29], [-81.13, 32.28], [-81.13, 32.27], [-81.15, 32.26], [-81.15, 32.25], [-81.16, 32.24], [-81.14, 32.23], [-81.14, 32.21], [-81.13, 32.21], [-81.12, 32.19], [-81.12, 32.17], [-81.13, 32.17], [-81.12, 32.16], [-81.12, 32.14], [-81.12, 32.13], [-81.12, 32.13], [-81.12, 32.12], [-81.11, 32.11], [-81.09, 32.11], [-81.09, 32.1], [-81.07, 32.09], [-81.05, 32.09], [-81.04, 32.08], [-81.03, 32.09], [-81.01, 32.1], [-81.01, 32.1], [-80.99, 32.09], [-80.99, 32.08], [-80.98, 32.08], [-80.95, 32.07], [-80.94, 32.06], [-80.91, 32.05], [-80.9, 32.04], [-80.9, 32.03], [-80.89, 32.03], [-80.88, 32.02], [-80.87, 32.02], [-80.85, 32.03], [-80.84, 32.02], [-80.84, 32.0], [-80.85, 31.99], [-80.86, 31.99], [-80.86, 31.98], [-80.86, 31.97], [-80.88, 31.96], [-80.89, 31.96], [-80.92, 31.95], [-80.93, 31.94], [-80.93, 31.96], [-80.94, 31.97], [-80.95, 31.96], [-80.95, 31.95], [-80.98, 31.94], [-80.99, 31.93], [-80.98, 31.93], [-80.97, 31.92], [-80.95, 31.91], [-80.94, 31.91], [-80.93, 31.91], [-80.97, 31.88], [-80.99, 31.86], [-81.0, 31.86], [-81.0, 31.87], [-81.02, 31.87], [-81.05, 31.88], [-81.06, 31.88], [-81.07, 31.88], [-81.09, 31.9], [-81.1, 31.89], [-81.09, 31.88], [-81.09, 31.86], [-81.1, 31.86], [-81.11, 31.87], [-81.12, 31.86], [-81.14, 31.86], [-81.15, 31.85], [-81.16, 31.84], [-81.16, 31.82], [-81.18, 31.82], [-81.18, 31.81], [-81.18, 31.8], [-81.18, 31.79], [-81.16, 31.79], [-81.17, 31.78], [-81.18, 31.76], [-81.17, 31.75], [-81.16, 31.74], [-81.16, 31.73], [-81.18, 31.73], [-81.2, 31.74], [-81.22, 31.75], [-81.26, 31.76], [-81.27, 31.77], [-81.27, 31.78], [-81.27, 31.78], [-81.28, 31.77], [-81.28, 31.76], [-81.26, 31.75], [-81.24, 31.74], [-81.22, 31.73], [-81.2, 31.71], [-81.19, 31.7], [-81.16, 31.69], [-81.15, 31.7], [-81.14, 31.7], [-81.13, 31.69], [-81.14, 31.67], [-81.13, 31.65], [-81.13, 31.62], [-81.15, 31.59], [-81.16, 31.57], [-81.17, 31.56], [-81.18, 31.56], [-81.19, 31.57], [-81.2, 31.58], [-81.21, 31.56], [-81.22, 31.56], [-81.24, 31.55], [-81.25, 31.55], [-81.26, 31.55], [-81.27, 31.55], [-81.28, 31.55], [-81.3, 31.54], [-81.3, 31.53], [-81.28, 31.52], [-81.28, 31.52], [-81.27, 31.53], [-81.26, 31.53], [-81.26, 31.52], [-81.28, 31.51], [-81.29, 31.5], [-81.31, 31.48], [-81.32, 31.49], [-81.33, 31.48], [-81.33, 31.46], [-81.34, 31.45], [-81.34, 31.44], [-81.33, 31.43], [-81.32, 31.42], [-81.32, 31.4], [-81.31, 31.39], [-81.31, 31.38], [-81.29, 31.37], [-81.3, 31.37], [-81.32, 31.37], [-81.34, 31.36], [-81.34, 31.36], [-81.33, 31.35], [-81.33, 31.34], [-81.34, 31.33], [-81.37, 31.34], [-81.39, 31.34], [-81.4, 31.34], [-81.44, 31.34], [-81.42, 31.33], [-81.39, 31.33], [-81.37, 31.33], [-81.4, 31.3], [-81.4, 31.29], [-81.39, 31.28], [-81.41, 31.26], [-81.4, 31.25], [-81.4, 31.25], [-81.42, 31.25], [-81.43, 31.24], [-81.43, 31.23], [-81.44, 31.22], [-81.45, 31.21], [-81.44, 31.2], [-81.42, 31.18], [-81.43, 31.17], [-81.43, 31.15], [-81.44, 31.14], [-81.43, 31.13], [-81.44, 31.12], [-81.45, 31.11], [-81.46, 31.11], [-81.48, 31.12], [-81.48, 31.11], [-81.46, 31.09], [-81.45, 31.09], [-81.44, 31.09], [-81.43, 31.08], [-81.43, 31.06], [-81.43, 31.04], [-81.44, 31.04], [-81.45, 31.04], [-81.46, 31.03], [-81.45, 31.02], [-81.46, 31.01], [-81.46, 31.0], [-81.47, 30.99], [-81.49, 30.99], [-81.5, 30.97], [-81.51, 30.98], [-81.52, 30.97], [-81.51, 30.96], [-81.51, 30.96], [-81.5, 30.94], [-81.51, 30.93], [-81.5, 30.93], [-81.5, 30.92], [-81.49, 30.93], [-81.48, 30.93], [-81.47, 30.92], [-81.48, 30.91], [-81.5, 30.91], [-81.51, 30.89], [-81.51, 30.89], [-81.51, 30.88], [-81.5, 30.86], [-81.49, 30.86], [-81.49, 30.84], [-81.5, 30.85], [-81.52, 30.85], [-81.53, 30.83], [-81.52, 30.82], [-81.53, 30.81], [-81.52, 30.8], [-81.5, 30.79], [-81.5, 30.78], [-81.49, 30.77], [-81.5, 30.74], [-81.5, 30.72], [-81.51, 30.72], [-81.53, 30.72], [-81.53, 30.71], [-81.54, 30.71], [-81.55, 30.72], [-81.56, 30.71], [-81.57, 30.72], [-81.59, 30.72], [-81.61, 30.73], [-81.61, 30.72], [-81.62, 30.72], [-81.63, 30.73], [-81.64, 30.73], [-81.64, 30.73], [-81.65, 30.73], [-81.65, 30.74], [-81.66, 30.74], [-81.66, 30.75], [-81.67, 30.75], [-81.67, 30.74], [-81.69, 30.74], [-81.7, 30.75], [-81.72, 30.74], [-81.73, 30.75], [-81.74, 30.76], [-81.74, 30.77], [-81.76, 30.77], [-81.77, 30.78], [-81.77, 30.76], [-81.78, 30.76], [-81.78, 30.77], [-81.79, 30.78], [-81.8, 30.78], [-81.81, 30.79], [-81.83, 30.79], [-81.84, 30.79], [-81.85, 30.79], [-81.87, 30.79], [-81.87, 30.8], [-81.88, 30.8], [-81.88, 30.81], [-81.89, 30.82], [-81.9, 30.83], [-81.91, 30.82], [-81.93, 30.82], [-81.95, 30.83], [-81.96, 30.82], [-81.96, 30.8], [-81.97, 30.79], [-81.97, 30.78], [-81.98, 30.78], [-81.99, 30.78], [-82.0, 30.79], [-82.02, 30.79], [-82.02, 30.78], [-82.01, 30.76], [-82.02, 30.75], [-82.03, 30.75], [-82.04, 30.74], [-82.05, 30.73], [-82.04, 30.72], [-82.04, 30.71], [-82.04, 30.7], [-82.04, 30.68], [-82.05, 30.68], [-82.05, 30.66], [-82.05, 30.65], [-82.04, 30.64], [-82.04, 30.63], [-82.03, 30.63], [-82.03, 30.61], [-82.02, 30.6], [-82.01, 30.58], [-82.01, 30.58], [-82.01, 30.56], [-82.02, 30.54], [-82.01, 30.51], [-82.02, 30.48], [-82.02, 30.48], [-82.03, 30.45], [-82.04, 30.44], [-82.03, 30.42], [-82.04, 30.42], [-82.04, 30.4], [-82.04, 30.38], [-82.04, 30.37], [-82.05, 30.36], [-82.06, 30.36], [-82.09, 30.36], [-82.1, 30.37], [-82.12, 30.37], [-82.13, 30.37], [-82.13, 30.36], [-82.14, 30.36], [-82.17, 30.36], [-82.18, 30.37], [-82.19, 30.38], [-82.21, 30.41], [-82.21, 30.42], [-82.21, 30.43], [-82.2, 30.44], [-82.21, 30.47], [-82.2, 30.47], [-82.2, 30.48], [-82.22, 30.5], [-82.23, 30.51], [-82.23, 30.52], [-82.23, 30.53], [-82.24, 30.53], [-82.24, 30.55], [-82.23, 30.56], [-82.21, 30.57], [-82.42, 30.58], [-82.6, 30.59], [-82.75, 30.6], [-82.88, 30.61], [-83.07, 30.62], [-83.25, 30.63], [-83.5, 30.65], [-83.61, 30.65], [-83.74, 30.66], [-83.87, 30.67], [-83.95, 30.67], [-84.05, 30.67], [-84.25, 30.68], [-84.31, 30.69], [-84.37, 30.69], [-84.47, 30.69], [-84.54, 30.7], [-84.64, 30.7], [-84.75, 30.71], [-84.84, 30.71], [-84.86, 30.71], [-84.88, 30.73], [-84.88, 30.73], [-84.89, 30.74], [-84.9, 30.75], [-84.91, 30.75], [-84.92, 30.77], [-84.92, 30.78], [-84.93, 30.79], [-84.93, 30.8], [-84.94, 30.82], [-84.94, 30.83], [-84.93, 30.84], [-84.94, 30.86], [-84.93, 30.87], [-84.94, 30.87], [-84.94, 30.88], [-84.94, 30.89], [-84.96, 30.91], [-84.97, 30.92], [-84.97, 30.93], [-84.98, 30.94], [-84.98, 30.95], [-84.98, 30.96], [-84.99, 30.97], [-85.0, 30.97], [-85.0, 31.0], [-85.0, 31.01], [-85.0, 31.02], [-85.01, 31.03], [-85.01, 31.05], [-85.02, 31.06], [-85.03, 31.07], [-85.03, 31.08], [-85.03, 31.1], [-85.04, 31.11], [-85.05, 31.12], [-85.06, 31.14], [-85.08, 31.16], [-85.09, 31.16], [-85.1, 31.16], [-85.1, 31.18], [-85.11, 31.19], [-85.11, 31.2], [-85.1, 31.21], [-85.1, 31.23], [-85.1, 31.23], [-85.11, 31.26], [-85.11, 31.26], [-85.11, 31.28], [-85.1, 31.28], [-85.09, 31.29], [-85.08, 31.33], [-85.09, 31.34], [-85.09, 31.35], [-85.09, 31.36], [-85.09, 31.36], [-85.08, 31.38], [-85.08, 31.4], [-85.08, 31.41], [-85.07, 31.43], [-85.07, 31.43], [-85.07, 31.45], [-85.07, 31.47], [-85.07, 31.48], [-85.04, 31.52], [-85.05, 31.53], [-85.04, 31.54], [-85.04, 31.55], [-85.05, 31.56], [-85.06, 31.57], [-85.06, 31.58], [-85.06, 31.6], [-85.06, 31.61], [-85.06, 31.62], [-85.07, 31.63], [-85.09, 31.64], [-85.08, 31.66], [-85.09, 31.66], [-85.11, 31.68], [-85.11, 31.69], [-85.13, 31.7], [-85.13, 31.72], [-85.12, 31.73], [-85.12, 31.74], [-85.13, 31.76], [-85.13, 31.77], [-85.14, 31.78], [-85.13, 31.79], [-85.13, 31.82], [-85.14, 31.84], [-85.14, 31.85], [-85.14, 31.86], [-85.13, 31.88], [-85.13, 31.89], [-85.12, 31.89], [-85.11, 31.9], [-85.11, 31.91], [-85.1, 31.92], [-85.09, 31.93], [-85.08, 31.94], [-85.09, 31.96], [-85.07, 31.97], [-85.07, 31.98], [-85.06, 32.0], [-85.06, 32.01], [-85.06, 32.03], [-85.05, 32.04], [-85.06, 32.05], [-85.05, 32.08], [-85.05, 32.09], [-85.05, 32.1], [-85.06, 32.13], [-85.05, 32.14], [-85.03, 32.17], [-85.01, 32.18], [-84.97, 32.19], [-84.96, 32.2], [-84.97, 32.2], [-84.97, 32.2], [-84.98, 32.21], [-84.97, 32.22], [-84.93, 32.22], [-84.92, 32.22], [-84.92, 32.23], [-84.9, 32.26], [-84.89, 32.26], [-84.9, 32.27], [-84.92, 32.29], [-84.93, 32.3], [-85.01, 32.33], [-85.01, 32.34], [-85.0, 32.35], [-84.98, 32.36], [-84.99, 32.37], [-84.97, 32.38], [-84.99, 32.39], [-84.98, 32.39], [-84.98, 32.41], [-84.96, 32.42], [-84.97, 32.44], [-84.99, 32.45], [-85.0, 32.47], [-85.0, 32.49], [-85.0, 32.51], [-85.01, 32.52], [-85.01, 32.53], [-85.02, 32.54], [-85.03, 32.54], [-85.03, 32.55], [-85.07, 32.58], [-85.08, 32.6], [-85.08, 32.62], [-85.09, 32.62], [-85.08, 32.63], [-85.1, 32.64], [-85.09, 32.66], [-85.1, 32.67], [-85.1, 32.68], [-85.11, 32.68], [-85.12, 32.69], [-85.12, 32.72], [-85.11, 32.73], [-85.12, 32.74], [-85.13, 32.74], [-85.14, 32.76], [-85.14, 32.77], [-85.12, 32.77], [-85.13, 32.78], [-85.14, 32.79], [-85.14, 32.79], [-85.15, 32.79], [-85.17, 32.81], [-85.17, 32.83], [-85.17, 32.83], [-85.15, 32.84], [-85.16, 32.86], [-85.18, 32.85], [-85.18, 32.86], [-85.19, 32.87], [-85.2, 32.95], [-85.23, 33.11], [-85.28, 33.35], [-85.3, 33.48], [-85.33, 33.62], [-85.36, 33.75], [-85.37, 33.84], [-85.39, 33.9], [-85.4, 33.96], [-85.41, 34.02], [-85.42, 34.09], [-85.43, 34.13], [-85.47, 34.31], [-85.48, 34.38], [-85.51, 34.52], [-85.53, 34.63], [-85.56, 34.75], [-85.58, 34.82], [-85.6, 34.93], [-85.61, 34.98], [-85.47, 34.98], [-85.39, 34.98], [-85.24, 34.99], [-85.05, 34.99], [-84.95, 34.99], [-84.81, 34.99], [-84.75, 34.99], [-84.62, 34.99], [-84.62, 34.99], [-84.5, 34.99], [-84.38, 34.99], [-84.32, 34.99], [-84.12, 34.99], [-84.0, 34.99], [-83.83, 34.99], [-83.75, 34.99], [-83.62, 34.99], [-83.62, 34.99], [-83.55, 34.99], [-83.48, 34.99], [-83.32, 35.0], [-83.19, 35.0], [-83.11, 35.0], [-83.1, 34.99]]]]}}]}