{"type": "FeatureCollection", "features": [{"type": "Feature", "properties": {"ID": 11, "abbreviation": "IL", "name": "Illinois"}, "geometry": {"type": "Polygon", "coordinates": [[[-90.07, 42.51], [-89.95, 42.51], [-89.84, 42.51], [-89.67, 42.51], [-89.56, 42.5], [-89.35, 42.5], [-89.26, 42.5], [-89.13, 42.5], [-89.07, 42.5], [-88.99, 42.5], [-88.94, 42.5], [-88.81, 42.49], [-88.78, 42.49], [-88.66, 42.49], [-88.6, 42.5], [-88.38, 42.49], [-88.22, 42.5], [-88.2, 42.5], [-88.12, 42.5], [-88.05, 42.5], [-87.92, 42.49], [-87.8, 42.49], [-87.8, 42.49], [-87.8, 42.45], [-87.8, 42.43], [-87.8, 42.39], [-87.82, 42.36], [-87.82, 42.36], [-87.83, 42.34], [-87.83, 42.3], [-87.83, 42.27], [-87.82, 42.25], [-87.81, 42.23], [-87.79, 42.19], [-87.77, 42.16], [-87.75, 42.14], [-87.73, 42.11], [-87.71, 42.1], [-87.68, 42.07], [-87.67, 42.05], [-87.67, 42.03], [-87.66, 42.01], [-87.65, 41.99], [-87.64, 41.97], [-87.64, 41.95], [-87.63, 41.93], [-87.63, 41.92], [-87.62, 41.9], [-87.61, 41.89], [-87.62, 41.87], [-87.61, 41.86], [-87.61, 41.84], [-87.6, 41.83], [-87.58, 41.81], [-87.58, 41.8], [-87.58, 41.78], [-87.56, 41.77], [-87.54, 41.75], [-87.53, 41.75], [-87.53, 41.73], [-87.52, 41.72], [-87.53, 41.72], [-87.52, 41.71], [-87.53, 41.65], [-87.52, 41.54], [-87.53, 41.43], [-87.53, 41.3], [-87.53, 41.19], [-87.53, 41.02], [-87.53, 40.84], [-87.53, 40.68], [-87.53, 40.61], [-87.53, 40.48], [-87.53, 40.28], [-87.53, 40.14], [-87.53, 40.0], [-87.53, 39.88], [-87.53, 39.67], [-87.53, 39.63], [-87.53, 39.43], [-87.53, 39.35], [-87.55, 39.35], [-87.55, 39.34], [-87.56, 39.34], [-87.58, 39.34], [-87.59, 39.33], [-87.61, 39.31], [-87.62, 39.31], [-87.62, 39.3], [-87.61, 39.3], [-87.6, 39.3], [-87.61, 39.29], [-87.61, 39.28], [-87.6, 39.27], [-87.6, 39.26], [-87.59, 39.25], [-87.58, 39.26], [-87.57, 39.25], [-87.58, 39.24], [-87.57, 39.22], [-87.58, 39.21], [-87.59, 39.2], [-87.6, 39.19], [-87.61, 39.19], [-87.62, 39.18], [-87.62, 39.17], [-87.64, 39.17], [-87.64, 39.16], [-87.65, 39.15], [-87.66, 39.14], [-87.63, 39.12], [-87.64, 39.11], [-87.65, 39.12], [-87.65, 39.1], [-87.64, 39.11], [-87.61, 39.1], [-87.61, 39.1], [-87.62, 39.09], [-87.61, 39.08], [-87.6, 39.08], [-87.57, 39.06], [-87.57, 39.05], [-87.58, 39.04], [-87.57, 39.03], [-87.57, 39.02], [-87.58, 39.0], [-87.57, 38.99], [-87.57, 38.99], [-87.53, 38.97], [-87.52, 38.96], [-87.51, 38.96], [-87.51, 38.95], [-87.52, 38.94], [-87.52, 38.93], [-87.52, 38.92], [-87.53, 38.92], [-87.53, 38.91], [-87.54, 38.89], [-87.53, 38.88], [-87.55, 38.88], [-87.54, 38.87], [-87.55, 38.86], [-87.53, 38.85], [-87.53, 38.84], [-87.52, 38.83], [-87.53, 38.82], [-87.51, 38.8], [-87.5, 38.79], [-87.5, 38.78], [-87.51, 38.77], [-87.5, 38.77], [-87.5, 38.75], [-87.5, 38.74], [-87.51, 38.73], [-87.51, 38.73], [-87.52, 38.71], [-87.52, 38.69], [-87.53, 38.68], [-87.55, 38.68], [-87.57, 38.67], [-87.6, 38.67], [-87.61, 38.65], [-87.62, 38.64], [-87.62, 38.62], [-87.62, 38.62], [-87.63, 38.61], [-87.62, 38.59], [-87.63, 38.59], [-87.64, 38.59], [-87.64, 38.58], [-87.65, 38.57], [-87.65, 38.56], [-87.67, 38.55], [-87.66, 38.52], [-87.65, 38.51], [-87.65, 38.5], [-87.66, 38.5], [-87.67, 38.51], [-87.69, 38.49], [-87.71, 38.48], [-87.73, 38.48], [-87.74, 38.48], [-87.76, 38.46], [-87.76, 38.46], [-87.74, 38.45], [-87.73, 38.45], [-87.74, 38.44], [-87.74, 38.43], [-87.74, 38.41], [-87.75, 38.4], [-87.77, 38.38], [-87.78, 38.37], [-87.81, 38.36], [-87.82, 38.35], [-87.83, 38.32], [-87.83, 38.3], [-87.84, 38.29], [-87.85, 38.28], [-87.86, 38.28], [-87.87, 38.29], [-87.86, 38.3], [-87.86, 38.31], [-87.88, 38.31], [-87.89, 38.28], [-87.9, 38.28], [-87.91, 38.27], [-87.92, 38.28], [-87.91, 38.29], [-87.92, 38.3], [-87.93, 38.3], [-87.94, 38.29], [-87.94, 38.28], [-87.95, 38.27], [-87.94, 38.26], [-87.94, 38.26], [-87.96, 38.25], [-87.96, 38.24], [-87.97, 38.24], [-87.97, 38.25], [-87.98, 38.25], [-87.98, 38.24], [-87.98, 38.23], [-87.98, 38.21], [-87.97, 38.19], [-87.94, 38.17], [-87.93, 38.16], [-87.92, 38.16], [-87.92, 38.17], [-87.92, 38.17], [-87.91, 38.16], [-87.93, 38.15], [-87.94, 38.14], [-87.94, 38.13], [-87.96, 38.13], [-87.97, 38.13], [-87.97, 38.12], [-87.97, 38.11], [-87.98, 38.11], [-88.0, 38.11], [-88.01, 38.1], [-88.02, 38.1], [-88.01, 38.09], [-88.0, 38.08], [-87.97, 38.1], [-87.96, 38.1], [-87.96, 38.09], [-87.97, 38.07], [-87.98, 38.06], [-88.0, 38.05], [-88.03, 38.05], [-88.04, 38.05], [-88.04, 38.04], [-88.03, 38.03], [-88.02, 38.03], [-88.01, 38.03], [-88.02, 38.02], [-88.03, 38.01], [-88.01, 37.98], [-88.01, 37.97], [-88.02, 37.96], [-88.04, 37.96], [-88.04, 37.94], [-88.03, 37.93], [-88.04, 37.92], [-88.06, 37.93], [-88.07, 37.93], [-88.06, 37.92], [-88.05, 37.92], [-88.02, 37.91], [-88.01, 37.89], [-88.01, 37.89], [-88.02, 37.89], [-88.03, 37.89], [-88.06, 37.89], [-88.07, 37.9], [-88.09, 37.91], [-88.1, 37.91], [-88.09, 37.89], [-88.08, 37.88], [-88.07, 37.86], [-88.06, 37.85], [-88.04, 37.84], [-88.03, 37.84], [-88.03, 37.83], [-88.04, 37.82], [-88.06, 37.82], [-88.08, 37.83], [-88.09, 37.83], [-88.09, 37.82], [-88.08, 37.8], [-88.07, 37.8], [-88.06, 37.8], [-88.05, 37.81], [-88.03, 37.81], [-88.03, 37.8], [-88.04, 37.78], [-88.04, 37.77], [-88.05, 37.75], [-88.06, 37.74], [-88.1, 37.72], [-88.1, 37.72], [-88.12, 37.71], [-88.13, 37.71], [-88.13, 37.69], [-88.15, 37.68], [-88.16, 37.66], [-88.16, 37.63], [-88.14, 37.61], [-88.14, 37.59], [-88.13, 37.57], [-88.12, 37.57], [-88.11, 37.56], [-88.09, 37.54], [-88.07, 37.53], [-88.06, 37.52], [-88.06, 37.5], [-88.07, 37.48], [-88.1, 37.47], [-88.13, 37.47], [-88.13, 37.47], [-88.19, 37.46], [-88.23, 37.46], [-88.26, 37.46], [-88.28, 37.45], [-88.31, 37.44], [-88.33, 37.43], [-88.35, 37.41], [-88.36, 37.4], [-88.4, 37.42], [-88.41, 37.43], [-88.44, 37.42], [-88.46, 37.41], [-88.47, 37.4], [-88.48, 37.39], [-88.49, 37.34], [-88.51, 37.3], [-88.52, 37.28], [-88.51, 37.28], [-88.51, 37.26], [-88.49, 37.24], [-88.47, 37.22], [-88.46, 37.21], [-88.45, 37.2], [-88.43, 37.16], [-88.42, 37.15], [-88.43, 37.14], [-88.44, 37.11], [-88.44, 37.1], [-88.46, 37.07], [-88.48, 37.07], [-88.49, 37.07], [-88.5, 37.07], [-88.53, 37.07], [-88.55, 37.07], [-88.56, 37.08], [-88.58, 37.09], [-88.59, 37.1], [-88.61, 37.11], [-88.63, 37.12], [-88.64, 37.12], [-88.69, 37.14], [-88.7, 37.14], [-88.72, 37.14], [-88.74, 37.15], [-88.76, 37.16], [-88.81, 37.19], [-88.84, 37.2], [-88.87, 37.21], [-88.93, 37.23], [-88.94, 37.22], [-88.96, 37.23], [-88.97, 37.23], [-88.98, 37.23], [-89.01, 37.22], [-89.01, 37.22], [-89.03, 37.21], [-89.08, 37.18], [-89.09, 37.16], [-89.1, 37.14], [-89.11, 37.12], [-89.14, 37.1], [-89.15, 37.09], [-89.15, 37.09], [-89.17, 37.07], [-89.18, 37.04], [-89.18, 37.02], [-89.17, 37.0], [-89.13, 36.98], [-89.17, 36.97], [-89.19, 36.97], [-89.19, 36.98], [-89.2, 37.0], [-89.2, 37.02], [-89.23, 37.03], [-89.24, 37.04], [-89.25, 37.07], [-89.26, 37.06], [-89.28, 37.07], [-89.31, 37.07], [-89.31, 37.06], [-89.3, 37.04], [-89.28, 37.04], [-89.26, 37.02], [-89.26, 37.02], [-89.27, 37.0], [-89.28, 36.99], [-89.29, 36.99], [-89.32, 37.01], [-89.33, 37.02], [-89.36, 37.03], [-89.38, 37.04], [-89.38, 37.05], [-89.39, 37.06], [-89.38, 37.08], [-89.38, 37.09], [-89.39, 37.11], [-89.41, 37.12], [-89.43, 37.14], [-89.44, 37.15], [-89.44, 37.16], [-89.46, 37.19], [-89.46, 37.2], [-89.47, 37.22], [-89.46, 37.24], [-89.46, 37.25], [-89.47, 37.25], [-89.49, 37.25], [-89.5, 37.26], [-89.52, 37.28], [-89.52, 37.29], [-89.51, 37.31], [-89.5, 37.32], [-89.49, 37.33], [-89.47, 37.34], [-89.45, 37.34], [-89.44, 37.34], [-89.43, 37.36], [-89.42, 37.39], [-89.42, 37.4], [-89.44, 37.44], [-89.45, 37.45], [-89.47, 37.47], [-89.49, 37.49], [-89.5, 37.51], [-89.52, 37.54], [-89.52, 37.56], [-89.52, 37.58], [-89.51, 37.58], [-89.49, 37.58], [-89.48, 37.58], [-89.48, 37.59], [-89.48, 37.6], [-89.49, 37.61], [-89.51, 37.63], [-89.52, 37.64], [-89.52, 37.67], [-89.51, 37.69], [-89.53, 37.7], [-89.57, 37.71], [-89.59, 37.72], [-89.6, 37.73], [-89.62, 37.74], [-89.62, 37.75], [-89.63, 37.75], [-89.65, 37.75], [-89.67, 37.75], [-89.67, 37.76], [-89.66, 37.78], [-89.66, 37.79], [-89.67, 37.8], [-89.7, 37.82], [-89.73, 37.83], [-89.74, 37.85], [-89.75, 37.85], [-89.77, 37.85], [-89.78, 37.86], [-89.79, 37.85], [-89.8, 37.86], [-89.8, 37.88], [-89.84, 37.91], [-89.86, 37.9], [-89.88, 37.88], [-89.9, 37.87], [-89.92, 37.87], [-89.94, 37.87], [-89.95, 37.88], [-89.97, 37.92], [-89.97, 37.93], [-89.96, 37.93], [-89.96, 37.94], [-89.95, 37.94], [-89.93, 37.95], [-89.92, 37.96], [-89.93, 37.96], [-89.94, 37.97], [-89.98, 37.96], [-90.0, 37.96], [-90.01, 37.97], [-90.03, 38.0], [-90.05, 38.0], [-90.06, 38.01], [-90.07, 38.02], [-90.08, 38.02], [-90.09, 38.02], [-90.11, 38.03], [-90.13, 38.04], [-90.13, 38.06], [-90.15, 38.07], [-90.17, 38.07], [-90.22, 38.09], [-90.24, 38.11], [-90.25, 38.13], [-90.27, 38.16], [-90.29, 38.17], [-90.32, 38.18], [-90.33, 38.19], [-90.35, 38.21], [-90.36, 38.24], [-90.37, 38.28], [-90.37, 38.3], [-90.37, 38.32], [-90.37, 38.34], [-90.36, 38.36], [-90.35, 38.38], [-90.34, 38.39], [-90.32, 38.4], [-90.3, 38.43], [-90.29, 38.44], [-90.28, 38.47], [-90.26, 38.52], [-90.25, 38.55], [-90.22, 38.58], [-90.2, 38.59], [-90.19, 38.6], [-90.18, 38.61], [-90.18, 38.63], [-90.18, 38.64], [-90.18, 38.66], [-90.19, 38.67], [-90.2, 38.69], [-90.21, 38.7], [-90.21, 38.71], [-90.21, 38.73], [-90.21, 38.73], [-90.18, 38.75], [-90.17, 38.77], [-90.15, 38.78], [-90.12, 38.8], [-90.12, 38.81], [-90.11, 38.84], [-90.11, 38.85], [-90.15, 38.87], [-90.17, 38.88], [-90.2, 38.89], [-90.22, 38.91], [-90.25, 38.92], [-90.28, 38.92], [-90.31, 38.92], [-90.33, 38.93], [-90.35, 38.94], [-90.39, 38.96], [-90.41, 38.96], [-90.43, 38.96], [-90.45, 38.97], [-90.47, 38.96], [-90.48, 38.95], [-90.48, 38.93], [-90.49, 38.92], [-90.51, 38.9], [-90.52, 38.9], [-90.55, 38.87], [-90.57, 38.87], [-90.58, 38.87], [-90.63, 38.89], [-90.64, 38.91], [-90.65, 38.91], [-90.66, 38.92], [-90.68, 38.96], [-90.68, 38.98], [-90.68, 38.99], [-90.71, 39.05], [-90.71, 39.06], [-90.7, 39.06], [-90.7, 39.07], [-90.68, 39.09], [-90.68, 39.1], [-90.69, 39.12], [-90.7, 39.14], [-90.71, 39.16], [-90.71, 39.17], [-90.72, 39.2], [-90.72, 39.21], [-90.73, 39.25], [-90.74, 39.26], [-90.75, 39.27], [-90.77, 39.28], [-90.78, 39.29], [-90.79, 39.3], [-90.79, 39.31], [-90.82, 39.32], [-90.85, 39.35], [-90.9, 39.37], [-90.91, 39.38], [-90.92, 39.38], [-90.93, 39.39], [-90.94, 39.4], [-90.95, 39.41], [-90.97, 39.41], [-90.99, 39.42], [-91.02, 39.44], [-91.04, 39.45], [-91.06, 39.47], [-91.06, 39.47], [-91.06, 39.49], [-91.08, 39.5], [-91.1, 39.54], [-91.15, 39.55], [-91.15, 39.55], [-91.17, 39.56], [-91.17, 39.59], [-91.19, 39.61], [-91.22, 39.62], [-91.24, 39.63], [-91.25, 39.64], [-91.26, 39.65], [-91.28, 39.67], [-91.3, 39.68], [-91.32, 39.69], [-91.35, 39.71], [-91.37, 39.73], [-91.37, 39.75], [-91.37, 39.76], [-91.36, 39.78], [-91.36, 39.79], [-91.37, 39.8], [-91.38, 39.81], [-91.4, 39.82], [-91.43, 39.84], [-91.45, 39.87], [-91.45, 39.88], [-91.44, 39.89], [-91.42, 39.91], [-91.42, 39.93], [-91.44, 39.95], [-91.49, 40.04], [-91.49, 40.06], [-91.5, 40.07], [-91.51, 40.13], [-91.51, 40.15], [-91.51, 40.16], [-91.51, 40.18], [-91.5, 40.2], [-91.51, 40.22], [-91.5, 40.22], [-91.51, 40.24], [-91.49, 40.26], [-91.49, 40.28], [-91.49, 40.29], [-91.47, 40.32], [-91.46, 40.34], [-91.44, 40.36], [-91.43, 40.37], [-91.42, 40.38], [-91.41, 40.38], [-91.4, 40.38], [-91.38, 40.39], [-91.37, 40.4], [-91.37, 40.42], [-91.38, 40.44], [-91.38, 40.45], [-91.36, 40.48], [-91.36, 40.5], [-91.37, 40.51], [-91.39, 40.53], [-91.4, 40.54], [-91.41, 40.54], [-91.4, 40.56], [-91.38, 40.57], [-91.36, 40.6], [-91.35, 40.61], [-91.31, 40.63], [-91.26, 40.63], [-91.25, 40.64], [-91.22, 40.64], [-91.2, 40.64], [-91.19, 40.64], [-91.14, 40.66], [-91.12, 40.67], [-91.11, 40.71], [-91.12, 40.73], [-91.11, 40.75], [-91.1, 40.76], [-91.09, 40.78], [-91.09, 40.79], [-91.1, 40.8], [-91.1, 40.82], [-91.09, 40.82], [-91.06, 40.85], [-91.04, 40.87], [-91.02, 40.88], [-91.01, 40.9], [-91.0, 40.91], [-90.97, 40.92], [-90.96, 40.92], [-90.95, 40.96], [-90.96, 40.98], [-90.95, 41.01], [-90.94, 41.03], [-90.95, 41.06], [-90.95, 41.07], [-90.95, 41.1], [-90.97, 41.12], [-90.97, 41.13], [-90.99, 41.16], [-91.0, 41.16], [-91.01, 41.17], [-91.03, 41.16], [-91.04, 41.17], [-91.07, 41.2], [-91.08, 41.21], [-91.11, 41.24], [-91.11, 41.25], [-91.1, 41.26], [-91.09, 41.29], [-91.08, 41.3], [-91.07, 41.31], [-91.07, 41.33], [-91.07, 41.37], [-91.05, 41.38], [-91.05, 41.41], [-91.03, 41.42], [-91.01, 41.43], [-90.99, 41.43], [-90.98, 41.43], [-90.95, 41.42], [-90.93, 41.42], [-90.9, 41.43], [-90.86, 41.45], [-90.85, 41.46], [-90.8, 41.45], [-90.78, 41.45], [-90.74, 41.45], [-90.69, 41.46], [-90.68, 41.46], [-90.66, 41.46], [-90.63, 41.48], [-90.61, 41.49], [-90.6, 41.51], [-90.6, 41.51], [-90.57, 41.52], [-90.56, 41.52], [-90.54, 41.53], [-90.5, 41.52], [-90.47, 41.52], [-90.46, 41.52], [-90.45, 41.54], [-90.43, 41.55], [-90.42, 41.55], [-90.41, 41.57], [-90.4, 41.57], [-90.36, 41.58], [-90.34, 41.59], [-90.34, 41.6], [-90.34, 41.65], [-90.34, 41.66], [-90.33, 41.68], [-90.32, 41.69], [-90.31, 41.7], [-90.32, 41.72], [-90.32, 41.73], [-90.3, 41.75], [-90.28, 41.77], [-90.26, 41.77], [-90.22, 41.79], [-90.19, 41.8], [-90.18, 41.81], [-90.18, 41.83], [-90.18, 41.84], [-90.17, 41.86], [-90.17, 41.88], [-90.15, 41.91], [-90.15, 41.93], [-90.16, 41.94], [-90.16, 41.96], [-90.15, 41.98], [-90.14, 42.0], [-90.15, 42.03], [-90.16, 42.04], [-90.17, 42.08], [-90.16, 42.09], [-90.16, 42.12], [-90.17, 42.13], [-90.19, 42.13], [-90.2, 42.13], [-90.21, 42.15], [-90.25, 42.17], [-90.28, 42.18], [-90.3, 42.19], [-90.32, 42.19], [-90.33, 42.2], [-90.36, 42.21], [-90.39, 42.23], [-90.4, 42.24], [-90.42, 42.25], [-90.43, 42.28], [-90.42, 42.31], [-90.42, 42.32], [-90.42, 42.32], [-90.43, 42.34], [-90.45, 42.36], [-90.46, 42.37], [-90.47, 42.38], [-90.49, 42.39], [-90.5, 42.4], [-90.52, 42.4], [-90.56, 42.42], [-90.56, 42.43], [-90.57, 42.44], [-90.61, 42.45], [-90.62, 42.46], [-90.65, 42.47], [-90.65, 42.48], [-90.66, 42.49], [-90.64, 42.51], [-90.39, 42.51], [-90.27, 42.51], [-90.16, 42.51], [-90.07, 42.51]]]}}]}