{"type": "FeatureCollection", "features": [{"type": "Feature", "properties": {"ID": 14, "abbreviation": "KS", "name": "Kansas"}, "geometry": {"type": "Polygon", "coordinates": [[[-100.77, 40.0], [-100.51, 40.0], [-100.44, 40.0], [-100.19, 40.0], [-100.08, 40.0], [-99.8, 40.0], [-99.63, 40.0], [-99.44, 40.0], [-99.29, 40.0], [-99.14, 40.0], [-98.97, 40.0], [-98.72, 40.0], [-98.53, 40.0], [-98.27, 40.0], [-98.15, 40.0], [-97.94, 40.0], [-97.83, 40.0], [-97.63, 40.0], [-97.36, 40.0], [-97.14, 40.0], [-97.13, 40.0], [-97.01, 40.0], [-96.81, 40.0], [-96.48, 40.0], [-96.3, 40.0], [-96.13, 40.0], [-95.93, 40.0], [-95.66, 40.0], [-95.46, 40.0], [-95.46, 40.0], [-95.31, 40.0], [-95.31, 39.99], [-95.29, 39.98], [-95.27, 39.97], [-95.25, 39.95], [-95.24, 39.94], [-95.22, 39.94], [-95.2, 39.94], [-95.2, 39.93], [-95.21, 39.92], [-95.2, 39.9], [-95.19, 39.9], [-95.18, 39.9], [-95.16, 39.91], [-95.15, 39.9], [-95.14, 39.88], [-95.13, 39.87], [-95.11, 39.87], [-95.09, 39.86], [-95.04, 39.87], [-95.03, 39.87], [-95.03, 39.89], [-95.02, 39.9], [-95.0, 39.9], [-94.98, 39.9], [-94.95, 39.9], [-94.93, 39.89], [-94.93, 39.89], [-94.93, 39.87], [-94.94, 39.86], [-94.94, 39.85], [-94.92, 39.84], [-94.91, 39.83], [-94.89, 39.83], [-94.88, 39.82], [-94.88, 39.81], [-94.88, 39.8], [-94.89, 39.79], [-94.92, 39.79], [-94.93, 39.78], [-94.93, 39.77], [-94.91, 39.76], [-94.9, 39.76], [-94.88, 39.77], [-94.87, 39.77], [-94.86, 39.76], [-94.86, 39.74], [-94.88, 39.73], [-94.89, 39.72], [-94.9, 39.72], [-94.92, 39.73], [-94.94, 39.74], [-94.96, 39.75], [-94.97, 39.74], [-94.97, 39.73], [-94.97, 39.71], [-94.97, 39.69], [-94.98, 39.68], [-94.99, 39.68], [-95.02, 39.67], [-95.02, 39.67], [-95.05, 39.64], [-95.06, 39.62], [-95.05, 39.61], [-95.05, 39.6], [-95.06, 39.58], [-95.07, 39.58], [-95.09, 39.58], [-95.11, 39.57], [-95.11, 39.55], [-95.11, 39.54], [-95.09, 39.52], [-95.08, 39.51], [-95.06, 39.51], [-95.05, 39.5], [-95.05, 39.48], [-95.04, 39.47], [-95.02, 39.45], [-94.99, 39.45], [-94.98, 39.44], [-94.98, 39.43], [-94.96, 39.42], [-94.95, 39.41], [-94.94, 39.39], [-94.93, 39.38], [-94.92, 39.39], [-94.9, 39.39], [-94.89, 39.39], [-94.88, 39.38], [-94.88, 39.37], [-94.9, 39.36], [-94.91, 39.35], [-94.91, 39.35], [-94.91, 39.32], [-94.9, 39.31], [-94.9, 39.3], [-94.88, 39.28], [-94.85, 39.27], [-94.83, 39.26], [-94.83, 39.24], [-94.83, 39.22], [-94.82, 39.21], [-94.81, 39.21], [-94.79, 39.21], [-94.78, 39.2], [-94.77, 39.18], [-94.75, 39.17], [-94.74, 39.17], [-94.72, 39.17], [-94.7, 39.17], [-94.69, 39.18], [-94.67, 39.18], [-94.66, 39.18], [-94.66, 39.16], [-94.66, 39.16], [-94.65, 39.15], [-94.61, 39.16], [-94.6, 39.16], [-94.59, 39.15], [-94.59, 39.13], [-94.61, 39.12], [-94.61, 39.04], [-94.61, 38.96], [-94.61, 38.85], [-94.61, 38.74], [-94.61, 38.61], [-94.61, 38.5], [-94.61, 38.46], [-94.61, 38.36], [-94.61, 38.31], [-94.61, 38.22], [-94.61, 38.14], [-94.61, 38.04], [-94.61, 37.94], [-94.62, 37.79], [-94.62, 37.72], [-94.62, 37.65], [-94.62, 37.5], [-94.62, 37.48], [-94.62, 37.31], [-94.62, 37.19], [-94.62, 37.0], [-94.63, 37.0], [-94.77, 37.0], [-94.89, 37.0], [-94.96, 37.0], [-95.18, 37.0], [-95.3, 37.0], [-95.5, 37.0], [-95.7, 37.0], [-95.89, 37.0], [-95.96, 37.0], [-96.0, 37.0], [-96.18, 37.0], [-96.37, 37.0], [-96.5, 37.0], [-96.73, 37.0], [-96.75, 37.0], [-96.92, 37.0], [-97.03, 37.0], [-97.15, 37.0], [-97.32, 37.0], [-97.58, 37.0], [-97.73, 37.0], [-97.78, 37.0], [-97.95, 37.0], [-98.06, 37.0], [-98.3, 37.0], [-98.53, 37.0], [-98.66, 37.0], [-98.85, 37.0], [-99.11, 37.0], [-99.28, 37.0], [-99.39, 37.0], [-99.46, 37.0], [-99.54, 37.0], [-99.65, 37.0], [-99.72, 37.0], [-99.88, 37.0], [-99.99, 37.0], [-100.09, 37.0], [-100.38, 37.0], [-100.6, 37.0], [-100.73, 37.0], [-100.9, 37.0], [-100.95, 37.0], [-101.11, 37.0], [-101.21, 37.0], [-101.46, 37.0], [-101.63, 36.99], [-101.87, 36.99], [-102.04, 36.99], [-102.04, 37.01], [-102.04, 37.02], [-102.04, 37.04], [-102.04, 37.05], [-102.04, 37.14], [-102.04, 37.3], [-102.04, 37.54], [-102.04, 37.69], [-102.04, 37.8], [-102.04, 37.88], [-102.04, 37.98], [-102.04, 38.11], [-102.04, 38.26], [-102.04, 38.35], [-102.05, 38.38], [-102.04, 38.39], [-102.05, 38.4], [-102.04, 38.4], [-102.04, 38.4], [-102.04, 38.41], [-102.04, 38.42], [-102.04, 38.42], [-102.04, 38.44], [-102.05, 38.45], [-102.04, 38.62], [-102.05, 38.74], [-102.05, 38.86], [-102.05, 38.98], [-102.05, 39.0], [-102.05, 39.12], [-102.05, 39.13], [-102.05, 39.25], [-102.05, 39.37], [-102.05, 39.54], [-102.05, 39.61], [-102.05, 39.75], [-102.05, 39.87], [-102.05, 40.0], [-101.99, 40.0], [-101.84, 40.0], [-101.61, 40.0], [-101.46, 40.0], [-101.18, 40.0], [-100.93, 40.0], [-100.77, 40.0]]]}}]}