{"type": "FeatureCollection", "features": [{"type": "Feature", "properties": {"ID": 15, "abbreviation": "KY", "name": "Kentucky"}, "geometry": {"type": "MultiPolygon", "coordinates": [[[[-89.47, 36.52], [-89.49, 36.5], [-89.54, 36.5], [-89.56, 36.52], [-89.57, 36.55], [-89.57, 36.56], [-89.55, 36.58], [-89.54, 36.58], [-89.53, 36.58], [-89.5, 36.58], [-89.48, 36.57], [-89.47, 36.56], [-89.47, 36.54], [-89.47, 36.52]]], [[[-84.63, 39.08], [-84.61, 39.07], [-84.57, 39.08], [-84.55, 39.1], [-84.54, 39.1], [-84.52, 39.09], [-84.51, 39.09], [-84.49, 39.1], [-84.48, 39.12], [-84.47, 39.12], [-84.46, 39.12], [-84.45, 39.11], [-84.43, 39.09], [-84.43, 39.07], [-84.43, 39.06], [-84.42, 39.05], [-84.41, 39.05], [-84.39, 39.05], [-84.36, 39.04], [-84.35, 39.04], [-84.33, 39.03], [-84.3, 39.01], [-84.3, 38.99], [-84.3, 38.97], [-84.29, 38.95], [-84.26, 38.92], [-84.24, 38.9], [-84.23, 38.88], [-84.23, 38.84], [-84.23, 38.83], [-84.22, 38.81], [-84.21, 38.81], [-84.2, 38.8], [-84.16, 38.79], [-84.14, 38.79], [-84.09, 38.77], [-84.07, 38.77], [-84.04, 38.77], [-84.02, 38.78], [-83.98, 38.79], [-83.96, 38.79], [-83.94, 38.78], [-83.93, 38.78], [-83.91, 38.77], [-83.87, 38.76], [-83.86, 38.76], [-83.85, 38.74], [-83.84, 38.72], [-83.82, 38.71], [-83.79, 38.7], [-83.78, 38.7], [-83.78, 38.67], [-83.77, 38.66], [-83.77, 38.65], [-83.74, 38.65], [-83.72, 38.65], [-83.71, 38.64], [-83.69, 38.63], [-83.67, 38.63], [-83.65, 38.63], [-83.65, 38.64], [-83.64, 38.65], [-83.64, 38.67], [-83.63, 38.68], [-83.62, 38.68], [-83.53, 38.7], [-83.51, 38.7], [-83.49, 38.69], [-83.47, 38.68], [-83.45, 38.67], [-83.42, 38.67], [-83.38, 38.66], [-83.36, 38.66], [-83.33, 38.64], [-83.32, 38.63], [-83.32, 38.61], [-83.3, 38.6], [-83.29, 38.6], [-83.26, 38.62], [-83.24, 38.63], [-83.21, 38.62], [-83.2, 38.62], [-83.16, 38.62], [-83.14, 38.63], [-83.14, 38.63], [-83.13, 38.65], [-83.12, 38.67], [-83.1, 38.68], [-83.08, 38.68], [-83.06, 38.69], [-83.05, 38.7], [-83.04, 38.71], [-83.03, 38.72], [-83.01, 38.73], [-82.98, 38.73], [-82.97, 38.73], [-82.94, 38.74], [-82.92, 38.75], [-82.89, 38.76], [-82.88, 38.75], [-82.87, 38.74], [-82.87, 38.72], [-82.88, 38.7], [-82.87, 38.68], [-82.86, 38.67], [-82.86, 38.65], [-82.86, 38.63], [-82.85, 38.61], [-82.85, 38.6], [-82.84, 38.58], [-82.82, 38.57], [-82.8, 38.56], [-82.78, 38.56], [-82.77, 38.56], [-82.73, 38.56], [-82.7, 38.54], [-82.69, 38.54], [-82.68, 38.52], [-82.65, 38.49], [-82.64, 38.48], [-82.62, 38.48], [-82.61, 38.47], [-82.6, 38.46], [-82.6, 38.44], [-82.59, 38.42], [-82.6, 38.41], [-82.59, 38.4], [-82.6, 38.39], [-82.59, 38.38], [-82.6, 38.36], [-82.6, 38.35], [-82.58, 38.33], [-82.57, 38.32], [-82.58, 38.3], [-82.57, 38.28], [-82.57, 38.26], [-82.59, 38.25], [-82.61, 38.25], [-82.61, 38.24], [-82.61, 38.22], [-82.6, 38.22], [-82.6, 38.2], [-82.61, 38.17], [-82.62, 38.17], [-82.64, 38.17], [-82.64, 38.17], [-82.64, 38.16], [-82.64, 38.14], [-82.62, 38.13], [-82.62, 38.12], [-82.6, 38.12], [-82.59, 38.11], [-82.59, 38.09], [-82.58, 38.08], [-82.57, 38.08], [-82.56, 38.07], [-82.55, 38.07], [-82.54, 38.05], [-82.54, 38.05], [-82.54, 38.04], [-82.53, 38.03], [-82.52, 38.01], [-82.51, 38.0], [-82.49, 38.0], [-82.48, 37.98], [-82.47, 37.99], [-82.46, 37.98], [-82.47, 37.97], [-82.48, 37.97], [-82.48, 37.96], [-82.47, 37.96], [-82.49, 37.95], [-82.5, 37.95], [-82.5, 37.93], [-82.47, 37.91], [-82.47, 37.91], [-82.45, 37.91], [-82.44, 37.9], [-82.43, 37.89], [-82.42, 37.89], [-82.42, 37.87], [-82.42, 37.86], [-82.41, 37.86], [-82.42, 37.85], [-82.41, 37.84], [-82.41, 37.84], [-82.4, 37.83], [-82.4, 37.81], [-82.4, 37.81], [-82.39, 37.82], [-82.38, 37.81], [-82.38, 37.8], [-82.34, 37.79], [-82.34, 37.78], [-82.32, 37.77], [-82.33, 37.77], [-82.32, 37.76], [-82.32, 37.75], [-82.33, 37.74], [-82.32, 37.73], [-82.32, 37.72], [-82.31, 37.71], [-82.3, 37.7], [-82.3, 37.7], [-82.3, 37.69], [-82.3, 37.68], [-82.28, 37.68], [-82.27, 37.66], [-82.25, 37.66], [-82.24, 37.66], [-82.23, 37.65], [-82.22, 37.63], [-82.21, 37.63], [-82.19, 37.63], [-82.19, 37.64], [-82.19, 37.65], [-82.17, 37.63], [-82.18, 37.63], [-82.17, 37.61], [-82.16, 37.61], [-82.16, 37.59], [-82.14, 37.6], [-82.13, 37.59], [-82.12, 37.58], [-82.13, 37.57], [-82.14, 37.57], [-82.13, 37.56], [-82.13, 37.55], [-82.12, 37.55], [-82.12, 37.56], [-82.1, 37.56], [-82.1, 37.55], [-82.09, 37.56], [-82.07, 37.56], [-82.06, 37.54], [-82.06, 37.54], [-82.04, 37.54], [-82.04, 37.55], [-82.03, 37.54], [-82.02, 37.54], [-82.01, 37.53], [-82.0, 37.54], [-81.99, 37.54], [-81.97, 37.55], [-81.97, 37.54], [-82.05, 37.48], [-82.06, 37.47], [-82.14, 37.41], [-82.2, 37.37], [-82.32, 37.29], [-82.32, 37.28], [-82.34, 37.28], [-82.34, 37.27], [-82.36, 37.27], [-82.36, 37.26], [-82.42, 37.25], [-82.43, 37.25], [-82.44, 37.25], [-82.46, 37.24], [-82.46, 37.24], [-82.5, 37.23], [-82.52, 37.21], [-82.53, 37.21], [-82.55, 37.2], [-82.58, 37.19], [-82.59, 37.18], [-82.6, 37.18], [-82.62, 37.17], [-82.63, 37.15], [-82.65, 37.15], [-82.66, 37.15], [-82.69, 37.13], [-82.73, 37.11], [-82.72, 37.11], [-82.72, 37.08], [-82.72, 37.08], [-82.73, 37.07], [-82.72, 37.06], [-82.72, 37.05], [-82.74, 37.04], [-82.75, 37.02], [-82.76, 37.03], [-82.78, 37.01], [-82.8, 37.01], [-82.82, 37.0], [-82.83, 37.01], [-82.83, 36.99], [-82.84, 36.98], [-82.85, 36.99], [-82.86, 36.98], [-82.87, 36.98], [-82.87, 36.97], [-82.87, 36.96], [-82.86, 36.95], [-82.86, 36.94], [-82.86, 36.93], [-82.88, 36.91], [-82.87, 36.9], [-82.89, 36.88], [-82.92, 36.87], [-82.94, 36.87], [-82.96, 36.86], [-82.97, 36.86], [-82.98, 36.86], [-83.0, 36.86], [-83.01, 36.85], [-83.02, 36.85], [-83.03, 36.86], [-83.05, 36.85], [-83.07, 36.85], [-83.07, 36.84], [-83.1, 36.83], [-83.1, 36.81], [-83.1, 36.8], [-83.12, 36.79], [-83.13, 36.78], [-83.13, 36.78], [-83.13, 36.76], [-83.13, 36.75], [-83.14, 36.74], [-83.16, 36.74], [-83.16, 36.74], [-83.19, 36.74], [-83.22, 36.73], [-83.29, 36.71], [-83.31, 36.71], [-83.34, 36.7], [-83.36, 36.69], [-83.39, 36.69], [-83.4, 36.68], [-83.42, 36.67], [-83.47, 36.66], [-83.48, 36.67], [-83.49, 36.67], [-83.51, 36.67], [-83.53, 36.66], [-83.54, 36.66], [-83.56, 36.65], [-83.58, 36.64], [-83.61, 36.63], [-83.63, 36.63], [-83.65, 36.62], [-83.65, 36.62], [-83.68, 36.6], [-83.69, 36.58], [-83.79, 36.58], [-83.89, 36.59], [-84.01, 36.59], [-84.14, 36.59], [-84.26, 36.59], [-84.37, 36.59], [-84.5, 36.6], [-84.54, 36.6], [-84.62, 36.6], [-84.79, 36.6], [-84.84, 36.61], [-84.94, 36.61], [-84.97, 36.62], [-85.03, 36.62], [-85.11, 36.62], [-85.19, 36.63], [-85.28, 36.63], [-85.3, 36.62], [-85.43, 36.62], [-85.5, 36.61], [-85.68, 36.62], [-85.8, 36.62], [-85.83, 36.62], [-85.87, 36.62], [-85.96, 36.63], [-86.04, 36.63], [-86.08, 36.63], [-86.2, 36.64], [-86.36, 36.65], [-86.41, 36.65], [-86.51, 36.65], [-86.56, 36.63], [-86.59, 36.65], [-86.71, 36.65], [-86.77, 36.65], [-86.83, 36.65], [-86.91, 36.65], [-87.01, 36.64], [-87.14, 36.64], [-87.36, 36.64], [-87.38, 36.64], [-87.51, 36.64], [-87.62, 36.64], [-87.74, 36.64], [-87.85, 36.63], [-87.85, 36.66], [-87.87, 36.67], [-88.01, 36.68], [-88.07, 36.68], [-88.07, 36.66], [-88.06, 36.64], [-88.06, 36.63], [-88.05, 36.6], [-88.04, 36.57], [-88.04, 36.56], [-88.03, 36.54], [-88.04, 36.51], [-88.05, 36.5], [-88.13, 36.5], [-88.33, 36.5], [-88.5, 36.5], [-88.72, 36.5], [-88.83, 36.5], [-88.96, 36.5], [-89.13, 36.5], [-89.3, 36.51], [-89.39, 36.5], [-89.42, 36.5], [-89.4, 36.54], [-89.4, 36.56], [-89.38, 36.58], [-89.38, 36.62], [-89.36, 36.63], [-89.33, 36.63], [-89.33, 36.63], [-89.31, 36.62], [-89.29, 36.59], [-89.28, 36.57], [-89.26, 36.56], [-89.23, 36.57], [-89.21, 36.58], [-89.2, 36.6], [-89.2, 36.63], [-89.19, 36.64], [-89.17, 36.65], [-89.16, 36.67], [-89.17, 36.67], [-89.17, 36.69], [-89.2, 36.72], [-89.2, 36.73], [-89.2, 36.74], [-89.18, 36.75], [-89.17, 36.76], [-89.13, 36.75], [-89.12, 36.76], [-89.12, 36.78], [-89.12, 36.79], [-89.13, 36.79], [-89.16, 36.79], [-89.17, 36.8], [-89.18, 36.81], [-89.18, 36.83], [-89.17, 36.84], [-89.15, 36.85], [-89.14, 36.85], [-89.12, 36.89], [-89.11, 36.92], [-89.1, 36.94], [-89.1, 36.96], [-89.11, 36.98], [-89.12, 36.98], [-89.13, 36.98], [-89.17, 37.0], [-89.18, 37.02], [-89.18, 37.04], [-89.17, 37.07], [-89.15, 37.09], [-89.15, 37.09], [-89.14, 37.1], [-89.11, 37.12], [-89.1, 37.14], [-89.09, 37.16], [-89.08, 37.18], [-89.03, 37.21], [-89.01, 37.22], [-89.01, 37.22], [-88.98, 37.23], [-88.97, 37.23], [-88.96, 37.23], [-88.94, 37.22], [-88.93, 37.23], [-88.87, 37.21], [-88.84, 37.2], [-88.81, 37.19], [-88.76, 37.16], [-88.74, 37.15], [-88.72, 37.14], [-88.7, 37.14], [-88.69, 37.14], [-88.64, 37.12], [-88.63, 37.12], [-88.61, 37.11], [-88.59, 37.1], [-88.58, 37.09], [-88.56, 37.08], [-88.55, 37.07], [-88.53, 37.07], [-88.5, 37.07], [-88.49, 37.07], [-88.48, 37.07], [-88.46, 37.07], [-88.44, 37.1], [-88.44, 37.11], [-88.43, 37.14], [-88.42, 37.15], [-88.43, 37.16], [-88.45, 37.2], [-88.46, 37.21], [-88.47, 37.22], [-88.49, 37.24], [-88.51, 37.26], [-88.51, 37.28], [-88.52, 37.28], [-88.51, 37.3], [-88.49, 37.34], [-88.48, 37.39], [-88.47, 37.4], [-88.46, 37.41], [-88.44, 37.42], [-88.41, 37.43], [-88.4, 37.42], [-88.36, 37.4], [-88.35, 37.41], [-88.33, 37.43], [-88.31, 37.44], [-88.28, 37.45], [-88.26, 37.46], [-88.23, 37.46], [-88.19, 37.46], [-88.13, 37.47], [-88.13, 37.47], [-88.1, 37.47], [-88.07, 37.48], [-88.06, 37.5], [-88.06, 37.52], [-88.07, 37.53], [-88.09, 37.54], [-88.11, 37.56], [-88.12, 37.57], [-88.13, 37.57], [-88.14, 37.59], [-88.14, 37.61], [-88.16, 37.63], [-88.16, 37.66], [-88.15, 37.68], [-88.13, 37.69], [-88.13, 37.71], [-88.12, 37.71], [-88.1, 37.72], [-88.1, 37.72], [-88.06, 37.74], [-88.05, 37.75], [-88.04, 37.77], [-88.04, 37.78], [-88.03, 37.8], [-88.01, 37.8], [-88.0, 37.8], [-87.98, 37.79], [-87.96, 37.77], [-87.94, 37.78], [-87.93, 37.8], [-87.91, 37.81], [-87.9, 37.82], [-87.91, 37.84], [-87.91, 37.85], [-87.94, 37.87], [-87.94, 37.88], [-87.94, 37.89], [-87.9, 37.93], [-87.89, 37.93], [-87.88, 37.93], [-87.87, 37.92], [-87.86, 37.9], [-87.85, 37.89], [-87.84, 37.88], [-87.83, 37.88], [-87.8, 37.88], [-87.78, 37.88], [-87.76, 37.89], [-87.74, 37.9], [-87.72, 37.89], [-87.71, 37.89], [-87.69, 37.9], [-87.67, 37.9], [-87.66, 37.89], [-87.66, 37.88], [-87.68, 37.86], [-87.68, 37.84], [-87.67, 37.83], [-87.65, 37.83], [-87.64, 37.83], [-87.62, 37.83], [-87.6, 37.85], [-87.59, 37.86], [-87.59, 37.89], [-87.6, 37.89], [-87.62, 37.91], [-87.63, 37.92], [-87.63, 37.93], [-87.61, 37.95], [-87.6, 37.97], [-87.6, 37.97], [-87.59, 37.98], [-87.58, 37.97], [-87.57, 37.96], [-87.57, 37.95], [-87.57, 37.94], [-87.55, 37.92], [-87.52, 37.91], [-87.51, 37.91], [-87.5, 37.91], [-87.46, 37.94], [-87.45, 37.94], [-87.43, 37.94], [-87.41, 37.94], [-87.38, 37.94], [-87.36, 37.92], [-87.34, 37.91], [-87.32, 37.91], [-87.3, 37.9], [-87.27, 37.88], [-87.26, 37.87], [-87.22, 37.85], [-87.2, 37.84], [-87.16, 37.84], [-87.15, 37.83], [-87.14, 37.81], [-87.13, 37.79], [-87.13, 37.79], [-87.11, 37.78], [-87.09, 37.79], [-87.07, 37.8], [-87.06, 37.83], [-87.05, 37.86], [-87.04, 37.88], [-87.05, 37.89], [-87.03, 37.91], [-87.01, 37.92], [-86.98, 37.93], [-86.96, 37.93], [-86.93, 37.93], [-86.92, 37.94], [-86.9, 37.95], [-86.89, 37.96], [-86.86, 37.99], [-86.82, 38.0], [-86.81, 38.0], [-86.8, 37.99], [-86.79, 37.97], [-86.78, 37.96], [-86.77, 37.93], [-86.75, 37.91], [-86.73, 37.89], [-86.72, 37.89], [-86.71, 37.9], [-86.68, 37.92], [-86.65, 37.91], [-86.64, 37.9], [-86.64, 37.89], [-86.66, 37.87], [-86.66, 37.86], [-86.66, 37.84], [-86.64, 37.84], [-86.6, 37.86], [-86.6, 37.87], [-86.6, 37.9], [-86.6, 37.91], [-86.59, 37.92], [-86.57, 37.92], [-86.55, 37.92], [-86.53, 37.92], [-86.51, 37.93], [-86.51, 37.93], [-86.51, 37.94], [-86.52, 37.95], [-86.53, 37.97], [-86.53, 38.03], [-86.52, 38.04], [-86.51, 38.04], [-86.47, 38.05], [-86.45, 38.05], [-86.43, 38.07], [-86.43, 38.08], [-86.43, 38.09], [-86.45, 38.09], [-86.46, 38.1], [-86.47, 38.11], [-86.46, 38.12], [-86.45, 38.13], [-86.43, 38.13], [-86.43, 38.12], [-86.41, 38.11], [-86.39, 38.11], [-86.39, 38.12], [-86.38, 38.13], [-86.34, 38.13], [-86.33, 38.13], [-86.32, 38.14], [-86.32, 38.15], [-86.33, 38.16], [-86.34, 38.16], [-86.36, 38.16], [-86.38, 38.17], [-86.38, 38.19], [-86.36, 38.2], [-86.35, 38.19], [-86.32, 38.17], [-86.29, 38.16], [-86.27, 38.14], [-86.27, 38.13], [-86.28, 38.1], [-86.28, 38.08], [-86.27, 38.06], [-86.25, 38.05], [-86.23, 38.04], [-86.22, 38.03], [-86.18, 38.01], [-86.17, 38.01], [-86.15, 38.01], [-86.13, 38.02], [-86.11, 38.01], [-86.08, 38.0], [-86.06, 37.97], [-86.05, 37.96], [-86.04, 37.96], [-86.03, 37.97], [-86.04, 37.98], [-86.03, 37.99], [-86.02, 38.0], [-85.98, 38.0], [-85.95, 38.01], [-85.93, 38.01], [-85.92, 38.02], [-85.92, 38.04], [-85.92, 38.06], [-85.91, 38.09], [-85.9, 38.11], [-85.91, 38.14], [-85.91, 38.17], [-85.9, 38.18], [-85.87, 38.21], [-85.85, 38.22], [-85.84, 38.24], [-85.84, 38.26], [-85.83, 38.28], [-85.82, 38.28], [-85.79, 38.29], [-85.77, 38.29], [-85.77, 38.28], [-85.75, 38.27], [-85.74, 38.27], [-85.68, 38.3], [-85.65, 38.33], [-85.64, 38.35], [-85.64, 38.36], [-85.64, 38.38], [-85.63, 38.39], [-85.62, 38.42], [-85.61, 38.44], [-85.59, 38.45], [-85.57, 38.45], [-85.54, 38.46], [-85.52, 38.46], [-85.5, 38.47], [-85.48, 38.49], [-85.47, 38.5], [-85.46, 38.51], [-85.44, 38.52], [-85.42, 38.53], [-85.42, 38.55], [-85.42, 38.56], [-85.42, 38.57], [-85.44, 38.6], [-85.44, 38.61], [-85.44, 38.66], [-85.45, 38.68], [-85.46, 38.69], [-85.45, 38.71], [-85.43, 38.73], [-85.41, 38.74], [-85.37, 38.73], [-85.35, 38.73], [-85.31, 38.74], [-85.29, 38.74], [-85.26, 38.74], [-85.25, 38.73], [-85.23, 38.71], [-85.21, 38.69], [-85.19, 38.69], [-85.17, 38.69], [-85.15, 38.7], [-85.13, 38.7], [-85.1, 38.73], [-85.07, 38.74], [-85.05, 38.75], [-85.04, 38.76], [-85.01, 38.77], [-85.0, 38.77], [-84.98, 38.78], [-84.95, 38.78], [-84.93, 38.78], [-84.89, 38.79], [-84.85, 38.79], [-84.84, 38.78], [-84.81, 38.79], [-84.81, 38.8], [-84.83, 38.82], [-84.83, 38.83], [-84.82, 38.84], [-84.79, 38.86], [-84.78, 38.88], [-84.79, 38.89], [-84.81, 38.89], [-84.83, 38.9], [-84.86, 38.9], [-84.88, 38.91], [-84.88, 38.92], [-84.86, 38.93], [-84.84, 38.96], [-84.83, 38.97], [-84.83, 38.98], [-84.86, 39.01], [-84.87, 39.03], [-84.88, 39.03], [-84.9, 39.05], [-84.89, 39.07], [-84.86, 39.08], [-84.83, 39.1], [-84.82, 39.11], [-84.79, 39.11], [-84.78, 39.12], [-84.77, 39.14], [-84.75, 39.15], [-84.73, 39.14], [-84.72, 39.14], [-84.69, 39.1], [-84.67, 39.1], [-84.65, 39.09], [-84.63, 39.08]]]]}}]}