{"type": "FeatureCollection", "features": [{"type": "Feature", "properties": {"ID": 18, "abbreviation": "MD", "name": "Maryland"}, "geometry": {"type": "MultiPolygon", "coordinates": [[[[-75.99, 37.82], [-76.0, 37.81], [-76.0, 37.83], [-76.0, 37.83], [-75.98, 37.83], [-75.99, 37.82]]], [[[-75.98, 37.84], [-75.99, 37.83], [-76.0, 37.83], [-76.0, 37.85], [-75.99, 37.85], [-75.98, 37.84]]], [[[-76.02, 37.93], [-76.03, 37.93], [-76.03, 37.93], [-76.02, 37.94], [-76.02, 37.93]]], [[[-75.86, 37.92], [-75.87, 37.92], [-75.88, 37.92], [-75.89, 37.93], [-75.89, 37.94], [-75.88, 37.94], [-75.87, 37.95], [-75.86, 37.95], [-75.86, 37.94], [-75.86, 37.92]]], [[[-76.04, 37.95], [-76.05, 37.95], [-76.05, 37.98], [-76.04, 37.98], [-76.04, 37.97], [-76.04, 37.96], [-76.04, 37.95]]], [[[-76.0, 37.95], [-76.0, 37.95], [-76.01, 37.96], [-76.02, 37.97], [-76.02, 37.99], [-76.01, 37.99], [-76.01, 37.98], [-75.99, 37.96], [-76.0, 37.95]]], [[[-76.03, 37.97], [-76.04, 37.97], [-76.04, 37.98], [-76.05, 37.98], [-76.05, 37.99], [-76.05, 38.0], [-76.03, 38.0], [-76.02, 37.98], [-76.03, 37.97]]], [[[-76.02, 38.03], [-76.0, 38.02], [-75.99, 38.03], [-75.98, 38.01], [-75.99, 38.0], [-75.98, 37.99], [-75.99, 37.99], [-75.99, 37.97], [-76.01, 37.98], [-76.0, 37.99], [-76.01, 38.0], [-76.01, 38.01], [-76.0, 38.01], [-76.01, 38.02], [-76.01, 38.02], [-76.01, 38.02], [-76.01, 38.02], [-76.02, 38.02], [-76.02, 38.03], [-76.02, 38.03]]], [[[-76.01, 38.02], [-76.01, 38.01], [-76.0, 38.01], [-76.0, 38.01], [-76.01, 38.01], [-76.01, 38.01], [-76.04, 38.02], [-76.04, 38.03], [-76.03, 38.03], [-76.02, 38.03], [-76.02, 38.02], [-76.01, 38.02], [-76.01, 38.02], [-76.01, 38.02]]], [[[-76.01, 38.1], [-76.01, 38.08], [-76.01, 38.08], [-76.03, 38.08], [-76.04, 38.08], [-76.05, 38.09], [-76.04, 38.09], [-76.03, 38.1], [-76.05, 38.11], [-76.04, 38.11], [-76.04, 38.12], [-76.03, 38.13], [-76.03, 38.12], [-76.03, 38.11], [-76.02, 38.1], [-76.01, 38.1]]], [[[-75.93, 38.12], [-75.95, 38.11], [-75.95, 38.12], [-75.94, 38.13], [-75.93, 38.12]]], [[[-76.02, 38.12], [-76.02, 38.11], [-76.03, 38.11], [-76.03, 38.12], [-76.02, 38.12], [-76.02, 38.13], [-76.01, 38.13], [-76.02, 38.12]]], [[[-75.93, 38.15], [-75.92, 38.13], [-75.93, 38.13], [-75.95, 38.13], [-75.95, 38.13], [-75.96, 38.14], [-75.95, 38.16], [-75.94, 38.16], [-75.93, 38.16], [-75.93, 38.15]]], [[[-76.04, 38.19], [-76.04, 38.19], [-76.03, 38.18], [-76.02, 38.17], [-76.03, 38.17], [-76.04, 38.17], [-76.03, 38.15], [-76.03, 38.15], [-76.05, 38.15], [-76.06, 38.17], [-76.08, 38.16], [-76.09, 38.16], [-76.09, 38.18], [-76.08, 38.19], [-76.07, 38.19], [-76.06, 38.2], [-76.06, 38.21], [-76.05, 38.2], [-76.04, 38.19]]], [[[-75.14, 38.22], [-75.17, 38.16], [-75.18, 38.12], [-75.19, 38.11], [-75.2, 38.08], [-75.22, 38.05], [-75.24, 38.03], [-75.25, 38.03], [-75.24, 38.05], [-75.25, 38.06], [-75.24, 38.07], [-75.22, 38.07], [-75.21, 38.1], [-75.2, 38.11], [-75.19, 38.12], [-75.19, 38.16], [-75.19, 38.17], [-75.18, 38.18], [-75.17, 38.18], [-75.16, 38.19], [-75.16, 38.21], [-75.16, 38.21], [-75.15, 38.23], [-75.14, 38.24], [-75.13, 38.25], [-75.14, 38.22]]], [[[-76.13, 38.24], [-76.13, 38.23], [-76.15, 38.23], [-76.14, 38.24], [-76.15, 38.25], [-76.13, 38.24]]], [[[-76.21, 38.3], [-76.2, 38.29], [-76.19, 38.29], [-76.18, 38.29], [-76.18, 38.28], [-76.19, 38.28], [-76.2, 38.29], [-76.21, 38.3], [-76.22, 38.31], [-76.23, 38.31], [-76.23, 38.33], [-76.23, 38.34], [-76.23, 38.35], [-76.22, 38.34], [-76.23, 38.31], [-76.21, 38.3]]], [[[-75.07, 38.36], [-75.09, 38.32], [-75.09, 38.33], [-75.07, 38.37], [-75.07, 38.4], [-75.06, 38.4], [-75.07, 38.41], [-75.06, 38.42], [-75.07, 38.43], [-75.06, 38.44], [-75.06, 38.45], [-75.05, 38.45], [-75.05, 38.41], [-75.07, 38.36]]], [[[-76.12, 38.89], [-76.1, 38.88], [-76.12, 38.88], [-76.14, 38.88], [-76.16, 38.89], [-76.17, 38.88], [-76.17, 38.87], [-76.19, 38.88], [-76.17, 38.89], [-76.17, 38.9], [-76.14, 38.9], [-76.13, 38.91], [-76.13, 38.9], [-76.12, 38.89]]], [[[-76.29, 39.0], [-76.28, 38.98], [-76.27, 38.98], [-76.26, 38.98], [-76.25, 38.98], [-76.25, 38.97], [-76.26, 38.96], [-76.25, 38.95], [-76.25, 38.94], [-76.26, 38.93], [-76.27, 38.94], [-76.29, 38.94], [-76.3, 38.92], [-76.31, 38.93], [-76.31, 38.93], [-76.3, 38.94], [-76.31, 38.95], [-76.33, 38.94], [-76.31, 38.94], [-76.32, 38.91], [-76.33, 38.92], [-76.34, 38.91], [-76.34, 38.91], [-76.34, 38.89], [-76.33, 38.89], [-76.33, 38.86], [-76.34, 38.86], [-76.35, 38.86], [-76.36, 38.85], [-76.37, 38.84], [-76.38, 38.84], [-76.37, 38.86], [-76.36, 38.87], [-76.37, 38.91], [-76.36, 38.94], [-76.35, 38.96], [-76.32, 39.0], [-76.32, 39.02], [-76.31, 39.04], [-76.3, 39.03], [-76.3, 39.03], [-76.3, 39.02], [-76.29, 39.0]]], [[[-76.22, 39.05], [-76.21, 39.04], [-76.21, 39.04], [-76.22, 39.03], [-76.21, 39.03], [-76.22, 39.01], [-76.23, 39.02], [-76.24, 39.03], [-76.24, 39.05], [-76.22, 39.05], [-76.22, 39.05]]], [[[-76.33, 39.32], [-76.34, 39.31], [-76.35, 39.32], [-76.36, 39.32], [-76.36, 39.33], [-76.35, 39.33], [-76.35, 39.33], [-76.33, 39.32], [-76.33, 39.32]]], [[[-78.47, 39.72], [-78.33, 39.72], [-78.31, 39.72], [-78.1, 39.72], [-77.93, 39.72], [-77.71, 39.72], [-77.67, 39.72], [-77.5, 39.72], [-77.47, 39.72], [-77.22, 39.72], [-76.99, 39.72], [-76.94, 39.72], [-76.89, 39.72], [-76.7, 39.72], [-76.42, 39.72], [-76.24, 39.72], [-76.15, 39.72], [-76.0, 39.72], [-75.87, 39.72], [-75.79, 39.72], [-75.79, 39.65], [-75.78, 39.49], [-75.77, 39.38], [-75.76, 39.3], [-75.75, 39.14], [-75.74, 39.0], [-75.73, 38.86], [-75.71, 38.69], [-75.7, 38.56], [-75.69, 38.46], [-75.56, 38.46], [-75.39, 38.45], [-75.19, 38.45], [-75.09, 38.45], [-75.1, 38.44], [-75.12, 38.44], [-75.11, 38.43], [-75.11, 38.41], [-75.1, 38.41], [-75.1, 38.39], [-75.11, 38.39], [-75.12, 38.4], [-75.13, 38.41], [-75.15, 38.41], [-75.16, 38.41], [-75.18, 38.41], [-75.17, 38.4], [-75.17, 38.41], [-75.14, 38.4], [-75.13, 38.39], [-75.13, 38.38], [-75.12, 38.38], [-75.14, 38.37], [-75.13, 38.37], [-75.14, 38.36], [-75.13, 38.35], [-75.13, 38.36], [-75.12, 38.36], [-75.11, 38.35], [-75.1, 38.36], [-75.09, 38.35], [-75.1, 38.34], [-75.1, 38.33], [-75.11, 38.32], [-75.12, 38.3], [-75.13, 38.3], [-75.14, 38.28], [-75.14, 38.27], [-75.15, 38.26], [-75.15, 38.25], [-75.16, 38.24], [-75.18, 38.23], [-75.19, 38.23], [-75.19, 38.21], [-75.2, 38.21], [-75.19, 38.26], [-75.21, 38.25], [-75.22, 38.24], [-75.23, 38.23], [-75.25, 38.23], [-75.24, 38.22], [-75.25, 38.21], [-75.25, 38.21], [-75.26, 38.2], [-75.26, 38.18], [-75.27, 38.17], [-75.27, 38.16], [-75.27, 38.16], [-75.28, 38.15], [-75.29, 38.14], [-75.29, 38.13], [-75.3, 38.13], [-75.29, 38.11], [-75.29, 38.1], [-75.3, 38.1], [-75.31, 38.1], [-75.32, 38.1], [-75.33, 38.11], [-75.34, 38.1], [-75.34, 38.09], [-75.37, 38.08], [-75.35, 38.06], [-75.36, 38.05], [-75.36, 38.03], [-75.37, 38.04], [-75.38, 38.02], [-75.38, 38.02], [-75.62, 37.99], [-75.64, 37.98], [-75.65, 37.97], [-75.66, 37.96], [-75.67, 37.96], [-75.67, 37.97], [-75.69, 37.97], [-75.71, 37.98], [-75.71, 37.99], [-75.72, 37.99], [-75.72, 37.97], [-75.74, 37.96], [-75.74, 37.98], [-75.75, 37.98], [-75.76, 37.97], [-75.78, 37.97], [-75.8, 37.95], [-75.81, 37.96], [-75.82, 37.97], [-75.83, 37.95], [-75.82, 37.95], [-75.82, 37.94], [-75.84, 37.94], [-75.85, 37.94], [-75.86, 37.95], [-75.86, 37.96], [-75.87, 37.97], [-75.86, 37.97], [-75.87, 37.98], [-75.86, 37.99], [-75.86, 38.0], [-75.87, 37.99], [-75.87, 37.98], [-75.88, 37.97], [-75.9, 37.97], [-75.89, 37.99], [-75.88, 38.0], [-75.87, 38.03], [-75.87, 38.04], [-75.86, 38.04], [-75.84, 38.03], [-75.82, 38.03], [-75.83, 38.04], [-75.81, 38.05], [-75.8, 38.05], [-75.78, 38.06], [-75.77, 38.08], [-75.79, 38.09], [-75.79, 38.07], [-75.8, 38.07], [-75.81, 38.06], [-75.83, 38.07], [-75.84, 38.07], [-75.84, 38.07], [-75.87, 38.06], [-75.87, 38.08], [-75.86, 38.09], [-75.86, 38.1], [-75.86, 38.1], [-75.85, 38.11], [-75.84, 38.11], [-75.84, 38.13], [-75.83, 38.13], [-75.81, 38.13], [-75.81, 38.13], [-75.79, 38.14], [-75.79, 38.15], [-75.78, 38.15], [-75.79, 38.16], [-75.8, 38.15], [-75.81, 38.14], [-75.82, 38.15], [-75.83, 38.15], [-75.84, 38.14], [-75.86, 38.14], [-75.88, 38.14], [-75.88, 38.15], [-75.91, 38.15], [-75.92, 38.15], [-75.93, 38.15], [-75.93, 38.16], [-75.95, 38.17], [-75.95, 38.18], [-75.94, 38.19], [-75.92, 38.19], [-75.9, 38.2], [-75.89, 38.2], [-75.89, 38.2], [-75.86, 38.2], [-75.84, 38.22], [-75.83, 38.22], [-75.82, 38.22], [-75.82, 38.23], [-75.84, 38.23], [-75.85, 38.23], [-75.86, 38.23], [-75.83, 38.25], [-75.81, 38.25], [-75.82, 38.26], [-75.83, 38.26], [-75.85, 38.26], [-75.85, 38.25], [-75.87, 38.25], [-75.88, 38.26], [-75.89, 38.24], [-75.89, 38.23], [-75.9, 38.23], [-75.91, 38.25], [-75.91, 38.26], [-75.92, 38.26], [-75.91, 38.27], [-75.9, 38.29], [-75.91, 38.29], [-75.89, 38.31], [-75.88, 38.33], [-75.86, 38.35], [-75.86, 38.35], [-75.85, 38.37], [-75.86, 38.38], [-75.84, 38.38], [-75.83, 38.39], [-75.85, 38.4], [-75.84, 38.42], [-75.83, 38.42], [-75.82, 38.44], [-75.82, 38.45], [-75.83, 38.45], [-75.83, 38.46], [-75.82, 38.46], [-75.81, 38.47], [-75.82, 38.48], [-75.82, 38.48], [-75.82, 38.47], [-75.82, 38.47], [-75.84, 38.46], [-75.84, 38.45], [-75.83, 38.44], [-75.82, 38.44], [-75.83, 38.42], [-75.85, 38.42], [-75.85, 38.4], [-75.84, 38.39], [-75.86, 38.39], [-75.87, 38.38], [-75.86, 38.36], [-75.88, 38.35], [-75.9, 38.35], [-75.91, 38.34], [-75.91, 38.33], [-75.93, 38.32], [-75.93, 38.31], [-75.94, 38.31], [-75.94, 38.3], [-75.94, 38.29], [-75.94, 38.27], [-75.95, 38.26], [-75.95, 38.25], [-75.94, 38.25], [-75.95, 38.24], [-75.97, 38.24], [-75.96, 38.25], [-75.98, 38.27], [-75.98, 38.27], [-75.99, 38.28], [-76.0, 38.29], [-76.01, 38.31], [-75.98, 38.32], [-75.96, 38.32], [-75.96, 38.34], [-75.97, 38.35], [-75.98, 38.37], [-75.99, 38.37], [-76.0, 38.37], [-76.01, 38.36], [-76.01, 38.35], [-76.02, 38.33], [-76.03, 38.32], [-76.04, 38.32], [-76.05, 38.32], [-76.05, 38.3], [-76.04, 38.3], [-76.03, 38.28], [-76.03, 38.28], [-76.04, 38.27], [-76.04, 38.26], [-76.04, 38.25], [-76.06, 38.25], [-76.04, 38.23], [-76.04, 38.23], [-76.05, 38.23], [-76.06, 38.23], [-76.08, 38.25], [-76.09, 38.26], [-76.08, 38.27], [-76.08, 38.28], [-76.1, 38.28], [-76.1, 38.29], [-76.11, 38.31], [-76.13, 38.3], [-76.13, 38.29], [-76.15, 38.28], [-76.15, 38.28], [-76.13, 38.3], [-76.13, 38.31], [-76.14, 38.31], [-76.16, 38.32], [-76.15, 38.32], [-76.16, 38.33], [-76.16, 38.34], [-76.18, 38.36], [-76.2, 38.37], [-76.22, 38.37], [-76.21, 38.38], [-76.22, 38.39], [-76.22, 38.4], [-76.23, 38.39], [-76.23, 38.38], [-76.23, 38.38], [-76.23, 38.37], [-76.23, 38.35], [-76.24, 38.35], [-76.24, 38.36], [-76.27, 38.38], [-76.28, 38.38], [-76.28, 38.39], [-76.28, 38.4], [-76.28, 38.42], [-76.29, 38.43], [-76.3, 38.44], [-76.33, 38.47], [-76.32, 38.49], [-76.3, 38.5], [-76.29, 38.5], [-76.28, 38.5], [-76.27, 38.5], [-76.25, 38.52], [-76.23, 38.52], [-76.22, 38.51], [-76.21, 38.52], [-76.21, 38.53], [-76.2, 38.52], [-76.19, 38.52], [-76.17, 38.53], [-76.14, 38.53], [-76.15, 38.54], [-76.2, 38.53], [-76.21, 38.54], [-76.2, 38.54], [-76.21, 38.55], [-76.21, 38.55], [-76.19, 38.55], [-76.18, 38.56], [-76.18, 38.57], [-76.19, 38.56], [-76.2, 38.56], [-76.21, 38.57], [-76.22, 38.56], [-76.22, 38.55], [-76.24, 38.54], [-76.24, 38.56], [-76.26, 38.55], [-76.26, 38.56], [-76.28, 38.55], [-76.29, 38.57], [-76.3, 38.57], [-76.29, 38.58], [-76.28, 38.57], [-76.26, 38.59], [-76.26, 38.6], [-76.27, 38.61], [-76.26, 38.61], [-76.25, 38.62], [-76.24, 38.63], [-76.24, 38.62], [-76.22, 38.61], [-76.21, 38.6], [-76.2, 38.61], [-76.18, 38.63], [-76.16, 38.62], [-76.17, 38.6], [-76.16, 38.6], [-76.15, 38.6], [-76.14, 38.61], [-76.14, 38.6], [-76.11, 38.58], [-76.09, 38.59], [-76.07, 38.58], [-76.05, 38.56], [-76.02, 38.57], [-76.01, 38.57], [-76.0, 38.58], [-75.98, 38.58], [-75.98, 38.59], [-75.97, 38.62], [-75.97, 38.63], [-75.95, 38.65], [-75.95, 38.67], [-75.94, 38.67], [-75.95, 38.68], [-75.97, 38.68], [-75.97, 38.69], [-75.98, 38.7], [-75.99, 38.7], [-76.0, 38.72], [-76.01, 38.72], [-76.0, 38.71], [-76.0, 38.7], [-75.98, 38.69], [-75.97, 38.68], [-75.96, 38.68], [-75.96, 38.65], [-75.96, 38.65], [-75.99, 38.64], [-75.99, 38.63], [-75.99, 38.61], [-76.0, 38.6], [-76.02, 38.59], [-76.03, 38.58], [-76.04, 38.58], [-76.04, 38.59], [-76.02, 38.6], [-76.03, 38.6], [-76.04, 38.6], [-76.05, 38.59], [-76.05, 38.6], [-76.08, 38.61], [-76.09, 38.63], [-76.11, 38.62], [-76.12, 38.62], [-76.1, 38.64], [-76.12, 38.63], [-76.13, 38.64], [-76.15, 38.64], [-76.16, 38.66], [-76.16, 38.66], [-76.18, 38.68], [-76.17, 38.68], [-76.18, 38.69], [-76.16, 38.7], [-76.15, 38.69], [-76.14, 38.71], [-76.14, 38.72], [-76.13, 38.73], [-76.11, 38.74], [-76.14, 38.74], [-76.15, 38.72], [-76.15, 38.71], [-76.16, 38.71], [-76.17, 38.71], [-76.19, 38.7], [-76.19, 38.69], [-76.2, 38.68], [-76.21, 38.68], [-76.21, 38.69], [-76.22, 38.7], [-76.21, 38.71], [-76.23, 38.71], [-76.24, 38.71], [-76.24, 38.72], [-76.23, 38.73], [-76.24, 38.74], [-76.22, 38.74], [-76.22, 38.73], [-76.21, 38.73], [-76.19, 38.73], [-76.22, 38.75], [-76.23, 38.76], [-76.24, 38.76], [-76.26, 38.78], [-76.26, 38.77], [-76.25, 38.76], [-76.24, 38.76], [-76.25, 38.75], [-76.26, 38.76], [-76.27, 38.74], [-76.27, 38.75], [-76.28, 38.74], [-76.27, 38.74], [-76.26, 38.74], [-76.27, 38.72], [-76.29, 38.72], [-76.3, 38.76], [-76.28, 38.77], [-76.28, 38.77], [-76.27, 38.78], [-76.28, 38.78], [-76.28, 38.77], [-76.29, 38.78], [-76.3, 38.77], [-76.31, 38.77], [-76.32, 38.76], [-76.31, 38.74], [-76.32, 38.72], [-76.33, 38.71], [-76.33, 38.7], [-76.32, 38.69], [-76.32, 38.68], [-76.33, 38.68], [-76.34, 38.67], [-76.35, 38.68], [-76.34, 38.7], [-76.35, 38.71], [-76.33, 38.72], [-76.34, 38.73], [-76.34, 38.74], [-76.34, 38.75], [-76.34, 38.76], [-76.33, 38.76], [-76.33, 38.77], [-76.32, 38.79], [-76.31, 38.8], [-76.31, 38.81], [-76.3, 38.83], [-76.29, 38.83], [-76.28, 38.84], [-76.27, 38.85], [-76.26, 38.84], [-76.26, 38.84], [-76.26, 38.83], [-76.24, 38.82], [-76.23, 38.82], [-76.21, 38.81], [-76.22, 38.79], [-76.19, 38.77], [-76.19, 38.77], [-76.18, 38.76], [-76.17, 38.75], [-76.16, 38.77], [-76.15, 38.77], [-76.14, 38.78], [-76.12, 38.79], [-76.14, 38.79], [-76.15, 38.79], [-76.15, 38.78], [-76.16, 38.77], [-76.18, 38.79], [-76.19, 38.79], [-76.19, 38.79], [-76.19, 38.81], [-76.2, 38.81], [-76.19, 38.84], [-76.2, 38.84], [-76.2, 38.84], [-76.19, 38.85], [-76.18, 38.85], [-76.17, 38.86], [-76.16, 38.88], [-76.13, 38.88], [-76.12, 38.87], [-76.11, 38.88], [-76.1, 38.88], [-76.1, 38.89], [-76.11, 38.91], [-76.11, 38.91], [-76.11, 38.92], [-76.1, 38.94], [-76.11, 38.93], [-76.12, 38.92], [-76.11, 38.9], [-76.12, 38.9], [-76.13, 38.91], [-76.14, 38.91], [-76.16, 38.91], [-76.16, 38.93], [-76.15, 38.95], [-76.16, 38.95], [-76.16, 38.94], [-76.17, 38.93], [-76.17, 38.92], [-76.18, 38.89], [-76.19, 38.89], [-76.2, 38.9], [-76.21, 38.91], [-76.2, 38.93], [-76.21, 38.93], [-76.21, 38.95], [-76.22, 38.95], [-76.24, 38.94], [-76.24, 38.96], [-76.24, 38.97], [-76.22, 38.97], [-76.2, 38.97], [-76.16, 39.0], [-76.16, 39.01], [-76.17, 39.03], [-76.18, 39.03], [-76.18, 39.04], [-76.18, 39.05], [-76.18, 39.06], [-76.17, 39.05], [-76.16, 39.05], [-76.16, 39.07], [-76.15, 39.08], [-76.14, 39.08], [-76.12, 39.07], [-76.11, 39.08], [-76.14, 39.09], [-76.15, 39.09], [-76.14, 39.1], [-76.12, 39.1], [-76.11, 39.11], [-76.09, 39.13], [-76.07, 39.13], [-76.07, 39.14], [-76.08, 39.15], [-76.05, 39.16], [-76.04, 39.15], [-76.04, 39.17], [-76.04, 39.18], [-76.06, 39.19], [-76.06, 39.19], [-76.06, 39.21], [-76.06, 39.21], [-76.07, 39.19], [-76.07, 39.19], [-76.06, 39.18], [-76.05, 39.18], [-76.04, 39.17], [-76.06, 39.16], [-76.07, 39.16], [-76.09, 39.15], [-76.08, 39.14], [-76.12, 39.11], [-76.13, 39.12], [-76.15, 39.11], [-76.16, 39.11], [-76.16, 39.12], [-76.15, 39.13], [-76.18, 39.14], [-76.17, 39.13], [-76.18, 39.12], [-76.17, 39.11], [-76.19, 39.11], [-76.18, 39.1], [-76.19, 39.09], [-76.2, 39.1], [-76.21, 39.09], [-76.2, 39.08], [-76.22, 39.06], [-76.23, 39.05], [-76.23, 39.07], [-76.23, 39.08], [-76.24, 39.1], [-76.25, 39.11], [-76.24, 39.13], [-76.27, 39.14], [-76.28, 39.15], [-76.27, 39.17], [-76.27, 39.18], [-76.26, 39.19], [-76.24, 39.22], [-76.23, 39.23], [-76.22, 39.25], [-76.22, 39.27], [-76.2, 39.26], [-76.2, 39.28], [-76.19, 39.28], [-76.18, 39.29], [-76.16, 39.29], [-76.19, 39.31], [-76.19, 39.32], [-76.17, 39.32], [-76.17, 39.33], [-76.16, 39.34], [-76.14, 39.33], [-76.13, 39.34], [-76.14, 39.34], [-76.13, 39.35], [-76.12, 39.36], [-76.11, 39.37], [-76.09, 39.37], [-76.06, 39.37], [-76.04, 39.37], [-76.03, 39.35], [-76.02, 39.36], [-76.0, 39.37], [-75.99, 39.37], [-75.98, 39.36], [-75.98, 39.36], [-75.97, 39.37], [-75.96, 39.37], [-75.94, 39.36], [-75.93, 39.37], [-75.92, 39.36], [-75.9, 39.36], [-75.89, 39.36], [-75.88, 39.36], [-75.9, 39.37], [-75.91, 39.37], [-75.95, 39.38], [-75.96, 39.38], [-75.98, 39.38], [-76.0, 39.39], [-76.03, 39.39], [-76.04, 39.39], [-76.04, 39.4], [-76.03, 39.4], [-76.02, 39.41], [-76.01, 39.41], [-76.0, 39.43], [-75.98, 39.44], [-75.97, 39.46], [-75.97, 39.46], [-75.96, 39.46], [-75.95, 39.47], [-75.93, 39.47], [-75.92, 39.47], [-75.91, 39.48], [-75.88, 39.47], [-75.88, 39.47], [-75.89, 39.49], [-75.92, 39.49], [-75.92, 39.5], [-75.92, 39.5], [-75.89, 39.5], [-75.88, 39.51], [-75.87, 39.53], [-75.86, 39.54], [-75.86, 39.55], [-75.85, 39.56], [-75.84, 39.57], [-75.84, 39.58], [-75.85, 39.58], [-75.86, 39.57], [-75.86, 39.56], [-75.87, 39.56], [-75.88, 39.54], [-75.88, 39.54], [-75.9, 39.51], [-75.92, 39.52], [-75.92, 39.51], [-75.93, 39.5], [-75.94, 39.5], [-75.97, 39.48], [-75.97, 39.47], [-75.99, 39.47], [-75.99, 39.46], [-76.0, 39.45], [-76.01, 39.45], [-76.01, 39.46], [-76.0, 39.47], [-75.99, 39.48], [-75.99, 39.49], [-75.99, 39.5], [-75.99, 39.51], [-75.98, 39.52], [-75.98, 39.53], [-75.96, 39.53], [-75.97, 39.56], [-75.96, 39.56], [-75.95, 39.58], [-75.95, 39.59], [-75.96, 39.59], [-75.96, 39.59], [-75.97, 39.58], [-75.99, 39.56], [-76.0, 39.56], [-76.01, 39.55], [-76.02, 39.55], [-76.03, 39.55], [-76.05, 39.55], [-76.06, 39.55], [-76.1, 39.54], [-76.11, 39.52], [-76.11, 39.5], [-76.12, 39.49], [-76.13, 39.49], [-76.12, 39.48], [-76.1, 39.48], [-76.08, 39.48], [-76.07, 39.47], [-76.06, 39.45], [-76.08, 39.44], [-76.1, 39.44], [-76.11, 39.43], [-76.12, 39.42], [-76.14, 39.41], [-76.16, 39.4], [-76.18, 39.38], [-76.19, 39.39], [-76.21, 39.39], [-76.21, 39.39], [-76.23, 39.39], [-76.23, 39.38], [-76.21, 39.39], [-76.2, 39.38], [-76.19, 39.38], [-76.2, 39.36], [-76.22, 39.36], [-76.23, 39.35], [-76.24, 39.36], [-76.25, 39.38], [-76.25, 39.38], [-76.25, 39.39], [-76.24, 39.41], [-76.23, 39.42], [-76.22, 39.43], [-76.24, 39.44], [-76.23, 39.45], [-76.23, 39.47], [-76.24, 39.47], [-76.24, 39.45], [-76.26, 39.44], [-76.25, 39.43], [-76.25, 39.41], [-76.27, 39.4], [-76.28, 39.38], [-76.27, 39.38], [-76.29, 39.37], [-76.27, 39.36], [-76.26, 39.35], [-76.26, 39.35], [-76.26, 39.34], [-76.27, 39.33], [-76.28, 39.32], [-76.28, 39.31], [-76.28, 39.3], [-76.3, 39.3], [-76.29, 39.32], [-76.3, 39.33], [-76.3, 39.34], [-76.29, 39.35], [-76.31, 39.35], [-76.3, 39.37], [-76.3, 39.38], [-76.31, 39.39], [-76.33, 39.39], [-76.34, 39.39], [-76.35, 39.4], [-76.38, 39.38], [-76.37, 39.38], [-76.35, 39.38], [-76.34, 39.37], [-76.34, 39.36], [-76.35, 39.36], [-76.33, 39.34], [-76.35, 39.34], [-76.36, 39.35], [-76.37, 39.35], [-76.36, 39.34], [-76.37, 39.34], [-76.36, 39.32], [-76.37, 39.32], [-76.37, 39.3], [-76.38, 39.3], [-76.4, 39.31], [-76.42, 39.31], [-76.42, 39.3], [-76.4, 39.3], [-76.4, 39.29], [-76.38, 39.29], [-76.39, 39.28], [-76.4, 39.27], [-76.4, 39.27], [-76.41, 39.26], [-76.42, 39.25], [-76.43, 39.25], [-76.44, 39.25], [-76.44, 39.28], [-76.45, 39.28], [-76.47, 39.3], [-76.48, 39.3], [-76.5, 39.3], [-76.47, 39.28], [-76.46, 39.28], [-76.45, 39.27], [-76.45, 39.26], [-76.45, 39.25], [-76.45, 39.25], [-76.41, 39.23], [-76.42, 39.21], [-76.43, 39.21], [-76.46, 39.22], [-76.46, 39.21], [-76.5, 39.2], [-76.5, 39.21], [-76.5, 39.22], [-76.49, 39.24], [-76.48, 39.26], [-76.48, 39.26], [-76.5, 39.24], [-76.51, 39.23], [-76.52, 39.24], [-76.53, 39.24], [-76.54, 39.25], [-76.57, 39.26], [-76.57, 39.28], [-76.59, 39.28], [-76.58, 39.26], [-76.59, 39.26], [-76.6, 39.26], [-76.61, 39.26], [-76.61, 39.24], [-76.59, 39.25], [-76.58, 39.25], [-76.56, 39.23], [-76.56, 39.22], [-76.58, 39.23], [-76.58, 39.22], [-76.59, 39.21], [-76.59, 39.21], [-76.58, 39.21], [-76.58, 39.19], [-76.57, 39.2], [-76.58, 39.21], [-76.57, 39.21], [-76.55, 39.22], [-76.53, 39.21], [-76.53, 39.19], [-76.53, 39.19], [-76.52, 39.18], [-76.53, 39.16], [-76.51, 39.17], [-76.5, 39.16], [-76.5, 39.15], [-76.48, 39.16], [-76.48, 39.16], [-76.47, 39.15], [-76.44, 39.14], [-76.46, 39.13], [-76.45, 39.12], [-76.44, 39.13], [-76.43, 39.13], [-76.43, 39.11], [-76.42, 39.08], [-76.43, 39.06], [-76.44, 39.07], [-76.45, 39.09], [-76.43, 39.09], [-76.44, 39.1], [-76.46, 39.09], [-76.47, 39.08], [-76.48, 39.09], [-76.49, 39.08], [-76.51, 39.09], [-76.52, 39.07], [-76.51, 39.07], [-76.49, 39.06], [-76.48, 39.07], [-76.47, 39.06], [-76.44, 39.05], [-76.4, 39.03], [-76.4, 39.02], [-76.4, 39.01], [-76.44, 39.0], [-76.45, 39.0], [-76.45, 38.99], [-76.46, 38.98], [-76.47, 38.98], [-76.48, 39.0], [-76.49, 39.01], [-76.51, 39.01], [-76.52, 39.02], [-76.54, 39.04], [-76.53, 39.05], [-76.54, 39.06], [-76.55, 39.06], [-76.56, 39.06], [-76.58, 39.07], [-76.58, 39.07], [-76.6, 39.08], [-76.61, 39.08], [-76.59, 39.07], [-76.58, 39.07], [-76.58, 39.07], [-76.57, 39.06], [-76.56, 39.05], [-76.57, 39.04], [-76.57, 39.04], [-76.54, 39.03], [-76.52, 39.01], [-76.49, 39.0], [-76.48, 38.98], [-76.47, 38.96], [-76.46, 38.94], [-76.46, 38.93], [-76.46, 38.92], [-76.48, 38.92], [-76.49, 38.93], [-76.5, 38.93], [-76.51, 38.93], [-76.52, 38.94], [-76.53, 38.95], [-76.55, 38.96], [-76.56, 38.95], [-76.54, 38.94], [-76.54, 38.93], [-76.53, 38.93], [-76.51, 38.92], [-76.52, 38.91], [-76.51, 38.9], [-76.49, 38.9], [-76.49, 38.88], [-76.5, 38.88], [-76.51, 38.88], [-76.53, 38.89], [-76.55, 38.88], [-76.53, 38.88], [-76.52, 38.87], [-76.53, 38.86], [-76.54, 38.85], [-76.55, 38.83], [-76.53, 38.83], [-76.53, 38.84], [-76.53, 38.85], [-76.52, 38.85], [-76.5, 38.85], [-76.5, 38.85], [-76.49, 38.84], [-76.5, 38.83], [-76.5, 38.82], [-76.51, 38.8], [-76.52, 38.8], [-76.53, 38.78], [-76.54, 38.78], [-76.56, 38.77], [-76.55, 38.75], [-76.56, 38.74], [-76.55, 38.73], [-76.53, 38.72], [-76.53, 38.71], [-76.53, 38.7], [-76.53, 38.68], [-76.53, 38.65], [-76.52, 38.63], [-76.51, 38.62], [-76.52, 38.59], [-76.52, 38.55], [-76.52, 38.54], [-76.51, 38.5], [-76.49, 38.48], [-76.48, 38.47], [-76.46, 38.45], [-76.45, 38.44], [-76.44, 38.43], [-76.42, 38.42], [-76.4, 38.39], [-76.38, 38.39], [-76.39, 38.37], [-76.39, 38.36], [-76.41, 38.34], [-76.42, 38.32], [-76.37, 38.3], [-76.39, 38.28], [-76.4, 38.26], [-76.4, 38.25], [-76.39, 38.22], [-76.36, 38.19], [-76.36, 38.18], [-76.33, 38.16], [-76.32, 38.14], [-76.34, 38.13], [-76.35, 38.13], [-76.36, 38.12], [-76.36, 38.11], [-76.34, 38.11], [-76.33, 38.1], [-76.33, 38.08], [-76.32, 38.05], [-76.32, 38.04], [-76.25, 37.92], [-76.24, 37.9], [-76.25, 37.9], [-76.24, 37.89], [-76.27, 37.91], [-76.3, 37.93], [-76.34, 37.95], [-76.36, 37.95], [-76.39, 37.96], [-76.41, 37.97], [-76.43, 37.98], [-76.47, 38.01], [-76.48, 38.02], [-76.5, 38.02], [-76.52, 38.03], [-76.52, 38.04], [-76.53, 38.06], [-76.54, 38.07], [-76.55, 38.08], [-76.58, 38.1], [-76.6, 38.11], [-76.6, 38.11], [-76.6, 38.13], [-76.61, 38.15], [-76.7, 38.16], [-76.75, 38.16], [-76.76, 38.17], [-76.8, 38.17], [-76.82, 38.16], [-76.84, 38.16], [-76.86, 38.17], [-76.88, 38.17], [-76.91, 38.2], [-76.94, 38.2], [-76.95, 38.21], [-76.96, 38.23], [-76.96, 38.24], [-76.96, 38.26], [-76.98, 38.27], [-76.99, 38.27], [-77.0, 38.28], [-77.02, 38.3], [-77.03, 38.31], [-77.03, 38.31], [-77.02, 38.33], [-77.02, 38.34], [-77.01, 38.36], [-77.02, 38.37], [-77.01, 38.38], [-77.04, 38.4], [-77.05, 38.4], [-77.07, 38.38], [-77.08, 38.37], [-77.11, 38.37], [-77.12, 38.37], [-77.14, 38.37], [-77.15, 38.35], [-77.16, 38.35], [-77.18, 38.34], [-77.2, 38.34], [-77.24, 38.33], [-77.27, 38.33], [-77.28, 38.34], [-77.29, 38.35], [-77.29, 38.36], [-77.3, 38.38], [-77.32, 38.41], [-77.32, 38.42], [-77.33, 38.44], [-77.32, 38.47], [-77.31, 38.5], [-77.3, 38.5], [-77.29, 38.52], [-77.28, 38.54], [-77.28, 38.55], [-77.26, 38.56], [-77.25, 38.59], [-77.2, 38.62], [-77.19, 38.62], [-77.13, 38.64], [-77.14, 38.65], [-77.13, 38.67], [-77.12, 38.69], [-77.1, 38.7], [-77.09, 38.71], [-77.07, 38.71], [-77.05, 38.71], [-77.04, 38.72], [-77.04, 38.77], [-77.04, 38.8], [-77.04, 38.81], [-77.04, 38.83], [-77.04, 38.84], [-77.03, 38.84], [-77.03, 38.86], [-77.04, 38.87], [-77.05, 38.87], [-77.06, 38.89], [-77.07, 38.9], [-77.09, 38.9], [-77.1, 38.91], [-77.12, 38.93], [-77.13, 38.94], [-77.14, 38.95], [-77.15, 38.96], [-77.18, 38.97], [-77.2, 38.97], [-77.22, 38.97], [-77.24, 38.98], [-77.26, 39.0], [-77.24, 39.02], [-77.25, 39.03], [-77.28, 39.04], [-77.29, 39.05], [-77.31, 39.05], [-77.34, 39.06], [-77.39, 39.06], [-77.43, 39.07], [-77.45, 39.07], [-77.46, 39.08], [-77.48, 39.11], [-77.49, 39.11], [-77.52, 39.12], [-77.52, 39.13], [-77.53, 39.15], [-77.52, 39.17], [-77.51, 39.18], [-77.48, 39.19], [-77.48, 39.19], [-77.47, 39.21], [-77.46, 39.22], [-77.46, 39.23], [-77.47, 39.23], [-77.49, 39.25], [-77.51, 39.25], [-77.54, 39.27], [-77.56, 39.29], [-77.56, 39.3], [-77.57, 39.31], [-77.59, 39.3], [-77.62, 39.3], [-77.65, 39.31], [-77.67, 39.32], [-77.68, 39.32], [-77.7, 39.32], [-77.72, 39.32], [-77.76, 39.33], [-77.76, 39.34], [-77.75, 39.35], [-77.74, 39.37], [-77.75, 39.38], [-77.74, 39.39], [-77.74, 39.4], [-77.75, 39.42], [-77.76, 39.43], [-77.79, 39.43], [-77.8, 39.44], [-77.8, 39.44], [-77.79, 39.45], [-77.8, 39.46], [-77.79, 39.46], [-77.78, 39.46], [-77.8, 39.47], [-77.8, 39.48], [-77.77, 39.49], [-77.77, 39.5], [-77.78, 39.5], [-77.79, 39.49], [-77.8, 39.49], [-77.83, 39.49], [-77.85, 39.5], [-77.85, 39.51], [-77.83, 39.52], [-77.83, 39.53], [-77.84, 39.53], [-77.84, 39.52], [-77.86, 39.51], [-77.87, 39.52], [-77.86, 39.53], [-77.87, 39.54], [-77.89, 39.55], [-77.89, 39.56], [-77.87, 39.56], [-77.84, 39.56], [-77.83, 39.57], [-77.83, 39.59], [-77.83, 39.6], [-77.84, 39.61], [-77.86, 39.61], [-77.87, 39.61], [-77.88, 39.6], [-77.89, 39.6], [-77.92, 39.6], [-77.93, 39.62], [-77.94, 39.59], [-77.95, 39.59], [-77.95, 39.61], [-77.97, 39.61], [-77.98, 39.6], [-78.01, 39.6], [-78.01, 39.6], [-78.04, 39.64], [-78.08, 39.67], [-78.09, 39.67], [-78.11, 39.68], [-78.15, 39.69], [-78.17, 39.7], [-78.18, 39.7], [-78.19, 39.69], [-78.21, 39.68], [-78.23, 39.68], [-78.23, 39.67], [-78.22, 39.66], [-78.25, 39.64], [-78.26, 39.63], [-78.27, 39.62], [-78.29, 39.62], [-78.31, 39.63], [-78.35, 39.64], [-78.36, 39.64], [-78.35, 39.63], [-78.37, 39.63], [-78.38, 39.62], [-78.37, 39.61], [-78.38, 39.61], [-78.4, 39.62], [-78.42, 39.62], [-78.43, 39.62], [-78.43, 39.61], [-78.42, 39.6], [-78.4, 39.59], [-78.4, 39.58], [-78.41, 39.58], [-78.44, 39.59], [-78.46, 39.59], [-78.45, 39.57], [-78.44, 39.56], [-78.43, 39.56], [-78.42, 39.55], [-78.43, 39.55], [-78.44, 39.54], [-78.46, 39.54], [-78.46, 39.52], [-78.47, 39.52], [-78.48, 39.52], [-78.5, 39.52], [-78.52, 39.52], [-78.57, 39.52], [-78.59, 39.53], [-78.6, 39.54], [-78.6, 39.53], [-78.62, 39.54], [-78.66, 39.53], [-78.69, 39.55], [-78.69, 39.55], [-78.71, 39.56], [-78.71, 39.56], [-78.73, 39.56], [-78.73, 39.57], [-78.73, 39.59], [-78.74, 39.58], [-78.76, 39.58], [-78.77, 39.59], [-78.78, 39.6], [-78.76, 39.61], [-78.75, 39.61], [-78.75, 39.61], [-78.73, 39.61], [-78.74, 39.62], [-78.75, 39.63], [-78.76, 39.62], [-78.78, 39.62], [-78.77, 39.64], [-78.8, 39.64], [-78.8, 39.63], [-78.8, 39.61], [-78.81, 39.61], [-78.81, 39.6], [-78.82, 39.59], [-78.83, 39.58], [-78.81, 39.57], [-78.82, 39.56], [-78.84, 39.57], [-78.85, 39.56], [-78.85, 39.55], [-78.88, 39.52], [-78.89, 39.52], [-78.89, 39.51], [-78.9, 39.51], [-78.9, 39.5], [-78.92, 39.49], [-78.93, 39.49], [-78.94, 39.48], [-78.94, 39.47], [-78.95, 39.47], [-78.96, 39.46], [-78.95, 39.45], [-78.96, 39.44], [-78.97, 39.44], [-78.98, 39.45], [-79.01, 39.46], [-79.02, 39.47], [-79.03, 39.47], [-79.04, 39.48], [-79.05, 39.48], [-79.06, 39.47], [-79.07, 39.48], [-79.07, 39.48], [-79.07, 39.47], [-79.08, 39.47], [-79.1, 39.48], [-79.1, 39.46], [-79.1, 39.45], [-79.12, 39.44], [-79.11, 39.43], [-79.12, 39.43], [-79.13, 39.43], [-79.13, 39.42], [-79.15, 39.41], [-79.16, 39.42], [-79.17, 39.4], [-79.16, 39.39], [-79.18, 39.39], [-79.19, 39.39], [-79.2, 39.39], [-79.21, 39.36], [-79.23, 39.36], [-79.25, 39.36], [-79.26, 39.33], [-79.28, 39.32], [-79.28, 39.31], [-79.29, 39.3], [-79.3, 39.3], [-79.32, 39.3], [-79.33, 39.3], [-79.35, 39.28], [-79.38, 39.27], [-79.39, 39.26], [-79.41, 39.24], [-79.43, 39.23], [-79.42, 39.23], [-79.45, 39.21], [-79.46, 39.21], [-79.47, 39.2], [-79.49, 39.21], [-79.49, 39.26], [-79.49, 39.28], [-79.49, 39.34], [-79.48, 39.34], [-79.48, 39.53], [-79.48, 39.53], [-79.48, 39.63], [-79.48, 39.64], [-79.48, 39.72], [-79.31, 39.72], [-79.22, 39.72], [-79.05, 39.72], [-78.93, 39.72], [-78.81, 39.72], [-78.62, 39.72], [-78.54, 39.72], [-78.47, 39.72]]]]}}]}