{"type": "FeatureCollection", "features": [{"type": "Feature", "properties": {"ID": 23, "abbreviation": "MO", "name": "Missouri"}, "geometry": {"type": "Polygon", "coordinates": [[[-91.69, 40.58], [-91.69, 40.58], [-91.69, 40.56], [-91.68, 40.55], [-91.63, 40.54], [-91.62, 40.54], [-91.62, 40.52], [-91.62, 40.5], [-91.59, 40.49], [-91.59, 40.49], [-91.58, 40.47], [-91.57, 40.46], [-91.55, 40.46], [-91.53, 40.46], [-91.52, 40.45], [-91.53, 40.44], [-91.52, 40.43], [-91.53, 40.42], [-91.52, 40.41], [-91.5, 40.4], [-91.49, 40.4], [-91.49, 40.39], [-91.48, 40.38], [-91.46, 40.39], [-91.46, 40.38], [-91.45, 40.38], [-91.44, 40.39], [-91.42, 40.38], [-91.43, 40.37], [-91.44, 40.36], [-91.46, 40.34], [-91.47, 40.32], [-91.49, 40.29], [-91.49, 40.28], [-91.49, 40.26], [-91.51, 40.24], [-91.5, 40.22], [-91.51, 40.22], [-91.5, 40.2], [-91.51, 40.18], [-91.51, 40.16], [-91.51, 40.15], [-91.51, 40.13], [-91.5, 40.07], [-91.49, 40.06], [-91.49, 40.04], [-91.44, 39.95], [-91.42, 39.93], [-91.42, 39.91], [-91.44, 39.89], [-91.45, 39.88], [-91.45, 39.87], [-91.43, 39.84], [-91.4, 39.82], [-91.38, 39.81], [-91.37, 39.8], [-91.36, 39.79], [-91.36, 39.78], [-91.37, 39.76], [-91.37, 39.75], [-91.37, 39.73], [-91.35, 39.71], [-91.32, 39.69], [-91.3, 39.68], [-91.28, 39.67], [-91.26, 39.65], [-91.25, 39.64], [-91.24, 39.63], [-91.22, 39.62], [-91.19, 39.61], [-91.17, 39.59], [-91.17, 39.56], [-91.15, 39.55], [-91.15, 39.55], [-91.1, 39.54], [-91.08, 39.5], [-91.06, 39.49], [-91.06, 39.47], [-91.06, 39.47], [-91.04, 39.45], [-91.02, 39.44], [-90.99, 39.42], [-90.97, 39.41], [-90.95, 39.41], [-90.94, 39.4], [-90.93, 39.39], [-90.92, 39.38], [-90.91, 39.38], [-90.9, 39.37], [-90.85, 39.35], [-90.82, 39.32], [-90.79, 39.31], [-90.79, 39.3], [-90.78, 39.29], [-90.77, 39.28], [-90.75, 39.27], [-90.74, 39.26], [-90.73, 39.25], [-90.72, 39.21], [-90.72, 39.2], [-90.71, 39.17], [-90.71, 39.16], [-90.7, 39.14], [-90.69, 39.12], [-90.68, 39.1], [-90.68, 39.09], [-90.7, 39.07], [-90.7, 39.06], [-90.71, 39.06], [-90.71, 39.05], [-90.68, 38.99], [-90.68, 38.98], [-90.68, 38.96], [-90.66, 38.92], [-90.65, 38.91], [-90.64, 38.91], [-90.63, 38.89], [-90.58, 38.87], [-90.57, 38.87], [-90.55, 38.87], [-90.52, 38.9], [-90.51, 38.9], [-90.49, 38.92], [-90.48, 38.93], [-90.48, 38.95], [-90.47, 38.96], [-90.45, 38.97], [-90.43, 38.96], [-90.41, 38.96], [-90.39, 38.96], [-90.35, 38.94], [-90.33, 38.93], [-90.31, 38.92], [-90.28, 38.92], [-90.25, 38.92], [-90.22, 38.91], [-90.2, 38.89], [-90.17, 38.88], [-90.15, 38.87], [-90.11, 38.85], [-90.11, 38.84], [-90.12, 38.81], [-90.12, 38.8], [-90.15, 38.78], [-90.17, 38.77], [-90.18, 38.75], [-90.21, 38.73], [-90.21, 38.73], [-90.21, 38.71], [-90.21, 38.7], [-90.2, 38.69], [-90.19, 38.67], [-90.18, 38.66], [-90.18, 38.64], [-90.18, 38.63], [-90.18, 38.61], [-90.19, 38.6], [-90.2, 38.59], [-90.22, 38.58], [-90.25, 38.55], [-90.26, 38.52], [-90.28, 38.47], [-90.29, 38.44], [-90.3, 38.43], [-90.32, 38.4], [-90.34, 38.39], [-90.35, 38.38], [-90.36, 38.36], [-90.37, 38.34], [-90.37, 38.32], [-90.37, 38.3], [-90.37, 38.28], [-90.36, 38.24], [-90.35, 38.21], [-90.33, 38.19], [-90.32, 38.18], [-90.29, 38.17], [-90.27, 38.16], [-90.25, 38.13], [-90.24, 38.11], [-90.22, 38.09], [-90.17, 38.07], [-90.15, 38.07], [-90.13, 38.06], [-90.13, 38.04], [-90.11, 38.03], [-90.09, 38.02], [-90.08, 38.02], [-90.07, 38.02], [-90.06, 38.01], [-90.05, 38.0], [-90.03, 38.0], [-90.01, 37.97], [-90.0, 37.96], [-89.98, 37.96], [-89.94, 37.97], [-89.93, 37.96], [-89.92, 37.96], [-89.93, 37.95], [-89.95, 37.94], [-89.96, 37.94], [-89.96, 37.93], [-89.97, 37.93], [-89.97, 37.92], [-89.95, 37.88], [-89.94, 37.87], [-89.92, 37.87], [-89.9, 37.87], [-89.88, 37.88], [-89.86, 37.9], [-89.84, 37.91], [-89.8, 37.88], [-89.8, 37.86], [-89.79, 37.85], [-89.78, 37.86], [-89.77, 37.85], [-89.75, 37.85], [-89.74, 37.85], [-89.73, 37.83], [-89.7, 37.82], [-89.67, 37.8], [-89.66, 37.79], [-89.66, 37.78], [-89.67, 37.76], [-89.67, 37.75], [-89.65, 37.75], [-89.63, 37.75], [-89.62, 37.75], [-89.62, 37.74], [-89.6, 37.73], [-89.59, 37.72], [-89.57, 37.71], [-89.53, 37.7], [-89.51, 37.69], [-89.52, 37.67], [-89.52, 37.64], [-89.51, 37.63], [-89.49, 37.61], [-89.48, 37.6], [-89.48, 37.59], [-89.48, 37.58], [-89.49, 37.58], [-89.51, 37.58], [-89.52, 37.58], [-89.52, 37.56], [-89.52, 37.54], [-89.5, 37.51], [-89.49, 37.49], [-89.47, 37.47], [-89.45, 37.45], [-89.44, 37.44], [-89.42, 37.4], [-89.42, 37.39], [-89.43, 37.36], [-89.44, 37.34], [-89.45, 37.34], [-89.47, 37.34], [-89.49, 37.33], [-89.5, 37.32], [-89.51, 37.31], [-89.52, 37.29], [-89.52, 37.28], [-89.5, 37.26], [-89.49, 37.25], [-89.47, 37.25], [-89.46, 37.25], [-89.46, 37.24], [-89.47, 37.22], [-89.46, 37.2], [-89.46, 37.19], [-89.44, 37.16], [-89.44, 37.15], [-89.43, 37.14], [-89.41, 37.12], [-89.39, 37.11], [-89.38, 37.09], [-89.38, 37.08], [-89.39, 37.06], [-89.38, 37.05], [-89.38, 37.04], [-89.36, 37.03], [-89.33, 37.02], [-89.32, 37.01], [-89.29, 36.99], [-89.28, 36.99], [-89.27, 37.0], [-89.26, 37.02], [-89.26, 37.02], [-89.28, 37.04], [-89.3, 37.04], [-89.31, 37.06], [-89.31, 37.07], [-89.28, 37.07], [-89.26, 37.06], [-89.25, 37.07], [-89.24, 37.04], [-89.23, 37.03], [-89.2, 37.02], [-89.2, 37.0], [-89.19, 36.98], [-89.19, 36.97], [-89.17, 36.97], [-89.13, 36.98], [-89.12, 36.98], [-89.11, 36.98], [-89.1, 36.96], [-89.1, 36.94], [-89.11, 36.92], [-89.12, 36.89], [-89.14, 36.85], [-89.15, 36.85], [-89.17, 36.84], [-89.18, 36.83], [-89.18, 36.81], [-89.17, 36.8], [-89.16, 36.79], [-89.13, 36.79], [-89.12, 36.79], [-89.12, 36.78], [-89.12, 36.76], [-89.13, 36.75], [-89.17, 36.76], [-89.18, 36.75], [-89.2, 36.74], [-89.2, 36.73], [-89.2, 36.72], [-89.17, 36.69], [-89.17, 36.67], [-89.16, 36.67], [-89.17, 36.65], [-89.19, 36.64], [-89.2, 36.63], [-89.2, 36.6], [-89.21, 36.58], [-89.23, 36.57], [-89.26, 36.56], [-89.28, 36.57], [-89.29, 36.59], [-89.31, 36.62], [-89.33, 36.63], [-89.33, 36.63], [-89.36, 36.63], [-89.38, 36.62], [-89.38, 36.58], [-89.4, 36.56], [-89.4, 36.54], [-89.42, 36.5], [-89.43, 36.48], [-89.45, 36.46], [-89.46, 36.46], [-89.48, 36.46], [-89.49, 36.47], [-89.49, 36.48], [-89.49, 36.5], [-89.47, 36.52], [-89.47, 36.54], [-89.47, 36.56], [-89.48, 36.57], [-89.5, 36.58], [-89.53, 36.58], [-89.54, 36.58], [-89.55, 36.58], [-89.57, 36.56], [-89.57, 36.55], [-89.56, 36.52], [-89.54, 36.5], [-89.52, 36.48], [-89.52, 36.47], [-89.53, 36.45], [-89.54, 36.44], [-89.55, 36.43], [-89.54, 36.42], [-89.51, 36.38], [-89.51, 36.37], [-89.52, 36.35], [-89.53, 36.34], [-89.55, 36.34], [-89.56, 36.34], [-89.58, 36.34], [-89.6, 36.34], [-89.61, 36.34], [-89.62, 36.33], [-89.62, 36.32], [-89.61, 36.31], [-89.58, 36.29], [-89.58, 36.29], [-89.56, 36.28], [-89.54, 36.28], [-89.54, 36.27], [-89.53, 36.25], [-89.55, 36.25], [-89.56, 36.25], [-89.57, 36.24], [-89.59, 36.24], [-89.61, 36.24], [-89.64, 36.25], [-89.65, 36.25], [-89.68, 36.25], [-89.7, 36.25], [-89.71, 36.24], [-89.69, 36.22], [-89.65, 36.2], [-89.64, 36.19], [-89.62, 36.18], [-89.61, 36.17], [-89.59, 36.15], [-89.59, 36.13], [-89.6, 36.12], [-89.63, 36.11], [-89.67, 36.1], [-89.68, 36.08], [-89.69, 36.03], [-89.69, 36.02], [-89.71, 36.0], [-89.73, 36.0], [-89.77, 36.0], [-89.96, 36.0], [-90.0, 36.0], [-90.16, 36.0], [-90.38, 36.0], [-90.37, 36.01], [-90.35, 36.03], [-90.35, 36.04], [-90.34, 36.05], [-90.33, 36.07], [-90.32, 36.08], [-90.32, 36.09], [-90.31, 36.09], [-90.3, 36.1], [-90.29, 36.11], [-90.27, 36.12], [-90.26, 36.13], [-90.25, 36.13], [-90.24, 36.14], [-90.23, 36.15], [-90.24, 36.16], [-90.23, 36.17], [-90.22, 36.18], [-90.2, 36.19], [-90.2, 36.2], [-90.2, 36.2], [-90.16, 36.22], [-90.16, 36.21], [-90.14, 36.23], [-90.13, 36.23], [-90.13, 36.24], [-90.12, 36.25], [-90.11, 36.27], [-90.08, 36.27], [-90.08, 36.28], [-90.08, 36.29], [-90.06, 36.3], [-90.07, 36.31], [-90.08, 36.32], [-90.07, 36.34], [-90.08, 36.35], [-90.07, 36.36], [-90.06, 36.38], [-90.07, 36.39], [-90.08, 36.4], [-90.09, 36.4], [-90.1, 36.4], [-90.11, 36.41], [-90.13, 36.41], [-90.13, 36.42], [-90.14, 36.42], [-90.14, 36.43], [-90.13, 36.44], [-90.14, 36.45], [-90.13, 36.45], [-90.15, 36.47], [-90.14, 36.48], [-90.16, 36.48], [-90.15, 36.49], [-90.15, 36.5], [-90.22, 36.5], [-90.48, 36.5], [-90.58, 36.5], [-90.76, 36.5], [-90.85, 36.5], [-91.16, 36.5], [-91.23, 36.5], [-91.41, 36.5], [-91.53, 36.5], [-91.67, 36.5], [-91.84, 36.5], [-91.97, 36.5], [-92.12, 36.5], [-92.32, 36.5], [-92.38, 36.5], [-92.46, 36.5], [-92.64, 36.5], [-92.83, 36.5], [-92.85, 36.5], [-92.89, 36.5], [-93.07, 36.5], [-93.24, 36.5], [-93.25, 36.5], [-93.36, 36.5], [-93.43, 36.5], [-93.66, 36.5], [-93.72, 36.5], [-93.87, 36.5], [-94.0, 36.5], [-94.16, 36.5], [-94.31, 36.5], [-94.5, 36.5], [-94.56, 36.5], [-94.62, 36.5], [-94.62, 36.65], [-94.62, 36.82], [-94.62, 36.93], [-94.62, 37.0], [-94.62, 37.19], [-94.62, 37.31], [-94.62, 37.48], [-94.62, 37.5], [-94.62, 37.65], [-94.62, 37.72], [-94.62, 37.79], [-94.61, 37.94], [-94.61, 38.04], [-94.61, 38.14], [-94.61, 38.22], [-94.61, 38.31], [-94.61, 38.36], [-94.61, 38.46], [-94.61, 38.5], [-94.61, 38.61], [-94.61, 38.74], [-94.61, 38.85], [-94.61, 38.96], [-94.61, 39.04], [-94.61, 39.12], [-94.59, 39.13], [-94.59, 39.15], [-94.6, 39.16], [-94.61, 39.16], [-94.65, 39.15], [-94.66, 39.16], [-94.66, 39.16], [-94.66, 39.18], [-94.67, 39.18], [-94.69, 39.18], [-94.7, 39.17], [-94.72, 39.17], [-94.74, 39.17], [-94.75, 39.17], [-94.77, 39.18], [-94.78, 39.2], [-94.79, 39.21], [-94.81, 39.21], [-94.82, 39.21], [-94.83, 39.22], [-94.83, 39.24], [-94.83, 39.26], [-94.85, 39.27], [-94.88, 39.28], [-94.9, 39.3], [-94.9, 39.31], [-94.91, 39.32], [-94.91, 39.35], [-94.91, 39.35], [-94.9, 39.36], [-94.88, 39.37], [-94.88, 39.38], [-94.89, 39.39], [-94.9, 39.39], [-94.92, 39.39], [-94.93, 39.38], [-94.94, 39.39], [-94.95, 39.41], [-94.96, 39.42], [-94.98, 39.43], [-94.98, 39.44], [-94.99, 39.45], [-95.02, 39.45], [-95.04, 39.47], [-95.05, 39.48], [-95.05, 39.5], [-95.06, 39.51], [-95.08, 39.51], [-95.09, 39.52], [-95.11, 39.54], [-95.11, 39.55], [-95.11, 39.57], [-95.09, 39.58], [-95.07, 39.58], [-95.06, 39.58], [-95.05, 39.6], [-95.05, 39.61], [-95.06, 39.62], [-95.05, 39.64], [-95.02, 39.67], [-95.02, 39.67], [-94.99, 39.68], [-94.98, 39.68], [-94.97, 39.69], [-94.97, 39.71], [-94.97, 39.73], [-94.97, 39.74], [-94.96, 39.75], [-94.94, 39.74], [-94.92, 39.73], [-94.9, 39.72], [-94.89, 39.72], [-94.88, 39.73], [-94.86, 39.74], [-94.86, 39.76], [-94.87, 39.77], [-94.88, 39.77], [-94.9, 39.76], [-94.91, 39.76], [-94.93, 39.77], [-94.93, 39.78], [-94.92, 39.79], [-94.89, 39.79], [-94.88, 39.8], [-94.88, 39.81], [-94.88, 39.82], [-94.89, 39.83], [-94.91, 39.83], [-94.92, 39.84], [-94.94, 39.85], [-94.94, 39.86], [-94.93, 39.87], [-94.93, 39.89], [-94.93, 39.89], [-94.95, 39.9], [-94.98, 39.9], [-95.0, 39.9], [-95.02, 39.9], [-95.03, 39.89], [-95.03, 39.87], [-95.04, 39.87], [-95.09, 39.86], [-95.11, 39.87], [-95.13, 39.87], [-95.14, 39.88], [-95.15, 39.9], [-95.16, 39.91], [-95.18, 39.9], [-95.19, 39.9], [-95.2, 39.9], [-95.21, 39.92], [-95.2, 39.93], [-95.2, 39.94], [-95.22, 39.94], [-95.24, 39.94], [-95.25, 39.95], [-95.27, 39.97], [-95.29, 39.98], [-95.31, 39.99], [-95.31, 40.0], [-95.31, 40.01], [-95.34, 40.02], [-95.35, 40.03], [-95.36, 40.03], [-95.39, 40.03], [-95.41, 40.03], [-95.42, 40.05], [-95.42, 40.06], [-95.4, 40.07], [-95.39, 40.08], [-95.4, 40.09], [-95.4, 40.1], [-95.4, 40.1], [-95.39, 40.11], [-95.4, 40.12], [-95.41, 40.13], [-95.42, 40.13], [-95.43, 40.14], [-95.43, 40.15], [-95.44, 40.16], [-95.46, 40.17], [-95.48, 40.18], [-95.48, 40.19], [-95.48, 40.2], [-95.47, 40.22], [-95.47, 40.24], [-95.49, 40.25], [-95.52, 40.25], [-95.55, 40.26], [-95.56, 40.27], [-95.55, 40.28], [-95.55, 40.29], [-95.57, 40.3], [-95.58, 40.3], [-95.6, 40.31], [-95.62, 40.31], [-95.65, 40.31], [-95.66, 40.31], [-95.65, 40.32], [-95.63, 40.33], [-95.62, 40.34], [-95.63, 40.36], [-95.64, 40.37], [-95.64, 40.39], [-95.66, 40.41], [-95.66, 40.42], [-95.64, 40.43], [-95.65, 40.44], [-95.64, 40.46], [-95.66, 40.46], [-95.67, 40.46], [-95.69, 40.47], [-95.7, 40.48], [-95.68, 40.49], [-95.69, 40.5], [-95.7, 40.51], [-95.66, 40.52], [-95.66, 40.52], [-95.65, 40.54], [-95.67, 40.56], [-95.69, 40.56], [-95.7, 40.53], [-95.71, 40.52], [-95.72, 40.53], [-95.74, 40.52], [-95.76, 40.53], [-95.77, 40.54], [-95.76, 40.55], [-95.77, 40.57], [-95.77, 40.58], [-95.77, 40.59], [-95.61, 40.58], [-95.49, 40.58], [-95.32, 40.58], [-95.23, 40.58], [-94.99, 40.58], [-94.97, 40.58], [-94.8, 40.57], [-94.65, 40.57], [-94.54, 40.57], [-94.47, 40.57], [-94.35, 40.57], [-94.21, 40.57], [-94.07, 40.57], [-93.82, 40.58], [-93.72, 40.58], [-93.64, 40.58], [-93.55, 40.58], [-93.42, 40.58], [-93.26, 40.58], [-93.14, 40.58], [-93.04, 40.59], [-92.92, 40.59], [-92.78, 40.59], [-92.71, 40.59], [-92.64, 40.59], [-92.59, 40.59], [-92.48, 40.6], [-92.43, 40.6], [-92.3, 40.6], [-92.16, 40.6], [-91.95, 40.61], [-91.87, 40.61], [-91.82, 40.61], [-91.73, 40.61], [-91.71, 40.6], [-91.69, 40.58]]]}}]}