{"type": "FeatureCollection", "features": [{"type": "Feature", "properties": {"ID": 22, "abbreviation": "MS", "name": "Mississippi"}, "geometry": {"type": "MultiPolygon", "coordinates": [[[[-88.57, 30.34], [-88.57, 30.33], [-88.58, 30.33], [-88.58, 30.34], [-88.57, 30.34]]], [[[-88.49, 35.0], [-88.38, 35.0], [-88.2, 35.0], [-88.19, 34.97], [-88.17, 34.96], [-88.15, 34.92], [-88.14, 34.91], [-88.1, 34.89], [-88.11, 34.81], [-88.12, 34.75], [-88.12, 34.72], [-88.13, 34.63], [-88.15, 34.5], [-88.16, 34.46], [-88.17, 34.38], [-88.17, 34.32], [-88.19, 34.22], [-88.19, 34.2], [-88.19, 34.18], [-88.2, 34.09], [-88.21, 34.03], [-88.22, 33.94], [-88.23, 33.87], [-88.25, 33.72], [-88.27, 33.59], [-88.28, 33.5], [-88.29, 33.37], [-88.32, 33.18], [-88.33, 33.07], [-88.34, 32.99], [-88.35, 32.88], [-88.37, 32.75], [-88.39, 32.58], [-88.41, 32.38], [-88.42, 32.31], [-88.43, 32.25], [-88.45, 32.12], [-88.47, 31.95], [-88.47, 31.89], [-88.46, 31.71], [-88.46, 31.62], [-88.45, 31.49], [-88.45, 31.37], [-88.44, 31.28], [-88.43, 31.15], [-88.43, 31.11], [-88.43, 31.0], [-88.42, 30.88], [-88.41, 30.72], [-88.41, 30.61], [-88.4, 30.53], [-88.4, 30.39], [-88.41, 30.38], [-88.41, 30.37], [-88.4, 30.37], [-88.39, 30.35], [-88.41, 30.34], [-88.42, 30.35], [-88.44, 30.35], [-88.45, 30.34], [-88.46, 30.33], [-88.48, 30.32], [-88.5, 30.32], [-88.52, 30.34], [-88.54, 30.34], [-88.57, 30.34], [-88.58, 30.35], [-88.59, 30.36], [-88.58, 30.37], [-88.61, 30.38], [-88.63, 30.37], [-88.64, 30.36], [-88.67, 30.36], [-88.68, 30.36], [-88.7, 30.34], [-88.72, 30.34], [-88.74, 30.35], [-88.77, 30.37], [-88.81, 30.39], [-88.81, 30.39], [-88.82, 30.4], [-88.84, 30.41], [-88.84, 30.42], [-88.84, 30.42], [-88.85, 30.43], [-88.86, 30.43], [-88.87, 30.42], [-88.87, 30.41], [-88.86, 30.41], [-88.86, 30.39], [-88.88, 30.39], [-88.92, 30.39], [-88.97, 30.39], [-89.0, 30.39], [-89.06, 30.37], [-89.08, 30.37], [-89.12, 30.35], [-89.14, 30.35], [-89.18, 30.33], [-89.22, 30.32], [-89.27, 30.31], [-89.29, 30.3], [-89.29, 30.31], [-89.29, 30.32], [-89.29, 30.32], [-89.29, 30.33], [-89.27, 30.33], [-89.27, 30.34], [-89.29, 30.35], [-89.28, 30.36], [-89.3, 30.37], [-89.32, 30.38], [-89.34, 30.37], [-89.35, 30.37], [-89.36, 30.36], [-89.37, 30.35], [-89.36, 30.34], [-89.35, 30.34], [-89.33, 30.34], [-89.32, 30.31], [-89.33, 30.3], [-89.34, 30.29], [-89.37, 30.28], [-89.38, 30.27], [-89.4, 30.26], [-89.42, 30.25], [-89.42, 30.24], [-89.42, 30.23], [-89.43, 30.22], [-89.45, 30.2], [-89.45, 30.19], [-89.46, 30.17], [-89.46, 30.19], [-89.47, 30.19], [-89.48, 30.19], [-89.5, 30.18], [-89.51, 30.18], [-89.52, 30.18], [-89.53, 30.2], [-89.54, 30.2], [-89.56, 30.19], [-89.57, 30.18], [-89.58, 30.19], [-89.6, 30.21], [-89.61, 30.22], [-89.62, 30.23], [-89.62, 30.25], [-89.63, 30.26], [-89.63, 30.27], [-89.63, 30.27], [-89.63, 30.28], [-89.65, 30.29], [-89.64, 30.3], [-89.64, 30.31], [-89.63, 30.31], [-89.63, 30.33], [-89.63, 30.34], [-89.63, 30.34], [-89.66, 30.36], [-89.66, 30.37], [-89.67, 30.38], [-89.67, 30.39], [-89.68, 30.41], [-89.68, 30.41], [-89.68, 30.45], [-89.69, 30.46], [-89.7, 30.47], [-89.71, 30.48], [-89.72, 30.48], [-89.72, 30.49], [-89.74, 30.5], [-89.75, 30.5], [-89.76, 30.51], [-89.77, 30.51], [-89.77, 30.53], [-89.78, 30.53], [-89.78, 30.54], [-89.79, 30.54], [-89.79, 30.56], [-89.79, 30.57], [-89.81, 30.57], [-89.81, 30.57], [-89.82, 30.59], [-89.82, 30.61], [-89.82, 30.63], [-89.82, 30.64], [-89.83, 30.65], [-89.83, 30.66], [-89.84, 30.66], [-89.84, 30.68], [-89.84, 30.69], [-89.84, 30.72], [-89.83, 30.72], [-89.84, 30.73], [-89.82, 30.74], [-89.83, 30.75], [-89.83, 30.76], [-89.83, 30.77], [-89.82, 30.78], [-89.82, 30.79], [-89.8, 30.8], [-89.8, 30.81], [-89.8, 30.82], [-89.79, 30.82], [-89.79, 30.83], [-89.78, 30.85], [-89.77, 30.86], [-89.77, 30.87], [-89.78, 30.87], [-89.77, 30.9], [-89.76, 30.9], [-89.76, 30.9], [-89.76, 30.91], [-89.75, 30.91], [-89.74, 30.92], [-89.75, 30.93], [-89.75, 30.93], [-89.76, 30.94], [-89.74, 30.97], [-89.73, 30.97], [-89.73, 30.98], [-89.73, 31.0], [-89.75, 31.0], [-89.86, 31.0], [-89.92, 31.0], [-90.21, 31.0], [-90.37, 31.0], [-90.45, 31.0], [-90.55, 31.0], [-90.73, 31.0], [-90.87, 31.0], [-90.88, 31.0], [-91.0, 31.0], [-91.1, 31.0], [-91.25, 31.0], [-91.38, 31.0], [-91.5, 31.0], [-91.64, 31.0], [-91.63, 31.01], [-91.59, 31.02], [-91.58, 31.02], [-91.56, 31.04], [-91.56, 31.05], [-91.56, 31.07], [-91.59, 31.09], [-91.61, 31.1], [-91.63, 31.12], [-91.62, 31.13], [-91.6, 31.16], [-91.59, 31.18], [-91.59, 31.19], [-91.6, 31.2], [-91.61, 31.21], [-91.63, 31.23], [-91.64, 31.23], [-91.65, 31.24], [-91.65, 31.26], [-91.64, 31.27], [-91.62, 31.27], [-91.57, 31.26], [-91.56, 31.26], [-91.53, 31.27], [-91.52, 31.28], [-91.51, 31.29], [-91.51, 31.31], [-91.51, 31.32], [-91.53, 31.33], [-91.53, 31.34], [-91.55, 31.35], [-91.55, 31.36], [-91.55, 31.38], [-91.56, 31.39], [-91.57, 31.38], [-91.58, 31.4], [-91.58, 31.41], [-91.57, 31.42], [-91.55, 31.43], [-91.54, 31.42], [-91.54, 31.41], [-91.53, 31.39], [-91.52, 31.37], [-91.5, 31.36], [-91.48, 31.36], [-91.47, 31.38], [-91.47, 31.38], [-91.47, 31.4], [-91.48, 31.41], [-91.5, 31.43], [-91.51, 31.44], [-91.52, 31.45], [-91.52, 31.48], [-91.51, 31.51], [-91.52, 31.52], [-91.51, 31.53], [-91.49, 31.53], [-91.48, 31.53], [-91.44, 31.54], [-91.41, 31.56], [-91.41, 31.57], [-91.4, 31.59], [-91.42, 31.6], [-91.44, 31.59], [-91.46, 31.59], [-91.49, 31.59], [-91.5, 31.6], [-91.52, 31.61], [-91.52, 31.63], [-91.51, 31.63], [-91.5, 31.65], [-91.49, 31.64], [-91.48, 31.63], [-91.46, 31.62], [-91.44, 31.61], [-91.42, 31.61], [-91.4, 31.62], [-91.4, 31.64], [-91.4, 31.69], [-91.4, 31.71], [-91.38, 31.73], [-91.37, 31.75], [-91.35, 31.75], [-91.32, 31.75], [-91.29, 31.75], [-91.28, 31.74], [-91.27, 31.75], [-91.26, 31.76], [-91.26, 31.77], [-91.27, 31.77], [-91.29, 31.77], [-91.3, 31.77], [-91.35, 31.76], [-91.37, 31.76], [-91.36, 31.78], [-91.35, 31.84], [-91.34, 31.85], [-91.33, 31.85], [-91.31, 31.86], [-91.29, 31.86], [-91.29, 31.85], [-91.29, 31.83], [-91.28, 31.82], [-91.27, 31.81], [-91.26, 31.81], [-91.25, 31.81], [-91.25, 31.82], [-91.25, 31.83], [-91.27, 31.85], [-91.27, 31.86], [-91.25, 31.87], [-91.23, 31.88], [-91.2, 31.91], [-91.19, 31.91], [-91.18, 31.92], [-91.18, 31.92], [-91.18, 31.93], [-91.19, 31.94], [-91.19, 31.96], [-91.18, 31.97], [-91.16, 31.98], [-91.12, 31.99], [-91.11, 31.99], [-91.09, 32.0], [-91.08, 32.02], [-91.08, 32.03], [-91.09, 32.04], [-91.14, 32.05], [-91.16, 32.05], [-91.16, 32.07], [-91.15, 32.08], [-91.14, 32.08], [-91.13, 32.08], [-91.11, 32.06], [-91.1, 32.05], [-91.08, 32.05], [-91.08, 32.05], [-91.08, 32.08], [-91.08, 32.08], [-91.04, 32.1], [-91.03, 32.11], [-91.03, 32.12], [-91.02, 32.12], [-91.01, 32.13], [-91.01, 32.14], [-91.0, 32.16], [-91.02, 32.16], [-91.04, 32.17], [-91.06, 32.18], [-91.06, 32.17], [-91.05, 32.16], [-91.05, 32.13], [-91.08, 32.13], [-91.1, 32.13], [-91.11, 32.12], [-91.13, 32.13], [-91.14, 32.13], [-91.16, 32.13], [-91.17, 32.15], [-91.17, 32.16], [-91.17, 32.18], [-91.16, 32.2], [-91.16, 32.2], [-91.13, 32.21], [-91.12, 32.21], [-91.11, 32.21], [-91.1, 32.22], [-91.08, 32.23], [-91.07, 32.23], [-91.06, 32.22], [-91.05, 32.23], [-91.05, 32.24], [-91.03, 32.24], [-91.02, 32.24], [-91.0, 32.22], [-91.01, 32.21], [-91.0, 32.2], [-90.99, 32.19], [-90.98, 32.21], [-90.98, 32.23], [-90.98, 32.24], [-90.97, 32.25], [-90.98, 32.27], [-90.98, 32.28], [-90.98, 32.3], [-90.96, 32.3], [-90.96, 32.29], [-90.95, 32.28], [-90.93, 32.29], [-90.92, 32.3], [-90.91, 32.32], [-90.9, 32.33], [-90.89, 32.35], [-90.88, 32.37], [-90.88, 32.37], [-90.89, 32.37], [-90.9, 32.35], [-90.91, 32.34], [-90.93, 32.34], [-90.95, 32.35], [-90.99, 32.35], [-91.0, 32.36], [-91.0, 32.37], [-91.0, 32.39], [-90.99, 32.4], [-90.98, 32.41], [-90.97, 32.42], [-90.97, 32.44], [-90.98, 32.45], [-90.99, 32.45], [-91.03, 32.43], [-91.05, 32.44], [-91.08, 32.45], [-91.09, 32.46], [-91.11, 32.48], [-91.12, 32.48], [-91.12, 32.5], [-91.1, 32.53], [-91.1, 32.54], [-91.09, 32.55], [-91.08, 32.53], [-91.05, 32.5], [-91.04, 32.49], [-91.02, 32.49], [-91.0, 32.48], [-90.99, 32.49], [-90.99, 32.5], [-90.99, 32.51], [-91.02, 32.52], [-91.05, 32.53], [-91.08, 32.55], [-91.08, 32.56], [-91.04, 32.58], [-91.03, 32.58], [-91.01, 32.6], [-91.0, 32.61], [-91.0, 32.62], [-91.01, 32.64], [-91.03, 32.65], [-91.04, 32.63], [-91.05, 32.61], [-91.08, 32.6], [-91.11, 32.59], [-91.13, 32.59], [-91.14, 32.6], [-91.15, 32.62], [-91.15, 32.63], [-91.15, 32.64], [-91.14, 32.65], [-91.13, 32.67], [-91.12, 32.67], [-91.1, 32.69], [-91.08, 32.69], [-91.06, 32.7], [-91.06, 32.71], [-91.05, 32.72], [-91.06, 32.73], [-91.09, 32.74], [-91.13, 32.74], [-91.15, 32.74], [-91.16, 32.75], [-91.17, 32.76], [-91.16, 32.78], [-91.16, 32.79], [-91.16, 32.8], [-91.16, 32.81], [-91.16, 32.82], [-91.15, 32.83], [-91.14, 32.84], [-91.13, 32.86], [-91.11, 32.86], [-91.09, 32.87], [-91.07, 32.89], [-91.06, 32.9], [-91.06, 32.93], [-91.07, 32.94], [-91.08, 32.94], [-91.08, 32.96], [-91.09, 32.98], [-91.1, 32.99], [-91.11, 32.99], [-91.14, 32.98], [-91.14, 32.97], [-91.13, 32.96], [-91.14, 32.95], [-91.13, 32.93], [-91.14, 32.92], [-91.15, 32.91], [-91.16, 32.9], [-91.18, 32.9], [-91.2, 32.91], [-91.21, 32.92], [-91.21, 32.94], [-91.2, 32.95], [-91.2, 32.96], [-91.19, 32.97], [-91.17, 32.99], [-91.17, 33.0], [-91.16, 33.02], [-91.15, 33.03], [-91.13, 33.03], [-91.12, 33.05], [-91.12, 33.06], [-91.15, 33.08], [-91.17, 33.09], [-91.18, 33.1], [-91.2, 33.11], [-91.2, 33.13], [-91.2, 33.13], [-91.18, 33.14], [-91.16, 33.14], [-91.15, 33.13], [-91.13, 33.13], [-91.1, 33.13], [-91.09, 33.14], [-91.09, 33.15], [-91.09, 33.16], [-91.08, 33.18], [-91.09, 33.22], [-91.08, 33.22], [-91.07, 33.23], [-91.05, 33.25], [-91.04, 33.27], [-91.05, 33.28], [-91.06, 33.29], [-91.08, 33.28], [-91.08, 33.28], [-91.09, 33.26], [-91.1, 33.24], [-91.11, 33.25], [-91.12, 33.26], [-91.13, 33.27], [-91.13, 33.28], [-91.14, 33.3], [-91.14, 33.33], [-91.14, 33.34], [-91.14, 33.35], [-91.12, 33.36], [-91.11, 33.38], [-91.1, 33.39], [-91.08, 33.41], [-91.06, 33.43], [-91.06, 33.45], [-91.07, 33.46], [-91.08, 33.46], [-91.09, 33.45], [-91.09, 33.44], [-91.1, 33.43], [-91.09, 33.42], [-91.1, 33.41], [-91.11, 33.4], [-91.12, 33.39], [-91.14, 33.38], [-91.17, 33.38], [-91.19, 33.39], [-91.21, 33.4], [-91.2, 33.42], [-91.18, 33.42], [-91.15, 33.43], [-91.13, 33.43], [-91.12, 33.44], [-91.12, 33.45], [-91.13, 33.47], [-91.14, 33.48], [-91.16, 33.5], [-91.17, 33.5], [-91.18, 33.48], [-91.18, 33.47], [-91.17, 33.45], [-91.18, 33.44], [-91.2, 33.43], [-91.22, 33.43], [-91.24, 33.44], [-91.23, 33.46], [-91.21, 33.47], [-91.2, 33.49], [-91.18, 33.5], [-91.19, 33.51], [-91.22, 33.53], [-91.23, 33.54], [-91.23, 33.55], [-91.23, 33.56], [-91.22, 33.57], [-91.2, 33.57], [-91.18, 33.58], [-91.15, 33.58], [-91.14, 33.59], [-91.13, 33.61], [-91.14, 33.63], [-91.17, 33.65], [-91.18, 33.65], [-91.21, 33.66], [-91.22, 33.66], [-91.23, 33.67], [-91.23, 33.68], [-91.22, 33.69], [-91.21, 33.7], [-91.18, 33.7], [-91.16, 33.71], [-91.13, 33.68], [-91.1, 33.66], [-91.09, 33.66], [-91.08, 33.66], [-91.06, 33.67], [-91.03, 33.67], [-91.03, 33.69], [-91.04, 33.69], [-91.05, 33.71], [-91.06, 33.71], [-91.07, 33.72], [-91.09, 33.71], [-91.1, 33.71], [-91.12, 33.71], [-91.13, 33.71], [-91.14, 33.72], [-91.15, 33.73], [-91.14, 33.76], [-91.15, 33.77], [-91.13, 33.78], [-91.12, 33.78], [-91.11, 33.77], [-91.09, 33.78], [-91.05, 33.78], [-91.03, 33.76], [-91.01, 33.76], [-91.0, 33.77], [-90.99, 33.78], [-90.99, 33.78], [-90.99, 33.79], [-91.0, 33.8], [-91.02, 33.8], [-91.05, 33.82], [-91.07, 33.84], [-91.07, 33.86], [-91.07, 33.87], [-91.06, 33.88], [-91.03, 33.91], [-91.01, 33.92], [-91.01, 33.93], [-91.02, 33.94], [-91.05, 33.95], [-91.08, 33.95], [-91.09, 33.96], [-91.09, 33.98], [-91.07, 33.98], [-91.05, 33.99], [-91.02, 34.0], [-91.0, 33.97], [-90.98, 33.96], [-90.97, 33.96], [-90.96, 33.98], [-90.97, 33.99], [-90.98, 34.0], [-90.99, 34.02], [-90.97, 34.02], [-90.95, 34.02], [-90.93, 34.02], [-90.92, 34.02], [-90.91, 34.02], [-90.9, 34.02], [-90.89, 34.03], [-90.89, 34.05], [-90.89, 34.06], [-90.87, 34.07], [-90.87, 34.08], [-90.88, 34.1], [-90.89, 34.1], [-90.91, 34.09], [-90.92, 34.09], [-90.94, 34.11], [-90.96, 34.12], [-90.96, 34.13], [-90.95, 34.14], [-90.91, 34.17], [-90.89, 34.16], [-90.87, 34.14], [-90.85, 34.14], [-90.84, 34.14], [-90.82, 34.14], [-90.81, 34.16], [-90.81, 34.16], [-90.81, 34.18], [-90.82, 34.18], [-90.84, 34.18], [-90.85, 34.19], [-90.89, 34.18], [-90.92, 34.2], [-90.94, 34.22], [-90.94, 34.24], [-90.92, 34.25], [-90.91, 34.24], [-90.9, 34.23], [-90.88, 34.22], [-90.86, 34.21], [-90.85, 34.21], [-90.84, 34.23], [-90.84, 34.24], [-90.83, 34.26], [-90.82, 34.28], [-90.8, 34.28], [-90.77, 34.28], [-90.75, 34.29], [-90.74, 34.31], [-90.74, 34.31], [-90.75, 34.33], [-90.77, 34.34], [-90.77, 34.36], [-90.76, 34.37], [-90.74, 34.37], [-90.73, 34.36], [-90.71, 34.36], [-90.68, 34.37], [-90.68, 34.35], [-90.69, 34.34], [-90.69, 34.32], [-90.68, 34.31], [-90.66, 34.32], [-90.66, 34.33], [-90.67, 34.35], [-90.67, 34.36], [-90.66, 34.37], [-90.66, 34.38], [-90.64, 34.39], [-90.62, 34.39], [-90.58, 34.41], [-90.57, 34.42], [-90.57, 34.44], [-90.57, 34.45], [-90.58, 34.46], [-90.59, 34.47], [-90.59, 34.48], [-90.59, 34.5], [-90.58, 34.51], [-90.57, 34.52], [-90.55, 34.54], [-90.54, 34.55], [-90.55, 34.56], [-90.56, 34.58], [-90.57, 34.59], [-90.58, 34.6], [-90.59, 34.63], [-90.58, 34.64], [-90.59, 34.67], [-90.58, 34.68], [-90.57, 34.69], [-90.56, 34.7], [-90.55, 34.7], [-90.54, 34.68], [-90.54, 34.67], [-90.55, 34.66], [-90.56, 34.65], [-90.55, 34.63], [-90.53, 34.63], [-90.52, 34.63], [-90.5, 34.65], [-90.48, 34.66], [-90.47, 34.67], [-90.46, 34.69], [-90.47, 34.7], [-90.5, 34.7], [-90.53, 34.7], [-90.55, 34.7], [-90.57, 34.72], [-90.57, 34.73], [-90.56, 34.74], [-90.54, 34.74], [-90.54, 34.75], [-90.55, 34.78], [-90.55, 34.79], [-90.53, 34.8], [-90.51, 34.8], [-90.5, 34.77], [-90.51, 34.76], [-90.52, 34.75], [-90.52, 34.74], [-90.52, 34.73], [-90.5, 34.72], [-90.47, 34.73], [-90.46, 34.73], [-90.45, 34.74], [-90.46, 34.76], [-90.47, 34.78], [-90.47, 34.79], [-90.47, 34.8], [-90.46, 34.81], [-90.46, 34.82], [-90.46, 34.83], [-90.48, 34.86], [-90.48, 34.88], [-90.48, 34.88], [-90.47, 34.89], [-90.45, 34.89], [-90.44, 34.88], [-90.43, 34.87], [-90.43, 34.86], [-90.43, 34.84], [-90.42, 34.83], [-90.41, 34.83], [-90.4, 34.84], [-90.38, 34.84], [-90.36, 34.85], [-90.34, 34.86], [-90.32, 34.85], [-90.31, 34.84], [-90.31, 34.85], [-90.3, 34.86], [-90.31, 34.87], [-90.3, 34.88], [-90.28, 34.89], [-90.25, 34.91], [-90.24, 34.92], [-90.24, 34.94], [-90.25, 34.96], [-90.28, 34.97], [-90.3, 34.98], [-90.3, 34.98], [-90.31, 35.0], [-90.2, 35.0], [-90.11, 34.99], [-90.02, 34.99], [-89.8, 34.99], [-89.74, 35.0], [-89.66, 35.0], [-89.52, 34.99], [-89.44, 34.99], [-89.35, 34.99], [-89.21, 34.99], [-89.16, 34.99], [-89.13, 34.99], [-89.02, 34.99], [-88.93, 34.99], [-88.9, 35.0], [-88.86, 35.0], [-88.74, 35.0], [-88.62, 35.0], [-88.49, 35.0]]]]}}]}