{"type": "FeatureCollection", "features": [{"type": "Feature", "properties": {"ID": 24, "abbreviation": "MT", "name": "Montana"}, "geometry": {"type": "Polygon", "coordinates": [[[-114.25, 49.0], [-114.2, 49.0], [-114.18, 49.0], [-114.07, 49.0], [-113.88, 49.0], [-113.86, 49.0], [-113.69, 49.0], [-113.57, 49.0], [-113.5, 49.0], [-113.25, 49.0], [-113.19, 49.0], [-113.14, 49.0], [-112.86, 49.0], [-112.7, 49.0], [-112.38, 49.0], [-112.13, 49.0], [-111.75, 49.0], [-111.5, 49.0], [-111.34, 49.0], [-111.13, 49.0], [-110.87, 49.0], [-110.71, 49.0], [-110.58, 49.0], [-110.53, 49.0], [-110.43, 49.0], [-110.23, 49.0], [-109.97, 49.0], [-109.73, 49.0], [-109.5, 49.0], [-109.29, 49.0], [-109.18, 49.0], [-108.99, 49.0], [-108.75, 49.0], [-108.63, 49.0], [-108.38, 49.0], [-108.24, 49.0], [-108.05, 49.0], [-107.88, 49.0], [-107.61, 49.0], [-107.44, 49.0], [-107.36, 49.0], [-107.18, 49.0], [-107.02, 49.0], [-106.75, 49.0], [-106.48, 49.0], [-106.36, 49.0], [-106.28, 49.0], [-106.13, 49.0], [-106.11, 49.0], [-105.96, 49.0], [-105.67, 49.0], [-105.45, 49.0], [-105.34, 49.0], [-105.27, 49.0], [-105.06, 49.0], [-104.89, 49.0], [-104.66, 49.0], [-104.54, 49.0], [-104.38, 49.0], [-104.05, 49.0], [-104.05, 48.87], [-104.05, 48.75], [-104.05, 48.63], [-104.05, 48.6], [-104.05, 48.38], [-104.05, 48.13], [-104.04, 48.0], [-104.04, 47.86], [-104.04, 47.75], [-104.04, 47.6], [-104.04, 47.5], [-104.05, 47.4], [-104.05, 47.33], [-104.05, 47.22], [-104.04, 47.13], [-104.05, 47.08], [-104.05, 46.89], [-104.05, 46.71], [-104.05, 46.51], [-104.05, 46.42], [-104.05, 46.28], [-104.05, 46.13], [-104.05, 46.12], [-104.05, 46.0], [-104.05, 46.0], [-104.05, 45.97], [-104.05, 45.96], [-104.05, 45.95], [-104.05, 45.93], [-104.04, 45.92], [-104.04, 45.9], [-104.04, 45.89], [-104.04, 45.88], [-104.04, 45.88], [-104.04, 45.75], [-104.04, 45.61], [-104.04, 45.5], [-104.04, 45.37], [-104.04, 45.25], [-104.04, 45.12], [-104.04, 45.0], [-104.04, 45.0], [-104.05, 45.0], [-104.05, 45.0], [-104.06, 45.0], [-104.06, 45.0], [-104.07, 45.0], [-104.11, 45.0], [-104.12, 45.0], [-104.37, 45.0], [-104.57, 45.0], [-104.72, 45.0], [-104.77, 45.0], [-104.88, 45.0], [-105.0, 45.0], [-105.25, 45.0], [-105.49, 45.0], [-105.72, 45.0], [-105.85, 45.0], [-105.88, 45.0], [-105.9, 45.0], [-105.9, 45.0], [-105.91, 45.0], [-105.91, 45.0], [-105.91, 45.0], [-105.92, 45.0], [-105.93, 44.99], [-105.95, 44.99], [-105.96, 44.99], [-105.98, 44.99], [-106.0, 44.99], [-106.01, 44.99], [-106.01, 44.99], [-106.02, 44.99], [-106.04, 44.99], [-106.1, 44.99], [-106.13, 44.99], [-106.13, 44.99], [-106.14, 44.99], [-106.16, 44.99], [-106.17, 44.99], [-106.18, 44.99], [-106.2, 44.99], [-106.22, 44.99], [-106.23, 44.99], [-106.25, 44.99], [-106.26, 44.99], [-106.42, 44.99], [-106.63, 44.99], [-106.87, 45.0], [-107.0, 45.0], [-107.06, 45.0], [-107.07, 45.0], [-107.08, 45.0], [-107.08, 45.0], [-107.08, 45.0], [-107.08, 45.0], [-107.09, 45.0], [-107.09, 45.0], [-107.09, 45.0], [-107.1, 45.0], [-107.11, 45.0], [-107.16, 45.0], [-107.24, 45.0], [-107.25, 45.0], [-107.28, 45.0], [-107.3, 45.0], [-107.3, 45.0], [-107.31, 45.0], [-107.32, 45.0], [-107.32, 45.0], [-107.33, 45.0], [-107.35, 45.0], [-107.38, 45.0], [-107.41, 45.0], [-107.5, 45.0], [-107.5, 45.0], [-107.5, 45.0], [-107.51, 45.0], [-107.54, 45.0], [-107.55, 45.0], [-107.56, 45.0], [-107.61, 45.0], [-107.63, 45.0], [-107.63, 45.0], [-107.64, 45.0], [-107.67, 45.0], [-107.7, 45.0], [-107.71, 45.0], [-107.72, 45.0], [-107.74, 45.0], [-107.75, 45.0], [-108.0, 45.0], [-108.0, 45.0], [-108.15, 45.0], [-108.23, 45.0], [-108.25, 45.0], [-108.26, 45.0], [-108.26, 45.0], [-108.27, 45.0], [-108.3, 45.0], [-108.33, 45.0], [-108.33, 45.0], [-108.35, 45.0], [-108.38, 45.0], [-108.5, 45.0], [-108.57, 45.0], [-108.58, 45.0], [-108.59, 45.0], [-108.6, 45.0], [-108.61, 45.0], [-108.62, 45.0], [-108.63, 45.0], [-108.66, 45.0], [-108.68, 45.0], [-108.68, 45.0], [-108.69, 45.0], [-108.7, 45.0], [-108.74, 45.0], [-108.79, 45.0], [-108.91, 45.0], [-108.98, 45.0], [-109.06, 45.0], [-109.06, 45.0], [-109.07, 45.0], [-109.08, 45.0], [-109.08, 45.0], [-109.09, 45.0], [-109.1, 45.01], [-109.39, 45.0], [-109.57, 45.0], [-109.66, 45.0], [-109.75, 45.0], [-109.88, 45.0], [-110.0, 45.0], [-110.11, 45.0], [-110.2, 45.0], [-110.28, 45.0], [-110.36, 45.0], [-110.4, 44.99], [-110.49, 44.99], [-110.63, 44.99], [-110.71, 44.99], [-110.79, 45.0], [-110.88, 45.0], [-111.0, 45.0], [-111.04, 45.0], [-111.06, 45.0], [-111.06, 45.0], [-111.06, 44.94], [-111.06, 44.94], [-111.06, 44.93], [-111.06, 44.93], [-111.06, 44.93], [-111.06, 44.87], [-111.06, 44.87], [-111.06, 44.75], [-111.06, 44.73], [-111.06, 44.62], [-111.05, 44.62], [-111.05, 44.56], [-111.05, 44.55], [-111.05, 44.54], [-111.05, 44.53], [-111.05, 44.5], [-111.05, 44.49], [-111.05, 44.48], [-111.05, 44.47], [-111.05, 44.47], [-111.05, 44.48], [-111.06, 44.48], [-111.06, 44.48], [-111.1, 44.49], [-111.13, 44.5], [-111.14, 44.52], [-111.13, 44.53], [-111.15, 44.53], [-111.16, 44.55], [-111.17, 44.55], [-111.18, 44.55], [-111.18, 44.57], [-111.2, 44.58], [-111.22, 44.58], [-111.23, 44.58], [-111.23, 44.6], [-111.24, 44.61], [-111.22, 44.62], [-111.26, 44.65], [-111.27, 44.65], [-111.28, 44.66], [-111.27, 44.67], [-111.28, 44.68], [-111.3, 44.69], [-111.29, 44.7], [-111.32, 44.72], [-111.32, 44.73], [-111.34, 44.73], [-111.35, 44.73], [-111.36, 44.73], [-111.37, 44.75], [-111.39, 44.76], [-111.39, 44.75], [-111.4, 44.74], [-111.4, 44.72], [-111.41, 44.71], [-111.43, 44.72], [-111.47, 44.71], [-111.49, 44.7], [-111.48, 44.69], [-111.48, 44.68], [-111.47, 44.66], [-111.49, 44.65], [-111.52, 44.64], [-111.5, 44.63], [-111.52, 44.62], [-111.53, 44.61], [-111.52, 44.58], [-111.5, 44.57], [-111.51, 44.56], [-111.49, 44.56], [-111.48, 44.56], [-111.47, 44.56], [-111.47, 44.54], [-111.5, 44.54], [-111.52, 44.54], [-111.52, 44.55], [-111.54, 44.55], [-111.55, 44.56], [-111.56, 44.55], [-111.59, 44.56], [-111.6, 44.55], [-111.62, 44.55], [-111.66, 44.55], [-111.68, 44.56], [-111.69, 44.56], [-111.7, 44.56], [-111.72, 44.54], [-111.74, 44.54], [-111.78, 44.52], [-111.8, 44.53], [-111.81, 44.51], [-111.82, 44.51], [-111.83, 44.52], [-111.84, 44.53], [-111.85, 44.54], [-111.86, 44.55], [-111.87, 44.56], [-111.91, 44.56], [-111.92, 44.56], [-111.95, 44.56], [-111.96, 44.55], [-111.97, 44.54], [-111.98, 44.54], [-112.0, 44.54], [-112.03, 44.55], [-112.04, 44.53], [-112.07, 44.54], [-112.09, 44.53], [-112.1, 44.52], [-112.13, 44.53], [-112.14, 44.54], [-112.15, 44.54], [-112.16, 44.54], [-112.18, 44.53], [-112.2, 44.54], [-112.22, 44.54], [-112.23, 44.55], [-112.23, 44.56], [-112.24, 44.57], [-112.26, 44.57], [-112.28, 44.57], [-112.29, 44.57], [-112.3, 44.56], [-112.31, 44.55], [-112.32, 44.54], [-112.35, 44.54], [-112.36, 44.53], [-112.36, 44.49], [-112.36, 44.48], [-112.37, 44.47], [-112.38, 44.46], [-112.39, 44.45], [-112.41, 44.46], [-112.42, 44.45], [-112.43, 44.45], [-112.44, 44.46], [-112.47, 44.48], [-112.49, 44.47], [-112.5, 44.46], [-112.51, 44.47], [-112.52, 44.48], [-112.54, 44.48], [-112.55, 44.48], [-112.57, 44.48], [-112.59, 44.48], [-112.6, 44.49], [-112.63, 44.48], [-112.63, 44.49], [-112.66, 44.49], [-112.67, 44.49], [-112.69, 44.49], [-112.69, 44.5], [-112.72, 44.5], [-112.73, 44.5], [-112.74, 44.49], [-112.78, 44.48], [-112.8, 44.46], [-112.82, 44.45], [-112.83, 44.44], [-112.83, 44.43], [-112.84, 44.43], [-112.81, 44.4], [-112.81, 44.38], [-112.83, 44.37], [-112.84, 44.36], [-112.86, 44.36], [-112.86, 44.37], [-112.88, 44.38], [-112.89, 44.41], [-112.9, 44.4], [-112.92, 44.4], [-112.92, 44.41], [-112.95, 44.42], [-112.98, 44.44], [-112.99, 44.44], [-113.0, 44.45], [-113.01, 44.47], [-113.01, 44.47], [-113.02, 44.48], [-113.03, 44.5], [-113.01, 44.51], [-113.02, 44.52], [-113.01, 44.52], [-113.01, 44.53], [-113.02, 44.54], [-113.03, 44.54], [-113.05, 44.54], [-113.05, 44.56], [-113.04, 44.56], [-113.04, 44.57], [-113.07, 44.58], [-113.06, 44.59], [-113.09, 44.6], [-113.07, 44.61], [-113.06, 44.62], [-113.05, 44.63], [-113.05, 44.64], [-113.07, 44.65], [-113.07, 44.67], [-113.07, 44.68], [-113.08, 44.68], [-113.08, 44.69], [-113.1, 44.7], [-113.1, 44.73], [-113.11, 44.73], [-113.12, 44.75], [-113.13, 44.75], [-113.14, 44.76], [-113.13, 44.77], [-113.18, 44.79], [-113.19, 44.8], [-113.21, 44.81], [-113.24, 44.81], [-113.25, 44.82], [-113.28, 44.81], [-113.34, 44.78], [-113.35, 44.79], [-113.35, 44.8], [-113.36, 44.82], [-113.38, 44.83], [-113.38, 44.84], [-113.39, 44.84], [-113.42, 44.84], [-113.43, 44.85], [-113.44, 44.86], [-113.45, 44.87], [-113.46, 44.89], [-113.48, 44.89], [-113.47, 44.9], [-113.48, 44.92], [-113.49, 44.92], [-113.5, 44.94], [-113.49, 44.95], [-113.48, 44.95], [-113.47, 44.95], [-113.45, 44.95], [-113.44, 44.96], [-113.45, 45.0], [-113.44, 45.01], [-113.45, 45.02], [-113.45, 45.03], [-113.45, 45.04], [-113.45, 45.05], [-113.45, 45.06], [-113.46, 45.06], [-113.47, 45.06], [-113.49, 45.07], [-113.49, 45.07], [-113.52, 45.09], [-113.51, 45.11], [-113.51, 45.12], [-113.56, 45.12], [-113.58, 45.13], [-113.57, 45.14], [-113.59, 45.16], [-113.59, 45.17], [-113.59, 45.18], [-113.59, 45.18], [-113.61, 45.19], [-113.62, 45.21], [-113.64, 45.21], [-113.65, 45.23], [-113.65, 45.23], [-113.67, 45.25], [-113.68, 45.25], [-113.69, 45.26], [-113.69, 45.27], [-113.68, 45.28], [-113.69, 45.29], [-113.7, 45.29], [-113.71, 45.3], [-113.72, 45.32], [-113.73, 45.32], [-113.74, 45.33], [-113.74, 45.35], [-113.73, 45.36], [-113.74, 45.37], [-113.73, 45.37], [-113.73, 45.39], [-113.75, 45.4], [-113.77, 45.41], [-113.78, 45.42], [-113.76, 45.42], [-113.76, 45.43], [-113.78, 45.44], [-113.78, 45.45], [-113.78, 45.45], [-113.78, 45.46], [-113.78, 45.47], [-113.76, 45.48], [-113.76, 45.5], [-113.77, 45.51], [-113.77, 45.52], [-113.8, 45.52], [-113.83, 45.52], [-113.82, 45.55], [-113.82, 45.56], [-113.82, 45.57], [-113.81, 45.58], [-113.8, 45.58], [-113.81, 45.6], [-113.82, 45.61], [-113.84, 45.61], [-113.85, 45.62], [-113.86, 45.62], [-113.89, 45.62], [-113.9, 45.62], [-113.9, 45.64], [-113.9, 45.64], [-113.91, 45.65], [-113.92, 45.66], [-113.92, 45.66], [-113.93, 45.67], [-113.93, 45.69], [-113.94, 45.7], [-113.96, 45.69], [-113.97, 45.69], [-113.97, 45.7], [-113.99, 45.71], [-114.0, 45.7], [-114.02, 45.69], [-114.01, 45.68], [-114.03, 45.68], [-114.02, 45.67], [-114.01, 45.66], [-114.02, 45.65], [-114.03, 45.65], [-114.05, 45.64], [-114.07, 45.63], [-114.07, 45.61], [-114.08, 45.61], [-114.08, 45.6], [-114.09, 45.59], [-114.11, 45.59], [-114.12, 45.58], [-114.13, 45.57], [-114.13, 45.57], [-114.14, 45.56], [-114.15, 45.56], [-114.15, 45.55], [-114.18, 45.55], [-114.19, 45.54], [-114.21, 45.54], [-114.23, 45.55], [-114.25, 45.55], [-114.25, 45.52], [-114.26, 45.51], [-114.26, 45.5], [-114.28, 45.48], [-114.29, 45.48], [-114.3, 45.47], [-114.32, 45.47], [-114.33, 45.46], [-114.35, 45.46], [-114.35, 45.47], [-114.36, 45.47], [-114.37, 45.49], [-114.39, 45.5], [-114.41, 45.51], [-114.42, 45.51], [-114.43, 45.52], [-114.43, 45.53], [-114.45, 45.54], [-114.46, 45.55], [-114.47, 45.56], [-114.47, 45.57], [-114.5, 45.56], [-114.52, 45.57], [-114.55, 45.56], [-114.56, 45.57], [-114.55, 45.58], [-114.56, 45.59], [-114.55, 45.6], [-114.54, 45.61], [-114.54, 45.62], [-114.55, 45.62], [-114.56, 45.63], [-114.56, 45.64], [-114.54, 45.64], [-114.54, 45.65], [-114.53, 45.65], [-114.52, 45.65], [-114.51, 45.66], [-114.5, 45.67], [-114.5, 45.68], [-114.52, 45.68], [-114.5, 45.69], [-114.5, 45.7], [-114.5, 45.72], [-114.52, 45.73], [-114.53, 45.73], [-114.54, 45.74], [-114.55, 45.74], [-114.55, 45.76], [-114.56, 45.76], [-114.57, 45.77], [-114.56, 45.79], [-114.54, 45.79], [-114.55, 45.8], [-114.53, 45.81], [-114.53, 45.82], [-114.51, 45.83], [-114.52, 45.84], [-114.51, 45.85], [-114.49, 45.85], [-114.48, 45.85], [-114.47, 45.85], [-114.44, 45.86], [-114.41, 45.85], [-114.41, 45.87], [-114.4, 45.87], [-114.39, 45.88], [-114.4, 45.9], [-114.4, 45.9], [-114.41, 45.91], [-114.41, 45.92], [-114.43, 45.94], [-114.42, 45.94], [-114.4, 45.96], [-114.4, 45.96], [-114.41, 45.98], [-114.44, 45.99], [-114.45, 45.99], [-114.46, 46.0], [-114.48, 45.99], [-114.48, 46.0], [-114.49, 46.0], [-114.47, 46.01], [-114.48, 46.03], [-114.49, 46.03], [-114.5, 46.03], [-114.51, 46.04], [-114.49, 46.05], [-114.49, 46.05], [-114.48, 46.06], [-114.47, 46.07], [-114.47, 46.07], [-114.46, 46.08], [-114.46, 46.09], [-114.47, 46.11], [-114.49, 46.11], [-114.52, 46.13], [-114.52, 46.13], [-114.53, 46.15], [-114.51, 46.15], [-114.52, 46.17], [-114.49, 46.17], [-114.48, 46.16], [-114.46, 46.17], [-114.45, 46.17], [-114.44, 46.2], [-114.45, 46.21], [-114.45, 46.22], [-114.45, 46.24], [-114.47, 46.25], [-114.47, 46.26], [-114.47, 46.27], [-114.45, 46.27], [-114.44, 46.28], [-114.43, 46.28], [-114.43, 46.31], [-114.42, 46.33], [-114.41, 46.34], [-114.41, 46.37], [-114.42, 46.39], [-114.38, 46.41], [-114.38, 46.43], [-114.37, 46.44], [-114.38, 46.45], [-114.38, 46.46], [-114.38, 46.47], [-114.39, 46.47], [-114.4, 46.48], [-114.4, 46.5], [-114.38, 46.51], [-114.37, 46.5], [-114.35, 46.51], [-114.34, 46.52], [-114.35, 46.53], [-114.34, 46.54], [-114.35, 46.55], [-114.33, 46.58], [-114.34, 46.59], [-114.32, 46.61], [-114.33, 46.62], [-114.32, 46.63], [-114.32, 46.65], [-114.34, 46.66], [-114.35, 46.66], [-114.36, 46.67], [-114.39, 46.66], [-114.41, 46.66], [-114.42, 46.66], [-114.45, 46.65], [-114.45, 46.64], [-114.47, 46.63], [-114.49, 46.63], [-114.5, 46.64], [-114.51, 46.64], [-114.53, 46.64], [-114.54, 46.65], [-114.55, 46.64], [-114.57, 46.64], [-114.58, 46.63], [-114.59, 46.63], [-114.62, 46.64], [-114.61, 46.65], [-114.64, 46.66], [-114.64, 46.68], [-114.62, 46.69], [-114.62, 46.71], [-114.64, 46.72], [-114.65, 46.73], [-114.66, 46.73], [-114.7, 46.74], [-114.71, 46.73], [-114.71, 46.72], [-114.72, 46.71], [-114.74, 46.71], [-114.75, 46.7], [-114.77, 46.7], [-114.77, 46.7], [-114.79, 46.71], [-114.78, 46.73], [-114.77, 46.74], [-114.77, 46.76], [-114.78, 46.77], [-114.79, 46.78], [-114.8, 46.78], [-114.81, 46.78], [-114.83, 46.78], [-114.84, 46.79], [-114.86, 46.8], [-114.87, 46.81], [-114.88, 46.81], [-114.9, 46.8], [-114.9, 46.81], [-114.89, 46.82], [-114.92, 46.83], [-114.93, 46.84], [-114.92, 46.85], [-114.93, 46.85], [-114.95, 46.86], [-114.94, 46.87], [-114.93, 46.88], [-114.94, 46.9], [-114.93, 46.92], [-114.96, 46.93], [-114.96, 46.93], [-114.97, 46.94], [-115.0, 46.97], [-115.0, 46.97], [-115.03, 46.98], [-115.03, 46.97], [-115.05, 46.97], [-115.05, 46.98], [-115.06, 46.98], [-115.07, 47.01], [-115.07, 47.02], [-115.08, 47.03], [-115.09, 47.05], [-115.11, 47.05], [-115.12, 47.06], [-115.14, 47.08], [-115.14, 47.1], [-115.14, 47.1], [-115.16, 47.1], [-115.17, 47.11], [-115.17, 47.11], [-115.19, 47.13], [-115.22, 47.15], [-115.25, 47.15], [-115.26, 47.16], [-115.26, 47.17], [-115.26, 47.18], [-115.29, 47.18], [-115.3, 47.19], [-115.3, 47.19], [-115.29, 47.21], [-115.3, 47.23], [-115.32, 47.23], [-115.32, 47.25], [-115.32, 47.26], [-115.34, 47.26], [-115.36, 47.26], [-115.37, 47.27], [-115.41, 47.26], [-115.42, 47.27], [-115.43, 47.28], [-115.46, 47.28], [-115.47, 47.29], [-115.48, 47.28], [-115.49, 47.29], [-115.51, 47.29], [-115.53, 47.3], [-115.53, 47.31], [-115.55, 47.33], [-115.55, 47.35], [-115.58, 47.36], [-115.58, 47.37], [-115.6, 47.37], [-115.6, 47.38], [-115.62, 47.38], [-115.64, 47.38], [-115.65, 47.39], [-115.66, 47.4], [-115.68, 47.4], [-115.68, 47.41], [-115.69, 47.42], [-115.71, 47.42], [-115.72, 47.43], [-115.74, 47.43], [-115.76, 47.42], [-115.75, 47.44], [-115.74, 47.44], [-115.72, 47.45], [-115.71, 47.45], [-115.69, 47.46], [-115.68, 47.45], [-115.65, 47.46], [-115.64, 47.46], [-115.63, 47.48], [-115.65, 47.48], [-115.67, 47.49], [-115.69, 47.49], [-115.69, 47.5], [-115.7, 47.5], [-115.71, 47.52], [-115.71, 47.52], [-115.7, 47.53], [-115.71, 47.53], [-115.75, 47.54], [-115.76, 47.55], [-115.72, 47.58], [-115.71, 47.58], [-115.71, 47.58], [-115.69, 47.6], [-115.7, 47.61], [-115.69, 47.62], [-115.71, 47.64], [-115.73, 47.64], [-115.74, 47.65], [-115.73, 47.67], [-115.73, 47.68], [-115.72, 47.7], [-115.73, 47.71], [-115.76, 47.72], [-115.77, 47.72], [-115.78, 47.73], [-115.78, 47.74], [-115.8, 47.76], [-115.82, 47.75], [-115.84, 47.76], [-115.84, 47.77], [-115.85, 47.78], [-115.85, 47.81], [-115.85, 47.81], [-115.85, 47.83], [-115.87, 47.83], [-115.88, 47.85], [-115.9, 47.84], [-115.91, 47.85], [-115.92, 47.85], [-115.93, 47.87], [-115.95, 47.89], [-115.97, 47.9], [-115.97, 47.91], [-115.98, 47.92], [-115.99, 47.93], [-116.0, 47.94], [-116.01, 47.95], [-116.03, 47.97], [-116.05, 47.98], [-116.05, 48.12], [-116.05, 48.24], [-116.05, 48.31], [-116.05, 48.41], [-116.05, 48.48], [-116.05, 48.71], [-116.05, 48.85], [-116.05, 49.0], [-115.88, 49.0], [-115.62, 49.0], [-115.5, 49.0], [-115.38, 49.0], [-115.21, 49.0], [-115.01, 49.0], [-114.9, 49.0], [-114.54, 49.0], [-114.38, 49.0], [-114.25, 49.0]]]}}]}