{"type": "FeatureCollection", "features": [{"type": "Feature", "properties": {"ID": 26, "abbreviation": "NV", "name": "Nevada"}, "geometry": {"type": "Polygon", "coordinates": [[[-114.72, 42.0], [-114.6, 41.99], [-114.5, 41.99], [-114.47, 42.0], [-114.28, 41.99], [-114.04, 41.99], [-114.04, 41.88], [-114.04, 41.85], [-114.04, 41.75], [-114.04, 41.62], [-114.04, 41.62], [-114.04, 41.5], [-114.04, 41.49], [-114.04, 41.37], [-114.04, 41.25], [-114.04, 41.12], [-114.04, 41.0], [-114.04, 40.85], [-114.04, 40.67], [-114.05, 40.51], [-114.05, 40.43], [-114.05, 40.42], [-114.05, 40.25], [-114.05, 40.04], [-114.05, 40.0], [-114.05, 39.91], [-114.05, 39.76], [-114.05, 39.54], [-114.05, 39.5], [-114.05, 39.33], [-114.05, 39.12], [-114.05, 39.01], [-114.05, 38.88], [-114.05, 38.87], [-114.05, 38.75], [-114.05, 38.68], [-114.05, 38.44], [-114.05, 38.26], [-114.05, 38.25], [-114.05, 38.15], [-114.05, 38.0], [-114.05, 37.88], [-114.05, 37.82], [-114.05, 37.81], [-114.05, 37.77], [-114.05, 37.75], [-114.05, 37.6], [-114.05, 37.59], [-114.05, 37.43], [-114.05, 37.42], [-114.05, 37.25], [-114.05, 37.24], [-114.05, 37.1], [-114.05, 37.09], [-114.05, 37.0], [-114.05, 37.0], [-114.05, 37.0], [-114.05, 36.99], [-114.05, 36.96], [-114.05, 36.84], [-114.05, 36.75], [-114.05, 36.69], [-114.05, 36.62], [-114.05, 36.5], [-114.05, 36.46], [-114.05, 36.39], [-114.05, 36.29], [-114.05, 36.25], [-114.05, 36.19], [-114.06, 36.19], [-114.07, 36.18], [-114.09, 36.15], [-114.09, 36.14], [-114.1, 36.12], [-114.12, 36.12], [-114.12, 36.11], [-114.11, 36.1], [-114.12, 36.09], [-114.14, 36.06], [-114.14, 36.04], [-114.15, 36.03], [-114.15, 36.02], [-114.18, 36.03], [-114.19, 36.02], [-114.21, 36.02], [-114.24, 36.01], [-114.26, 36.03], [-114.27, 36.04], [-114.27, 36.04], [-114.29, 36.05], [-114.3, 36.06], [-114.31, 36.06], [-114.31, 36.07], [-114.31, 36.07], [-114.31, 36.08], [-114.33, 36.11], [-114.34, 36.11], [-114.35, 36.12], [-114.36, 36.13], [-114.37, 36.14], [-114.38, 36.14], [-114.4, 36.15], [-114.42, 36.15], [-114.43, 36.14], [-114.45, 36.13], [-114.46, 36.14], [-114.47, 36.14], [-114.49, 36.13], [-114.5, 36.13], [-114.51, 36.13], [-114.5, 36.14], [-114.51, 36.15], [-114.53, 36.15], [-114.54, 36.15], [-114.57, 36.15], [-114.6, 36.14], [-114.62, 36.13], [-114.63, 36.14], [-114.64, 36.14], [-114.66, 36.12], [-114.67, 36.12], [-114.67, 36.12], [-114.68, 36.11], [-114.69, 36.11], [-114.71, 36.11], [-114.74, 36.1], [-114.75, 36.09], [-114.75, 36.08], [-114.74, 36.07], [-114.74, 36.05], [-114.74, 36.04], [-114.73, 36.04], [-114.72, 36.03], [-114.74, 36.01], [-114.74, 35.99], [-114.74, 35.98], [-114.74, 35.98], [-114.73, 35.96], [-114.73, 35.94], [-114.71, 35.93], [-114.71, 35.91], [-114.7, 35.9], [-114.68, 35.89], [-114.66, 35.87], [-114.68, 35.86], [-114.7, 35.85], [-114.7, 35.85], [-114.7, 35.83], [-114.7, 35.81], [-114.71, 35.81], [-114.7, 35.79], [-114.7, 35.77], [-114.7, 35.76], [-114.7, 35.74], [-114.71, 35.71], [-114.7, 35.7], [-114.68, 35.69], [-114.68, 35.68], [-114.69, 35.66], [-114.69, 35.65], [-114.68, 35.64], [-114.67, 35.62], [-114.65, 35.61], [-114.65, 35.6], [-114.66, 35.59], [-114.68, 35.58], [-114.67, 35.57], [-114.66, 35.56], [-114.66, 35.53], [-114.67, 35.52], [-114.67, 35.52], [-114.68, 35.51], [-114.67, 35.48], [-114.67, 35.46], [-114.66, 35.45], [-114.65, 35.43], [-114.63, 35.41], [-114.62, 35.38], [-114.6, 35.35], [-114.6, 35.32], [-114.6, 35.3], [-114.6, 35.29], [-114.59, 35.26], [-114.58, 35.23], [-114.58, 35.21], [-114.57, 35.2], [-114.57, 35.18], [-114.57, 35.16], [-114.57, 35.14], [-114.58, 35.13], [-114.6, 35.12], [-114.62, 35.12], [-114.63, 35.12], [-114.65, 35.1], [-114.64, 35.1], [-114.62, 35.09], [-114.6, 35.07], [-114.6, 35.07], [-114.61, 35.06], [-114.63, 35.04], [-114.63, 35.03], [-114.64, 35.02], [-114.63, 35.0], [-114.75, 35.09], [-114.85, 35.18], [-114.93, 35.24], [-114.94, 35.25], [-115.04, 35.33], [-115.21, 35.47], [-115.26, 35.5], [-115.3, 35.54], [-115.38, 35.59], [-115.4, 35.62], [-115.41, 35.62], [-115.5, 35.69], [-115.63, 35.79], [-115.63, 35.79], [-115.65, 35.81], [-115.65, 35.82], [-115.66, 35.82], [-115.66, 35.82], [-115.66, 35.82], [-115.66, 35.82], [-115.66, 35.82], [-115.67, 35.83], [-115.69, 35.84], [-115.75, 35.89], [-115.85, 35.97], [-115.85, 35.97], [-115.86, 35.97], [-115.87, 35.98], [-115.87, 35.99], [-115.88, 35.99], [-115.89, 36.0], [-115.9, 36.0], [-115.91, 36.02], [-115.92, 36.02], [-115.96, 36.05], [-115.97, 36.06], [-115.98, 36.06], [-116.0, 36.08], [-116.0, 36.08], [-116.04, 36.11], [-116.09, 36.16], [-116.1, 36.16], [-116.13, 36.18], [-116.17, 36.21], [-116.25, 36.28], [-116.37, 36.37], [-116.38, 36.37], [-116.49, 36.46], [-116.5, 36.47], [-116.54, 36.5], [-116.57, 36.52], [-116.59, 36.53], [-116.6, 36.54], [-116.61, 36.55], [-116.64, 36.58], [-116.69, 36.61], [-116.73, 36.64], [-116.74, 36.65], [-116.75, 36.66], [-116.75, 36.66], [-116.76, 36.67], [-116.77, 36.67], [-116.79, 36.69], [-116.82, 36.71], [-116.83, 36.72], [-116.84, 36.73], [-116.85, 36.73], [-116.87, 36.75], [-116.89, 36.76], [-117.0, 36.85], [-117.0, 36.85], [-117.02, 36.86], [-117.04, 36.87], [-117.06, 36.89], [-117.07, 36.9], [-117.08, 36.9], [-117.09, 36.91], [-117.13, 36.94], [-117.15, 36.96], [-117.24, 37.03], [-117.27, 37.04], [-117.38, 37.13], [-117.41, 37.15], [-117.42, 37.16], [-117.43, 37.17], [-117.44, 37.18], [-117.47, 37.2], [-117.5, 37.22], [-117.5, 37.22], [-117.5, 37.22], [-117.51, 37.23], [-117.51, 37.23], [-117.54, 37.25], [-117.54, 37.25], [-117.58, 37.28], [-117.68, 37.35], [-117.71, 37.37], [-117.88, 37.5], [-117.9, 37.52], [-117.98, 37.57], [-118.04, 37.62], [-118.05, 37.62], [-118.13, 37.68], [-118.25, 37.77], [-118.28, 37.79], [-118.3, 37.8], [-118.3, 37.81], [-118.31, 37.81], [-118.32, 37.82], [-118.33, 37.82], [-118.33, 37.83], [-118.34, 37.83], [-118.37, 37.86], [-118.38, 37.86], [-118.5, 37.95], [-118.5, 37.95], [-118.57, 38.0], [-118.62, 38.03], [-118.71, 38.1], [-118.77, 38.14], [-118.8, 38.16], [-118.82, 38.18], [-118.86, 38.2], [-118.86, 38.21], [-118.86, 38.21], [-118.88, 38.22], [-118.92, 38.25], [-118.95, 38.27], [-119.0, 38.3], [-119.03, 38.32], [-119.08, 38.36], [-119.1, 38.37], [-119.16, 38.41], [-119.23, 38.47], [-119.25, 38.48], [-119.25, 38.48], [-119.25, 38.48], [-119.27, 38.49], [-119.28, 38.5], [-119.29, 38.51], [-119.3, 38.51], [-119.31, 38.52], [-119.33, 38.54], [-119.37, 38.56], [-119.38, 38.57], [-119.43, 38.61], [-119.46, 38.63], [-119.63, 38.74], [-119.64, 38.75], [-119.83, 38.88], [-120.0, 39.0], [-120.01, 39.23], [-120.0, 39.39], [-120.0, 39.5], [-120.0, 39.62], [-120.0, 39.72], [-120.0, 39.85], [-120.0, 39.89], [-120.0, 39.93], [-120.0, 39.93], [-120.0, 39.94], [-120.0, 39.95], [-120.0, 39.96], [-120.0, 39.96], [-120.0, 39.96], [-120.0, 39.96], [-120.0, 39.96], [-120.0, 40.0], [-120.0, 40.02], [-120.0, 40.13], [-120.0, 40.19], [-120.0, 40.21], [-120.0, 40.22], [-120.0, 40.25], [-120.0, 40.37], [-120.0, 40.45], [-120.0, 40.46], [-120.0, 40.5], [-120.0, 40.55], [-120.0, 40.55], [-120.0, 40.62], [-120.0, 40.63], [-120.0, 40.63], [-120.0, 40.63], [-120.0, 40.72], [-120.0, 40.75], [-120.0, 40.83], [-120.0, 40.87], [-120.0, 40.87], [-120.0, 41.0], [-120.0, 41.01], [-120.0, 41.02], [-120.0, 41.02], [-120.0, 41.11], [-120.0, 41.12], [-120.0, 41.25], [-120.0, 41.37], [-120.0, 41.5], [-120.0, 41.51], [-120.0, 41.52], [-120.0, 41.52], [-120.0, 41.53], [-120.0, 41.56], [-120.0, 41.62], [-120.0, 41.62], [-120.0, 41.75], [-120.0, 41.87], [-120.0, 41.99], [-119.99, 42.0], [-119.87, 42.0], [-119.79, 42.0], [-119.75, 42.0], [-119.62, 42.0], [-119.44, 42.0], [-119.38, 41.99], [-119.25, 41.99], [-119.21, 41.99], [-119.01, 41.99], [-118.7, 41.99], [-118.6, 41.99], [-118.5, 42.0], [-118.2, 42.0], [-118.0, 42.0], [-117.81, 42.0], [-117.63, 42.0], [-117.62, 42.0], [-117.44, 42.0], [-117.4, 42.0], [-117.22, 42.0], [-117.13, 42.0], [-117.04, 42.0], [-117.03, 42.0], [-117.02, 42.0], [-117.01, 42.0], [-116.97, 42.0], [-116.75, 42.0], [-116.61, 42.0], [-116.53, 42.0], [-116.46, 42.0], [-116.37, 42.0], [-116.33, 42.0], [-116.24, 42.0], [-116.03, 42.0], [-115.99, 42.0], [-115.88, 42.0], [-115.87, 42.0], [-115.75, 42.0], [-115.63, 42.0], [-115.59, 42.0], [-115.31, 42.0], [-115.03, 42.0], [-114.88, 42.0], [-114.81, 42.0], [-114.72, 42.0]]]}}]}