{"type": "FeatureCollection", "features": [{"type": "Feature", "properties": {"ID": 30, "abbreviation": "NY", "name": "New York"}, "geometry": {"type": "MultiPolygon", "coordinates": [[[[-73.62, 40.6], [-73.59, 40.59], [-73.58, 40.59], [-73.58, 40.59], [-73.6, 40.58], [-73.61, 40.59], [-73.64, 40.58], [-73.69, 40.58], [-73.75, 40.59], [-73.74, 40.59], [-73.71, 40.59], [-73.69, 40.59], [-73.68, 40.59], [-73.66, 40.59], [-73.62, 40.6], [-73.62, 40.6]]], [[[-73.82, 40.64], [-73.81, 40.61], [-73.84, 40.62], [-73.83, 40.64], [-73.82, 40.64]]], [[[-74.07, 40.64], [-74.07, 40.62], [-74.05, 40.61], [-74.06, 40.6], [-74.08, 40.58], [-74.1, 40.55], [-74.13, 40.54], [-74.14, 40.55], [-74.14, 40.54], [-74.16, 40.53], [-74.19, 40.52], [-74.2, 40.51], [-74.21, 40.51], [-74.22, 40.5], [-74.23, 40.5], [-74.25, 40.5], [-74.26, 40.51], [-74.24, 40.52], [-74.24, 40.53], [-74.25, 40.54], [-74.23, 40.56], [-74.21, 40.56], [-74.2, 40.58], [-74.2, 40.6], [-74.2, 40.62], [-74.2, 40.63], [-74.18, 40.64], [-74.15, 40.64], [-74.13, 40.64], [-74.12, 40.64], [-74.11, 40.65], [-74.08, 40.65], [-74.07, 40.64]]], [[[-73.31, 40.64], [-73.3, 40.64], [-73.28, 40.64], [-73.25, 40.64], [-73.27, 40.64], [-73.28, 40.64], [-73.31, 40.64], [-73.31, 40.63], [-73.32, 40.63], [-73.34, 40.63], [-73.35, 40.63], [-73.42, 40.61], [-73.48, 40.6], [-73.53, 40.59], [-73.58, 40.57], [-73.56, 40.59], [-73.56, 40.59], [-73.54, 40.6], [-73.51, 40.6], [-73.5, 40.61], [-73.49, 40.6], [-73.46, 40.61], [-73.44, 40.61], [-73.44, 40.61], [-73.41, 40.62], [-73.4, 40.62], [-73.38, 40.63], [-73.37, 40.63], [-73.36, 40.63], [-73.34, 40.64], [-73.32, 40.65], [-73.31, 40.65], [-73.31, 40.64]]], [[[-73.26, 40.66], [-73.26, 40.64], [-73.28, 40.65], [-73.27, 40.66], [-73.26, 40.66]]], [[[-73.12, 40.65], [-73.18, 40.64], [-73.23, 40.63], [-73.26, 40.62], [-73.31, 40.62], [-73.3, 40.63], [-73.29, 40.63], [-73.26, 40.63], [-73.23, 40.63], [-73.21, 40.64], [-73.19, 40.64], [-73.17, 40.64], [-73.16, 40.65], [-73.15, 40.65], [-73.13, 40.65], [-73.1, 40.66], [-73.07, 40.67], [-73.06, 40.67], [-73.01, 40.68], [-72.99, 40.69], [-72.97, 40.7], [-72.93, 40.72], [-72.93, 40.72], [-72.92, 40.72], [-72.9, 40.72], [-72.89, 40.73], [-72.87, 40.73], [-72.87, 40.74], [-72.85, 40.74], [-72.82, 40.75], [-72.81, 40.75], [-72.79, 40.76], [-72.77, 40.76], [-72.76, 40.77], [-72.77, 40.76], [-72.78, 40.76], [-72.81, 40.75], [-72.93, 40.71], [-73.03, 40.67], [-73.06, 40.67], [-73.11, 40.65], [-73.12, 40.65]]], [[[-73.87, 40.79], [-73.89, 40.79], [-73.89, 40.8], [-73.87, 40.79]]], [[[-72.54, 40.82], [-72.64, 40.8], [-72.74, 40.77], [-72.72, 40.78], [-72.69, 40.78], [-72.68, 40.79], [-72.67, 40.79], [-72.61, 40.81], [-72.58, 40.81], [-72.57, 40.82], [-72.56, 40.82], [-72.51, 40.83], [-72.49, 40.84], [-72.48, 40.84], [-72.49, 40.84], [-72.51, 40.83], [-72.54, 40.82]]], [[[-72.46, 40.98], [-72.45, 40.96], [-72.47, 40.97], [-72.47, 40.98], [-72.46, 40.98]]], [[[-72.32, 41.09], [-72.31, 41.09], [-72.3, 41.08], [-72.28, 41.08], [-72.29, 41.07], [-72.3, 41.08], [-72.31, 41.08], [-72.31, 41.09], [-72.32, 41.09], [-72.31, 41.07], [-72.29, 41.06], [-72.28, 41.07], [-72.27, 41.05], [-72.28, 41.05], [-72.27, 41.03], [-72.28, 41.03], [-72.29, 41.04], [-72.31, 41.05], [-72.32, 41.04], [-72.33, 41.04], [-72.34, 41.05], [-72.35, 41.05], [-72.36, 41.04], [-72.37, 41.05], [-72.37, 41.06], [-72.38, 41.07], [-72.37, 41.07], [-72.36, 41.09], [-72.34, 41.08], [-72.35, 41.1], [-72.34, 41.1], [-72.33, 41.11], [-72.32, 41.1], [-72.32, 41.09]]], [[[-72.09, 41.06], [-72.1, 41.05], [-72.1, 41.08], [-72.11, 41.09], [-72.12, 41.09], [-72.14, 41.09], [-72.13, 41.11], [-72.11, 41.11], [-72.09, 41.1], [-72.08, 41.1], [-72.09, 41.09], [-72.08, 41.07], [-72.09, 41.06]]], [[[-72.24, 41.16], [-72.25, 41.14], [-72.25, 41.13], [-72.27, 41.14], [-72.28, 41.14], [-72.28, 41.13], [-72.3, 41.13], [-72.31, 41.14], [-72.33, 41.13], [-72.34, 41.11], [-72.36, 41.11], [-72.37, 41.09], [-72.37, 41.09], [-72.39, 41.08], [-72.4, 41.08], [-72.4, 41.07], [-72.42, 41.06], [-72.41, 41.05], [-72.39, 41.05], [-72.39, 41.03], [-72.4, 41.03], [-72.44, 41.03], [-72.45, 41.02], [-72.45, 41.01], [-72.43, 40.99], [-72.46, 41.0], [-72.47, 41.0], [-72.48, 40.99], [-72.5, 40.99], [-72.51, 40.99], [-72.53, 40.98], [-72.54, 40.97], [-72.55, 40.96], [-72.57, 40.94], [-72.58, 40.93], [-72.59, 40.93], [-72.6, 40.93], [-72.62, 40.93], [-72.62, 40.91], [-72.6, 40.92], [-72.59, 40.91], [-72.57, 40.91], [-72.56, 40.92], [-72.55, 40.91], [-72.51, 40.9], [-72.49, 40.89], [-72.48, 40.9], [-72.45, 40.92], [-72.44, 40.95], [-72.41, 40.95], [-72.4, 40.95], [-72.37, 41.0], [-72.35, 41.0], [-72.34, 41.0], [-72.33, 41.0], [-72.32, 41.0], [-72.32, 41.01], [-72.33, 41.03], [-72.33, 41.03], [-72.31, 41.04], [-72.31, 41.03], [-72.3, 41.02], [-72.3, 41.0], [-72.28, 41.0], [-72.27, 41.0], [-72.26, 41.01], [-72.25, 41.01], [-72.24, 41.02], [-72.24, 41.03], [-72.24, 41.04], [-72.22, 41.04], [-72.2, 41.03], [-72.19, 41.03], [-72.18, 41.04], [-72.18, 41.05], [-72.16, 41.05], [-72.14, 41.04], [-72.13, 41.03], [-72.14, 41.02], [-72.13, 41.02], [-72.12, 41.0], [-72.1, 40.99], [-72.08, 41.0], [-72.08, 41.01], [-72.06, 41.01], [-72.06, 41.0], [-72.04, 41.0], [-72.04, 41.01], [-72.04, 41.02], [-72.02, 41.02], [-72.02, 41.03], [-71.99, 41.05], [-71.98, 41.05], [-71.97, 41.04], [-71.96, 41.05], [-71.96, 41.06], [-71.96, 41.07], [-71.94, 41.08], [-71.91, 41.08], [-71.9, 41.09], [-71.89, 41.08], [-71.86, 41.08], [-71.86, 41.07], [-71.87, 41.05], [-71.9, 41.04], [-71.92, 41.04], [-71.96, 41.03], [-72.03, 41.0], [-72.08, 40.98], [-72.11, 40.97], [-72.21, 40.94], [-72.31, 40.9], [-72.39, 40.87], [-72.45, 40.85], [-72.43, 40.86], [-72.44, 40.87], [-72.44, 40.87], [-72.47, 40.88], [-72.49, 40.88], [-72.5, 40.88], [-72.49, 40.87], [-72.51, 40.85], [-72.52, 40.85], [-72.53, 40.85], [-72.53, 40.86], [-72.54, 40.87], [-72.55, 40.85], [-72.55, 40.84], [-72.57, 40.84], [-72.57, 40.83], [-72.59, 40.81], [-72.61, 40.81], [-72.62, 40.82], [-72.63, 40.8], [-72.65, 40.8], [-72.66, 40.8], [-72.68, 40.8], [-72.69, 40.8], [-72.7, 40.8], [-72.71, 40.8], [-72.73, 40.82], [-72.73, 40.8], [-72.75, 40.8], [-72.74, 40.79], [-72.76, 40.78], [-72.78, 40.78], [-72.8, 40.79], [-72.81, 40.78], [-72.81, 40.76], [-72.83, 40.76], [-72.85, 40.75], [-72.87, 40.74], [-72.88, 40.74], [-72.88, 40.76], [-72.91, 40.76], [-72.92, 40.76], [-72.94, 40.75], [-72.94, 40.74], [-72.97, 40.74], [-72.98, 40.75], [-73.0, 40.75], [-73.02, 40.75], [-73.03, 40.75], [-73.04, 40.73], [-73.06, 40.73], [-73.07, 40.72], [-73.11, 40.72], [-73.12, 40.73], [-73.15, 40.73], [-73.13, 40.72], [-73.14, 40.71], [-73.15, 40.7], [-73.17, 40.7], [-73.19, 40.71], [-73.21, 40.71], [-73.22, 40.71], [-73.22, 40.72], [-73.24, 40.72], [-73.25, 40.7], [-73.27, 40.69], [-73.28, 40.68], [-73.31, 40.69], [-73.32, 40.68], [-73.33, 40.68], [-73.34, 40.67], [-73.37, 40.67], [-73.38, 40.66], [-73.42, 40.66], [-73.43, 40.65], [-73.45, 40.65], [-73.46, 40.65], [-73.49, 40.65], [-73.5, 40.64], [-73.5, 40.63], [-73.51, 40.63], [-73.51, 40.64], [-73.52, 40.64], [-73.56, 40.64], [-73.56, 40.63], [-73.57, 40.63], [-73.58, 40.62], [-73.58, 40.63], [-73.61, 40.62], [-73.63, 40.61], [-73.64, 40.61], [-73.65, 40.6], [-73.66, 40.6], [-73.66, 40.61], [-73.65, 40.61], [-73.66, 40.62], [-73.68, 40.63], [-73.7, 40.62], [-73.71, 40.61], [-73.7, 40.61], [-73.69, 40.6], [-73.69, 40.59], [-73.7, 40.59], [-73.74, 40.59], [-73.76, 40.59], [-73.81, 40.58], [-73.85, 40.57], [-73.9, 40.56], [-73.91, 40.56], [-73.94, 40.55], [-73.94, 40.55], [-73.93, 40.56], [-73.91, 40.56], [-73.9, 40.56], [-73.89, 40.57], [-73.88, 40.57], [-73.85, 40.58], [-73.84, 40.58], [-73.82, 40.59], [-73.8, 40.6], [-73.79, 40.6], [-73.78, 40.61], [-73.77, 40.61], [-73.77, 40.62], [-73.79, 40.64], [-73.82, 40.65], [-73.84, 40.65], [-73.87, 40.64], [-73.88, 40.64], [-73.89, 40.62], [-73.9, 40.62], [-73.88, 40.6], [-73.88, 40.58], [-73.9, 40.58], [-73.9, 40.59], [-73.93, 40.58], [-73.93, 40.58], [-73.98, 40.57], [-74.0, 40.57], [-74.01, 40.58], [-74.0, 40.58], [-74.0, 40.59], [-74.01, 40.6], [-74.03, 40.6], [-74.04, 40.62], [-74.04, 40.63], [-74.03, 40.64], [-74.03, 40.64], [-74.0, 40.67], [-74.02, 40.67], [-74.02, 40.68], [-74.01, 40.69], [-74.01, 40.69], [-74.0, 40.69], [-74.0, 40.69], [-74.0, 40.69], [-74.0, 40.69], [-74.0, 40.69], [-74.0, 40.69], [-74.0, 40.69], [-74.0, 40.69], [-74.0, 40.69], [-74.0, 40.69], [-74.0, 40.7], [-74.0, 40.7], [-74.0, 40.7], [-74.0, 40.7], [-74.0, 40.7], [-74.0, 40.7], [-74.0, 40.7], [-74.0, 40.7], [-73.99, 40.7], [-73.99, 40.7], [-73.97, 40.7], [-73.96, 40.73], [-73.96, 40.75], [-73.94, 40.77], [-73.94, 40.78], [-73.92, 40.78], [-73.91, 40.79], [-73.9, 40.79], [-73.89, 40.78], [-73.87, 40.78], [-73.85, 40.77], [-73.85, 40.79], [-73.84, 40.8], [-73.83, 40.79], [-73.82, 40.8], [-73.81, 40.8], [-73.78, 40.79], [-73.76, 40.77], [-73.75, 40.77], [-73.75, 40.8], [-73.76, 40.81], [-73.76, 40.81], [-73.75, 40.82], [-73.76, 40.83], [-73.74, 40.83], [-73.73, 40.82], [-73.72, 40.82], [-73.72, 40.81], [-73.7, 40.82], [-73.71, 40.84], [-73.72, 40.84], [-73.74, 40.85], [-73.71, 40.87], [-73.7, 40.87], [-73.68, 40.86], [-73.66, 40.83], [-73.65, 40.81], [-73.65, 40.82], [-73.65, 40.83], [-73.65, 40.84], [-73.65, 40.86], [-73.66, 40.87], [-73.64, 40.9], [-73.63, 40.9], [-73.62, 40.9], [-73.6, 40.9], [-73.59, 40.91], [-73.58, 40.91], [-73.57, 40.92], [-73.55, 40.91], [-73.53, 40.92], [-73.51, 40.91], [-73.51, 40.9], [-73.53, 40.91], [-73.55, 40.9], [-73.55, 40.89], [-73.54, 40.88], [-73.53, 40.88], [-73.52, 40.87], [-73.5, 40.88], [-73.51, 40.89], [-73.51, 40.89], [-73.5, 40.9], [-73.49, 40.87], [-73.48, 40.87], [-73.47, 40.86], [-73.46, 40.87], [-73.47, 40.88], [-73.47, 40.89], [-73.49, 40.92], [-73.5, 40.92], [-73.48, 40.95], [-73.46, 40.94], [-73.44, 40.93], [-73.43, 40.93], [-73.43, 40.92], [-73.44, 40.92], [-73.45, 40.91], [-73.44, 40.9], [-73.42, 40.9], [-73.41, 40.9], [-73.4, 40.91], [-73.38, 40.9], [-73.37, 40.91], [-73.36, 40.9], [-73.35, 40.92], [-73.36, 40.93], [-73.38, 40.94], [-73.39, 40.92], [-73.4, 40.93], [-73.4, 40.94], [-73.4, 40.95], [-73.39, 40.95], [-73.37, 40.94], [-73.35, 40.93], [-73.33, 40.93], [-73.29, 40.92], [-73.27, 40.92], [-73.23, 40.91], [-73.22, 40.91], [-73.2, 40.92], [-73.18, 40.91], [-73.18, 40.9], [-73.17, 40.91], [-73.15, 40.92], [-73.15, 40.93], [-73.14, 40.96], [-73.15, 40.96], [-73.13, 40.97], [-73.12, 40.98], [-73.1, 40.96], [-73.08, 40.95], [-73.07, 40.95], [-73.08, 40.97], [-73.08, 40.97], [-73.04, 40.96], [-73.04, 40.96], [-73.03, 40.95], [-73.02, 40.95], [-73.02, 40.96], [-72.97, 40.97], [-72.93, 40.96], [-72.89, 40.96], [-72.86, 40.97], [-72.84, 40.97], [-72.8, 40.97], [-72.77, 40.97], [-72.74, 40.97], [-72.7, 40.98], [-72.67, 40.98], [-72.63, 40.98], [-72.59, 41.0], [-72.57, 41.01], [-72.52, 41.04], [-72.51, 41.04], [-72.47, 41.06], [-72.46, 41.06], [-72.45, 41.08], [-72.42, 41.09], [-72.4, 41.1], [-72.38, 41.11], [-72.36, 41.13], [-72.35, 41.14], [-72.34, 41.14], [-72.33, 41.14], [-72.32, 41.14], [-72.31, 41.15], [-72.28, 41.16], [-72.27, 41.15], [-72.25, 41.16], [-72.24, 41.16]]], [[[-72.16, 41.19], [-72.19, 41.18], [-72.2, 41.17], [-72.21, 41.17], [-72.21, 41.18], [-72.19, 41.19], [-72.17, 41.19], [-72.16, 41.19], [-72.16, 41.19]]], [[[-71.92, 41.29], [-71.93, 41.28], [-71.96, 41.28], [-71.99, 41.26], [-72.0, 41.25], [-72.01, 41.26], [-72.03, 41.25], [-72.04, 41.26], [-72.02, 41.26], [-72.02, 41.27], [-71.99, 41.27], [-71.99, 41.28], [-71.98, 41.28], [-71.96, 41.29], [-71.95, 41.28], [-71.94, 41.29], [-71.92, 41.29]]], [[[-78.98, 43.06], [-78.97, 43.06], [-78.95, 43.06], [-78.92, 43.05], [-78.9, 43.04], [-78.89, 43.02], [-78.9, 43.02], [-78.92, 43.01], [-78.94, 43.0], [-78.95, 42.99], [-78.95, 42.98], [-78.94, 42.96], [-78.96, 42.96], [-78.97, 42.96], [-78.98, 42.97], [-79.0, 42.98], [-79.02, 43.0], [-79.02, 43.01], [-79.01, 43.03], [-79.0, 43.06], [-79.0, 43.06], [-78.98, 43.06]]], [[[-76.33, 43.88], [-76.34, 43.88], [-76.34, 43.89], [-76.33, 43.9], [-76.32, 43.9], [-76.31, 43.91], [-76.3, 43.92], [-76.31, 43.9], [-76.33, 43.88]]], [[[-76.43, 43.89], [-76.45, 43.89], [-76.43, 43.91], [-76.41, 43.92], [-76.39, 43.92], [-76.38, 43.92], [-76.39, 43.91], [-76.43, 43.89]]], [[[-76.36, 44.03], [-76.38, 44.03], [-76.38, 44.05], [-76.37, 44.05], [-76.35, 44.05], [-76.34, 44.05], [-76.35, 44.04], [-76.36, 44.03]]], [[[-76.26, 44.18], [-76.3, 44.17], [-76.31, 44.17], [-76.31, 44.18], [-76.29, 44.19], [-76.29, 44.19], [-76.26, 44.18]]], [[[-76.11, 44.26], [-76.12, 44.25], [-76.13, 44.26], [-76.14, 44.25], [-76.15, 44.25], [-76.16, 44.26], [-76.15, 44.28], [-76.13, 44.28], [-76.11, 44.3], [-76.07, 44.3], [-76.07, 44.3], [-76.08, 44.28], [-76.09, 44.27], [-76.11, 44.26]]], [[[-75.93, 44.34], [-75.94, 44.33], [-75.95, 44.33], [-75.96, 44.32], [-76.02, 44.29], [-76.03, 44.29], [-76.04, 44.3], [-76.03, 44.31], [-76.02, 44.32], [-76.05, 44.33], [-76.04, 44.33], [-76.02, 44.33], [-76.0, 44.35], [-75.99, 44.35], [-75.98, 44.34], [-76.01, 44.32], [-76.0, 44.32], [-75.98, 44.33], [-75.97, 44.33], [-75.95, 44.35], [-75.93, 44.36], [-75.92, 44.37], [-75.93, 44.36], [-75.93, 44.34]]], [[[-74.83, 45.01], [-74.82, 45.01], [-74.8, 45.01], [-74.8, 45.01], [-74.76, 45.01], [-74.76, 44.99], [-74.74, 44.99], [-74.73, 44.99], [-74.72, 45.0], [-74.7, 45.0], [-74.68, 45.0], [-74.55, 45.0], [-74.46, 45.0], [-74.34, 44.99], [-74.19, 44.99], [-74.15, 44.99], [-74.03, 45.0], [-73.87, 45.0], [-73.76, 45.0], [-73.68, 45.0], [-73.64, 45.0], [-73.43, 45.01], [-73.34, 45.01], [-73.35, 45.0], [-73.35, 44.99], [-73.35, 44.98], [-73.35, 44.98], [-73.34, 44.97], [-73.34, 44.97], [-73.34, 44.97], [-73.34, 44.96], [-73.34, 44.96], [-73.34, 44.95], [-73.34, 44.95], [-73.34, 44.94], [-73.34, 44.92], [-73.34, 44.92], [-73.35, 44.91], [-73.35, 44.91], [-73.36, 44.9], [-73.36, 44.89], [-73.36, 44.88], [-73.37, 44.88], [-73.37, 44.87], [-73.37, 44.87], [-73.37, 44.86], [-73.37, 44.86], [-73.37, 44.86], [-73.37, 44.86], [-73.38, 44.86], [-73.38, 44.86], [-73.38, 44.86], [-73.38, 44.86], [-73.38, 44.85], [-73.38, 44.85], [-73.38, 44.85], [-73.38, 44.84], [-73.38, 44.84], [-73.38, 44.84], [-73.38, 44.84], [-73.37, 44.84], [-73.37, 44.84], [-73.37, 44.83], [-73.37, 44.83], [-73.37, 44.83], [-73.37, 44.83], [-73.37, 44.83], [-73.37, 44.83], [-73.36, 44.83], [-73.36, 44.82], [-73.36, 44.82], [-73.36, 44.82], [-73.35, 44.82], [-73.35, 44.82], [-73.35, 44.82], [-73.35, 44.82], [-73.35, 44.82], [-73.35, 44.82], [-73.35, 44.81], [-73.35, 44.81], [-73.34, 44.81], [-73.34, 44.81], [-73.34, 44.81], [-73.34, 44.81], [-73.34, 44.81], [-73.34, 44.81], [-73.34, 44.8], [-73.33, 44.8], [-73.33, 44.8], [-73.33, 44.8], [-73.33, 44.8], [-73.33, 44.8], [-73.33, 44.8], [-73.33, 44.79], [-73.33, 44.79], [-73.33, 44.78], [-73.34, 44.78], [-73.34, 44.78], [-73.34, 44.78], [-73.35, 44.78], [-73.35, 44.77], [-73.35, 44.77], [-73.35, 44.76], [-73.35, 44.76], [-73.35, 44.76], [-73.36, 44.75], [-73.36, 44.75], [-73.36, 44.74], [-73.37, 44.74], [-73.37, 44.73], [-73.37, 44.72], [-73.37, 44.72], [-73.37, 44.71], [-73.37, 44.7], [-73.37, 44.7], [-73.36, 44.7], [-73.36, 44.69], [-73.36, 44.69], [-73.36, 44.69], [-73.36, 44.69], [-73.36, 44.69], [-73.37, 44.69], [-73.37, 44.69], [-73.37, 44.68], [-73.37, 44.68], [-73.37, 44.68], [-73.37, 44.68], [-73.37, 44.68], [-73.37, 44.68], [-73.37, 44.68], [-73.37, 44.68], [-73.37, 44.67], [-73.37, 44.67], [-73.37, 44.67], [-73.37, 44.67], [-73.37, 44.67], [-73.37, 44.66], [-73.37, 44.66], [-73.37, 44.66], [-73.37, 44.66], [-73.37, 44.66], [-73.37, 44.66], [-73.38, 44.66], [-73.38, 44.66], [-73.38, 44.65], [-73.38, 44.65], [-73.38, 44.65], [-73.38, 44.64], [-73.38, 44.64], [-73.38, 44.64], [-73.39, 44.64], [-73.39, 44.63], [-73.39, 44.63], [-73.39, 44.63], [-73.39, 44.62], [-73.39, 44.62], [-73.39, 44.62], [-73.39, 44.62], [-73.38, 44.61], [-73.38, 44.61], [-73.38, 44.6], [-73.38, 44.6], [-73.38, 44.59], [-73.38, 44.59], [-73.38, 44.59], [-73.38, 44.58], [-73.37, 44.58], [-73.37, 44.57], [-73.36, 44.56], [-73.36, 44.56], [-73.36, 44.56], [-73.35, 44.56], [-73.35, 44.56], [-73.35, 44.56], [-73.35, 44.56], [-73.35, 44.56], [-73.35, 44.56], [-73.35, 44.56], [-73.34, 44.55], [-73.34, 44.55], [-73.34, 44.55], [-73.34, 44.55], [-73.34, 44.55], [-73.34, 44.55], [-73.34, 44.55], [-73.34, 44.55], [-73.34, 44.55], [-73.34, 44.55], [-73.34, 44.55], [-73.34, 44.54], [-73.34, 44.54], [-73.34, 44.54], [-73.33, 44.54], [-73.33, 44.54], [-73.33, 44.53], [-73.33, 44.53], [-73.33, 44.53], [-73.33, 44.53], [-73.33, 44.53], [-73.33, 44.53], [-73.33, 44.53], [-73.33, 44.53], [-73.33, 44.53], [-73.33, 44.53], [-73.33, 44.53], [-73.33, 44.53], [-73.32, 44.53], [-73.32, 44.53], [-73.32, 44.53], [-73.32, 44.53], [-73.32, 44.53], [-73.32, 44.53], [-73.32, 44.53], [-73.32, 44.52], [-73.32, 44.52], [-73.32, 44.52], [-73.32, 44.52], [-73.32, 44.51], [-73.32, 44.51], [-73.31, 44.51], [-73.31, 44.51], [-73.31, 44.51], [-73.31, 44.51], [-73.31, 44.5], [-73.31, 44.5], [-73.31, 44.5], [-73.31, 44.5], [-73.31, 44.5], [-73.31, 44.5], [-73.31, 44.5], [-73.31, 44.5], [-73.31, 44.5], [-73.31, 44.5], [-73.31, 44.5], [-73.31, 44.49], [-73.31, 44.49], [-73.31, 44.49], [-73.3, 44.49], [-73.3, 44.49], [-73.3, 44.49], [-73.3, 44.49], [-73.3, 44.49], [-73.3, 44.48], [-73.3, 44.48], [-73.3, 44.48], [-73.3, 44.47], [-73.3, 44.47], [-73.3, 44.47], [-73.3, 44.47], [-73.3, 44.47], [-73.3, 44.47], [-73.3, 44.47], [-73.3, 44.46], [-73.3, 44.46], [-73.3, 44.46], [-73.3, 44.45], [-73.3, 44.45], [-73.3, 44.45], [-73.3, 44.45], [-73.3, 44.45], [-73.3, 44.45], [-73.3, 44.45], [-73.3, 44.45], [-73.3, 44.45], [-73.29, 44.44], [-73.29, 44.44], [-73.29, 44.44], [-73.29, 44.44], [-73.29, 44.44], [-73.29, 44.44], [-73.29, 44.43], [-73.3, 44.42], [-73.31, 44.4], [-73.31, 44.4], [-73.31, 44.39], [-73.33, 44.38], [-73.33, 44.37], [-73.33, 44.36], [-73.33, 44.36], [-73.33, 44.34], [-73.33, 44.34], [-73.32, 44.33], [-73.32, 44.31], [-73.32, 44.3], [-73.31, 44.28], [-73.31, 44.27], [-73.32, 44.26], [-73.32, 44.25], [-73.32, 44.25], [-73.32, 44.24], [-73.33, 44.24], [-73.33, 44.24], [-73.34, 44.24], [-73.34, 44.23], [-73.35, 44.23], [-73.35, 44.23], [-73.35, 44.23], [-73.36, 44.22], [-73.36, 44.22], [-73.36, 44.22], [-73.36, 44.21], [-73.36, 44.21], [-73.37, 44.2], [-73.38, 44.2], [-73.38, 44.2], [-73.38, 44.2], [-73.38, 44.19], [-73.39, 44.19], [-73.39, 44.19], [-73.39, 44.19], [-73.39, 44.19], [-73.39, 44.18], [-73.39, 44.18], [-73.39, 44.18], [-73.4, 44.17], [-73.4, 44.17], [-73.4, 44.17], [-73.4, 44.16], [-73.4, 44.15], [-73.4, 44.14], [-73.41, 44.14], [-73.41, 44.13], [-73.42, 44.13], [-73.41, 44.12], [-73.41, 44.11], [-73.41, 44.1], [-73.42, 44.1], [-73.42, 44.09], [-73.43, 44.07], [-73.44, 44.05], [-73.44, 44.05], [-73.44, 44.04], [-73.43, 44.04], [-73.43, 44.04], [-73.42, 44.03], [-73.42, 44.03], [-73.42, 44.03], [-73.41, 44.02], [-73.41, 44.01], [-73.41, 44.01], [-73.41, 43.98], [-73.41, 43.98], [-73.41, 43.98], [-73.41, 43.96], [-73.41, 43.94], [-73.41, 43.93], [-73.4, 43.91], [-73.38, 43.88], [-73.37, 43.87], [-73.38, 43.86], [-73.38, 43.86], [-73.38, 43.85], [-73.38, 43.85], [-73.37, 43.85], [-73.37, 43.85], [-73.37, 43.85], [-73.37, 43.84], [-73.37, 43.84], [-73.37, 43.84], [-73.37, 43.84], [-73.37, 43.84], [-73.39, 43.83], [-73.39, 43.82], [-73.39, 43.82], [-73.38, 43.81], [-73.38, 43.81], [-73.38, 43.81], [-73.38, 43.81], [-73.38, 43.8], [-73.37, 43.8], [-73.37, 43.8], [-73.37, 43.79], [-73.36, 43.79], [-73.36, 43.78], [-73.36, 43.78], [-73.35, 43.78], [-73.35, 43.77], [-73.36, 43.76], [-73.36, 43.76], [-73.36, 43.75], [-73.36, 43.75], [-73.37, 43.75], [-73.37, 43.75], [-73.37, 43.73], [-73.37, 43.73], [-73.37, 43.73], [-73.37, 43.73], [-73.37, 43.73], [-73.37, 43.73], [-73.37, 43.73], [-73.37, 43.72], [-73.37, 43.72], [-73.37, 43.72], [-73.37, 43.72], [-73.38, 43.72], [-73.38, 43.72], [-73.39, 43.71], [-73.39, 43.71], [-73.39, 43.71], [-73.39, 43.71], [-73.39, 43.71], [-73.39, 43.7], [-73.39, 43.7], [-73.39, 43.7], [-73.39, 43.7], [-73.39, 43.7], [-73.39, 43.7], [-73.4, 43.7], [-73.4, 43.7], [-73.4, 43.7], [-73.4, 43.69], [-73.4, 43.69], [-73.41, 43.69], [-73.4, 43.69], [-73.4, 43.69], [-73.4, 43.68], [-73.4, 43.68], [-73.4, 43.68], [-73.41, 43.67], [-73.41, 43.67], [-73.41, 43.67], [-73.41, 43.67], [-73.41, 43.67], [-73.41, 43.67], [-73.41, 43.67], [-73.41, 43.67], [-73.41, 43.67], [-73.41, 43.67], [-73.41, 43.67], [-73.41, 43.66], [-73.41, 43.66], [-73.41, 43.66], [-73.41, 43.66], [-73.41, 43.66], [-73.42, 43.65], [-73.42, 43.65], [-73.42, 43.65], [-73.42, 43.65], [-73.42, 43.65], [-73.42, 43.64], [-73.43, 43.64], [-73.43, 43.64], [-73.43, 43.64], [-73.43, 43.64], [-73.43, 43.64], [-73.43, 43.64], [-73.43, 43.64], [-73.43, 43.63], [-73.42, 43.63], [-73.42, 43.63], [-73.42, 43.62], [-73.42, 43.62], [-73.42, 43.62], [-73.42, 43.61], [-73.42, 43.61], [-73.42, 43.6], [-73.42, 43.6], [-73.42, 43.6], [-73.43, 43.59], [-73.43, 43.59], [-73.43, 43.58], [-73.42, 43.58], [-73.42, 43.58], [-73.42, 43.58], [-73.41, 43.57], [-73.4, 43.57], [-73.4, 43.57], [-73.4, 43.57], [-73.4, 43.57], [-73.4, 43.57], [-73.39, 43.57], [-73.39, 43.57], [-73.38, 43.58], [-73.38, 43.58], [-73.38, 43.59], [-73.38, 43.59], [-73.38, 43.59], [-73.38, 43.59], [-73.39, 43.59], [-73.39, 43.59], [-73.39, 43.59], [-73.38, 43.59], [-73.38, 43.59], [-73.38, 43.6], [-73.38, 43.6], [-73.38, 43.6], [-73.38, 43.6], [-73.38, 43.6], [-73.38, 43.6], [-73.38, 43.6], [-73.38, 43.6], [-73.38, 43.6], [-73.37, 43.6], [-73.37, 43.6], [-73.37, 43.61], [-73.37, 43.61], [-73.37, 43.61], [-73.38, 43.61], [-73.37, 43.61], [-73.37, 43.61], [-73.37, 43.61], [-73.38, 43.61], [-73.38, 43.61], [-73.37, 43.62], [-73.37, 43.62], [-73.37, 43.62], [-73.37, 43.62], [-73.37, 43.62], [-73.37, 43.62], [-73.37, 43.62], [-73.36, 43.62], [-73.36, 43.63], [-73.35, 43.63], [-73.35, 43.63], [-73.35, 43.62], [-73.35, 43.62], [-73.35, 43.62], [-73.35, 43.62], [-73.35, 43.62], [-73.35, 43.63], [-73.34, 43.63], [-73.34, 43.63], [-73.34, 43.62], [-73.34, 43.62], [-73.34, 43.63], [-73.34, 43.63], [-73.34, 43.63], [-73.33, 43.63], [-73.33, 43.63], [-73.33, 43.63], [-73.33, 43.63], [-73.33, 43.63], [-73.32, 43.63], [-73.32, 43.63], [-73.32, 43.63], [-73.32, 43.63], [-73.32, 43.63], [-73.31, 43.63], [-73.31, 43.63], [-73.31, 43.62], [-73.31, 43.62], [-73.31, 43.63], [-73.31, 43.63], [-73.31, 43.63], [-73.3, 43.63], [-73.3, 43.62], [-73.3, 43.62], [-73.3, 43.62], [-73.3, 43.62], [-73.3, 43.62], [-73.3, 43.62], [-73.3, 43.61], [-73.3, 43.61], [-73.3, 43.61], [-73.3, 43.61], [-73.3, 43.61], [-73.3, 43.61], [-73.3, 43.61], [-73.3, 43.61], [-73.3, 43.61], [-73.3, 43.61], [-73.3, 43.61], [-73.29, 43.61], [-73.29, 43.6], [-73.29, 43.6], [-73.29, 43.6], [-73.29, 43.6], [-73.29, 43.6], [-73.29, 43.6], [-73.29, 43.59], [-73.3, 43.59], [-73.3, 43.59], [-73.3, 43.59], [-73.29, 43.58], [-73.29, 43.58], [-73.3, 43.58], [-73.3, 43.58], [-73.29, 43.58], [-73.29, 43.58], [-73.29, 43.58], [-73.29, 43.58], [-73.29, 43.58], [-73.29, 43.58], [-73.28, 43.58], [-73.28, 43.58], [-73.28, 43.58], [-73.28, 43.58], [-73.28, 43.58], [-73.28, 43.57], [-73.28, 43.57], [-73.28, 43.57], [-73.27, 43.57], [-73.27, 43.57], [-73.27, 43.57], [-73.27, 43.57], [-73.27, 43.57], [-73.27, 43.57], [-73.27, 43.57], [-73.27, 43.57], [-73.27, 43.57], [-73.27, 43.57], [-73.27, 43.57], [-73.27, 43.57], [-73.27, 43.57], [-73.26, 43.57], [-73.26, 43.57], [-73.26, 43.57], [-73.26, 43.57], [-73.26, 43.57], [-73.26, 43.57], [-73.26, 43.57], [-73.26, 43.57], [-73.26, 43.56], [-73.26, 43.56], [-73.26, 43.56], [-73.26, 43.56], [-73.26, 43.56], [-73.26, 43.56], [-73.25, 43.56], [-73.25, 43.56], [-73.25, 43.56], [-73.25, 43.55], [-73.25, 43.55], [-73.25, 43.55], [-73.25, 43.55], [-73.25, 43.55], [-73.25, 43.55], [-73.25, 43.55], [-73.25, 43.55], [-73.25, 43.55], [-73.25, 43.55], [-73.25, 43.55], [-73.25, 43.55], [-73.25, 43.55], [-73.25, 43.54], [-73.25, 43.54], [-73.25, 43.54], [-73.25, 43.54], [-73.25, 43.54], [-73.24, 43.54], [-73.24, 43.54], [-73.24, 43.54], [-73.24, 43.53], [-73.24, 43.53], [-73.24, 43.54], [-73.24, 43.54], [-73.24, 43.53], [-73.24, 43.53], [-73.24, 43.53], [-73.24, 43.53], [-73.24, 43.53], [-73.24, 43.53], [-73.24, 43.53], [-73.24, 43.53], [-73.25, 43.53], [-73.25, 43.53], [-73.25, 43.52], [-73.25, 43.52], [-73.25, 43.52], [-73.25, 43.52], [-73.25, 43.52], [-73.25, 43.49], [-73.25, 43.49], [-73.25, 43.46], [-73.25, 43.46], [-73.25, 43.44], [-73.25, 43.41], [-73.25, 43.41], [-73.25, 43.39], [-73.25, 43.38], [-73.25, 43.36], [-73.25, 43.36], [-73.25, 43.36], [-73.25, 43.36], [-73.25, 43.36], [-73.25, 43.35], [-73.25, 43.35], [-73.25, 43.34], [-73.25, 43.34], [-73.25, 43.33], [-73.25, 43.33], [-73.25, 43.32], [-73.25, 43.32], [-73.25, 43.31], [-73.25, 43.31], [-73.26, 43.3], [-73.26, 43.27], [-73.26, 43.27], [-73.26, 43.26], [-73.26, 43.25], [-73.26, 43.25], [-73.26, 43.25], [-73.26, 43.23], [-73.26, 43.22], [-73.26, 43.21], [-73.26, 43.19], [-73.26, 43.18], [-73.26, 43.16], [-73.26, 43.14], [-73.26, 43.11], [-73.27, 43.08], [-73.27, 43.05], [-73.27, 43.02], [-73.27, 43.0], [-73.27, 42.98], [-73.27, 42.98], [-73.27, 42.96], [-73.27, 42.95], [-73.28, 42.83], [-73.29, 42.83], [-73.29, 42.82], [-73.28, 42.81], [-73.29, 42.8], [-73.28, 42.75], [-73.26, 42.75], [-73.29, 42.67], [-73.35, 42.52], [-73.36, 42.48], [-73.41, 42.37], [-73.45, 42.24], [-73.51, 42.09], [-73.5, 42.05], [-73.49, 42.05], [-73.49, 42.02], [-73.49, 42.02], [-73.49, 42.0], [-73.49, 41.97], [-73.49, 41.97], [-73.49, 41.96], [-73.49, 41.95], [-73.49, 41.95], [-73.49, 41.95], [-73.5, 41.91], [-73.5, 41.91], [-73.5, 41.89], [-73.5, 41.89], [-73.5, 41.88], [-73.5, 41.87], [-73.5, 41.86], [-73.5, 41.86], [-73.5, 41.85], [-73.5, 41.83], [-73.51, 41.82], [-73.51, 41.81], [-73.51, 41.8], [-73.51, 41.79], [-73.51, 41.76], [-73.51, 41.75], [-73.51, 41.73], [-73.52, 41.7], [-73.52, 41.69], [-73.52, 41.69], [-73.52, 41.67], [-73.52, 41.67], [-73.52, 41.67], [-73.52, 41.62], [-73.53, 41.57], [-73.53, 41.5], [-73.54, 41.45], [-73.54, 41.41], [-73.54, 41.38], [-73.55, 41.32], [-73.55, 41.31], [-73.55, 41.3], [-73.55, 41.3], [-73.51, 41.25], [-73.5, 41.24], [-73.49, 41.22], [-73.48, 41.21], [-73.6, 41.16], [-73.66, 41.13], [-73.7, 41.11], [-73.71, 41.11], [-73.73, 41.1], [-73.72, 41.09], [-73.72, 41.09], [-73.71, 41.07], [-73.68, 41.04], [-73.67, 41.03], [-73.66, 41.02], [-73.66, 41.02], [-73.66, 41.01], [-73.66, 41.01], [-73.66, 41.01], [-73.66, 41.01], [-73.66, 41.01], [-73.66, 41.0], [-73.66, 41.0], [-73.66, 40.99], [-73.66, 40.99], [-73.67, 40.97], [-73.68, 40.96], [-73.69, 40.95], [-73.72, 40.95], [-73.73, 40.93], [-73.74, 40.93], [-73.74, 40.92], [-73.77, 40.91], [-73.76, 40.9], [-73.77, 40.89], [-73.79, 40.88], [-73.78, 40.88], [-73.79, 40.86], [-73.8, 40.85], [-73.82, 40.85], [-73.82, 40.84], [-73.8, 40.81], [-73.82, 40.81], [-73.83, 40.81], [-73.87, 40.81], [-73.87, 40.8], [-73.88, 40.8], [-73.9, 40.81], [-73.91, 40.8], [-73.93, 40.8], [-73.93, 40.79], [-73.94, 40.78], [-73.94, 40.78], [-73.97, 40.74], [-73.97, 40.73], [-73.98, 40.71], [-74.0, 40.71], [-74.01, 40.7], [-74.03, 40.71], [-74.01, 40.76], [-73.96, 40.83], [-73.95, 40.85], [-73.93, 40.89], [-73.92, 40.92], [-73.9, 40.98], [-73.89, 41.0], [-73.91, 41.0], [-73.94, 41.01], [-74.05, 41.06], [-74.18, 41.12], [-74.23, 41.14], [-74.24, 41.15], [-74.24, 41.15], [-74.25, 41.15], [-74.28, 41.16], [-74.29, 41.17], [-74.31, 41.18], [-74.32, 41.18], [-74.32, 41.18], [-74.33, 41.19], [-74.35, 41.2], [-74.38, 41.21], [-74.39, 41.22], [-74.4, 41.22], [-74.41, 41.23], [-74.42, 41.23], [-74.42, 41.23], [-74.44, 41.24], [-74.48, 41.26], [-74.48, 41.26], [-74.5, 41.27], [-74.52, 41.28], [-74.53, 41.28], [-74.53, 41.28], [-74.55, 41.29], [-74.56, 41.29], [-74.56, 41.3], [-74.56, 41.3], [-74.57, 41.3], [-74.58, 41.31], [-74.59, 41.31], [-74.61, 41.32], [-74.62, 41.32], [-74.67, 41.34], [-74.67, 41.35], [-74.68, 41.35], [-74.69, 41.36], [-74.7, 41.36], [-74.69, 41.37], [-74.69, 41.37], [-74.7, 41.37], [-74.71, 41.38], [-74.71, 41.39], [-74.71, 41.39], [-74.72, 41.39], [-74.73, 41.4], [-74.74, 41.4], [-74.74, 41.41], [-74.74, 41.41], [-74.74, 41.42], [-74.74, 41.43], [-74.74, 41.43], [-74.74, 41.43], [-74.75, 41.43], [-74.75, 41.43], [-74.75, 41.43], [-74.75, 41.43], [-74.75, 41.43], [-74.76, 41.42], [-74.77, 41.43], [-74.78, 41.43], [-74.78, 41.42], [-74.79, 41.42], [-74.79, 41.42], [-74.79, 41.42], [-74.8, 41.42], [-74.8, 41.43], [-74.8, 41.43], [-74.8, 41.44], [-74.8, 41.44], [-74.81, 41.44], [-74.81, 41.44], [-74.81, 41.44], [-74.81, 41.44], [-74.81, 41.44], [-74.81, 41.44], [-74.82, 41.44], [-74.82, 41.44], [-74.82, 41.44], [-74.82, 41.44], [-74.82, 41.44], [-74.82, 41.43], [-74.83, 41.43], [-74.83, 41.43], [-74.83, 41.43], [-74.83, 41.43], [-74.84, 41.43], [-74.84, 41.43], [-74.84, 41.43], [-74.84, 41.43], [-74.84, 41.44], [-74.84, 41.44], [-74.85, 41.44], [-74.86, 41.44], [-74.87, 41.44], [-74.87, 41.44], [-74.87, 41.44], [-74.88, 41.44], [-74.88, 41.44], [-74.88, 41.44], [-74.88, 41.44], [-74.89, 41.44], [-74.89, 41.44], [-74.89, 41.44], [-74.89, 41.44], [-74.89, 41.44], [-74.9, 41.44], [-74.9, 41.44], [-74.9, 41.44], [-74.89, 41.45], [-74.89, 41.45], [-74.89, 41.45], [-74.89, 41.46], [-74.89, 41.46], [-74.89, 41.46], [-74.9, 41.46], [-74.9, 41.46], [-74.9, 41.46], [-74.9, 41.46], [-74.91, 41.46], [-74.91, 41.46], [-74.91, 41.46], [-74.91, 41.46], [-74.91, 41.47], [-74.91, 41.47], [-74.91, 41.47], [-74.91, 41.48], [-74.91, 41.48], [-74.92, 41.48], [-74.92, 41.48], [-74.92, 41.48], [-74.93, 41.48], [-74.93, 41.48], [-74.93, 41.48], [-74.94, 41.48], [-74.94, 41.48], [-74.95, 41.48], [-74.95, 41.48], [-74.96, 41.48], [-74.97, 41.48], [-74.97, 41.48], [-74.98, 41.48], [-74.98, 41.48], [-74.98, 41.48], [-74.98, 41.48], [-74.99, 41.48], [-74.99, 41.49], [-74.99, 41.49], [-74.98, 41.49], [-74.98, 41.49], [-74.98, 41.5], [-74.98, 41.5], [-74.98, 41.5], [-74.98, 41.5], [-74.98, 41.51], [-74.99, 41.51], [-74.99, 41.51], [-75.0, 41.51], [-75.0, 41.51], [-75.0, 41.52], [-75.0, 41.52], [-75.01, 41.53], [-75.01, 41.53], [-75.02, 41.53], [-75.02, 41.54], [-75.03, 41.54], [-75.02, 41.54], [-75.02, 41.54], [-75.02, 41.55], [-75.02, 41.55], [-75.02, 41.55], [-75.02, 41.56], [-75.03, 41.56], [-75.03, 41.56], [-75.03, 41.56], [-75.03, 41.57], [-75.04, 41.57], [-75.04, 41.57], [-75.04, 41.57], [-75.05, 41.58], [-75.05, 41.59], [-75.06, 41.59], [-75.06, 41.59], [-75.06, 41.59], [-75.06, 41.59], [-75.07, 41.6], [-75.07, 41.6], [-75.07, 41.61], [-75.07, 41.61], [-75.07, 41.61], [-75.07, 41.61], [-75.07, 41.61], [-75.06, 41.61], [-75.06, 41.61], [-75.06, 41.62], [-75.06, 41.62], [-75.06, 41.62], [-75.05, 41.62], [-75.05, 41.62], [-75.05, 41.62], [-75.05, 41.62], [-75.05, 41.62], [-75.04, 41.62], [-75.04, 41.62], [-75.04, 41.62], [-75.04, 41.62], [-75.04, 41.62], [-75.05, 41.63], [-75.05, 41.63], [-75.05, 41.63], [-75.05, 41.64], [-75.05, 41.64], [-75.05, 41.64], [-75.05, 41.64], [-75.05, 41.65], [-75.05, 41.65], [-75.05, 41.65], [-75.05, 41.65], [-75.05, 41.65], [-75.05, 41.66], [-75.05, 41.66], [-75.05, 41.67], [-75.06, 41.67], [-75.06, 41.67], [-75.05, 41.68], [-75.05, 41.68], [-75.05, 41.69], [-75.05, 41.69], [-75.06, 41.7], [-75.07, 41.71], [-75.07, 41.71], [-75.07, 41.71], [-75.07, 41.71], [-75.06, 41.71], [-75.05, 41.71], [-75.05, 41.71], [-75.05, 41.71], [-75.05, 41.74], [-75.05, 41.74], [-75.05, 41.75], [-75.05, 41.75], [-75.06, 41.76], [-75.06, 41.76], [-75.06, 41.77], [-75.06, 41.77], [-75.07, 41.77], [-75.07, 41.77], [-75.07, 41.77], [-75.07, 41.77], [-75.08, 41.77], [-75.08, 41.77], [-75.1, 41.77], [-75.1, 41.77], [-75.1, 41.77], [-75.1, 41.78], [-75.1, 41.78], [-75.1, 41.78], [-75.1, 41.79], [-75.1, 41.79], [-75.09, 41.79], [-75.09, 41.8], [-75.09, 41.8], [-75.09, 41.8], [-75.08, 41.8], [-75.08, 41.8], [-75.08, 41.8], [-75.07, 41.8], [-75.07, 41.81], [-75.07, 41.81], [-75.08, 41.82], [-75.09, 41.81], [-75.09, 41.81], [-75.09, 41.81], [-75.1, 41.82], [-75.11, 41.82], [-75.11, 41.82], [-75.11, 41.83], [-75.12, 41.83], [-75.11, 41.84], [-75.12, 41.85], [-75.13, 41.85], [-75.14, 41.85], [-75.14, 41.85], [-75.14, 41.85], [-75.15, 41.85], [-75.15, 41.85], [-75.15, 41.85], [-75.15, 41.85], [-75.16, 41.85], [-75.16, 41.85], [-75.16, 41.85], [-75.17, 41.85], [-75.17, 41.86], [-75.17, 41.86], [-75.17, 41.86], [-75.17, 41.87], [-75.17, 41.87], [-75.17, 41.87], [-75.17, 41.87], [-75.17, 41.87], [-75.18, 41.87], [-75.18, 41.87], [-75.18, 41.87], [-75.18, 41.87], [-75.18, 41.86], [-75.18, 41.86], [-75.18, 41.86], [-75.19, 41.86], [-75.2, 41.87], [-75.2, 41.87], [-75.2, 41.87], [-75.2, 41.87], [-75.21, 41.87], [-75.21, 41.87], [-75.22, 41.86], [-75.22, 41.86], [-75.22, 41.86], [-75.22, 41.86], [-75.22, 41.86], [-75.23, 41.86], [-75.23, 41.86], [-75.23, 41.86], [-75.23, 41.86], [-75.23, 41.86], [-75.24, 41.87], [-75.26, 41.86], [-75.26, 41.86], [-75.26, 41.86], [-75.26, 41.87], [-75.26, 41.87], [-75.26, 41.88], [-75.26, 41.88], [-75.26, 41.88], [-75.27, 41.89], [-75.27, 41.9], [-75.27, 41.9], [-75.27, 41.91], [-75.28, 41.92], [-75.28, 41.92], [-75.28, 41.94], [-75.28, 41.94], [-75.28, 41.94], [-75.28, 41.94], [-75.29, 41.94], [-75.29, 41.95], [-75.3, 41.95], [-75.3, 41.95], [-75.3, 41.95], [-75.31, 41.95], [-75.31, 41.95], [-75.32, 41.95], [-75.32, 41.95], [-75.32, 41.96], [-75.32, 41.96], [-75.33, 41.97], [-75.34, 41.97], [-75.34, 41.97], [-75.34, 41.97], [-75.34, 41.98], [-75.34, 41.99], [-75.34, 41.99], [-75.34, 41.99], [-75.35, 42.0], [-75.36, 42.0], [-75.36, 42.0], [-75.4, 42.0], [-75.42, 42.0], [-75.47, 42.0], [-75.48, 42.0], [-75.48, 42.0], [-75.48, 42.0], [-75.5, 42.0], [-75.51, 42.0], [-75.54, 42.0], [-75.55, 42.0], [-75.57, 42.0], [-75.61, 42.0], [-75.63, 42.0], [-75.64, 42.0], [-75.66, 42.0], [-75.68, 42.0], [-75.69, 42.0], [-75.71, 42.0], [-75.72, 42.0], [-75.73, 42.0], [-75.74, 42.0], [-75.75, 42.0], [-75.75, 42.0], [-75.76, 42.0], [-75.76, 42.0], [-75.76, 42.0], [-75.77, 42.0], [-75.79, 42.0], [-75.81, 42.0], [-75.86, 42.0], [-75.87, 42.0], [-75.89, 42.0], [-75.9, 42.0], [-75.94, 42.0], [-75.95, 42.0], [-75.96, 42.0], [-75.96, 42.0], [-75.98, 42.0], [-75.98, 42.0], [-76.01, 42.0], [-76.03, 42.0], [-76.05, 42.0], [-76.06, 42.0], [-76.11, 42.0], [-76.11, 42.0], [-76.12, 42.0], [-76.14, 42.0], [-76.14, 42.0], [-76.15, 42.0], [-76.2, 42.0], [-76.24, 42.0], [-76.29, 42.0], [-76.31, 42.0], [-76.35, 42.0], [-76.37, 42.0], [-76.38, 42.0], [-76.39, 42.0], [-76.42, 42.0], [-76.45, 42.0], [-76.46, 42.0], [-76.47, 42.0], [-76.47, 42.0], [-76.48, 42.0], [-76.48, 42.0], [-76.49, 42.0], [-76.49, 42.0], [-76.5, 42.0], [-76.51, 42.0], [-76.52, 42.0], [-76.52, 42.0], [-76.52, 42.0], [-76.52, 42.0], [-76.53, 42.0], [-76.53, 42.0], [-76.53, 42.0], [-76.53, 42.0], [-76.54, 42.0], [-76.54, 42.0], [-76.54, 42.0], [-76.54, 42.0], [-76.55, 42.0], [-76.55, 42.0], [-76.56, 42.0], [-76.75, 42.0], [-76.92, 42.0], [-77.11, 42.0], [-77.31, 42.0], [-77.51, 42.0], [-77.61, 42.0], [-77.65, 42.0], [-77.78, 42.0], [-77.91, 42.0], [-78.0, 42.0], [-78.12, 42.0], [-78.27, 42.0], [-78.34, 42.0], [-78.6, 42.0], [-78.75, 42.0], [-78.87, 42.0], [-78.98, 42.0], [-79.06, 42.0], [-79.06, 42.0], [-79.06, 42.0], [-79.09, 42.0], [-79.11, 42.0], [-79.13, 42.0], [-79.14, 42.0], [-79.22, 42.0], [-79.25, 42.0], [-79.27, 42.0], [-79.29, 42.0], [-79.31, 42.0], [-79.31, 42.0], [-79.35, 42.0], [-79.38, 42.0], [-79.39, 42.0], [-79.39, 42.0], [-79.43, 42.0], [-79.45, 42.0], [-79.46, 42.0], [-79.48, 42.0], [-79.49, 42.0], [-79.49, 42.0], [-79.5, 42.0], [-79.51, 42.0], [-79.54, 42.0], [-79.54, 42.0], [-79.54, 42.0], [-79.54, 42.0], [-79.54, 42.0], [-79.55, 42.0], [-79.56, 42.0], [-79.58, 42.0], [-79.6, 42.0], [-79.66, 42.0], [-79.68, 42.0], [-79.69, 42.0], [-79.72, 42.0], [-79.75, 42.0], [-79.76, 42.0], [-79.76, 42.01], [-79.76, 42.02], [-79.76, 42.04], [-79.76, 42.06], [-79.76, 42.09], [-79.76, 42.11], [-79.76, 42.13], [-79.76, 42.13], [-79.76, 42.13], [-79.76, 42.14], [-79.76, 42.15], [-79.76, 42.15], [-79.76, 42.16], [-79.76, 42.17], [-79.76, 42.18], [-79.76, 42.2], [-79.76, 42.22], [-79.76, 42.24], [-79.76, 42.27], [-79.76, 42.27], [-79.75, 42.27], [-79.7, 42.29], [-79.67, 42.3], [-79.61, 42.33], [-79.61, 42.34], [-79.59, 42.34], [-79.57, 42.35], [-79.51, 42.38], [-79.47, 42.4], [-79.45, 42.41], [-79.43, 42.43], [-79.42, 42.45], [-79.41, 42.45], [-79.39, 42.46], [-79.38, 42.47], [-79.36, 42.48], [-79.35, 42.49], [-79.33, 42.49], [-79.31, 42.5], [-79.29, 42.51], [-79.28, 42.51], [-79.27, 42.52], [-79.25, 42.53], [-79.24, 42.53], [-79.2, 42.54], [-79.15, 42.55], [-79.14, 42.56], [-79.13, 42.59], [-79.12, 42.6], [-79.11, 42.61], [-79.1, 42.62], [-79.09, 42.63], [-79.08, 42.63], [-79.08, 42.64], [-79.06, 42.65], [-79.06, 42.67], [-79.05, 42.68], [-79.05, 42.69], [-79.03, 42.7], [-79.01, 42.7], [-78.99, 42.71], [-78.95, 42.73], [-78.92, 42.74], [-78.89, 42.76], [-78.86, 42.77], [-78.85, 42.79], [-78.85, 42.79], [-78.87, 42.82], [-78.86, 42.84], [-78.87, 42.85], [-78.87, 42.85], [-78.89, 42.88], [-78.88, 42.88], [-78.9, 42.9], [-78.9, 42.92], [-78.9, 42.93], [-78.91, 42.94], [-78.91, 42.96], [-78.94, 42.97], [-78.94, 42.98], [-78.94, 42.99], [-78.92, 43.01], [-78.89, 43.02], [-78.88, 43.02], [-78.89, 43.05], [-78.9, 43.06], [-78.93, 43.07], [-78.95, 43.07], [-78.99, 43.07], [-79.0, 43.07], [-79.02, 43.08], [-79.04, 43.08], [-79.06, 43.08], [-79.07, 43.09], [-79.06, 43.1], [-79.07, 43.12], [-79.04, 43.14], [-79.04, 43.15], [-79.05, 43.17], [-79.05, 43.2], [-79.05, 43.21], [-79.05, 43.22], [-79.05, 43.23], [-79.05, 43.25], [-79.06, 43.26], [-79.03, 43.27], [-78.99, 43.28], [-78.96, 43.29], [-78.92, 43.3], [-78.85, 43.31], [-78.84, 43.32], [-78.81, 43.32], [-78.78, 43.33], [-78.73, 43.34], [-78.7, 43.34], [-78.69, 43.34], [-78.64, 43.36], [-78.59, 43.36], [-78.56, 43.37], [-78.52, 43.37], [-78.48, 43.37], [-78.47, 43.37], [-78.44, 43.37], [-78.41, 43.38], [-78.37, 43.38], [-78.37, 43.37], [-78.3, 43.37], [-78.26, 43.37], [-78.23, 43.37], [-78.21, 43.37], [-78.18, 43.37], [-78.16, 43.37], [-78.1, 43.38], [-78.06, 43.37], [-78.04, 43.37], [-78.03, 43.37], [-78.01, 43.37], [-78.0, 43.37], [-77.98, 43.37], [-77.96, 43.37], [-77.93, 43.36], [-77.9, 43.36], [-77.87, 43.35], [-77.84, 43.35], [-77.83, 43.34], [-77.82, 43.34], [-77.8, 43.34], [-77.78, 43.34], [-77.76, 43.34], [-77.75, 43.34], [-77.73, 43.33], [-77.71, 43.32], [-77.72, 43.31], [-77.7, 43.31], [-77.69, 43.3], [-77.66, 43.28], [-77.63, 43.27], [-77.6, 43.26], [-77.58, 43.24], [-77.55, 43.24], [-77.53, 43.24], [-77.5, 43.25], [-77.48, 43.25], [-77.47, 43.26], [-77.44, 43.26], [-77.43, 43.27], [-77.41, 43.27], [-77.39, 43.28], [-77.38, 43.28], [-77.34, 43.28], [-77.33, 43.28], [-77.31, 43.28], [-77.3, 43.28], [-77.27, 43.28], [-77.22, 43.28], [-77.17, 43.28], [-77.15, 43.29], [-77.14, 43.29], [-77.11, 43.29], [-77.08, 43.28], [-77.07, 43.28], [-77.04, 43.27], [-77.01, 43.27], [-76.99, 43.27], [-76.99, 43.26], [-76.97, 43.25], [-76.97, 43.25], [-76.96, 43.24], [-76.95, 43.24], [-76.94, 43.23], [-76.93, 43.22], [-76.92, 43.23], [-76.94, 43.25], [-76.94, 43.26], [-76.94, 43.27], [-76.92, 43.29], [-76.92, 43.29], [-76.9, 43.3], [-76.88, 43.29], [-76.85, 43.3], [-76.84, 43.3], [-76.82, 43.31], [-76.79, 43.31], [-76.77, 43.32], [-76.73, 43.34], [-76.71, 43.34], [-76.71, 43.33], [-76.7, 43.33], [-76.7, 43.34], [-76.68, 43.35], [-76.67, 43.37], [-76.64, 43.4], [-76.63, 43.41], [-76.62, 43.41], [-76.6, 43.43], [-76.57, 43.44], [-76.57, 43.45], [-76.55, 43.45], [-76.54, 43.46], [-76.51, 43.46], [-76.51, 43.47], [-76.49, 43.48], [-76.47, 43.5], [-76.46, 43.5], [-76.42, 43.51], [-76.42, 43.52], [-76.39, 43.53], [-76.37, 43.53], [-76.35, 43.51], [-76.33, 43.51], [-76.32, 43.51], [-76.3, 43.51], [-76.28, 43.52], [-76.24, 43.53], [-76.23, 43.53], [-76.22, 43.55], [-76.2, 43.58], [-76.2, 43.6], [-76.2, 43.63], [-76.18, 43.64], [-76.17, 43.64], [-76.16, 43.65], [-76.16, 43.66], [-76.17, 43.66], [-76.19, 43.68], [-76.2, 43.68], [-76.2, 43.69], [-76.21, 43.74], [-76.23, 43.8], [-76.24, 43.82], [-76.25, 43.83], [-76.27, 43.82], [-76.27, 43.84], [-76.28, 43.84], [-76.29, 43.84], [-76.3, 43.84], [-76.3, 43.86], [-76.27, 43.88], [-76.26, 43.88], [-76.25, 43.88], [-76.22, 43.89], [-76.22, 43.88], [-76.24, 43.86], [-76.22, 43.86], [-76.21, 43.86], [-76.2, 43.86], [-76.18, 43.88], [-76.15, 43.89], [-76.15, 43.89], [-76.13, 43.9], [-76.13, 43.92], [-76.14, 43.94], [-76.12, 43.95], [-76.11, 43.95], [-76.1, 43.97], [-76.09, 43.98], [-76.07, 43.98], [-76.06, 43.97], [-76.06, 43.98], [-76.06, 44.0], [-76.08, 44.0], [-76.12, 43.97], [-76.14, 43.97], [-76.14, 43.97], [-76.16, 43.96], [-76.17, 43.96], [-76.18, 43.97], [-76.19, 43.97], [-76.21, 43.98], [-76.21, 43.99], [-76.19, 44.0], [-76.17, 44.0], [-76.16, 44.01], [-76.14, 44.01], [-76.12, 44.02], [-76.12, 44.03], [-76.12, 44.04], [-76.14, 44.04], [-76.15, 44.03], [-76.17, 44.03], [-76.15, 44.04], [-76.15, 44.06], [-76.15, 44.06], [-76.17, 44.07], [-76.19, 44.06], [-76.2, 44.05], [-76.22, 44.07], [-76.25, 44.06], [-76.26, 44.05], [-76.28, 44.04], [-76.28, 44.01], [-76.27, 44.02], [-76.25, 44.02], [-76.24, 44.03], [-76.21, 44.03], [-76.2, 44.02], [-76.22, 44.0], [-76.22, 43.99], [-76.24, 43.98], [-76.25, 43.97], [-76.28, 43.96], [-76.28, 43.97], [-76.27, 43.98], [-76.27, 44.0], [-76.27, 44.0], [-76.29, 44.01], [-76.3, 44.01], [-76.3, 44.02], [-76.31, 44.03], [-76.3, 44.03], [-76.3, 44.05], [-76.29, 44.06], [-76.32, 44.06], [-76.33, 44.06], [-76.33, 44.08], [-76.35, 44.07], [-76.36, 44.07], [-76.34, 44.09], [-76.35, 44.09], [-76.37, 44.1], [-76.37, 44.11], [-76.35, 44.12], [-76.32, 44.13], [-76.3, 44.15], [-76.28, 44.16], [-76.27, 44.16], [-76.25, 44.17], [-76.23, 44.19], [-76.2, 44.2], [-76.2, 44.21], [-76.19, 44.2], [-76.16, 44.22], [-76.13, 44.22], [-76.11, 44.23], [-76.11, 44.24], [-76.1, 44.23], [-76.09, 44.24], [-76.08, 44.24], [-76.07, 44.24], [-76.06, 44.25], [-76.05, 44.26], [-76.03, 44.27], [-76.01, 44.27], [-76.0, 44.28], [-75.99, 44.29], [-75.98, 44.3], [-75.95, 44.32], [-75.94, 44.32], [-75.89, 44.36], [-75.86, 44.37], [-75.86, 44.36], [-75.84, 44.37], [-75.84, 44.38], [-75.86, 44.38], [-75.84, 44.39], [-75.82, 44.41], [-75.79, 44.41], [-75.78, 44.43], [-75.75, 44.45], [-75.77, 44.45], [-75.77, 44.47], [-75.78, 44.47], [-75.77, 44.48], [-75.75, 44.52], [-75.73, 44.53], [-75.74, 44.54], [-75.7, 44.57], [-75.66, 44.59], [-75.62, 44.62], [-75.51, 44.7], [-75.47, 44.72], [-75.42, 44.76], [-75.41, 44.77], [-75.4, 44.77], [-75.38, 44.78], [-75.34, 44.81], [-75.33, 44.81], [-75.3, 44.83], [-75.31, 44.84], [-75.27, 44.85], [-75.26, 44.86], [-75.24, 44.87], [-75.23, 44.87], [-75.22, 44.88], [-75.2, 44.88], [-75.17, 44.89], [-75.14, 44.9], [-75.13, 44.92], [-75.12, 44.92], [-75.11, 44.92], [-75.1, 44.93], [-75.07, 44.93], [-75.05, 44.94], [-75.03, 44.95], [-75.01, 44.96], [-75.0, 44.97], [-74.99, 44.98], [-74.97, 44.98], [-74.94, 44.98], [-74.91, 44.98], [-74.9, 44.99], [-74.89, 45.0], [-74.87, 45.0], [-74.83, 45.01]]]]}}]}