{"type": "FeatureCollection", "features": [{"type": "Feature", "properties": {"ID": 29, "abbreviation": "NM", "name": "New Mexico"}, "geometry": {"type": "Polygon", "coordinates": [[[-103.0, 37.0], [-103.0, 36.97], [-103.0, 36.93], [-103.0, 36.82], [-103.0, 36.6], [-103.0, 36.5], [-103.04, 36.5], [-103.04, 36.46], [-103.04, 36.32], [-103.04, 36.13], [-103.04, 36.0], [-103.04, 35.84], [-103.04, 35.83], [-103.04, 35.79], [-103.04, 35.63], [-103.04, 35.51], [-103.04, 35.38], [-103.04, 35.25], [-103.04, 35.11], [-103.04, 34.95], [-103.04, 34.75], [-103.04, 34.61], [-103.04, 34.38], [-103.04, 34.23], [-103.04, 34.12], [-103.04, 34.02], [-103.05, 33.88], [-103.05, 33.77], [-103.05, 33.74], [-103.05, 33.57], [-103.05, 33.48], [-103.06, 33.32], [-103.06, 33.25], [-103.06, 33.12], [-103.06, 33.0], [-103.06, 32.81], [-103.06, 32.67], [-103.06, 32.49], [-103.06, 32.38], [-103.06, 32.23], [-103.06, 32.09], [-103.06, 32.0], [-103.22, 32.0], [-103.38, 32.0], [-103.54, 32.0], [-103.75, 32.0], [-103.88, 32.0], [-103.92, 32.0], [-104.08, 32.0], [-104.25, 32.0], [-104.46, 32.0], [-104.61, 32.0], [-104.76, 32.0], [-104.76, 32.0], [-104.77, 32.0], [-105.0, 32.0], [-105.14, 32.0], [-105.22, 32.0], [-105.43, 32.0], [-105.55, 32.0], [-105.73, 32.0], [-105.75, 32.0], [-105.93, 32.0], [-106.0, 32.0], [-106.0, 32.0], [-106.12, 32.0], [-106.13, 32.0], [-106.13, 32.0], [-106.14, 32.0], [-106.17, 32.0], [-106.32, 32.0], [-106.32, 32.0], [-106.32, 32.0], [-106.33, 32.0], [-106.33, 32.0], [-106.39, 32.0], [-106.43, 32.0], [-106.5, 32.0], [-106.52, 32.0], [-106.56, 32.0], [-106.59, 32.0], [-106.6, 32.0], [-106.62, 32.0], [-106.62, 32.0], [-106.62, 31.99], [-106.62, 31.99], [-106.63, 31.99], [-106.63, 31.99], [-106.63, 31.99], [-106.64, 31.99], [-106.64, 31.98], [-106.64, 31.98], [-106.64, 31.98], [-106.64, 31.98], [-106.63, 31.97], [-106.63, 31.97], [-106.63, 31.97], [-106.63, 31.97], [-106.63, 31.97], [-106.63, 31.97], [-106.63, 31.97], [-106.62, 31.97], [-106.62, 31.97], [-106.62, 31.97], [-106.62, 31.97], [-106.62, 31.96], [-106.62, 31.95], [-106.62, 31.96], [-106.62, 31.96], [-106.61, 31.96], [-106.61, 31.96], [-106.61, 31.95], [-106.61, 31.95], [-106.61, 31.95], [-106.61, 31.95], [-106.62, 31.95], [-106.62, 31.95], [-106.62, 31.95], [-106.62, 31.95], [-106.62, 31.94], [-106.62, 31.94], [-106.62, 31.94], [-106.62, 31.94], [-106.62, 31.94], [-106.62, 31.93], [-106.62, 31.93], [-106.62, 31.93], [-106.62, 31.93], [-106.62, 31.93], [-106.63, 31.93], [-106.63, 31.93], [-106.63, 31.93], [-106.63, 31.93], [-106.61, 31.92], [-106.63, 31.91], [-106.63, 31.91], [-106.63, 31.91], [-106.63, 31.91], [-106.63, 31.91], [-106.63, 31.91], [-106.63, 31.91], [-106.64, 31.91], [-106.64, 31.91], [-106.64, 31.91], [-106.64, 31.9], [-106.64, 31.9], [-106.64, 31.9], [-106.65, 31.9], [-106.65, 31.9], [-106.65, 31.89], [-106.64, 31.89], [-106.64, 31.89], [-106.64, 31.89], [-106.64, 31.89], [-106.64, 31.89], [-106.64, 31.89], [-106.64, 31.89], [-106.63, 31.89], [-106.63, 31.89], [-106.63, 31.89], [-106.63, 31.89], [-106.63, 31.89], [-106.63, 31.88], [-106.63, 31.88], [-106.63, 31.88], [-106.63, 31.88], [-106.63, 31.88], [-106.63, 31.88], [-106.63, 31.88], [-106.63, 31.88], [-106.63, 31.87], [-106.64, 31.87], [-106.63, 31.86], [-106.63, 31.86], [-106.63, 31.86], [-106.63, 31.86], [-106.63, 31.86], [-106.63, 31.86], [-106.61, 31.85], [-106.61, 31.85], [-106.61, 31.85], [-106.61, 31.85], [-106.61, 31.85], [-106.61, 31.85], [-106.61, 31.85], [-106.61, 31.85], [-106.6, 31.84], [-106.6, 31.84], [-106.6, 31.84], [-106.6, 31.84], [-106.61, 31.83], [-106.6, 31.83], [-106.6, 31.82], [-106.59, 31.82], [-106.59, 31.82], [-106.59, 31.82], [-106.59, 31.82], [-106.58, 31.82], [-106.58, 31.81], [-106.58, 31.81], [-106.58, 31.81], [-106.58, 31.81], [-106.58, 31.81], [-106.57, 31.81], [-106.57, 31.81], [-106.57, 31.81], [-106.57, 31.81], [-106.57, 31.81], [-106.56, 31.81], [-106.56, 31.81], [-106.55, 31.81], [-106.55, 31.81], [-106.54, 31.8], [-106.54, 31.8], [-106.54, 31.8], [-106.54, 31.78], [-107.0, 31.78], [-107.71, 31.78], [-107.77, 31.78], [-108.21, 31.78], [-108.21, 31.33], [-108.78, 31.33], [-109.0, 31.33], [-109.05, 31.33], [-109.05, 31.33], [-109.05, 31.37], [-109.05, 31.42], [-109.05, 31.48], [-109.05, 31.54], [-109.05, 31.67], [-109.05, 31.88], [-109.05, 32.07], [-109.05, 32.34], [-109.05, 32.43], [-109.05, 32.6], [-109.05, 32.75], [-109.05, 32.78], [-109.05, 32.99], [-109.05, 33.07], [-109.05, 33.11], [-109.05, 33.13], [-109.05, 33.14], [-109.05, 33.15], [-109.05, 33.18], [-109.05, 33.2], [-109.05, 33.2], [-109.05, 33.21], [-109.05, 33.31], [-109.05, 33.32], [-109.05, 33.35], [-109.05, 33.37], [-109.05, 33.38], [-109.05, 33.38], [-109.05, 33.39], [-109.05, 33.39], [-109.05, 33.41], [-109.05, 33.47], [-109.05, 33.62], [-109.05, 33.74], [-109.05, 33.75], [-109.05, 33.84], [-109.05, 33.88], [-109.05, 34.0], [-109.05, 34.17], [-109.05, 34.37], [-109.05, 34.52], [-109.05, 34.6], [-109.05, 34.61], [-109.05, 34.63], [-109.05, 34.68], [-109.05, 34.71], [-109.05, 34.75], [-109.05, 34.77], [-109.05, 34.79], [-109.05, 34.8], [-109.05, 34.88], [-109.05, 34.95], [-109.05, 35.13], [-109.05, 35.15], [-109.05, 35.21], [-109.05, 35.24], [-109.05, 35.25], [-109.05, 35.36], [-109.05, 35.38], [-109.05, 35.42], [-109.05, 35.5], [-109.05, 35.52], [-109.05, 35.55], [-109.05, 35.56], [-109.05, 35.62], [-109.05, 35.76], [-109.05, 35.88], [-109.05, 35.92], [-109.05, 35.99], [-109.05, 36.0], [-109.05, 36.01], [-109.05, 36.02], [-109.05, 36.02], [-109.05, 36.03], [-109.05, 36.05], [-109.05, 36.08], [-109.05, 36.09], [-109.05, 36.12], [-109.05, 36.13], [-109.05, 36.18], [-109.05, 36.18], [-109.05, 36.25], [-109.05, 36.25], [-109.05, 36.25], [-109.05, 36.26], [-109.05, 36.27], [-109.05, 36.3], [-109.05, 36.31], [-109.05, 36.31], [-109.05, 36.33], [-109.05, 36.35], [-109.05, 36.35], [-109.05, 36.35], [-109.05, 36.37], [-109.05, 36.38], [-109.05, 36.48], [-109.05, 36.5], [-109.05, 36.54], [-109.05, 36.59], [-109.05, 36.61], [-109.05, 36.64], [-109.05, 36.68], [-109.05, 36.69], [-109.05, 36.7], [-109.05, 36.75], [-109.05, 36.84], [-109.05, 36.88], [-109.05, 36.96], [-109.05, 36.97], [-109.05, 36.97], [-109.05, 37.0], [-109.03, 37.0], [-109.03, 37.0], [-109.0, 37.0], [-108.88, 37.0], [-108.68, 37.0], [-108.5, 37.0], [-108.25, 37.0], [-108.25, 37.0], [-107.99, 37.0], [-107.78, 37.0], [-107.0, 37.0], [-106.88, 37.0], [-106.87, 36.99], [-106.75, 36.99], [-106.7, 36.99], [-106.59, 36.99], [-106.5, 36.99], [-106.34, 36.99], [-106.2, 36.99], [-106.15, 36.99], [-105.97, 37.0], [-105.9, 37.0], [-105.66, 37.0], [-105.63, 37.0], [-105.45, 37.0], [-105.21, 37.0], [-105.12, 37.0], [-105.03, 36.99], [-105.0, 36.99], [-104.88, 36.99], [-104.65, 36.99], [-104.61, 36.99], [-104.34, 36.99], [-104.25, 36.99], [-104.09, 37.0], [-103.82, 37.0], [-103.79, 37.0], [-103.78, 37.0], [-103.77, 37.0], [-103.77, 37.0], [-103.75, 37.0], [-103.75, 37.0], [-103.74, 37.0], [-103.72, 37.0], [-103.69, 37.0], [-103.63, 37.0], [-103.55, 37.0], [-103.41, 37.0], [-103.25, 37.0], [-103.12, 37.0], [-103.0, 37.0], [-103.0, 37.0], [-103.0, 37.0]]]}}]}