{"type": "FeatureCollection", "features": [{"type": "Feature", "properties": {"ID": 28, "abbreviation": "NJ", "name": "New Jersey"}, "geometry": {"type": "MultiPolygon", "coordinates": [[[[-74.8, 38.99], [-74.83, 38.97], [-74.85, 38.96], [-74.87, 38.94], [-74.87, 38.96], [-74.86, 38.97], [-74.86, 38.97], [-74.85, 38.98], [-74.84, 38.97], [-74.83, 38.99], [-74.8, 39.01], [-74.8, 39.02], [-74.8, 39.02], [-74.79, 39.01], [-74.79, 39.0], [-74.8, 38.99]]], [[[-74.78, 39.04], [-74.79, 39.03], [-74.8, 39.04], [-74.78, 39.04]]], [[[-74.74, 39.11], [-74.75, 39.1], [-74.76, 39.11], [-74.74, 39.11]]], [[[-74.71, 39.1], [-74.74, 39.08], [-74.78, 39.02], [-74.78, 39.03], [-74.77, 39.04], [-74.77, 39.06], [-74.75, 39.07], [-74.74, 39.09], [-74.75, 39.1], [-74.73, 39.09], [-74.72, 39.11], [-74.72, 39.12], [-74.71, 39.11], [-74.71, 39.1]]], [[[-74.68, 39.18], [-74.7, 39.14], [-74.71, 39.13], [-74.71, 39.14], [-74.71, 39.14], [-74.71, 39.15], [-74.7, 39.16], [-74.7, 39.16], [-74.7, 39.16], [-74.7, 39.17], [-74.69, 39.17], [-74.67, 39.19], [-74.66, 39.19], [-74.68, 39.18]]], [[[-74.6, 39.26], [-74.62, 39.24], [-74.64, 39.21], [-74.65, 39.22], [-74.65, 39.23], [-74.65, 39.23], [-74.65, 39.24], [-74.64, 39.24], [-74.63, 39.24], [-74.63, 39.24], [-74.62, 39.25], [-74.63, 39.25], [-74.62, 39.26], [-74.61, 39.26], [-74.6, 39.28], [-74.59, 39.28], [-74.56, 39.29], [-74.55, 39.3], [-74.55, 39.29], [-74.56, 39.28], [-74.58, 39.27], [-74.6, 39.26]]], [[[-74.53, 39.32], [-74.56, 39.31], [-74.56, 39.32], [-74.54, 39.33], [-74.54, 39.32], [-74.53, 39.32]]], [[[-74.55, 39.32], [-74.56, 39.32], [-74.56, 39.32], [-74.56, 39.32], [-74.56, 39.33], [-74.57, 39.33], [-74.56, 39.34], [-74.56, 39.33], [-74.55, 39.32]]], [[[-74.51, 39.34], [-74.53, 39.32], [-74.54, 39.33], [-74.53, 39.34], [-74.52, 39.34], [-74.51, 39.34]]], [[[-74.49, 39.38], [-74.48, 39.37], [-74.48, 39.37], [-74.47, 39.36], [-74.5, 39.36], [-74.49, 39.37], [-74.49, 39.38]]], [[[-74.43, 39.39], [-74.43, 39.37], [-74.41, 39.38], [-74.41, 39.36], [-74.42, 39.36], [-74.45, 39.35], [-74.49, 39.33], [-74.53, 39.31], [-74.52, 39.32], [-74.51, 39.33], [-74.51, 39.34], [-74.5, 39.35], [-74.48, 39.36], [-74.48, 39.36], [-74.46, 39.36], [-74.45, 39.36], [-74.44, 39.38], [-74.43, 39.39]]], [[[-74.33, 39.43], [-74.37, 39.4], [-74.4, 39.37], [-74.42, 39.39], [-74.4, 39.39], [-74.39, 39.4], [-74.37, 39.41], [-74.38, 39.42], [-74.37, 39.42], [-74.36, 39.42], [-74.35, 39.43], [-74.34, 39.43], [-74.34, 39.44], [-74.33, 39.43]]], [[[-74.19, 39.66], [-74.19, 39.65], [-74.2, 39.65], [-74.2, 39.66], [-74.19, 39.66]]], [[[-74.17, 39.72], [-74.17, 39.72], [-74.18, 39.72], [-74.19, 39.73], [-74.19, 39.73], [-74.19, 39.73], [-74.19, 39.73], [-74.19, 39.73], [-74.19, 39.74], [-74.19, 39.74], [-74.19, 39.74], [-74.17, 39.73], [-74.17, 39.72]]], [[[-74.12, 39.77], [-74.12, 39.75], [-74.1, 39.76], [-74.09, 39.76], [-74.11, 39.74], [-74.12, 39.72], [-74.13, 39.7], [-74.16, 39.66], [-74.19, 39.62], [-74.21, 39.6], [-74.24, 39.56], [-74.27, 39.53], [-74.26, 39.55], [-74.25, 39.56], [-74.25, 39.56], [-74.23, 39.58], [-74.23, 39.59], [-74.22, 39.59], [-74.22, 39.6], [-74.2, 39.62], [-74.2, 39.62], [-74.19, 39.64], [-74.18, 39.65], [-74.16, 39.68], [-74.14, 39.7], [-74.14, 39.71], [-74.13, 39.72], [-74.13, 39.73], [-74.12, 39.73], [-74.12, 39.75], [-74.13, 39.76], [-74.12, 39.76], [-74.12, 39.77], [-74.12, 39.77]]], [[[-74.18, 41.12], [-74.05, 41.06], [-73.94, 41.01], [-73.91, 41.0], [-73.89, 41.0], [-73.9, 40.98], [-73.92, 40.92], [-73.93, 40.89], [-73.95, 40.85], [-73.96, 40.83], [-74.01, 40.76], [-74.03, 40.71], [-74.04, 40.7], [-74.06, 40.69], [-74.07, 40.69], [-74.07, 40.68], [-74.06, 40.67], [-74.07, 40.66], [-74.09, 40.67], [-74.09, 40.65], [-74.1, 40.65], [-74.11, 40.65], [-74.12, 40.65], [-74.14, 40.65], [-74.14, 40.65], [-74.11, 40.69], [-74.11, 40.7], [-74.11, 40.72], [-74.12, 40.72], [-74.12, 40.71], [-74.13, 40.69], [-74.14, 40.68], [-74.14, 40.67], [-74.15, 40.66], [-74.16, 40.66], [-74.17, 40.65], [-74.19, 40.65], [-74.2, 40.63], [-74.21, 40.59], [-74.22, 40.56], [-74.22, 40.56], [-74.23, 40.56], [-74.25, 40.55], [-74.25, 40.55], [-74.25, 40.53], [-74.26, 40.52], [-74.27, 40.5], [-74.28, 40.5], [-74.29, 40.49], [-74.27, 40.48], [-74.26, 40.47], [-74.24, 40.46], [-74.21, 40.45], [-74.2, 40.44], [-74.19, 40.44], [-74.18, 40.46], [-74.17, 40.45], [-74.15, 40.45], [-74.13, 40.46], [-74.12, 40.45], [-74.08, 40.44], [-74.06, 40.43], [-74.05, 40.42], [-73.99, 40.41], [-73.98, 40.4], [-73.98, 40.39], [-73.99, 40.38], [-74.0, 40.39], [-74.02, 40.39], [-74.03, 40.38], [-74.05, 40.37], [-74.07, 40.37], [-74.07, 40.35], [-74.05, 40.36], [-74.05, 40.37], [-74.03, 40.37], [-74.02, 40.38], [-74.01, 40.38], [-73.99, 40.37], [-73.98, 40.38], [-73.98, 40.36], [-73.99, 40.35], [-74.01, 40.35], [-74.01, 40.34], [-74.02, 40.34], [-74.01, 40.32], [-73.99, 40.34], [-73.98, 40.34], [-73.98, 40.34], [-73.97, 40.37], [-73.98, 40.4], [-73.99, 40.42], [-73.99, 40.43], [-73.99, 40.45], [-74.01, 40.46], [-74.01, 40.47], [-74.02, 40.47], [-74.02, 40.48], [-74.0, 40.47], [-74.0, 40.47], [-73.98, 40.45], [-73.98, 40.42], [-73.98, 40.4], [-73.97, 40.36], [-73.97, 40.33], [-73.98, 40.3], [-74.0, 40.22], [-74.01, 40.2], [-74.01, 40.18], [-74.03, 40.13], [-74.03, 40.1], [-74.06, 39.97], [-74.07, 39.95], [-74.07, 39.92], [-74.08, 39.86], [-74.1, 39.77], [-74.11, 39.77], [-74.12, 39.78], [-74.1, 39.78], [-74.1, 39.8], [-74.1, 39.81], [-74.09, 39.83], [-74.09, 39.86], [-74.08, 39.89], [-74.09, 39.9], [-74.09, 39.91], [-74.08, 39.92], [-74.08, 39.94], [-74.08, 39.95], [-74.07, 39.97], [-74.07, 39.98], [-74.07, 39.99], [-74.07, 40.0], [-74.06, 40.03], [-74.05, 40.04], [-74.05, 40.06], [-74.06, 40.06], [-74.06, 40.06], [-74.09, 40.06], [-74.12, 40.05], [-74.1, 40.05], [-74.09, 40.05], [-74.08, 40.05], [-74.06, 40.05], [-74.06, 40.04], [-74.07, 40.03], [-74.09, 40.01], [-74.11, 40.02], [-74.11, 40.03], [-74.13, 40.02], [-74.11, 40.01], [-74.11, 40.0], [-74.12, 40.0], [-74.15, 40.0], [-74.13, 39.99], [-74.12, 39.99], [-74.11, 39.98], [-74.11, 39.97], [-74.12, 39.96], [-74.11, 39.96], [-74.12, 39.94], [-74.13, 39.94], [-74.14, 39.94], [-74.16, 39.94], [-74.16, 39.95], [-74.18, 39.94], [-74.15, 39.93], [-74.13, 39.93], [-74.11, 39.93], [-74.11, 39.92], [-74.13, 39.9], [-74.14, 39.88], [-74.14, 39.87], [-74.13, 39.86], [-74.15, 39.84], [-74.14, 39.84], [-74.16, 39.83], [-74.16, 39.82], [-74.18, 39.8], [-74.19, 39.76], [-74.19, 39.75], [-74.2, 39.74], [-74.2, 39.74], [-74.19, 39.74], [-74.19, 39.73], [-74.19, 39.73], [-74.19, 39.73], [-74.19, 39.73], [-74.19, 39.73], [-74.19, 39.73], [-74.19, 39.72], [-74.17, 39.71], [-74.17, 39.7], [-74.19, 39.7], [-74.2, 39.68], [-74.21, 39.67], [-74.22, 39.66], [-74.21, 39.65], [-74.22, 39.64], [-74.24, 39.65], [-74.25, 39.64], [-74.26, 39.63], [-74.25, 39.62], [-74.28, 39.61], [-74.29, 39.61], [-74.31, 39.6], [-74.32, 39.6], [-74.33, 39.58], [-74.34, 39.57], [-74.34, 39.56], [-74.33, 39.56], [-74.33, 39.55], [-74.31, 39.54], [-74.3, 39.54], [-74.3, 39.53], [-74.3, 39.52], [-74.31, 39.51], [-74.33, 39.51], [-74.33, 39.52], [-74.33, 39.53], [-74.33, 39.53], [-74.35, 39.55], [-74.38, 39.54], [-74.39, 39.54], [-74.4, 39.56], [-74.42, 39.56], [-74.43, 39.56], [-74.44, 39.56], [-74.45, 39.56], [-74.46, 39.56], [-74.44, 39.54], [-74.43, 39.54], [-74.43, 39.55], [-74.42, 39.55], [-74.41, 39.54], [-74.41, 39.53], [-74.41, 39.51], [-74.4, 39.5], [-74.39, 39.49], [-74.38, 39.48], [-74.39, 39.48], [-74.4, 39.48], [-74.4, 39.46], [-74.4, 39.45], [-74.39, 39.44], [-74.4, 39.44], [-74.42, 39.44], [-74.43, 39.46], [-74.44, 39.46], [-74.46, 39.44], [-74.47, 39.42], [-74.48, 39.42], [-74.49, 39.42], [-74.49, 39.39], [-74.46, 39.39], [-74.47, 39.38], [-74.47, 39.37], [-74.48, 39.37], [-74.49, 39.38], [-74.52, 39.38], [-74.53, 39.37], [-74.52, 39.36], [-74.53, 39.35], [-74.54, 39.35], [-74.54, 39.34], [-74.55, 39.35], [-74.56, 39.34], [-74.56, 39.33], [-74.57, 39.33], [-74.56, 39.32], [-74.56, 39.32], [-74.57, 39.32], [-74.56, 39.31], [-74.57, 39.3], [-74.59, 39.31], [-74.6, 39.31], [-74.61, 39.3], [-74.64, 39.31], [-74.66, 39.31], [-74.65, 39.29], [-74.64, 39.29], [-74.62, 39.28], [-74.63, 39.27], [-74.63, 39.26], [-74.63, 39.25], [-74.63, 39.24], [-74.64, 39.24], [-74.65, 39.24], [-74.65, 39.23], [-74.66, 39.23], [-74.66, 39.22], [-74.67, 39.21], [-74.67, 39.21], [-74.69, 39.2], [-74.71, 39.18], [-74.7, 39.17], [-74.7, 39.16], [-74.7, 39.16], [-74.71, 39.15], [-74.72, 39.15], [-74.73, 39.16], [-74.75, 39.15], [-74.74, 39.14], [-74.72, 39.14], [-74.72, 39.13], [-74.74, 39.12], [-74.75, 39.13], [-74.76, 39.12], [-74.75, 39.12], [-74.76, 39.11], [-74.78, 39.11], [-74.79, 39.1], [-74.78, 39.07], [-74.77, 39.07], [-74.77, 39.06], [-74.78, 39.04], [-74.79, 39.05], [-74.79, 39.06], [-74.8, 39.07], [-74.81, 39.07], [-74.82, 39.06], [-74.82, 39.05], [-74.8, 39.03], [-74.83, 39.03], [-74.83, 39.02], [-74.85, 39.02], [-74.85, 39.0], [-74.84, 38.99], [-74.85, 38.98], [-74.86, 38.97], [-74.88, 38.97], [-74.89, 38.96], [-74.88, 38.95], [-74.9, 38.95], [-74.9, 38.95], [-74.88, 38.95], [-74.88, 38.94], [-74.9, 38.94], [-74.92, 38.93], [-74.93, 38.93], [-74.94, 38.93], [-74.96, 38.93], [-74.97, 38.94], [-74.96, 38.96], [-74.96, 38.99], [-74.95, 39.02], [-74.9, 39.1], [-74.89, 39.11], [-74.89, 39.16], [-74.9, 39.17], [-74.92, 39.18], [-74.93, 39.18], [-74.96, 39.19], [-74.97, 39.19], [-75.03, 39.19], [-75.02, 39.21], [-75.03, 39.21], [-75.04, 39.22], [-75.07, 39.21], [-75.08, 39.21], [-75.11, 39.21], [-75.13, 39.19], [-75.15, 39.19], [-75.17, 39.2], [-75.16, 39.21], [-75.17, 39.22], [-75.17, 39.24], [-75.18, 39.25], [-75.19, 39.25], [-75.2, 39.26], [-75.24, 39.28], [-75.24, 39.29], [-75.25, 39.3], [-75.27, 39.3], [-75.28, 39.3], [-75.29, 39.29], [-75.31, 39.31], [-75.33, 39.33], [-75.33, 39.34], [-75.34, 39.35], [-75.35, 39.35], [-75.36, 39.34], [-75.37, 39.35], [-75.39, 39.36], [-75.39, 39.36], [-75.4, 39.38], [-75.41, 39.39], [-75.43, 39.39], [-75.45, 39.42], [-75.47, 39.44], [-75.48, 39.44], [-75.49, 39.45], [-75.5, 39.45], [-75.51, 39.46], [-75.54, 39.46], [-75.54, 39.48], [-75.54, 39.5], [-75.53, 39.5], [-75.53, 39.51], [-75.53, 39.53], [-75.53, 39.54], [-75.52, 39.56], [-75.51, 39.57], [-75.51, 39.58], [-75.53, 39.59], [-75.54, 39.59], [-75.54, 39.59], [-75.54, 39.59], [-75.54, 39.59], [-75.54, 39.59], [-75.54, 39.6], [-75.55, 39.6], [-75.55, 39.6], [-75.55, 39.6], [-75.55, 39.6], [-75.55, 39.6], [-75.55, 39.6], [-75.55, 39.6], [-75.55, 39.6], [-75.55, 39.6], [-75.55, 39.6], [-75.55, 39.6], [-75.56, 39.61], [-75.56, 39.61], [-75.56, 39.61], [-75.56, 39.61], [-75.56, 39.62], [-75.56, 39.63], [-75.56, 39.63], [-75.56, 39.63], [-75.56, 39.63], [-75.56, 39.63], [-75.56, 39.63], [-75.56, 39.63], [-75.55, 39.63], [-75.55, 39.64], [-75.55, 39.64], [-75.55, 39.64], [-75.55, 39.64], [-75.55, 39.64], [-75.55, 39.64], [-75.55, 39.64], [-75.55, 39.64], [-75.55, 39.64], [-75.55, 39.64], [-75.55, 39.64], [-75.54, 39.64], [-75.54, 39.65], [-75.54, 39.65], [-75.54, 39.65], [-75.53, 39.65], [-75.53, 39.65], [-75.53, 39.65], [-75.53, 39.65], [-75.53, 39.65], [-75.53, 39.66], [-75.53, 39.66], [-75.53, 39.66], [-75.53, 39.66], [-75.53, 39.66], [-75.53, 39.66], [-75.53, 39.66], [-75.53, 39.66], [-75.52, 39.66], [-75.52, 39.66], [-75.51, 39.67], [-75.51, 39.67], [-75.51, 39.67], [-75.51, 39.69], [-75.51, 39.69], [-75.51, 39.69], [-75.51, 39.69], [-75.51, 39.69], [-75.51, 39.7], [-75.5, 39.7], [-75.5, 39.7], [-75.5, 39.7], [-75.5, 39.7], [-75.5, 39.7], [-75.5, 39.7], [-75.5, 39.7], [-75.5, 39.7], [-75.5, 39.7], [-75.49, 39.71], [-75.49, 39.71], [-75.49, 39.71], [-75.49, 39.71], [-75.49, 39.71], [-75.49, 39.71], [-75.49, 39.71], [-75.49, 39.71], [-75.49, 39.71], [-75.49, 39.71], [-75.49, 39.71], [-75.49, 39.71], [-75.49, 39.71], [-75.49, 39.71], [-75.49, 39.72], [-75.49, 39.72], [-75.49, 39.72], [-75.49, 39.72], [-75.49, 39.72], [-75.48, 39.72], [-75.48, 39.72], [-75.48, 39.71], [-75.48, 39.71], [-75.48, 39.71], [-75.48, 39.71], [-75.48, 39.72], [-75.48, 39.72], [-75.48, 39.72], [-75.48, 39.72], [-75.48, 39.72], [-75.48, 39.72], [-75.48, 39.72], [-75.48, 39.72], [-75.48, 39.72], [-75.48, 39.72], [-75.48, 39.72], [-75.48, 39.72], [-75.48, 39.72], [-75.48, 39.72], [-75.48, 39.73], [-75.48, 39.73], [-75.48, 39.73], [-75.48, 39.73], [-75.48, 39.73], [-75.48, 39.73], [-75.48, 39.73], [-75.48, 39.73], [-75.48, 39.73], [-75.48, 39.73], [-75.48, 39.73], [-75.47, 39.74], [-75.47, 39.74], [-75.47, 39.74], [-75.47, 39.74], [-75.47, 39.74], [-75.47, 39.74], [-75.47, 39.74], [-75.47, 39.74], [-75.47, 39.74], [-75.47, 39.74], [-75.47, 39.75], [-75.47, 39.75], [-75.47, 39.75], [-75.47, 39.75], [-75.47, 39.75], [-75.46, 39.76], [-75.45, 39.77], [-75.45, 39.77], [-75.44, 39.78], [-75.41, 39.8], [-75.41, 39.8], [-75.41, 39.8], [-75.4, 39.81], [-75.37, 39.83], [-75.37, 39.83], [-75.36, 39.84], [-75.36, 39.84], [-75.35, 39.84], [-75.35, 39.84], [-75.35, 39.84], [-75.34, 39.84], [-75.34, 39.85], [-75.34, 39.85], [-75.34, 39.85], [-75.34, 39.85], [-75.34, 39.85], [-75.33, 39.85], [-75.31, 39.85], [-75.31, 39.85], [-75.31, 39.85], [-75.31, 39.85], [-75.31, 39.85], [-75.31, 39.85], [-75.31, 39.85], [-75.31, 39.85], [-75.3, 39.85], [-75.3, 39.85], [-75.3, 39.85], [-75.3, 39.85], [-75.3, 39.85], [-75.3, 39.85], [-75.3, 39.85], [-75.3, 39.85], [-75.3, 39.85], [-75.3, 39.85], [-75.3, 39.85], [-75.3, 39.85], [-75.29, 39.85], [-75.29, 39.85], [-75.29, 39.85], [-75.29, 39.85], [-75.29, 39.85], [-75.29, 39.85], [-75.29, 39.85], [-75.29, 39.85], [-75.29, 39.85], [-75.28, 39.85], [-75.28, 39.85], [-75.28, 39.85], [-75.28, 39.85], [-75.28, 39.85], [-75.28, 39.85], [-75.28, 39.85], [-75.28, 39.85], [-75.28, 39.85], [-75.28, 39.85], [-75.27, 39.85], [-75.27, 39.85], [-75.27, 39.85], [-75.27, 39.85], [-75.27, 39.85], [-75.26, 39.85], [-75.26, 39.85], [-75.25, 39.85], [-75.25, 39.85], [-75.23, 39.86], [-75.21, 39.87], [-75.19, 39.88], [-75.15, 39.88], [-75.14, 39.89], [-75.14, 39.89], [-75.13, 39.9], [-75.13, 39.9], [-75.13, 39.9], [-75.13, 39.91], [-75.13, 39.92], [-75.13, 39.92], [-75.13, 39.92], [-75.14, 39.93], [-75.14, 39.93], [-75.14, 39.93], [-75.14, 39.95], [-75.13, 39.95], [-75.12, 39.97], [-75.11, 39.97], [-75.07, 39.98], [-75.07, 39.99], [-75.06, 39.99], [-75.05, 40.0], [-75.04, 40.01], [-75.04, 40.01], [-75.02, 40.02], [-75.02, 40.02], [-75.01, 40.02], [-75.01, 40.02], [-75.0, 40.03], [-74.98, 40.05], [-74.97, 40.05], [-74.96, 40.05], [-74.95, 40.06], [-74.94, 40.06], [-74.93, 40.07], [-74.93, 40.07], [-74.92, 40.07], [-74.91, 40.07], [-74.9, 40.07], [-74.9, 40.07], [-74.86, 40.08], [-74.86, 40.09], [-74.85, 40.1], [-74.84, 40.1], [-74.83, 40.12], [-74.83, 40.12], [-74.83, 40.12], [-74.82, 40.13], [-74.82, 40.13], [-74.8, 40.12], [-74.79, 40.12], [-74.79, 40.12], [-74.78, 40.12], [-74.77, 40.13], [-74.76, 40.13], [-74.76, 40.13], [-74.76, 40.13], [-74.76, 40.13], [-74.76, 40.13], [-74.76, 40.13], [-74.76, 40.13], [-74.76, 40.13], [-74.76, 40.13], [-74.76, 40.13], [-74.76, 40.13], [-74.76, 40.13], [-74.76, 40.13], [-74.76, 40.13], [-74.75, 40.13], [-74.75, 40.13], [-74.74, 40.13], [-74.74, 40.14], [-74.74, 40.14], [-74.74, 40.14], [-74.74, 40.14], [-74.74, 40.14], [-74.74, 40.14], [-74.74, 40.14], [-74.74, 40.14], [-74.74, 40.14], [-74.73, 40.14], [-74.73, 40.14], [-74.73, 40.14], [-74.73, 40.14], [-74.73, 40.14], [-74.73, 40.14], [-74.73, 40.14], [-74.73, 40.14], [-74.73, 40.14], [-74.72, 40.16], [-74.73, 40.17], [-74.74, 40.18], [-74.75, 40.18], [-74.75, 40.19], [-74.76, 40.2], [-74.76, 40.2], [-74.76, 40.2], [-74.77, 40.21], [-74.77, 40.21], [-74.77, 40.21], [-74.78, 40.22], [-74.8, 40.23], [-74.82, 40.24], [-74.84, 40.25], [-74.85, 40.26], [-74.86, 40.28], [-74.86, 40.28], [-74.86, 40.28], [-74.86, 40.29], [-74.88, 40.31], [-74.89, 40.31], [-74.89, 40.31], [-74.89, 40.31], [-74.9, 40.32], [-74.92, 40.32], [-74.93, 40.33], [-74.93, 40.33], [-74.94, 40.34], [-74.94, 40.34], [-74.95, 40.36], [-74.95, 40.38], [-74.97, 40.4], [-75.0, 40.41], [-75.02, 40.4], [-75.06, 40.42], [-75.07, 40.45], [-75.07, 40.47], [-75.06, 40.48], [-75.07, 40.51], [-75.07, 40.53], [-75.07, 40.54], [-75.08, 40.55], [-75.1, 40.57], [-75.12, 40.57], [-75.14, 40.58], [-75.15, 40.57], [-75.16, 40.57], [-75.17, 40.56], [-75.19, 40.57], [-75.19, 40.58], [-75.19, 40.59], [-75.19, 40.6], [-75.2, 40.61], [-75.2, 40.62], [-75.19, 40.62], [-75.19, 40.64], [-75.2, 40.65], [-75.19, 40.66], [-75.18, 40.67], [-75.18, 40.68], [-75.2, 40.68], [-75.2, 40.69], [-75.19, 40.72], [-75.19, 40.72], [-75.18, 40.73], [-75.2, 40.75], [-75.2, 40.75], [-75.18, 40.76], [-75.17, 40.78], [-75.13, 40.77], [-75.12, 40.79], [-75.11, 40.79], [-75.1, 40.8], [-75.1, 40.81], [-75.08, 40.82], [-75.09, 40.83], [-75.1, 40.84], [-75.09, 40.85], [-75.06, 40.85], [-75.05, 40.86], [-75.05, 40.87], [-75.08, 40.9], [-75.08, 40.91], [-75.1, 40.92], [-75.12, 40.95], [-75.12, 40.97], [-75.13, 40.97], [-75.14, 40.98], [-75.13, 40.99], [-75.11, 41.0], [-75.1, 41.01], [-75.09, 41.01], [-75.07, 41.02], [-75.04, 41.03], [-75.03, 41.04], [-75.01, 41.07], [-75.0, 41.07], [-74.98, 41.08], [-74.97, 41.09], [-74.97, 41.1], [-74.98, 41.09], [-74.99, 41.09], [-74.98, 41.11], [-74.96, 41.11], [-74.95, 41.12], [-74.95, 41.13], [-74.92, 41.14], [-74.91, 41.16], [-74.9, 41.17], [-74.88, 41.18], [-74.87, 41.2], [-74.86, 41.22], [-74.87, 41.23], [-74.86, 41.25], [-74.85, 41.25], [-74.85, 41.26], [-74.84, 41.28], [-74.82, 41.29], [-74.81, 41.3], [-74.79, 41.31], [-74.79, 41.32], [-74.77, 41.32], [-74.76, 41.33], [-74.75, 41.35], [-74.72, 41.35], [-74.69, 41.36], [-74.69, 41.36], [-74.68, 41.35], [-74.67, 41.35], [-74.67, 41.34], [-74.62, 41.32], [-74.61, 41.32], [-74.59, 41.31], [-74.58, 41.31], [-74.57, 41.3], [-74.56, 41.3], [-74.56, 41.3], [-74.56, 41.29], [-74.53, 41.28], [-74.53, 41.28], [-74.52, 41.28], [-74.5, 41.27], [-74.48, 41.26], [-74.48, 41.26], [-74.44, 41.24], [-74.42, 41.23], [-74.42, 41.23], [-74.41, 41.23], [-74.4, 41.22], [-74.39, 41.22], [-74.38, 41.21], [-74.35, 41.2], [-74.33, 41.19], [-74.32, 41.18], [-74.32, 41.18], [-74.31, 41.18], [-74.29, 41.17], [-74.28, 41.16], [-74.25, 41.15], [-74.24, 41.15], [-74.24, 41.15], [-74.23, 41.14], [-74.18, 41.12]]]]}}]}