{"type": "FeatureCollection", "features": [{"type": "Feature", "properties": {"ID": 32, "abbreviation": "ND", "name": "North Dakota"}, "geometry": {"type": "Polygon", "coordinates": [[[-97.63, 49.0], [-97.46, 49.0], [-97.23, 49.0], [-97.24, 48.98], [-97.24, 48.97], [-97.23, 48.96], [-97.23, 48.95], [-97.23, 48.94], [-97.22, 48.92], [-97.21, 48.92], [-97.21, 48.91], [-97.19, 48.9], [-97.2, 48.88], [-97.18, 48.87], [-97.19, 48.87], [-97.18, 48.86], [-97.17, 48.85], [-97.18, 48.84], [-97.18, 48.82], [-97.16, 48.81], [-97.16, 48.81], [-97.18, 48.8], [-97.17, 48.79], [-97.16, 48.79], [-97.16, 48.78], [-97.15, 48.77], [-97.15, 48.76], [-97.14, 48.75], [-97.14, 48.73], [-97.14, 48.73], [-97.13, 48.72], [-97.12, 48.71], [-97.12, 48.7], [-97.11, 48.69], [-97.09, 48.69], [-97.1, 48.68], [-97.1, 48.66], [-97.11, 48.65], [-97.11, 48.63], [-97.12, 48.63], [-97.13, 48.63], [-97.12, 48.62], [-97.13, 48.61], [-97.14, 48.6], [-97.14, 48.58], [-97.15, 48.57], [-97.17, 48.56], [-97.17, 48.56], [-97.14, 48.56], [-97.14, 48.55], [-97.17, 48.55], [-97.16, 48.54], [-97.15, 48.54], [-97.15, 48.53], [-97.15, 48.52], [-97.13, 48.52], [-97.14, 48.51], [-97.15, 48.51], [-97.15, 48.5], [-97.13, 48.49], [-97.15, 48.48], [-97.14, 48.46], [-97.13, 48.46], [-97.13, 48.45], [-97.15, 48.44], [-97.12, 48.44], [-97.12, 48.43], [-97.14, 48.43], [-97.14, 48.42], [-97.13, 48.41], [-97.15, 48.4], [-97.16, 48.4], [-97.16, 48.39], [-97.15, 48.38], [-97.14, 48.37], [-97.15, 48.37], [-97.16, 48.36], [-97.14, 48.35], [-97.14, 48.34], [-97.13, 48.34], [-97.13, 48.32], [-97.14, 48.31], [-97.12, 48.3], [-97.14, 48.29], [-97.12, 48.29], [-97.12, 48.28], [-97.13, 48.27], [-97.14, 48.27], [-97.13, 48.26], [-97.12, 48.25], [-97.15, 48.24], [-97.14, 48.24], [-97.14, 48.22], [-97.13, 48.21], [-97.14, 48.2], [-97.15, 48.19], [-97.14, 48.18], [-97.15, 48.17], [-97.14, 48.16], [-97.13, 48.16], [-97.12, 48.16], [-97.14, 48.15], [-97.15, 48.14], [-97.12, 48.14], [-97.13, 48.13], [-97.12, 48.12], [-97.12, 48.11], [-97.11, 48.1], [-97.1, 48.09], [-97.1, 48.07], [-97.09, 48.06], [-97.08, 48.05], [-97.07, 48.05], [-97.07, 48.02], [-97.06, 48.0], [-97.05, 47.99], [-97.06, 47.96], [-97.05, 47.96], [-97.05, 47.95], [-97.04, 47.94], [-97.04, 47.93], [-97.02, 47.92], [-97.02, 47.91], [-97.02, 47.89], [-97.02, 47.87], [-97.01, 47.87], [-97.0, 47.86], [-97.0, 47.84], [-96.99, 47.84], [-96.98, 47.81], [-96.99, 47.81], [-96.97, 47.8], [-96.96, 47.79], [-96.97, 47.78], [-96.94, 47.77], [-96.94, 47.75], [-96.93, 47.75], [-96.93, 47.74], [-96.92, 47.72], [-96.93, 47.72], [-96.91, 47.71], [-96.91, 47.7], [-96.9, 47.69], [-96.9, 47.67], [-96.89, 47.67], [-96.89, 47.65], [-96.88, 47.65], [-96.88, 47.62], [-96.86, 47.61], [-96.85, 47.6], [-96.85, 47.58], [-96.86, 47.57], [-96.85, 47.57], [-96.86, 47.56], [-96.86, 47.55], [-96.85, 47.54], [-96.86, 47.53], [-96.87, 47.53], [-96.86, 47.52], [-96.85, 47.51], [-96.85, 47.5], [-96.86, 47.49], [-96.85, 47.48], [-96.86, 47.47], [-96.85, 47.46], [-96.86, 47.45], [-96.86, 47.43], [-96.86, 47.43], [-96.86, 47.41], [-96.84, 47.4], [-96.84, 47.39], [-96.84, 47.38], [-96.85, 47.37], [-96.84, 47.35], [-96.84, 47.34], [-96.83, 47.34], [-96.84, 47.33], [-96.83, 47.31], [-96.84, 47.29], [-96.84, 47.26], [-96.84, 47.25], [-96.83, 47.25], [-96.84, 47.23], [-96.83, 47.23], [-96.84, 47.22], [-96.83, 47.21], [-96.84, 47.2], [-96.83, 47.18], [-96.82, 47.16], [-96.83, 47.16], [-96.82, 47.13], [-96.83, 47.12], [-96.82, 47.1], [-96.82, 47.09], [-96.83, 47.08], [-96.82, 47.05], [-96.82, 47.04], [-96.82, 47.03], [-96.83, 47.01], [-96.82, 47.0], [-96.82, 46.99], [-96.82, 46.98], [-96.82, 46.97], [-96.81, 46.96], [-96.8, 46.97], [-96.8, 46.94], [-96.79, 46.94], [-96.79, 46.93], [-96.76, 46.93], [-96.76, 46.92], [-96.77, 46.91], [-96.78, 46.9], [-96.77, 46.88], [-96.78, 46.86], [-96.78, 46.86], [-96.78, 46.85], [-96.78, 46.84], [-96.8, 46.82], [-96.8, 46.81], [-96.79, 46.79], [-96.79, 46.79], [-96.79, 46.78], [-96.79, 46.77], [-96.79, 46.74], [-96.78, 46.72], [-96.79, 46.71], [-96.78, 46.69], [-96.79, 46.69], [-96.79, 46.68], [-96.8, 46.68], [-96.8, 46.65], [-96.79, 46.65], [-96.79, 46.64], [-96.8, 46.63], [-96.78, 46.63], [-96.78, 46.62], [-96.77, 46.61], [-96.77, 46.6], [-96.76, 46.6], [-96.76, 46.59], [-96.75, 46.58], [-96.74, 46.57], [-96.75, 46.56], [-96.75, 46.54], [-96.74, 46.53], [-96.73, 46.51], [-96.74, 46.5], [-96.73, 46.48], [-96.71, 46.47], [-96.71, 46.46], [-96.72, 46.44], [-96.7, 46.43], [-96.7, 46.42], [-96.68, 46.41], [-96.68, 46.39], [-96.67, 46.37], [-96.64, 46.36], [-96.65, 46.35], [-96.63, 46.35], [-96.62, 46.34], [-96.6, 46.33], [-96.6, 46.32], [-96.6, 46.31], [-96.6, 46.29], [-96.6, 46.27], [-96.6, 46.26], [-96.59, 46.25], [-96.6, 46.24], [-96.59, 46.21], [-96.58, 46.2], [-96.59, 46.19], [-96.58, 46.18], [-96.58, 46.17], [-96.58, 46.16], [-96.58, 46.15], [-96.57, 46.13], [-96.57, 46.11], [-96.56, 46.1], [-96.55, 46.08], [-96.56, 46.06], [-96.57, 46.04], [-96.58, 46.03], [-96.57, 46.02], [-96.57, 45.98], [-96.57, 45.96], [-96.56, 45.95], [-96.56, 45.94], [-96.7, 45.94], [-96.81, 45.94], [-97.0, 45.94], [-97.1, 45.94], [-97.12, 45.94], [-97.32, 45.94], [-97.42, 45.94], [-97.52, 45.94], [-97.53, 45.94], [-97.75, 45.94], [-97.75, 45.94], [-97.9, 45.94], [-97.9, 45.94], [-98.0, 45.94], [-98.02, 45.94], [-98.24, 45.94], [-98.41, 45.94], [-98.5, 45.94], [-98.63, 45.94], [-98.78, 45.94], [-98.79, 45.94], [-98.88, 45.94], [-98.88, 45.94], [-98.89, 45.94], [-98.89, 45.94], [-98.99, 45.94], [-99.01, 45.94], [-99.02, 45.94], [-99.1, 45.94], [-99.12, 45.94], [-99.12, 45.94], [-99.13, 45.94], [-99.13, 45.94], [-99.14, 45.94], [-99.2, 45.94], [-99.47, 45.94], [-99.53, 45.94], [-99.54, 45.94], [-99.55, 45.94], [-99.59, 45.94], [-99.61, 45.94], [-99.66, 45.94], [-99.66, 45.94], [-99.67, 45.94], [-99.68, 45.94], [-99.69, 45.94], [-99.69, 45.94], [-99.69, 45.94], [-99.71, 45.94], [-99.76, 45.94], [-99.78, 45.94], [-99.83, 45.94], [-99.84, 45.94], [-99.84, 45.94], [-99.88, 45.94], [-99.88, 45.94], [-100.05, 45.94], [-100.08, 45.94], [-100.19, 45.94], [-100.2, 45.94], [-100.26, 45.94], [-100.27, 45.94], [-100.3, 45.94], [-100.33, 45.94], [-100.43, 45.94], [-100.65, 45.94], [-100.88, 45.94], [-101.13, 45.94], [-101.24, 45.94], [-101.25, 45.94], [-101.25, 45.94], [-101.29, 45.94], [-101.38, 45.94], [-101.39, 45.94], [-101.4, 45.94], [-101.42, 45.94], [-101.46, 45.94], [-101.46, 45.94], [-101.48, 45.94], [-101.48, 45.94], [-101.5, 45.94], [-101.5, 45.94], [-101.5, 45.94], [-101.56, 45.94], [-101.56, 45.94], [-101.59, 45.94], [-101.61, 45.94], [-101.62, 45.94], [-101.63, 45.94], [-101.63, 45.94], [-101.63, 45.94], [-101.64, 45.94], [-101.65, 45.94], [-101.66, 45.94], [-101.67, 45.94], [-101.68, 45.94], [-101.69, 45.94], [-101.69, 45.94], [-101.71, 45.94], [-101.72, 45.94], [-102.0, 45.94], [-102.22, 45.94], [-102.41, 45.95], [-102.42, 45.95], [-102.43, 45.95], [-102.64, 45.95], [-102.67, 45.95], [-102.75, 45.95], [-102.96, 45.95], [-102.96, 45.95], [-102.99, 45.95], [-103.0, 45.95], [-103.06, 45.95], [-103.28, 45.95], [-103.3, 45.95], [-103.41, 45.95], [-103.45, 45.95], [-103.66, 45.95], [-103.66, 45.95], [-103.78, 45.95], [-103.8, 45.95], [-103.85, 45.95], [-103.85, 45.95], [-103.85, 45.95], [-103.9, 45.95], [-103.94, 45.95], [-103.95, 45.95], [-103.98, 45.95], [-104.0, 45.95], [-104.02, 45.95], [-104.03, 45.95], [-104.03, 45.95], [-104.05, 45.95], [-104.05, 45.96], [-104.05, 45.97], [-104.05, 46.0], [-104.05, 46.0], [-104.05, 46.12], [-104.05, 46.13], [-104.05, 46.28], [-104.05, 46.42], [-104.05, 46.51], [-104.05, 46.71], [-104.05, 46.89], [-104.05, 47.08], [-104.04, 47.13], [-104.05, 47.22], [-104.05, 47.33], [-104.05, 47.4], [-104.04, 47.5], [-104.04, 47.6], [-104.04, 47.75], [-104.04, 47.86], [-104.04, 48.0], [-104.05, 48.13], [-104.05, 48.38], [-104.05, 48.6], [-104.05, 48.63], [-104.05, 48.75], [-104.05, 48.87], [-104.05, 49.0], [-104.01, 49.0], [-103.75, 49.0], [-103.6, 49.0], [-103.38, 49.0], [-103.36, 49.0], [-103.25, 49.0], [-102.98, 49.0], [-102.75, 49.0], [-102.55, 49.0], [-102.22, 49.0], [-102.0, 49.0], [-101.8, 49.0], [-101.63, 49.0], [-101.5, 49.0], [-101.25, 49.0], [-101.0, 49.0], [-100.84, 49.0], [-100.53, 49.0], [-100.18, 49.0], [-99.94, 49.0], [-99.7, 49.0], [-99.53, 49.0], [-99.25, 49.0], [-99.1, 49.0], [-98.88, 49.0], [-98.63, 49.0], [-98.38, 49.0], [-98.13, 49.0], [-97.88, 49.0], [-97.63, 49.0]]]}}]}