{"type": "FeatureCollection", "features": [{"type": "Feature", "properties": {"ID": 34, "abbreviation": "OK", "name": "Oklahoma"}, "geometry": {"type": "Polygon", "coordinates": [[[-100.09, 37.0], [-99.99, 37.0], [-99.88, 37.0], [-99.72, 37.0], [-99.65, 37.0], [-99.54, 37.0], [-99.46, 37.0], [-99.39, 37.0], [-99.28, 37.0], [-99.11, 37.0], [-98.85, 37.0], [-98.66, 37.0], [-98.53, 37.0], [-98.3, 37.0], [-98.06, 37.0], [-97.95, 37.0], [-97.78, 37.0], [-97.73, 37.0], [-97.58, 37.0], [-97.32, 37.0], [-97.15, 37.0], [-97.03, 37.0], [-96.92, 37.0], [-96.75, 37.0], [-96.73, 37.0], [-96.5, 37.0], [-96.37, 37.0], [-96.18, 37.0], [-96.0, 37.0], [-95.96, 37.0], [-95.89, 37.0], [-95.7, 37.0], [-95.5, 37.0], [-95.3, 37.0], [-95.18, 37.0], [-94.96, 37.0], [-94.89, 37.0], [-94.77, 37.0], [-94.63, 37.0], [-94.62, 37.0], [-94.62, 36.93], [-94.62, 36.82], [-94.62, 36.65], [-94.62, 36.5], [-94.58, 36.26], [-94.56, 36.16], [-94.55, 36.08], [-94.53, 36.0], [-94.51, 35.85], [-94.5, 35.79], [-94.49, 35.76], [-94.49, 35.74], [-94.48, 35.69], [-94.47, 35.6], [-94.45, 35.5], [-94.44, 35.42], [-94.43, 35.39], [-94.43, 35.39], [-94.43, 35.36], [-94.44, 35.22], [-94.44, 35.13], [-94.45, 34.96], [-94.45, 34.83], [-94.46, 34.67], [-94.46, 34.55], [-94.46, 34.45], [-94.47, 34.35], [-94.47, 34.25], [-94.47, 34.19], [-94.47, 34.09], [-94.48, 33.99], [-94.48, 33.88], [-94.48, 33.83], [-94.49, 33.64], [-94.49, 33.63], [-94.5, 33.62], [-94.51, 33.62], [-94.52, 33.63], [-94.52, 33.62], [-94.53, 33.62], [-94.54, 33.63], [-94.52, 33.64], [-94.53, 33.64], [-94.54, 33.64], [-94.55, 33.63], [-94.56, 33.63], [-94.57, 33.63], [-94.56, 33.64], [-94.55, 33.64], [-94.54, 33.65], [-94.55, 33.66], [-94.56, 33.66], [-94.58, 33.65], [-94.59, 33.65], [-94.58, 33.66], [-94.56, 33.66], [-94.56, 33.67], [-94.58, 33.67], [-94.58, 33.68], [-94.59, 33.69], [-94.59, 33.67], [-94.6, 33.66], [-94.61, 33.67], [-94.62, 33.68], [-94.63, 33.68], [-94.64, 33.66], [-94.66, 33.66], [-94.67, 33.67], [-94.66, 33.68], [-94.65, 33.67], [-94.65, 33.69], [-94.65, 33.7], [-94.66, 33.69], [-94.67, 33.69], [-94.68, 33.68], [-94.72, 33.69], [-94.71, 33.7], [-94.7, 33.7], [-94.71, 33.71], [-94.73, 33.71], [-94.73, 33.71], [-94.72, 33.7], [-94.72, 33.69], [-94.72, 33.69], [-94.74, 33.69], [-94.74, 33.7], [-94.75, 33.7], [-94.75, 33.71], [-94.74, 33.72], [-94.73, 33.72], [-94.75, 33.73], [-94.75, 33.73], [-94.76, 33.73], [-94.77, 33.73], [-94.79, 33.74], [-94.78, 33.75], [-94.76, 33.75], [-94.76, 33.76], [-94.77, 33.76], [-94.78, 33.76], [-94.78, 33.74], [-94.8, 33.73], [-94.82, 33.74], [-94.81, 33.75], [-94.82, 33.76], [-94.82, 33.77], [-94.83, 33.76], [-94.82, 33.75], [-94.83, 33.74], [-94.85, 33.74], [-94.87, 33.75], [-94.88, 33.76], [-94.91, 33.78], [-94.91, 33.78], [-94.92, 33.79], [-94.92, 33.81], [-94.91, 33.82], [-94.92, 33.83], [-94.93, 33.83], [-94.92, 33.81], [-94.94, 33.81], [-94.95, 33.82], [-94.94, 33.83], [-94.96, 33.84], [-94.97, 33.86], [-94.98, 33.86], [-94.98, 33.85], [-94.99, 33.85], [-95.0, 33.86], [-95.01, 33.87], [-95.02, 33.86], [-95.04, 33.86], [-95.05, 33.86], [-95.05, 33.88], [-95.06, 33.89], [-95.06, 33.9], [-95.07, 33.9], [-95.06, 33.91], [-95.07, 33.92], [-95.08, 33.91], [-95.08, 33.89], [-95.09, 33.88], [-95.1, 33.89], [-95.08, 33.91], [-95.08, 33.92], [-95.09, 33.92], [-95.11, 33.91], [-95.12, 33.9], [-95.13, 33.91], [-95.13, 33.92], [-95.12, 33.93], [-95.12, 33.93], [-95.13, 33.94], [-95.15, 33.94], [-95.17, 33.94], [-95.19, 33.95], [-95.22, 33.96], [-95.23, 33.96], [-95.23, 33.95], [-95.25, 33.94], [-95.25, 33.93], [-95.25, 33.92], [-95.25, 33.89], [-95.26, 33.89], [-95.27, 33.89], [-95.27, 33.91], [-95.28, 33.91], [-95.29, 33.9], [-95.28, 33.89], [-95.28, 33.88], [-95.3, 33.87], [-95.31, 33.88], [-95.33, 33.89], [-95.34, 33.87], [-95.35, 33.87], [-95.38, 33.87], [-95.41, 33.87], [-95.44, 33.87], [-95.45, 33.87], [-95.46, 33.87], [-95.46, 33.88], [-95.47, 33.89], [-95.48, 33.88], [-95.49, 33.87], [-95.51, 33.88], [-95.51, 33.89], [-95.51, 33.89], [-95.53, 33.88], [-95.55, 33.88], [-95.55, 33.89], [-95.55, 33.91], [-95.56, 33.93], [-95.56, 33.93], [-95.59, 33.93], [-95.6, 33.94], [-95.6, 33.93], [-95.62, 33.92], [-95.64, 33.91], [-95.66, 33.91], [-95.67, 33.91], [-95.68, 33.89], [-95.7, 33.89], [-95.71, 33.88], [-95.73, 33.89], [-95.74, 33.9], [-95.76, 33.89], [-95.76, 33.88], [-95.76, 33.87], [-95.75, 33.86], [-95.76, 33.85], [-95.77, 33.84], [-95.79, 33.86], [-95.8, 33.86], [-95.82, 33.86], [-95.82, 33.84], [-95.83, 33.84], [-95.84, 33.84], [-95.86, 33.85], [-95.88, 33.86], [-95.91, 33.88], [-95.93, 33.89], [-95.94, 33.86], [-95.95, 33.86], [-95.97, 33.86], [-95.98, 33.85], [-95.98, 33.87], [-96.0, 33.87], [-96.0, 33.87], [-95.99, 33.86], [-96.0, 33.85], [-96.01, 33.85], [-96.02, 33.84], [-96.02, 33.85], [-96.03, 33.85], [-96.03, 33.84], [-96.05, 33.84], [-96.08, 33.85], [-96.1, 33.85], [-96.1, 33.83], [-96.11, 33.83], [-96.12, 33.84], [-96.15, 33.84], [-96.15, 33.83], [-96.15, 33.82], [-96.17, 33.82], [-96.18, 33.81], [-96.18, 33.8], [-96.17, 33.8], [-96.16, 33.81], [-96.17, 33.78], [-96.17, 33.77], [-96.18, 33.76], [-96.2, 33.75], [-96.22, 33.75], [-96.23, 33.75], [-96.25, 33.76], [-96.28, 33.77], [-96.29, 33.76], [-96.3, 33.75], [-96.31, 33.73], [-96.31, 33.72], [-96.31, 33.71], [-96.32, 33.7], [-96.33, 33.69], [-96.34, 33.69], [-96.36, 33.69], [-96.36, 33.69], [-96.36, 33.7], [-96.37, 33.72], [-96.4, 33.74], [-96.41, 33.76], [-96.42, 33.78], [-96.44, 33.78], [-96.45, 33.78], [-96.46, 33.78], [-96.47, 33.78], [-96.5, 33.77], [-96.51, 33.79], [-96.52, 33.81], [-96.53, 33.82], [-96.53, 33.82], [-96.55, 33.82], [-96.57, 33.82], [-96.59, 33.83], [-96.63, 33.84], [-96.63, 33.85], [-96.61, 33.87], [-96.6, 33.88], [-96.59, 33.89], [-96.59, 33.9], [-96.63, 33.9], [-96.65, 33.91], [-96.67, 33.92], [-96.67, 33.91], [-96.68, 33.89], [-96.68, 33.86], [-96.69, 33.85], [-96.7, 33.84], [-96.71, 33.83], [-96.74, 33.83], [-96.76, 33.82], [-96.77, 33.83], [-96.78, 33.84], [-96.78, 33.86], [-96.79, 33.87], [-96.83, 33.87], [-96.84, 33.87], [-96.84, 33.85], [-96.85, 33.85], [-96.87, 33.85], [-96.88, 33.87], [-96.9, 33.9], [-96.9, 33.93], [-96.91, 33.95], [-96.92, 33.96], [-96.94, 33.95], [-96.95, 33.94], [-96.97, 33.94], [-96.98, 33.94], [-96.98, 33.95], [-96.99, 33.95], [-96.99, 33.95], [-97.0, 33.94], [-96.98, 33.9], [-96.98, 33.89], [-97.0, 33.87], [-97.02, 33.85], [-97.04, 33.84], [-97.05, 33.85], [-97.06, 33.86], [-97.07, 33.86], [-97.09, 33.85], [-97.09, 33.85], [-97.08, 33.84], [-97.07, 33.84], [-97.05, 33.83], [-97.05, 33.82], [-97.05, 33.82], [-97.07, 33.82], [-97.08, 33.81], [-97.1, 33.8], [-97.09, 33.78], [-97.09, 33.77], [-97.09, 33.74], [-97.09, 33.73], [-97.11, 33.72], [-97.13, 33.72], [-97.15, 33.72], [-97.17, 33.74], [-97.17, 33.75], [-97.19, 33.76], [-97.19, 33.77], [-97.19, 33.78], [-97.2, 33.79], [-97.21, 33.8], [-97.2, 33.82], [-97.2, 33.83], [-97.19, 33.83], [-97.17, 33.83], [-97.16, 33.85], [-97.17, 33.85], [-97.18, 33.88], [-97.18, 33.89], [-97.19, 33.9], [-97.2, 33.91], [-97.21, 33.92], [-97.22, 33.91], [-97.23, 33.92], [-97.25, 33.9], [-97.25, 33.89], [-97.25, 33.87], [-97.25, 33.87], [-97.27, 33.86], [-97.29, 33.87], [-97.31, 33.89], [-97.31, 33.87], [-97.33, 33.85], [-97.34, 33.86], [-97.32, 33.88], [-97.34, 33.88], [-97.34, 33.86], [-97.36, 33.83], [-97.37, 33.82], [-97.4, 33.82], [-97.42, 33.82], [-97.45, 33.82], [-97.46, 33.83], [-97.46, 33.84], [-97.45, 33.88], [-97.45, 33.89], [-97.46, 33.91], [-97.49, 33.92], [-97.5, 33.92], [-97.52, 33.91], [-97.54, 33.9], [-97.56, 33.9], [-97.57, 33.9], [-97.58, 33.9], [-97.59, 33.9], [-97.6, 33.92], [-97.59, 33.93], [-97.6, 33.94], [-97.59, 33.95], [-97.6, 33.96], [-97.61, 33.97], [-97.62, 33.97], [-97.63, 33.98], [-97.66, 33.99], [-97.67, 33.99], [-97.69, 33.99], [-97.7, 33.98], [-97.7, 33.96], [-97.71, 33.95], [-97.73, 33.94], [-97.75, 33.94], [-97.76, 33.93], [-97.76, 33.92], [-97.77, 33.91], [-97.78, 33.92], [-97.79, 33.91], [-97.78, 33.9], [-97.78, 33.89], [-97.79, 33.9], [-97.8, 33.9], [-97.8, 33.89], [-97.81, 33.88], [-97.82, 33.88], [-97.82, 33.87], [-97.83, 33.86], [-97.87, 33.85], [-97.88, 33.85], [-97.9, 33.86], [-97.91, 33.87], [-97.94, 33.88], [-97.96, 33.88], [-97.97, 33.89], [-97.98, 33.9], [-97.98, 33.91], [-97.97, 33.91], [-97.96, 33.91], [-97.95, 33.94], [-97.97, 33.94], [-97.97, 33.94], [-97.96, 33.95], [-97.96, 33.96], [-97.95, 33.99], [-97.96, 33.99], [-97.97, 34.01], [-97.99, 34.0], [-98.02, 33.99], [-98.04, 33.99], [-98.08, 34.0], [-98.08, 34.01], [-98.1, 34.03], [-98.11, 34.04], [-98.09, 34.03], [-98.08, 34.04], [-98.1, 34.05], [-98.11, 34.06], [-98.12, 34.07], [-98.12, 34.09], [-98.1, 34.1], [-98.09, 34.12], [-98.09, 34.13], [-98.1, 34.13], [-98.1, 34.15], [-98.11, 34.15], [-98.12, 34.15], [-98.14, 34.14], [-98.15, 34.13], [-98.17, 34.11], [-98.2, 34.12], [-98.22, 34.13], [-98.23, 34.13], [-98.26, 34.13], [-98.27, 34.13], [-98.28, 34.13], [-98.3, 34.13], [-98.32, 34.15], [-98.36, 34.16], [-98.38, 34.15], [-98.4, 34.12], [-98.4, 34.1], [-98.4, 34.09], [-98.41, 34.08], [-98.42, 34.08], [-98.43, 34.09], [-98.45, 34.08], [-98.47, 34.07], [-98.47, 34.07], [-98.48, 34.06], [-98.5, 34.07], [-98.53, 34.09], [-98.54, 34.11], [-98.55, 34.12], [-98.56, 34.12], [-98.55, 34.13], [-98.56, 34.14], [-98.58, 34.14], [-98.59, 34.16], [-98.6, 34.16], [-98.62, 34.16], [-98.64, 34.16], [-98.67, 34.15], [-98.69, 34.13], [-98.7, 34.14], [-98.71, 34.13], [-98.72, 34.14], [-98.74, 34.14], [-98.74, 34.13], [-98.76, 34.12], [-98.77, 34.14], [-98.78, 34.14], [-98.79, 34.15], [-98.8, 34.14], [-98.8, 34.15], [-98.83, 34.16], [-98.84, 34.16], [-98.85, 34.16], [-98.86, 34.15], [-98.87, 34.15], [-98.87, 34.16], [-98.87, 34.17], [-98.89, 34.17], [-98.9, 34.18], [-98.92, 34.18], [-98.94, 34.2], [-98.95, 34.21], [-98.96, 34.21], [-98.97, 34.2], [-98.98, 34.21], [-98.98, 34.22], [-98.99, 34.22], [-99.0, 34.21], [-99.01, 34.2], [-99.04, 34.21], [-99.04, 34.2], [-99.06, 34.2], [-99.07, 34.21], [-99.08, 34.21], [-99.1, 34.21], [-99.11, 34.21], [-99.12, 34.2], [-99.13, 34.21], [-99.13, 34.22], [-99.14, 34.22], [-99.15, 34.21], [-99.16, 34.21], [-99.19, 34.21], [-99.19, 34.22], [-99.19, 34.23], [-99.2, 34.24], [-99.19, 34.26], [-99.2, 34.26], [-99.19, 34.27], [-99.2, 34.28], [-99.21, 34.28], [-99.21, 34.31], [-99.21, 34.32], [-99.21, 34.34], [-99.23, 34.34], [-99.23, 34.35], [-99.23, 34.35], [-99.24, 34.37], [-99.25, 34.38], [-99.27, 34.38], [-99.26, 34.39], [-99.26, 34.4], [-99.28, 34.4], [-99.28, 34.4], [-99.29, 34.41], [-99.29, 34.42], [-99.31, 34.41], [-99.32, 34.41], [-99.33, 34.42], [-99.36, 34.44], [-99.35, 34.45], [-99.36, 34.46], [-99.38, 34.46], [-99.38, 34.46], [-99.39, 34.44], [-99.39, 34.43], [-99.4, 34.42], [-99.39, 34.41], [-99.4, 34.39], [-99.4, 34.38], [-99.41, 34.37], [-99.43, 34.39], [-99.43, 34.37], [-99.44, 34.37], [-99.45, 34.39], [-99.47, 34.4], [-99.49, 34.4], [-99.5, 34.41], [-99.52, 34.41], [-99.53, 34.41], [-99.55, 34.41], [-99.57, 34.42], [-99.58, 34.42], [-99.58, 34.41], [-99.58, 34.39], [-99.6, 34.37], [-99.61, 34.38], [-99.62, 34.37], [-99.65, 34.38], [-99.66, 34.37], [-99.68, 34.38], [-99.69, 34.38], [-99.71, 34.39], [-99.71, 34.4], [-99.73, 34.41], [-99.75, 34.42], [-99.77, 34.43], [-99.77, 34.44], [-99.78, 34.44], [-99.78, 34.45], [-99.81, 34.48], [-99.82, 34.49], [-99.82, 34.5], [-99.83, 34.5], [-99.85, 34.51], [-99.87, 34.53], [-99.88, 34.54], [-99.89, 34.55], [-99.92, 34.57], [-99.92, 34.57], [-99.94, 34.58], [-99.96, 34.57], [-99.97, 34.56], [-99.99, 34.56], [-100.0, 34.56], [-100.0, 34.75], [-100.0, 34.9], [-100.0, 35.03], [-100.0, 35.28], [-100.0, 35.48], [-100.0, 35.62], [-100.0, 35.79], [-100.0, 35.88], [-100.0, 36.13], [-100.0, 36.36], [-100.0, 36.5], [-100.17, 36.5], [-100.29, 36.5], [-100.33, 36.5], [-100.5, 36.5], [-100.71, 36.5], [-100.92, 36.5], [-101.07, 36.5], [-101.22, 36.5], [-101.5, 36.5], [-101.7, 36.5], [-101.83, 36.5], [-101.9, 36.5], [-102.08, 36.5], [-102.13, 36.5], [-102.37, 36.5], [-102.63, 36.5], [-102.82, 36.5], [-102.88, 36.5], [-103.0, 36.5], [-103.0, 36.6], [-103.0, 36.82], [-103.0, 36.93], [-103.0, 36.97], [-103.0, 37.0], [-103.0, 37.0], [-103.0, 37.0], [-103.0, 37.0], [-102.99, 37.0], [-102.88, 37.0], [-102.84, 37.0], [-102.83, 37.0], [-102.82, 37.0], [-102.81, 37.0], [-102.78, 37.0], [-102.76, 37.0], [-102.74, 37.0], [-102.7, 37.0], [-102.57, 37.0], [-102.54, 36.99], [-102.54, 36.99], [-102.54, 36.99], [-102.52, 36.99], [-102.51, 36.99], [-102.5, 36.99], [-102.45, 36.99], [-102.39, 36.99], [-102.37, 36.99], [-102.21, 36.99], [-102.13, 36.99], [-102.08, 36.99], [-102.08, 36.99], [-102.07, 36.99], [-102.07, 36.99], [-102.07, 36.99], [-102.05, 36.99], [-102.05, 36.99], [-102.04, 36.99], [-101.87, 36.99], [-101.63, 36.99], [-101.46, 37.0], [-101.21, 37.0], [-101.11, 37.0], [-100.95, 37.0], [-100.9, 37.0], [-100.73, 37.0], [-100.6, 37.0], [-100.38, 37.0], [-100.09, 37.0]]]}}]}