{"type": "FeatureCollection", "features": [{"type": "Feature", "properties": {"ID": 35, "abbreviation": "OR", "name": "Oregon"}, "geometry": {"type": "Polygon", "coordinates": [[[-123.9, 46.24], [-123.87, 46.23], [-123.85, 46.24], [-123.82, 46.25], [-123.81, 46.25], [-123.8, 46.25], [-123.79, 46.25], [-123.78, 46.25], [-123.78, 46.25], [-123.75, 46.27], [-123.74, 46.27], [-123.71, 46.26], [-123.7, 46.25], [-123.69, 46.25], [-123.65, 46.26], [-123.63, 46.26], [-123.59, 46.26], [-123.57, 46.26], [-123.56, 46.26], [-123.54, 46.26], [-123.53, 46.26], [-123.5, 46.27], [-123.48, 46.27], [-123.46, 46.26], [-123.46, 46.26], [-123.45, 46.25], [-123.43, 46.23], [-123.43, 46.22], [-123.43, 46.2], [-123.43, 46.19], [-123.43, 46.18], [-123.42, 46.17], [-123.41, 46.17], [-123.38, 46.15], [-123.36, 46.15], [-123.36, 46.15], [-123.34, 46.15], [-123.34, 46.15], [-123.34, 46.15], [-123.33, 46.15], [-123.33, 46.15], [-123.32, 46.15], [-123.32, 46.15], [-123.31, 46.15], [-123.3, 46.14], [-123.3, 46.14], [-123.3, 46.14], [-123.3, 46.14], [-123.29, 46.14], [-123.29, 46.14], [-123.29, 46.14], [-123.29, 46.14], [-123.28, 46.14], [-123.28, 46.14], [-123.25, 46.16], [-123.25, 46.16], [-123.21, 46.17], [-123.2, 46.18], [-123.18, 46.18], [-123.16, 46.19], [-123.13, 46.19], [-123.12, 46.19], [-123.11, 46.18], [-123.11, 46.18], [-123.06, 46.16], [-123.05, 46.15], [-123.05, 46.15], [-123.05, 46.15], [-123.04, 46.15], [-123.04, 46.14], [-123.03, 46.14], [-123.02, 46.14], [-123.02, 46.14], [-123.01, 46.14], [-123.0, 46.13], [-122.99, 46.13], [-122.96, 46.1], [-122.94, 46.1], [-122.92, 46.09], [-122.9, 46.08], [-122.9, 46.08], [-122.89, 46.06], [-122.89, 46.06], [-122.88, 46.06], [-122.88, 46.05], [-122.88, 46.03], [-122.87, 46.03], [-122.86, 46.01], [-122.84, 45.98], [-122.82, 45.97], [-122.81, 45.95], [-122.81, 45.93], [-122.81, 45.91], [-122.81, 45.9], [-122.8, 45.89], [-122.8, 45.88], [-122.79, 45.87], [-122.79, 45.87], [-122.79, 45.85], [-122.79, 45.84], [-122.79, 45.83], [-122.8, 45.83], [-122.8, 45.82], [-122.8, 45.81], [-122.79, 45.8], [-122.77, 45.78], [-122.77, 45.78], [-122.76, 45.76], [-122.76, 45.74], [-122.76, 45.73], [-122.77, 45.72], [-122.77, 45.71], [-122.77, 45.69], [-122.77, 45.68], [-122.77, 45.67], [-122.76, 45.66], [-122.75, 45.65], [-122.74, 45.64], [-122.71, 45.64], [-122.7, 45.63], [-122.68, 45.62], [-122.68, 45.62], [-122.67, 45.62], [-122.64, 45.61], [-122.6, 45.61], [-122.58, 45.6], [-122.55, 45.6], [-122.55, 45.6], [-122.55, 45.6], [-122.55, 45.6], [-122.55, 45.6], [-122.51, 45.59], [-122.49, 45.58], [-122.48, 45.58], [-122.47, 45.58], [-122.47, 45.58], [-122.46, 45.57], [-122.44, 45.56], [-122.42, 45.57], [-122.42, 45.57], [-122.4, 45.57], [-122.38, 45.58], [-122.35, 45.57], [-122.34, 45.56], [-122.33, 45.55], [-122.3, 45.54], [-122.29, 45.54], [-122.27, 45.54], [-122.25, 45.55], [-122.23, 45.56], [-122.21, 45.56], [-122.2, 45.56], [-122.18, 45.58], [-122.17, 45.58], [-122.15, 45.58], [-122.13, 45.58], [-122.1, 45.58], [-122.07, 45.6], [-122.06, 45.6], [-122.03, 45.61], [-122.0, 45.62], [-122.0, 45.62], [-121.98, 45.62], [-121.96, 45.63], [-121.95, 45.64], [-121.95, 45.64], [-121.94, 45.64], [-121.94, 45.64], [-121.92, 45.65], [-121.91, 45.65], [-121.9, 45.66], [-121.9, 45.67], [-121.87, 45.69], [-121.81, 45.71], [-121.74, 45.69], [-121.71, 45.69], [-121.67, 45.71], [-121.63, 45.7], [-121.53, 45.73], [-121.52, 45.72], [-121.5, 45.72], [-121.47, 45.7], [-121.46, 45.7], [-121.43, 45.7], [-121.42, 45.69], [-121.4, 45.69], [-121.38, 45.7], [-121.35, 45.7], [-121.34, 45.7], [-121.31, 45.7], [-121.29, 45.69], [-121.27, 45.68], [-121.25, 45.68], [-121.22, 45.67], [-121.2, 45.66], [-121.2, 45.65], [-121.2, 45.63], [-121.2, 45.62], [-121.18, 45.61], [-121.17, 45.61], [-121.15, 45.61], [-121.14, 45.61], [-121.13, 45.61], [-121.12, 45.61], [-121.12, 45.61], [-121.12, 45.62], [-121.12, 45.62], [-121.12, 45.62], [-121.12, 45.62], [-121.12, 45.62], [-121.09, 45.64], [-121.08, 45.65], [-121.06, 45.65], [-121.05, 45.65], [-121.02, 45.65], [-121.01, 45.65], [-120.98, 45.65], [-120.95, 45.66], [-120.94, 45.66], [-120.92, 45.64], [-120.91, 45.64], [-120.9, 45.64], [-120.87, 45.66], [-120.86, 45.67], [-120.8, 45.68], [-120.79, 45.69], [-120.71, 45.71], [-120.69, 45.72], [-120.68, 45.72], [-120.67, 45.73], [-120.63, 45.75], [-120.63, 45.75], [-120.59, 45.75], [-120.56, 45.74], [-120.55, 45.73], [-120.53, 45.72], [-120.52, 45.71], [-120.51, 45.7], [-120.48, 45.69], [-120.46, 45.7], [-120.43, 45.7], [-120.41, 45.7], [-120.4, 45.7], [-120.39, 45.7], [-120.37, 45.71], [-120.35, 45.71], [-120.34, 45.71], [-120.34, 45.71], [-120.33, 45.71], [-120.33, 45.71], [-120.31, 45.72], [-120.29, 45.72], [-120.28, 45.72], [-120.28, 45.72], [-120.27, 45.72], [-120.27, 45.72], [-120.27, 45.72], [-120.26, 45.72], [-120.25, 45.72], [-120.25, 45.72], [-120.22, 45.73], [-120.21, 45.73], [-120.2, 45.74], [-120.18, 45.75], [-120.18, 45.76], [-120.16, 45.77], [-120.14, 45.77], [-120.1, 45.78], [-120.07, 45.79], [-120.0, 45.81], [-119.97, 45.82], [-119.91, 45.83], [-119.87, 45.84], [-119.84, 45.84], [-119.8, 45.85], [-119.77, 45.85], [-119.72, 45.85], [-119.67, 45.86], [-119.65, 45.88], [-119.63, 45.9], [-119.62, 45.91], [-119.6, 45.92], [-119.58, 45.92], [-119.57, 45.93], [-119.56, 45.92], [-119.52, 45.91], [-119.5, 45.91], [-119.49, 45.91], [-119.45, 45.92], [-119.43, 45.92], [-119.4, 45.92], [-119.36, 45.92], [-119.34, 45.93], [-119.32, 45.93], [-119.31, 45.93], [-119.3, 45.94], [-119.3, 45.94], [-119.26, 45.94], [-119.25, 45.94], [-119.23, 45.93], [-119.2, 45.93], [-119.18, 45.93], [-119.17, 45.93], [-119.13, 45.93], [-119.09, 45.94], [-119.08, 45.95], [-119.06, 45.96], [-119.04, 45.96], [-119.02, 45.97], [-119.0, 45.99], [-118.98, 46.0], [-118.98, 46.0], [-118.98, 46.0], [-118.98, 46.0], [-118.96, 46.0], [-118.94, 46.0], [-118.93, 46.0], [-118.9, 46.0], [-118.86, 46.0], [-118.83, 46.0], [-118.79, 46.0], [-118.77, 46.0], [-118.73, 46.0], [-118.72, 46.0], [-118.7, 46.0], [-118.7, 46.0], [-118.69, 46.0], [-118.68, 46.0], [-118.66, 46.0], [-118.64, 46.0], [-118.63, 46.0], [-118.61, 46.0], [-118.59, 46.0], [-118.58, 46.0], [-118.57, 46.0], [-118.56, 46.0], [-118.55, 46.0], [-118.55, 46.0], [-118.54, 46.0], [-118.51, 46.0], [-118.51, 46.0], [-118.48, 46.0], [-118.47, 46.0], [-118.45, 46.0], [-118.45, 46.0], [-118.44, 46.0], [-118.43, 46.0], [-118.41, 46.0], [-118.41, 46.0], [-118.41, 46.0], [-118.4, 46.0], [-118.4, 46.0], [-118.4, 46.0], [-118.39, 46.0], [-118.39, 46.0], [-118.38, 46.0], [-118.38, 46.0], [-118.38, 46.0], [-118.37, 46.0], [-118.37, 46.0], [-118.36, 46.0], [-118.35, 46.0], [-118.34, 46.0], [-118.32, 46.0], [-118.31, 46.0], [-118.29, 46.0], [-118.26, 46.0], [-118.25, 46.0], [-118.25, 46.0], [-118.23, 46.0], [-118.22, 46.0], [-118.21, 46.0], [-118.21, 46.0], [-118.17, 46.0], [-118.15, 46.0], [-118.14, 46.0], [-118.13, 46.0], [-118.12, 46.0], [-118.12, 46.0], [-118.11, 46.0], [-118.1, 46.0], [-118.08, 46.0], [-118.04, 46.0], [-118.01, 46.0], [-118.0, 46.0], [-118.0, 46.0], [-117.99, 46.0], [-117.98, 46.0], [-117.95, 46.0], [-117.88, 46.0], [-117.86, 46.0], [-117.84, 46.0], [-117.82, 46.0], [-117.77, 46.0], [-117.75, 46.0], [-117.73, 46.0], [-117.7, 46.0], [-117.64, 46.0], [-117.6, 46.0], [-117.55, 46.0], [-117.54, 46.0], [-117.52, 46.0], [-117.5, 46.0], [-117.48, 46.0], [-117.48, 46.0], [-117.47, 46.0], [-117.44, 46.0], [-117.44, 46.0], [-117.43, 46.0], [-117.41, 46.0], [-117.39, 46.0], [-117.38, 46.0], [-117.38, 46.0], [-117.37, 46.0], [-117.37, 46.0], [-117.35, 46.0], [-117.34, 46.0], [-117.3, 46.0], [-117.28, 46.0], [-117.26, 46.0], [-117.25, 46.0], [-117.23, 46.0], [-117.21, 46.0], [-117.21, 46.0], [-117.2, 46.0], [-117.13, 46.0], [-117.1, 46.0], [-117.09, 46.0], [-117.05, 46.0], [-117.05, 46.0], [-117.04, 46.0], [-116.99, 46.0], [-116.98, 46.0], [-116.97, 46.0], [-116.96, 46.0], [-116.96, 46.0], [-116.93, 46.0], [-116.93, 46.0], [-116.92, 46.0], [-116.92, 46.0], [-116.92, 46.0], [-116.92, 46.0], [-116.91, 45.99], [-116.89, 45.98], [-116.89, 45.96], [-116.88, 45.95], [-116.88, 45.94], [-116.87, 45.92], [-116.86, 45.9], [-116.84, 45.89], [-116.81, 45.88], [-116.81, 45.87], [-116.8, 45.86], [-116.79, 45.84], [-116.79, 45.83], [-116.78, 45.83], [-116.76, 45.82], [-116.75, 45.82], [-116.73, 45.83], [-116.71, 45.83], [-116.7, 45.82], [-116.68, 45.79], [-116.67, 45.78], [-116.65, 45.78], [-116.63, 45.78], [-116.59, 45.78], [-116.56, 45.76], [-116.55, 45.75], [-116.54, 45.73], [-116.54, 45.72], [-116.54, 45.69], [-116.53, 45.68], [-116.52, 45.68], [-116.51, 45.66], [-116.49, 45.65], [-116.48, 45.63], [-116.46, 45.62], [-116.47, 45.6], [-116.47, 45.6], [-116.48, 45.58], [-116.48, 45.58], [-116.5, 45.57], [-116.51, 45.56], [-116.52, 45.55], [-116.54, 45.52], [-116.56, 45.5], [-116.55, 45.5], [-116.56, 45.48], [-116.55, 45.46], [-116.58, 45.45], [-116.59, 45.44], [-116.6, 45.41], [-116.62, 45.39], [-116.63, 45.38], [-116.66, 45.35], [-116.67, 45.32], [-116.67, 45.29], [-116.67, 45.28], [-116.69, 45.26], [-116.7, 45.25], [-116.7, 45.24], [-116.7, 45.23], [-116.71, 45.22], [-116.71, 45.2], [-116.72, 45.17], [-116.73, 45.14], [-116.75, 45.13], [-116.75, 45.12], [-116.75, 45.11], [-116.77, 45.11], [-116.78, 45.09], [-116.78, 45.08], [-116.8, 45.06], [-116.81, 45.05], [-116.83, 45.04], [-116.84, 45.03], [-116.85, 45.02], [-116.84, 45.0], [-116.86, 44.98], [-116.86, 44.98], [-116.85, 44.97], [-116.84, 44.98], [-116.83, 44.98], [-116.84, 44.97], [-116.85, 44.96], [-116.85, 44.95], [-116.83, 44.93], [-116.84, 44.92], [-116.84, 44.91], [-116.85, 44.9], [-116.85, 44.89], [-116.87, 44.87], [-116.88, 44.87], [-116.88, 44.86], [-116.9, 44.85], [-116.9, 44.85], [-116.92, 44.81], [-116.93, 44.8], [-116.93, 44.79], [-116.94, 44.78], [-116.95, 44.78], [-116.97, 44.78], [-116.99, 44.76], [-117.0, 44.76], [-117.01, 44.76], [-117.04, 44.75], [-117.05, 44.73], [-117.06, 44.73], [-117.06, 44.72], [-117.06, 44.7], [-117.08, 44.69], [-117.08, 44.67], [-117.1, 44.66], [-117.09, 44.65], [-117.1, 44.64], [-117.12, 44.61], [-117.13, 44.59], [-117.12, 44.58], [-117.15, 44.57], [-117.14, 44.56], [-117.14, 44.55], [-117.15, 44.53], [-117.16, 44.53], [-117.18, 44.52], [-117.19, 44.51], [-117.2, 44.49], [-117.21, 44.49], [-117.22, 44.48], [-117.23, 44.48], [-117.22, 44.46], [-117.22, 44.43], [-117.23, 44.41], [-117.24, 44.4], [-117.24, 44.39], [-117.24, 44.37], [-117.2, 44.35], [-117.19, 44.34], [-117.21, 44.31], [-117.22, 44.31], [-117.22, 44.3], [-117.22, 44.29], [-117.2, 44.28], [-117.17, 44.26], [-117.16, 44.26], [-117.14, 44.26], [-117.12, 44.28], [-117.1, 44.28], [-117.09, 44.27], [-117.09, 44.26], [-117.07, 44.24], [-117.06, 44.23], [-117.05, 44.23], [-117.04, 44.24], [-117.03, 44.25], [-117.02, 44.25], [-116.99, 44.25], [-116.98, 44.24], [-116.97, 44.22], [-116.97, 44.21], [-116.97, 44.19], [-116.95, 44.19], [-116.94, 44.19], [-116.92, 44.19], [-116.91, 44.18], [-116.9, 44.18], [-116.9, 44.17], [-116.9, 44.15], [-116.91, 44.14], [-116.91, 44.13], [-116.93, 44.12], [-116.93, 44.1], [-116.94, 44.09], [-116.97, 44.09], [-116.98, 44.09], [-116.97, 44.05], [-116.96, 44.05], [-116.94, 44.03], [-116.93, 44.02], [-116.94, 44.01], [-116.94, 44.0], [-116.94, 43.99], [-116.95, 43.98], [-116.96, 43.97], [-116.97, 43.97], [-116.98, 43.96], [-116.96, 43.96], [-116.97, 43.94], [-116.96, 43.93], [-116.96, 43.92], [-116.98, 43.91], [-116.98, 43.89], [-116.98, 43.88], [-116.98, 43.87], [-117.02, 43.86], [-117.01, 43.85], [-117.01, 43.84], [-117.03, 43.84], [-117.03, 43.83], [-117.02, 43.82], [-117.03, 43.81], [-117.03, 43.64], [-117.03, 43.52], [-117.03, 43.51], [-117.03, 43.37], [-117.03, 43.2], [-117.03, 43.03], [-117.03, 42.97], [-117.03, 42.73], [-117.03, 42.58], [-117.03, 42.37], [-117.03, 42.2], [-117.03, 42.0], [-117.04, 42.0], [-117.13, 42.0], [-117.22, 42.0], [-117.4, 42.0], [-117.44, 42.0], [-117.62, 42.0], [-117.63, 42.0], [-117.81, 42.0], [-118.0, 42.0], [-118.2, 42.0], [-118.5, 42.0], [-118.6, 41.99], [-118.7, 41.99], [-119.01, 41.99], [-119.21, 41.99], [-119.25, 41.99], [-119.38, 41.99], [-119.44, 42.0], [-119.62, 42.0], [-119.75, 42.0], [-119.79, 42.0], [-119.87, 42.0], [-119.99, 42.0], [-120.0, 41.99], [-120.0, 42.0], [-120.05, 42.0], [-120.07, 41.99], [-120.07, 41.99], [-120.09, 41.99], [-120.1, 41.99], [-120.12, 41.99], [-120.21, 41.99], [-120.23, 41.99], [-120.23, 41.99], [-120.24, 41.99], [-120.25, 41.99], [-120.25, 41.99], [-120.26, 41.99], [-120.28, 41.99], [-120.3, 41.99], [-120.3, 41.99], [-120.3, 41.99], [-120.3, 41.99], [-120.31, 41.99], [-120.31, 41.99], [-120.31, 41.99], [-120.33, 41.99], [-120.34, 41.99], [-120.36, 41.99], [-120.38, 41.99], [-120.38, 41.99], [-120.46, 41.99], [-120.5, 41.99], [-120.51, 41.99], [-120.53, 41.99], [-120.54, 41.99], [-120.64, 41.99], [-120.65, 41.99], [-120.65, 41.99], [-120.66, 41.99], [-120.7, 41.99], [-120.81, 41.99], [-121.0, 41.99], [-121.04, 41.99], [-121.13, 42.0], [-121.25, 42.0], [-121.25, 42.0], [-121.26, 42.0], [-121.27, 42.0], [-121.29, 42.0], [-121.29, 42.0], [-121.3, 42.0], [-121.3, 42.0], [-121.3, 42.0], [-121.31, 42.0], [-121.32, 42.0], [-121.32, 42.0], [-121.33, 42.0], [-121.34, 42.0], [-121.58, 42.0], [-121.75, 42.0], [-121.85, 42.0], [-122.0, 42.0], [-122.1, 42.01], [-122.13, 42.01], [-122.16, 42.01], [-122.16, 42.01], [-122.16, 42.01], [-122.16, 42.01], [-122.18, 42.01], [-122.18, 42.01], [-122.19, 42.01], [-122.19, 42.01], [-122.2, 42.01], [-122.22, 42.01], [-122.22, 42.01], [-122.24, 42.01], [-122.25, 42.01], [-122.26, 42.01], [-122.29, 42.01], [-122.38, 42.01], [-122.4, 42.01], [-122.5, 42.01], [-122.63, 42.0], [-122.71, 42.0], [-122.88, 42.0], [-123.05, 42.0], [-123.15, 42.01], [-123.19, 42.01], [-123.35, 42.0], [-123.38, 42.0], [-123.4, 42.0], [-123.42, 42.0], [-123.43, 42.0], [-123.44, 42.0], [-123.45, 42.0], [-123.48, 42.0], [-123.5, 42.0], [-123.5, 42.0], [-123.5, 42.0], [-123.5, 42.0], [-123.51, 42.0], [-123.51, 42.0], [-123.51, 42.0], [-123.52, 42.0], [-123.52, 42.0], [-123.52, 42.0], [-123.52, 42.0], [-123.52, 42.0], [-123.52, 42.0], [-123.53, 42.0], [-123.55, 42.0], [-123.62, 42.0], [-123.66, 42.0], [-123.67, 42.0], [-123.69, 42.0], [-123.73, 42.0], [-123.73, 42.0], [-123.73, 42.0], [-123.75, 42.0], [-123.77, 42.0], [-123.79, 42.0], [-123.79, 42.0], [-123.79, 42.0], [-123.79, 42.0], [-123.81, 42.0], [-123.82, 42.0], [-123.83, 42.0], [-123.83, 42.0], [-123.93, 42.0], [-123.97, 42.0], [-123.98, 42.0], [-124.13, 42.0], [-124.21, 42.0], [-124.22, 42.0], [-124.23, 42.01], [-124.24, 42.02], [-124.25, 42.03], [-124.27, 42.05], [-124.28, 42.04], [-124.3, 42.05], [-124.3, 42.06], [-124.32, 42.07], [-124.32, 42.08], [-124.33, 42.09], [-124.34, 42.1], [-124.35, 42.1], [-124.35, 42.11], [-124.36, 42.12], [-124.35, 42.13], [-124.36, 42.15], [-124.37, 42.16], [-124.36, 42.18], [-124.38, 42.2], [-124.38, 42.22], [-124.38, 42.23], [-124.41, 42.25], [-124.41, 42.27], [-124.41, 42.29], [-124.41, 42.31], [-124.42, 42.32], [-124.43, 42.32], [-124.43, 42.34], [-124.42, 42.38], [-124.43, 42.42], [-124.44, 42.44], [-124.43, 42.44], [-124.42, 42.46], [-124.42, 42.48], [-124.42, 42.49], [-124.42, 42.5], [-124.41, 42.52], [-124.39, 42.56], [-124.39, 42.57], [-124.4, 42.6], [-124.4, 42.62], [-124.4, 42.63], [-124.41, 42.65], [-124.41, 42.65], [-124.42, 42.66], [-124.45, 42.68], [-124.45, 42.69], [-124.45, 42.69], [-124.46, 42.71], [-124.47, 42.73], [-124.49, 42.74], [-124.51, 42.74], [-124.51, 42.75], [-124.52, 42.77], [-124.52, 42.79], [-124.54, 42.81], [-124.56, 42.83], [-124.54, 42.86], [-124.53, 42.88], [-124.52, 42.88], [-124.5, 42.92], [-124.48, 42.96], [-124.46, 42.99], [-124.45, 43.03], [-124.44, 43.07], [-124.43, 43.1], [-124.44, 43.11], [-124.42, 43.13], [-124.4, 43.18], [-124.4, 43.2], [-124.4, 43.22], [-124.38, 43.27], [-124.39, 43.29], [-124.4, 43.31], [-124.39, 43.33], [-124.37, 43.34], [-124.35, 43.34], [-124.34, 43.35], [-124.32, 43.35], [-124.32, 43.34], [-124.33, 43.33], [-124.32, 43.32], [-124.33, 43.31], [-124.32, 43.3], [-124.31, 43.3], [-124.32, 43.33], [-124.31, 43.36], [-124.3, 43.37], [-124.29, 43.38], [-124.29, 43.38], [-124.28, 43.39], [-124.27, 43.4], [-124.26, 43.42], [-124.24, 43.42], [-124.24, 43.41], [-124.22, 43.42], [-124.22, 43.41], [-124.22, 43.4], [-124.22, 43.39], [-124.21, 43.37], [-124.17, 43.37], [-124.17, 43.38], [-124.19, 43.39], [-124.19, 43.39], [-124.2, 43.41], [-124.2, 43.42], [-124.21, 43.43], [-124.22, 43.43], [-124.21, 43.44], [-124.2, 43.45], [-124.23, 43.45], [-124.24, 43.44], [-124.25, 43.43], [-124.27, 43.42], [-124.28, 43.42], [-124.28, 43.4], [-124.3, 43.39], [-124.32, 43.37], [-124.32, 43.36], [-124.33, 43.36], [-124.32, 43.38], [-124.3, 43.41], [-124.28, 43.46], [-124.25, 43.51], [-124.23, 43.56], [-124.21, 43.63], [-124.21, 43.66], [-124.2, 43.67], [-124.2, 43.67], [-124.19, 43.72], [-124.17, 43.79], [-124.16, 43.87], [-124.14, 43.96], [-124.13, 44.02], [-124.14, 44.02], [-124.13, 44.07], [-124.12, 44.11], [-124.13, 44.13], [-124.12, 44.16], [-124.11, 44.2], [-124.11, 44.22], [-124.11, 44.23], [-124.11, 44.25], [-124.11, 44.27], [-124.11, 44.28], [-124.11, 44.31], [-124.11, 44.32], [-124.1, 44.33], [-124.09, 44.37], [-124.08, 44.42], [-124.07, 44.42], [-124.06, 44.44], [-124.05, 44.43], [-124.03, 44.42], [-124.01, 44.42], [-124.03, 44.43], [-124.02, 44.44], [-124.05, 44.45], [-124.08, 44.43], [-124.08, 44.44], [-124.08, 44.47], [-124.08, 44.48], [-124.08, 44.5], [-124.08, 44.52], [-124.07, 44.61], [-124.07, 44.61], [-124.05, 44.62], [-124.04, 44.61], [-124.01, 44.61], [-124.0, 44.62], [-124.01, 44.63], [-124.02, 44.63], [-124.03, 44.63], [-124.05, 44.63], [-124.06, 44.62], [-124.07, 44.63], [-124.06, 44.66], [-124.06, 44.67], [-124.07, 44.68], [-124.06, 44.7], [-124.06, 44.74], [-124.06, 44.75], [-124.07, 44.77], [-124.08, 44.77], [-124.07, 44.79], [-124.07, 44.8], [-124.06, 44.8], [-124.07, 44.83], [-124.05, 44.84], [-124.04, 44.88], [-124.03, 44.9], [-124.02, 44.89], [-124.01, 44.91], [-124.02, 44.91], [-124.01, 44.93], [-124.03, 44.93], [-124.02, 44.95], [-124.02, 44.97], [-124.01, 45.01], [-124.01, 45.03], [-124.0, 45.04], [-124.01, 45.05], [-124.01, 45.06], [-124.01, 45.07], [-124.01, 45.08], [-124.01, 45.08], [-123.99, 45.09], [-123.98, 45.12], [-123.97, 45.15], [-123.96, 45.17], [-123.93, 45.18], [-123.95, 45.18], [-123.97, 45.17], [-123.97, 45.2], [-123.97, 45.22], [-123.97, 45.27], [-123.96, 45.26], [-123.95, 45.28], [-123.96, 45.28], [-123.96, 45.32], [-123.97, 45.34], [-123.98, 45.34], [-124.0, 45.34], [-124.0, 45.34], [-123.98, 45.35], [-123.97, 45.35], [-123.96, 45.4], [-123.96, 45.43], [-123.95, 45.42], [-123.96, 45.39], [-123.96, 45.37], [-123.94, 45.39], [-123.93, 45.4], [-123.93, 45.42], [-123.94, 45.43], [-123.95, 45.43], [-123.97, 45.46], [-123.97, 45.48], [-123.98, 45.49], [-123.97, 45.49], [-123.96, 45.51], [-123.95, 45.54], [-123.95, 45.56], [-123.94, 45.55], [-123.94, 45.55], [-123.94, 45.54], [-123.95, 45.53], [-123.94, 45.51], [-123.93, 45.5], [-123.92, 45.49], [-123.9, 45.48], [-123.88, 45.48], [-123.87, 45.49], [-123.87, 45.5], [-123.89, 45.51], [-123.89, 45.52], [-123.9, 45.53], [-123.91, 45.55], [-123.93, 45.56], [-123.94, 45.57], [-123.96, 45.57], [-123.95, 45.59], [-123.94, 45.63], [-123.94, 45.65], [-123.93, 45.66], [-123.92, 45.67], [-123.93, 45.69], [-123.91, 45.69], [-123.9, 45.7], [-123.9, 45.71], [-123.92, 45.71], [-123.92, 45.69], [-123.93, 45.69], [-123.93, 45.67], [-123.94, 45.67], [-123.94, 45.7], [-123.94, 45.73], [-123.96, 45.74], [-123.97, 45.76], [-123.98, 45.77], [-123.97, 45.78], [-123.96, 45.82], [-123.96, 45.84], [-123.96, 45.86], [-123.96, 45.87], [-123.97, 45.91], [-123.98, 45.92], [-123.98, 45.93], [-123.99, 45.94], [-123.99, 45.95], [-123.98, 45.96], [-123.97, 45.97], [-123.96, 45.97], [-123.94, 45.98], [-123.93, 46.01], [-123.93, 46.05], [-123.93, 46.07], [-123.94, 46.11], [-123.95, 46.13], [-123.98, 46.17], [-123.99, 46.19], [-124.01, 46.22], [-124.02, 46.23], [-124.03, 46.25], [-124.04, 46.26], [-124.02, 46.27], [-124.03, 46.28], [-124.04, 46.28], [-124.04, 46.29], [-124.03, 46.3], [-124.02, 46.3], [-124.02, 46.3], [-124.01, 46.28], [-124.01, 46.28], [-124.01, 46.28], [-124.0, 46.27], [-123.99, 46.27], [-123.98, 46.27], [-123.95, 46.26], [-123.95, 46.25], [-123.93, 46.24], [-123.9, 46.24]]]}}]}