{"type": "FeatureCollection", "features": [{"type": "Feature", "properties": {"ID": 36, "abbreviation": "PA", "name": "Pennsylvania"}, "geometry": {"type": "Polygon", "coordinates": [[[-79.76, 42.13], [-79.76, 42.11], [-79.76, 42.09], [-79.76, 42.06], [-79.76, 42.04], [-79.76, 42.02], [-79.76, 42.01], [-79.76, 42.0], [-79.75, 42.0], [-79.72, 42.0], [-79.69, 42.0], [-79.68, 42.0], [-79.66, 42.0], [-79.6, 42.0], [-79.58, 42.0], [-79.56, 42.0], [-79.55, 42.0], [-79.54, 42.0], [-79.54, 42.0], [-79.54, 42.0], [-79.54, 42.0], [-79.54, 42.0], [-79.51, 42.0], [-79.5, 42.0], [-79.49, 42.0], [-79.49, 42.0], [-79.48, 42.0], [-79.46, 42.0], [-79.45, 42.0], [-79.43, 42.0], [-79.39, 42.0], [-79.39, 42.0], [-79.38, 42.0], [-79.35, 42.0], [-79.31, 42.0], [-79.31, 42.0], [-79.29, 42.0], [-79.27, 42.0], [-79.25, 42.0], [-79.22, 42.0], [-79.14, 42.0], [-79.13, 42.0], [-79.11, 42.0], [-79.09, 42.0], [-79.06, 42.0], [-79.06, 42.0], [-78.98, 42.0], [-78.87, 42.0], [-78.75, 42.0], [-78.6, 42.0], [-78.34, 42.0], [-78.27, 42.0], [-78.12, 42.0], [-78.0, 42.0], [-77.91, 42.0], [-77.78, 42.0], [-77.65, 42.0], [-77.61, 42.0], [-77.51, 42.0], [-77.31, 42.0], [-77.11, 42.0], [-76.92, 42.0], [-76.75, 42.0], [-76.56, 42.0], [-76.55, 42.0], [-76.55, 42.0], [-76.54, 42.0], [-76.54, 42.0], [-76.54, 42.0], [-76.54, 42.0], [-76.53, 42.0], [-76.53, 42.0], [-76.53, 42.0], [-76.53, 42.0], [-76.52, 42.0], [-76.52, 42.0], [-76.52, 42.0], [-76.52, 42.0], [-76.51, 42.0], [-76.5, 42.0], [-76.49, 42.0], [-76.49, 42.0], [-76.48, 42.0], [-76.48, 42.0], [-76.47, 42.0], [-76.47, 42.0], [-76.46, 42.0], [-76.45, 42.0], [-76.42, 42.0], [-76.39, 42.0], [-76.38, 42.0], [-76.37, 42.0], [-76.35, 42.0], [-76.31, 42.0], [-76.29, 42.0], [-76.24, 42.0], [-76.2, 42.0], [-76.15, 42.0], [-76.14, 42.0], [-76.14, 42.0], [-76.12, 42.0], [-76.11, 42.0], [-76.11, 42.0], [-76.06, 42.0], [-76.05, 42.0], [-76.03, 42.0], [-76.01, 42.0], [-75.98, 42.0], [-75.98, 42.0], [-75.96, 42.0], [-75.96, 42.0], [-75.95, 42.0], [-75.94, 42.0], [-75.9, 42.0], [-75.89, 42.0], [-75.87, 42.0], [-75.86, 42.0], [-75.81, 42.0], [-75.79, 42.0], [-75.77, 42.0], [-75.76, 42.0], [-75.76, 42.0], [-75.76, 42.0], [-75.75, 42.0], [-75.75, 42.0], [-75.74, 42.0], [-75.73, 42.0], [-75.72, 42.0], [-75.71, 42.0], [-75.69, 42.0], [-75.68, 42.0], [-75.66, 42.0], [-75.64, 42.0], [-75.63, 42.0], [-75.61, 42.0], [-75.57, 42.0], [-75.55, 42.0], [-75.54, 42.0], [-75.51, 42.0], [-75.5, 42.0], [-75.48, 42.0], [-75.48, 42.0], [-75.48, 42.0], [-75.47, 42.0], [-75.42, 42.0], [-75.4, 42.0], [-75.36, 42.0], [-75.36, 42.0], [-75.35, 42.0], [-75.34, 41.99], [-75.34, 41.99], [-75.34, 41.99], [-75.34, 41.98], [-75.34, 41.97], [-75.34, 41.97], [-75.34, 41.97], [-75.33, 41.97], [-75.32, 41.96], [-75.32, 41.96], [-75.32, 41.95], [-75.32, 41.95], [-75.31, 41.95], [-75.31, 41.95], [-75.3, 41.95], [-75.3, 41.95], [-75.3, 41.95], [-75.29, 41.95], [-75.29, 41.94], [-75.28, 41.94], [-75.28, 41.94], [-75.28, 41.94], [-75.28, 41.94], [-75.28, 41.92], [-75.28, 41.92], [-75.27, 41.91], [-75.27, 41.9], [-75.27, 41.9], [-75.27, 41.89], [-75.26, 41.88], [-75.26, 41.88], [-75.26, 41.88], [-75.26, 41.87], [-75.26, 41.87], [-75.26, 41.86], [-75.26, 41.86], [-75.26, 41.86], [-75.24, 41.87], [-75.23, 41.86], [-75.23, 41.86], [-75.23, 41.86], [-75.23, 41.86], [-75.23, 41.86], [-75.22, 41.86], [-75.22, 41.86], [-75.22, 41.86], [-75.22, 41.86], [-75.22, 41.86], [-75.21, 41.87], [-75.21, 41.87], [-75.2, 41.87], [-75.2, 41.87], [-75.2, 41.87], [-75.2, 41.87], [-75.19, 41.86], [-75.18, 41.86], [-75.18, 41.86], [-75.18, 41.86], [-75.18, 41.87], [-75.18, 41.87], [-75.18, 41.87], [-75.18, 41.87], [-75.17, 41.87], [-75.17, 41.87], [-75.17, 41.87], [-75.17, 41.87], [-75.17, 41.87], [-75.17, 41.86], [-75.17, 41.86], [-75.17, 41.86], [-75.17, 41.85], [-75.16, 41.85], [-75.16, 41.85], [-75.16, 41.85], [-75.15, 41.85], [-75.15, 41.85], [-75.15, 41.85], [-75.15, 41.85], [-75.14, 41.85], [-75.14, 41.85], [-75.14, 41.85], [-75.13, 41.85], [-75.13, 41.84], [-75.12, 41.85], [-75.11, 41.84], [-75.12, 41.83], [-75.11, 41.83], [-75.11, 41.82], [-75.11, 41.82], [-75.1, 41.82], [-75.09, 41.81], [-75.09, 41.81], [-75.09, 41.81], [-75.08, 41.82], [-75.07, 41.81], [-75.07, 41.81], [-75.07, 41.8], [-75.08, 41.8], [-75.08, 41.8], [-75.08, 41.8], [-75.09, 41.8], [-75.09, 41.8], [-75.09, 41.8], [-75.09, 41.79], [-75.1, 41.79], [-75.1, 41.79], [-75.1, 41.78], [-75.1, 41.78], [-75.1, 41.78], [-75.1, 41.77], [-75.1, 41.77], [-75.1, 41.77], [-75.08, 41.77], [-75.08, 41.77], [-75.07, 41.77], [-75.07, 41.77], [-75.07, 41.77], [-75.07, 41.77], [-75.06, 41.77], [-75.06, 41.77], [-75.06, 41.76], [-75.06, 41.76], [-75.05, 41.75], [-75.05, 41.75], [-75.05, 41.74], [-75.05, 41.74], [-75.05, 41.71], [-75.05, 41.71], [-75.05, 41.71], [-75.06, 41.71], [-75.07, 41.71], [-75.07, 41.71], [-75.07, 41.71], [-75.07, 41.71], [-75.06, 41.7], [-75.05, 41.69], [-75.05, 41.69], [-75.05, 41.68], [-75.05, 41.68], [-75.06, 41.67], [-75.06, 41.67], [-75.05, 41.67], [-75.05, 41.66], [-75.05, 41.66], [-75.05, 41.65], [-75.05, 41.65], [-75.05, 41.65], [-75.05, 41.65], [-75.05, 41.65], [-75.05, 41.64], [-75.05, 41.64], [-75.05, 41.64], [-75.05, 41.64], [-75.05, 41.63], [-75.05, 41.63], [-75.05, 41.63], [-75.04, 41.62], [-75.04, 41.62], [-75.04, 41.62], [-75.04, 41.62], [-75.04, 41.62], [-75.05, 41.62], [-75.05, 41.62], [-75.05, 41.62], [-75.05, 41.62], [-75.05, 41.62], [-75.06, 41.62], [-75.06, 41.62], [-75.06, 41.62], [-75.06, 41.61], [-75.06, 41.61], [-75.07, 41.61], [-75.07, 41.61], [-75.07, 41.61], [-75.07, 41.61], [-75.07, 41.61], [-75.07, 41.6], [-75.07, 41.6], [-75.06, 41.59], [-75.06, 41.59], [-75.06, 41.59], [-75.06, 41.59], [-75.05, 41.59], [-75.05, 41.58], [-75.04, 41.57], [-75.04, 41.57], [-75.04, 41.57], [-75.03, 41.57], [-75.03, 41.56], [-75.03, 41.56], [-75.03, 41.56], [-75.02, 41.56], [-75.02, 41.55], [-75.02, 41.55], [-75.02, 41.55], [-75.02, 41.54], [-75.02, 41.54], [-75.03, 41.54], [-75.02, 41.54], [-75.02, 41.53], [-75.01, 41.53], [-75.01, 41.53], [-75.0, 41.52], [-75.0, 41.52], [-75.0, 41.51], [-75.0, 41.51], [-74.99, 41.51], [-74.99, 41.51], [-74.98, 41.51], [-74.98, 41.5], [-74.98, 41.5], [-74.98, 41.5], [-74.98, 41.5], [-74.98, 41.49], [-74.98, 41.49], [-74.99, 41.49], [-74.99, 41.49], [-74.99, 41.48], [-74.98, 41.48], [-74.98, 41.48], [-74.98, 41.48], [-74.98, 41.48], [-74.97, 41.48], [-74.97, 41.48], [-74.96, 41.48], [-74.95, 41.48], [-74.95, 41.48], [-74.94, 41.48], [-74.94, 41.48], [-74.93, 41.48], [-74.93, 41.48], [-74.93, 41.48], [-74.92, 41.48], [-74.92, 41.48], [-74.92, 41.48], [-74.91, 41.48], [-74.91, 41.48], [-74.91, 41.47], [-74.91, 41.47], [-74.91, 41.47], [-74.91, 41.46], [-74.91, 41.46], [-74.91, 41.46], [-74.91, 41.46], [-74.9, 41.46], [-74.9, 41.46], [-74.9, 41.46], [-74.9, 41.46], [-74.89, 41.46], [-74.89, 41.46], [-74.89, 41.46], [-74.89, 41.45], [-74.89, 41.45], [-74.89, 41.45], [-74.9, 41.44], [-74.9, 41.44], [-74.9, 41.44], [-74.89, 41.44], [-74.89, 41.44], [-74.89, 41.44], [-74.89, 41.44], [-74.89, 41.44], [-74.88, 41.44], [-74.88, 41.44], [-74.88, 41.44], [-74.88, 41.44], [-74.87, 41.44], [-74.87, 41.44], [-74.87, 41.44], [-74.86, 41.44], [-74.85, 41.44], [-74.84, 41.44], [-74.84, 41.44], [-74.84, 41.43], [-74.84, 41.43], [-74.84, 41.43], [-74.84, 41.43], [-74.83, 41.43], [-74.83, 41.43], [-74.83, 41.43], [-74.83, 41.43], [-74.82, 41.43], [-74.82, 41.44], [-74.82, 41.44], [-74.82, 41.44], [-74.82, 41.44], [-74.82, 41.44], [-74.81, 41.44], [-74.81, 41.44], [-74.81, 41.44], [-74.81, 41.44], [-74.81, 41.44], [-74.81, 41.44], [-74.8, 41.44], [-74.8, 41.44], [-74.8, 41.43], [-74.8, 41.43], [-74.8, 41.42], [-74.79, 41.42], [-74.79, 41.42], [-74.79, 41.42], [-74.78, 41.42], [-74.78, 41.43], [-74.77, 41.43], [-74.76, 41.42], [-74.75, 41.43], [-74.75, 41.43], [-74.75, 41.43], [-74.75, 41.43], [-74.75, 41.43], [-74.74, 41.43], [-74.74, 41.43], [-74.74, 41.43], [-74.74, 41.42], [-74.74, 41.41], [-74.74, 41.41], [-74.74, 41.4], [-74.73, 41.4], [-74.72, 41.39], [-74.71, 41.39], [-74.71, 41.39], [-74.71, 41.38], [-74.7, 41.37], [-74.69, 41.37], [-74.69, 41.37], [-74.7, 41.36], [-74.69, 41.36], [-74.72, 41.35], [-74.75, 41.35], [-74.76, 41.33], [-74.77, 41.32], [-74.79, 41.32], [-74.79, 41.31], [-74.81, 41.3], [-74.82, 41.29], [-74.84, 41.28], [-74.85, 41.26], [-74.85, 41.25], [-74.86, 41.25], [-74.87, 41.23], [-74.86, 41.22], [-74.87, 41.2], [-74.88, 41.18], [-74.9, 41.17], [-74.91, 41.16], [-74.92, 41.14], [-74.95, 41.13], [-74.95, 41.12], [-74.96, 41.11], [-74.98, 41.11], [-74.99, 41.09], [-74.98, 41.09], [-74.97, 41.1], [-74.97, 41.09], [-74.98, 41.08], [-75.0, 41.07], [-75.01, 41.07], [-75.03, 41.04], [-75.04, 41.03], [-75.07, 41.02], [-75.09, 41.01], [-75.1, 41.01], [-75.11, 41.0], [-75.13, 40.99], [-75.14, 40.98], [-75.13, 40.97], [-75.12, 40.97], [-75.12, 40.95], [-75.1, 40.92], [-75.08, 40.91], [-75.08, 40.9], [-75.05, 40.87], [-75.05, 40.86], [-75.06, 40.85], [-75.09, 40.85], [-75.1, 40.84], [-75.09, 40.83], [-75.08, 40.82], [-75.1, 40.81], [-75.1, 40.8], [-75.11, 40.79], [-75.12, 40.79], [-75.13, 40.77], [-75.17, 40.78], [-75.18, 40.76], [-75.2, 40.75], [-75.2, 40.75], [-75.18, 40.73], [-75.19, 40.72], [-75.19, 40.72], [-75.2, 40.69], [-75.2, 40.68], [-75.18, 40.68], [-75.18, 40.67], [-75.19, 40.66], [-75.2, 40.65], [-75.19, 40.64], [-75.19, 40.62], [-75.2, 40.62], [-75.2, 40.61], [-75.19, 40.6], [-75.19, 40.59], [-75.19, 40.58], [-75.19, 40.57], [-75.17, 40.56], [-75.16, 40.57], [-75.15, 40.57], [-75.14, 40.58], [-75.12, 40.57], [-75.1, 40.57], [-75.08, 40.55], [-75.07, 40.54], [-75.07, 40.53], [-75.07, 40.51], [-75.06, 40.48], [-75.07, 40.47], [-75.07, 40.45], [-75.06, 40.42], [-75.02, 40.4], [-75.0, 40.41], [-74.97, 40.4], [-74.95, 40.38], [-74.95, 40.36], [-74.94, 40.34], [-74.94, 40.34], [-74.93, 40.33], [-74.93, 40.33], [-74.92, 40.32], [-74.9, 40.32], [-74.89, 40.31], [-74.89, 40.31], [-74.89, 40.31], [-74.88, 40.31], [-74.86, 40.29], [-74.86, 40.28], [-74.86, 40.28], [-74.86, 40.28], [-74.85, 40.26], [-74.84, 40.25], [-74.82, 40.24], [-74.8, 40.23], [-74.78, 40.22], [-74.77, 40.21], [-74.77, 40.21], [-74.77, 40.21], [-74.76, 40.2], [-74.76, 40.2], [-74.76, 40.2], [-74.75, 40.19], [-74.75, 40.18], [-74.74, 40.18], [-74.73, 40.17], [-74.72, 40.16], [-74.73, 40.14], [-74.73, 40.14], [-74.73, 40.14], [-74.73, 40.14], [-74.73, 40.14], [-74.73, 40.14], [-74.73, 40.14], [-74.73, 40.14], [-74.73, 40.14], [-74.74, 40.14], [-74.74, 40.14], [-74.74, 40.14], [-74.74, 40.14], [-74.74, 40.14], [-74.74, 40.14], [-74.74, 40.14], [-74.74, 40.14], [-74.74, 40.14], [-74.74, 40.13], [-74.75, 40.13], [-74.75, 40.13], [-74.76, 40.13], [-74.76, 40.13], [-74.76, 40.13], [-74.76, 40.13], [-74.76, 40.13], [-74.76, 40.13], [-74.76, 40.13], [-74.76, 40.13], [-74.76, 40.13], [-74.76, 40.13], [-74.76, 40.13], [-74.76, 40.13], [-74.76, 40.13], [-74.76, 40.13], [-74.77, 40.13], [-74.78, 40.12], [-74.79, 40.12], [-74.79, 40.12], [-74.8, 40.12], [-74.82, 40.13], [-74.82, 40.13], [-74.83, 40.12], [-74.83, 40.12], [-74.83, 40.12], [-74.84, 40.1], [-74.85, 40.1], [-74.86, 40.09], [-74.86, 40.08], [-74.9, 40.07], [-74.9, 40.07], [-74.91, 40.07], [-74.92, 40.07], [-74.93, 40.07], [-74.93, 40.07], [-74.94, 40.06], [-74.95, 40.06], [-74.96, 40.05], [-74.97, 40.05], [-74.98, 40.05], [-75.0, 40.03], [-75.01, 40.02], [-75.01, 40.02], [-75.02, 40.02], [-75.02, 40.02], [-75.04, 40.01], [-75.04, 40.01], [-75.05, 40.0], [-75.06, 39.99], [-75.07, 39.99], [-75.07, 39.98], [-75.11, 39.97], [-75.12, 39.97], [-75.13, 39.95], [-75.14, 39.95], [-75.14, 39.93], [-75.14, 39.93], [-75.14, 39.93], [-75.13, 39.92], [-75.13, 39.92], [-75.13, 39.92], [-75.13, 39.91], [-75.13, 39.9], [-75.13, 39.9], [-75.13, 39.9], [-75.14, 39.89], [-75.14, 39.89], [-75.15, 39.88], [-75.19, 39.88], [-75.21, 39.87], [-75.23, 39.86], [-75.25, 39.85], [-75.25, 39.85], [-75.26, 39.85], [-75.26, 39.85], [-75.27, 39.85], [-75.27, 39.85], [-75.27, 39.85], [-75.27, 39.85], [-75.27, 39.85], [-75.28, 39.85], [-75.28, 39.85], [-75.28, 39.85], [-75.28, 39.85], [-75.28, 39.85], [-75.28, 39.85], [-75.28, 39.85], [-75.28, 39.85], [-75.28, 39.85], [-75.28, 39.85], [-75.29, 39.85], [-75.29, 39.85], [-75.29, 39.85], [-75.29, 39.85], [-75.29, 39.85], [-75.29, 39.85], [-75.29, 39.85], [-75.29, 39.85], [-75.29, 39.85], [-75.3, 39.85], [-75.3, 39.85], [-75.3, 39.85], [-75.3, 39.85], [-75.3, 39.85], [-75.3, 39.85], [-75.3, 39.85], [-75.3, 39.85], [-75.3, 39.85], [-75.3, 39.85], [-75.3, 39.85], [-75.3, 39.85], [-75.31, 39.85], [-75.31, 39.85], [-75.31, 39.85], [-75.31, 39.85], [-75.31, 39.85], [-75.31, 39.85], [-75.31, 39.85], [-75.31, 39.85], [-75.33, 39.85], [-75.34, 39.85], [-75.34, 39.85], [-75.34, 39.85], [-75.34, 39.85], [-75.34, 39.85], [-75.34, 39.84], [-75.35, 39.84], [-75.35, 39.84], [-75.35, 39.84], [-75.36, 39.84], [-75.36, 39.84], [-75.37, 39.83], [-75.37, 39.83], [-75.4, 39.81], [-75.41, 39.8], [-75.41, 39.8], [-75.42, 39.8], [-75.45, 39.82], [-75.48, 39.83], [-75.5, 39.83], [-75.54, 39.84], [-75.57, 39.84], [-75.59, 39.84], [-75.63, 39.83], [-75.66, 39.82], [-75.69, 39.81], [-75.72, 39.79], [-75.75, 39.76], [-75.76, 39.75], [-75.77, 39.72], [-75.79, 39.72], [-75.87, 39.72], [-76.0, 39.72], [-76.15, 39.72], [-76.24, 39.72], [-76.42, 39.72], [-76.7, 39.72], [-76.89, 39.72], [-76.94, 39.72], [-76.99, 39.72], [-77.22, 39.72], [-77.47, 39.72], [-77.5, 39.72], [-77.67, 39.72], [-77.71, 39.72], [-77.93, 39.72], [-78.1, 39.72], [-78.31, 39.72], [-78.33, 39.72], [-78.47, 39.72], [-78.54, 39.72], [-78.62, 39.72], [-78.81, 39.72], [-78.93, 39.72], [-79.05, 39.72], [-79.22, 39.72], [-79.31, 39.72], [-79.48, 39.72], [-79.56, 39.72], [-79.67, 39.72], [-79.75, 39.72], [-79.76, 39.72], [-79.8, 39.72], [-79.94, 39.72], [-80.0, 39.72], [-80.27, 39.72], [-80.4, 39.72], [-80.41, 39.72], [-80.52, 39.72], [-80.52, 39.81], [-80.52, 39.89], [-80.52, 39.93], [-80.52, 40.12], [-80.52, 40.21], [-80.52, 40.35], [-80.52, 40.37], [-80.52, 40.46], [-80.52, 40.47], [-80.52, 40.64], [-80.52, 40.75], [-80.52, 40.9], [-80.52, 41.13], [-80.52, 41.13], [-80.52, 41.31], [-80.52, 41.47], [-80.52, 41.61], [-80.52, 41.75], [-80.52, 41.98], [-80.49, 41.99], [-80.46, 42.0], [-80.44, 42.01], [-80.4, 42.01], [-80.36, 42.03], [-80.34, 42.03], [-80.27, 42.06], [-80.24, 42.08], [-80.23, 42.08], [-80.19, 42.09], [-80.16, 42.11], [-80.15, 42.12], [-80.14, 42.14], [-80.13, 42.16], [-80.12, 42.17], [-80.11, 42.17], [-80.09, 42.17], [-80.07, 42.16], [-80.09, 42.16], [-80.1, 42.15], [-80.13, 42.15], [-80.14, 42.14], [-80.15, 42.13], [-80.15, 42.11], [-80.1, 42.13], [-80.08, 42.14], [-80.06, 42.14], [-80.03, 42.16], [-80.02, 42.17], [-79.99, 42.17], [-79.98, 42.18], [-79.95, 42.19], [-79.93, 42.21], [-79.9, 42.22], [-79.87, 42.23], [-79.84, 42.24], [-79.83, 42.24], [-79.82, 42.25], [-79.78, 42.26], [-79.76, 42.27], [-79.76, 42.27], [-79.76, 42.24], [-79.76, 42.22], [-79.76, 42.2], [-79.76, 42.18], [-79.76, 42.17], [-79.76, 42.16], [-79.76, 42.15], [-79.76, 42.15], [-79.76, 42.14], [-79.76, 42.13], [-79.76, 42.13], [-79.76, 42.13]]]}}]}