{"type": "FeatureCollection", "features": [{"type": "Feature", "properties": {"ID": 37, "abbreviation": "RI", "name": "Rhode Island"}, "geometry": {"type": "MultiPolygon", "coordinates": [[[[-71.38, 42.02], [-71.38, 42.01], [-71.38, 42.0], [-71.38, 41.99], [-71.38, 41.98], [-71.38, 41.98], [-71.38, 41.97], [-71.38, 41.97], [-71.38, 41.96], [-71.38, 41.95], [-71.38, 41.95], [-71.38, 41.95], [-71.38, 41.94], [-71.38, 41.93], [-71.38, 41.92], [-71.38, 41.92], [-71.38, 41.92], [-71.38, 41.91], [-71.38, 41.91], [-71.38, 41.91], [-71.38, 41.91], [-71.38, 41.91], [-71.38, 41.91], [-71.38, 41.9], [-71.38, 41.9], [-71.38, 41.9], [-71.38, 41.9], [-71.38, 41.89], [-71.37, 41.89], [-71.37, 41.89], [-71.36, 41.9], [-71.36, 41.9], [-71.36, 41.9], [-71.35, 41.9], [-71.35, 41.9], [-71.35, 41.9], [-71.35, 41.9], [-71.35, 41.9], [-71.35, 41.9], [-71.35, 41.9], [-71.35, 41.9], [-71.34, 41.9], [-71.34, 41.9], [-71.34, 41.9], [-71.34, 41.89], [-71.34, 41.89], [-71.34, 41.89], [-71.34, 41.88], [-71.34, 41.88], [-71.34, 41.88], [-71.34, 41.87], [-71.33, 41.86], [-71.34, 41.84], [-71.34, 41.84], [-71.34, 41.83], [-71.34, 41.83], [-71.34, 41.83], [-71.34, 41.83], [-71.35, 41.82], [-71.34, 41.81], [-71.34, 41.81], [-71.34, 41.8], [-71.34, 41.8], [-71.34, 41.79], [-71.33, 41.79], [-71.33, 41.79], [-71.33, 41.78], [-71.33, 41.78], [-71.32, 41.78], [-71.32, 41.75], [-71.31, 41.74], [-71.3, 41.74], [-71.29, 41.73], [-71.29, 41.72], [-71.3, 41.72], [-71.32, 41.72], [-71.34, 41.72], [-71.34, 41.73], [-71.36, 41.75], [-71.36, 41.76], [-71.37, 41.78], [-71.37, 41.79], [-71.39, 41.81], [-71.39, 41.82], [-71.37, 41.84], [-71.37, 41.85], [-71.38, 41.86], [-71.38, 41.83], [-71.4, 41.81], [-71.38, 41.79], [-71.39, 41.78], [-71.39, 41.77], [-71.39, 41.76], [-71.38, 41.74], [-71.39, 41.73], [-71.37, 41.72], [-71.37, 41.71], [-71.37, 41.69], [-71.37, 41.69], [-71.37, 41.67], [-71.38, 41.67], [-71.39, 41.67], [-71.39, 41.68], [-71.42, 41.68], [-71.45, 41.69], [-71.44, 41.67], [-71.44, 41.67], [-71.42, 41.67], [-71.41, 41.66], [-71.41, 41.64], [-71.4, 41.62], [-71.41, 41.62], [-71.42, 41.6], [-71.4, 41.6], [-71.41, 41.59], [-71.43, 41.58], [-71.45, 41.59], [-71.46, 41.58], [-71.43, 41.56], [-71.43, 41.54], [-71.43, 41.54], [-71.42, 41.53], [-71.41, 41.51], [-71.42, 41.5], [-71.42, 41.47], [-71.43, 41.47], [-71.43, 41.46], [-71.43, 41.44], [-71.45, 41.44], [-71.46, 41.42], [-71.45, 41.41], [-71.47, 41.39], [-71.49, 41.36], [-71.5, 41.37], [-71.53, 41.38], [-71.54, 41.37], [-71.55, 41.37], [-71.62, 41.36], [-71.7, 41.34], [-71.71, 41.33], [-71.73, 41.33], [-71.75, 41.33], [-71.76, 41.33], [-71.8, 41.32], [-71.83, 41.32], [-71.86, 41.31], [-71.86, 41.32], [-71.85, 41.32], [-71.83, 41.34], [-71.83, 41.34], [-71.83, 41.35], [-71.84, 41.35], [-71.84, 41.36], [-71.84, 41.36], [-71.84, 41.36], [-71.84, 41.36], [-71.84, 41.36], [-71.84, 41.36], [-71.84, 41.36], [-71.84, 41.37], [-71.83, 41.37], [-71.83, 41.38], [-71.83, 41.38], [-71.83, 41.38], [-71.83, 41.38], [-71.83, 41.38], [-71.83, 41.38], [-71.83, 41.38], [-71.83, 41.38], [-71.83, 41.38], [-71.83, 41.38], [-71.83, 41.39], [-71.83, 41.39], [-71.83, 41.39], [-71.84, 41.39], [-71.84, 41.39], [-71.84, 41.39], [-71.84, 41.4], [-71.84, 41.4], [-71.84, 41.4], [-71.84, 41.4], [-71.84, 41.4], [-71.84, 41.4], [-71.84, 41.4], [-71.84, 41.4], [-71.84, 41.41], [-71.84, 41.41], [-71.84, 41.41], [-71.84, 41.41], [-71.84, 41.41], [-71.84, 41.41], [-71.83, 41.41], [-71.82, 41.42], [-71.8, 41.42], [-71.8, 41.45], [-71.79, 41.48], [-71.79, 41.5], [-71.79, 41.51], [-71.79, 41.55], [-71.79, 41.62], [-71.79, 41.66], [-71.79, 41.67], [-71.79, 41.68], [-71.79, 41.69], [-71.79, 41.7], [-71.79, 41.78], [-71.79, 41.81], [-71.8, 41.93], [-71.8, 41.96], [-71.8, 41.99], [-71.8, 42.0], [-71.8, 42.0], [-71.8, 42.01], [-71.79, 42.01], [-71.77, 42.01], [-71.75, 42.01], [-71.72, 42.01], [-71.71, 42.01], [-71.71, 42.01], [-71.68, 42.01], [-71.68, 42.01], [-71.66, 42.01], [-71.65, 42.01], [-71.62, 42.01], [-71.59, 42.01], [-71.59, 42.01], [-71.59, 42.01], [-71.58, 42.01], [-71.57, 42.01], [-71.56, 42.01], [-71.55, 42.01], [-71.55, 42.01], [-71.54, 42.01], [-71.54, 42.01], [-71.54, 42.01], [-71.54, 42.01], [-71.53, 42.01], [-71.52, 42.02], [-71.52, 42.02], [-71.52, 42.02], [-71.52, 42.02], [-71.52, 42.02], [-71.51, 42.02], [-71.51, 42.02], [-71.5, 42.02], [-71.5, 42.02], [-71.5, 42.02], [-71.5, 42.02], [-71.5, 42.02], [-71.49, 42.02], [-71.49, 42.02], [-71.48, 42.02], [-71.46, 42.02], [-71.42, 42.02], [-71.42, 42.02], [-71.42, 42.02], [-71.4, 42.02], [-71.38, 42.02]]], [[[-71.13, 41.64], [-71.14, 41.63], [-71.14, 41.63], [-71.14, 41.62], [-71.14, 41.62], [-71.14, 41.62], [-71.14, 41.61], [-71.13, 41.59], [-71.13, 41.56], [-71.13, 41.56], [-71.13, 41.55], [-71.12, 41.54], [-71.12, 41.52], [-71.12, 41.51], [-71.12, 41.51], [-71.12, 41.51], [-71.12, 41.5], [-71.14, 41.49], [-71.14, 41.48], [-71.16, 41.48], [-71.17, 41.47], [-71.17, 41.46], [-71.19, 41.46], [-71.19, 41.48], [-71.2, 41.49], [-71.21, 41.5], [-71.2, 41.51], [-71.21, 41.53], [-71.21, 41.54], [-71.22, 41.55], [-71.21, 41.56], [-71.21, 41.58], [-71.21, 41.59], [-71.2, 41.6], [-71.21, 41.61], [-71.21, 41.63], [-71.21, 41.65], [-71.2, 41.68], [-71.19, 41.67], [-71.19, 41.67], [-71.19, 41.67], [-71.19, 41.67], [-71.19, 41.67], [-71.19, 41.67], [-71.19, 41.67], [-71.19, 41.67], [-71.19, 41.67], [-71.18, 41.67], [-71.18, 41.67], [-71.18, 41.67], [-71.18, 41.67], [-71.18, 41.67], [-71.18, 41.67], [-71.18, 41.67], [-71.17, 41.67], [-71.16, 41.67], [-71.16, 41.67], [-71.15, 41.66], [-71.14, 41.66], [-71.13, 41.66], [-71.13, 41.66], [-71.13, 41.64]]], [[[-71.22, 41.65], [-71.22, 41.64], [-71.22, 41.62], [-71.24, 41.62], [-71.24, 41.59], [-71.24, 41.58], [-71.24, 41.56], [-71.23, 41.55], [-71.24, 41.54], [-71.23, 41.53], [-71.23, 41.51], [-71.25, 41.49], [-71.24, 41.48], [-71.27, 41.49], [-71.27, 41.48], [-71.28, 41.49], [-71.3, 41.49], [-71.3, 41.47], [-71.3, 41.46], [-71.3, 41.45], [-71.32, 41.46], [-71.34, 41.45], [-71.34, 41.45], [-71.36, 41.45], [-71.36, 41.46], [-71.34, 41.48], [-71.34, 41.47], [-71.32, 41.48], [-71.32, 41.49], [-71.32, 41.52], [-71.31, 41.52], [-71.31, 41.55], [-71.3, 41.56], [-71.28, 41.58], [-71.29, 41.59], [-71.27, 41.61], [-71.27, 41.62], [-71.26, 41.63], [-71.26, 41.63], [-71.25, 41.64], [-71.24, 41.64], [-71.23, 41.64], [-71.22, 41.65]]], [[[-71.27, 41.76], [-71.26, 41.75], [-71.25, 41.74], [-71.25, 41.73], [-71.23, 41.71], [-71.23, 41.71], [-71.24, 41.7], [-71.24, 41.72], [-71.26, 41.72], [-71.25, 41.7], [-71.24, 41.68], [-71.25, 41.66], [-71.26, 41.64], [-71.27, 41.64], [-71.27, 41.66], [-71.28, 41.67], [-71.29, 41.68], [-71.29, 41.66], [-71.3, 41.66], [-71.31, 41.67], [-71.3, 41.68], [-71.29, 41.69], [-71.29, 41.71], [-71.28, 41.73], [-71.28, 41.74], [-71.28, 41.76], [-71.28, 41.76], [-71.27, 41.76]]], [[[-71.57, 41.23], [-71.56, 41.22], [-71.56, 41.21], [-71.57, 41.19], [-71.57, 41.18], [-71.55, 41.17], [-71.54, 41.16], [-71.55, 41.15], [-71.57, 41.15], [-71.6, 41.15], [-71.61, 41.15], [-71.61, 41.16], [-71.61, 41.18], [-71.59, 41.2], [-71.58, 41.18], [-71.57, 41.18], [-71.57, 41.19], [-71.58, 41.2], [-71.58, 41.23], [-71.57, 41.23]]], [[[-71.36, 41.54], [-71.36, 41.53], [-71.37, 41.51], [-71.36, 41.51], [-71.37, 41.49], [-71.36, 41.49], [-71.36, 41.48], [-71.38, 41.48], [-71.39, 41.46], [-71.4, 41.47], [-71.4, 41.49], [-71.39, 41.5], [-71.38, 41.51], [-71.39, 41.51], [-71.39, 41.52], [-71.39, 41.54], [-71.38, 41.56], [-71.38, 41.57], [-71.36, 41.57], [-71.36, 41.55], [-71.36, 41.54]]], [[[-71.34, 41.66], [-71.34, 41.65], [-71.34, 41.64], [-71.33, 41.63], [-71.32, 41.63], [-71.3, 41.62], [-71.31, 41.6], [-71.32, 41.58], [-71.33, 41.58], [-71.34, 41.59], [-71.34, 41.59], [-71.33, 41.62], [-71.33, 41.63], [-71.35, 41.63], [-71.35, 41.65], [-71.34, 41.66]]], [[[-71.32, 41.78], [-71.31, 41.77], [-71.29, 41.76], [-71.29, 41.74], [-71.31, 41.74], [-71.32, 41.75], [-71.31, 41.77], [-71.32, 41.77], [-71.32, 41.78]]]]}}]}