{"type": "FeatureCollection", "features": [{"type": "Feature", "properties": {"ID": 38, "abbreviation": "SC", "name": "South Carolina"}, "geometry": {"type": "MultiPolygon", "coordinates": [[[[-80.84, 32.13], [-80.84, 32.12], [-80.85, 32.11], [-80.86, 32.09], [-80.88, 32.08], [-80.88, 32.09], [-80.89, 32.09], [-80.9, 32.1], [-80.89, 32.11], [-80.9, 32.12], [-80.9, 32.13], [-80.89, 32.13], [-80.88, 32.13], [-80.87, 32.13], [-80.86, 32.14], [-80.84, 32.15], [-80.83, 32.14], [-80.84, 32.13]]], [[[-80.81, 32.11], [-80.82, 32.11], [-80.83, 32.12], [-80.82, 32.13], [-80.81, 32.14], [-80.8, 32.15], [-80.79, 32.16], [-80.79, 32.17], [-80.78, 32.18], [-80.78, 32.2], [-80.78, 32.22], [-80.77, 32.22], [-80.75, 32.23], [-80.74, 32.24], [-80.75, 32.25], [-80.73, 32.27], [-80.73, 32.27], [-80.71, 32.27], [-80.69, 32.25], [-80.68, 32.24], [-80.67, 32.22], [-80.67, 32.21], [-80.69, 32.2], [-80.7, 32.18], [-80.72, 32.16], [-80.73, 32.15], [-80.75, 32.14], [-80.8, 32.12], [-80.81, 32.11]]], [[[-80.76, 32.23], [-80.79, 32.23], [-80.77, 32.26], [-80.76, 32.26], [-80.76, 32.27], [-80.75, 32.27], [-80.74, 32.27], [-80.75, 32.25], [-80.75, 32.24], [-80.76, 32.24], [-80.76, 32.23]]], [[[-80.57, 32.27], [-80.58, 32.27], [-80.58, 32.29], [-80.56, 32.3], [-80.56, 32.31], [-80.53, 32.32], [-80.52, 32.33], [-80.5, 32.34], [-80.48, 32.34], [-80.46, 32.34], [-80.45, 32.32], [-80.48, 32.31], [-80.53, 32.29], [-80.55, 32.28], [-80.57, 32.27]]], [[[-80.44, 32.36], [-80.45, 32.34], [-80.46, 32.34], [-80.46, 32.34], [-80.48, 32.35], [-80.47, 32.36], [-80.48, 32.38], [-80.47, 32.38], [-80.46, 32.38], [-80.46, 32.37], [-80.46, 32.36], [-80.44, 32.39], [-80.43, 32.39], [-80.44, 32.36]]], [[[-80.43, 32.4], [-80.45, 32.38], [-80.46, 32.39], [-80.44, 32.41], [-80.44, 32.41], [-80.43, 32.4]]], [[[-80.48, 32.46], [-80.5, 32.46], [-80.53, 32.46], [-80.54, 32.47], [-80.54, 32.48], [-80.55, 32.48], [-80.55, 32.49], [-80.53, 32.5], [-80.52, 32.49], [-80.5, 32.48], [-80.48, 32.48], [-80.48, 32.47], [-80.48, 32.46]]], [[[-80.61, 32.5], [-80.6, 32.49], [-80.58, 32.48], [-80.56, 32.49], [-80.55, 32.47], [-80.54, 32.45], [-80.53, 32.45], [-80.52, 32.45], [-80.5, 32.45], [-80.48, 32.45], [-80.47, 32.44], [-80.47, 32.42], [-80.46, 32.41], [-80.47, 32.39], [-80.48, 32.39], [-80.5, 32.39], [-80.5, 32.38], [-80.52, 32.37], [-80.53, 32.37], [-80.56, 32.35], [-80.56, 32.34], [-80.55, 32.34], [-80.54, 32.33], [-80.56, 32.32], [-80.57, 32.31], [-80.58, 32.29], [-80.59, 32.28], [-80.6, 32.27], [-80.63, 32.26], [-80.64, 32.26], [-80.65, 32.27], [-80.65, 32.28], [-80.64, 32.3], [-80.65, 32.32], [-80.65, 32.36], [-80.65, 32.36], [-80.67, 32.37], [-80.67, 32.39], [-80.67, 32.4], [-80.67, 32.4], [-80.67, 32.41], [-80.66, 32.42], [-80.65, 32.42], [-80.65, 32.43], [-80.65, 32.44], [-80.66, 32.44], [-80.66, 32.45], [-80.66, 32.46], [-80.67, 32.46], [-80.69, 32.46], [-80.69, 32.48], [-80.69, 32.49], [-80.69, 32.49], [-80.68, 32.5], [-80.67, 32.5], [-80.64, 32.5], [-80.62, 32.5], [-80.61, 32.5]]], [[[-80.7, 32.46], [-80.68, 32.45], [-80.67, 32.45], [-80.67, 32.43], [-80.68, 32.43], [-80.69, 32.42], [-80.68, 32.41], [-80.68, 32.38], [-80.68, 32.37], [-80.68, 32.36], [-80.67, 32.35], [-80.66, 32.34], [-80.67, 32.31], [-80.67, 32.29], [-80.68, 32.29], [-80.69, 32.3], [-80.7, 32.3], [-80.7, 32.32], [-80.72, 32.34], [-80.74, 32.35], [-80.74, 32.35], [-80.75, 32.36], [-80.76, 32.37], [-80.77, 32.39], [-80.79, 32.42], [-80.79, 32.42], [-80.8, 32.44], [-80.81, 32.48], [-80.79, 32.48], [-80.78, 32.5], [-80.78, 32.51], [-80.78, 32.52], [-80.78, 32.53], [-80.76, 32.53], [-80.76, 32.54], [-80.74, 32.54], [-80.7, 32.53], [-80.7, 32.52], [-80.69, 32.51], [-80.69, 32.5], [-80.7, 32.49], [-80.69, 32.49], [-80.69, 32.47], [-80.7, 32.46]]], [[[-79.94, 32.65], [-79.97, 32.64], [-79.95, 32.66], [-79.91, 32.67], [-79.91, 32.67], [-79.9, 32.68], [-79.89, 32.69], [-79.89, 32.69], [-79.89, 32.68], [-79.91, 32.67], [-79.94, 32.65]]], [[[-79.83, 32.76], [-79.85, 32.75], [-79.85, 32.75], [-79.85, 32.77], [-79.84, 32.77], [-79.81, 32.77], [-79.83, 32.76]]], [[[-79.77, 32.79], [-79.79, 32.78], [-79.79, 32.79], [-79.76, 32.81], [-79.74, 32.82], [-79.73, 32.83], [-79.72, 32.81], [-79.73, 32.8], [-79.77, 32.79]]], [[[-79.7, 32.83], [-79.72, 32.83], [-79.73, 32.84], [-79.72, 32.85], [-79.71, 32.85], [-79.7, 32.85], [-79.7, 32.83]]], [[[-82.38, 35.19], [-82.37, 35.18], [-82.36, 35.19], [-82.34, 35.19], [-82.32, 35.18], [-82.32, 35.19], [-82.28, 35.2], [-82.22, 35.2], [-82.21, 35.2], [-82.21, 35.2], [-82.18, 35.19], [-82.14, 35.19], [-82.1, 35.19], [-82.0, 35.19], [-81.94, 35.19], [-81.77, 35.18], [-81.71, 35.18], [-81.56, 35.17], [-81.37, 35.16], [-81.26, 35.16], [-81.13, 35.15], [-81.07, 35.15], [-81.05, 35.15], [-81.05, 35.13], [-81.04, 35.13], [-81.03, 35.11], [-81.03, 35.11], [-81.05, 35.1], [-81.06, 35.09], [-81.06, 35.06], [-81.04, 35.04], [-80.96, 35.09], [-80.93, 35.11], [-80.9, 35.07], [-80.86, 35.03], [-80.82, 34.98], [-80.78, 34.94], [-80.8, 34.82], [-80.62, 34.82], [-80.56, 34.82], [-80.5, 34.82], [-80.36, 34.81], [-80.21, 34.81], [-80.12, 34.81], [-80.04, 34.81], [-79.87, 34.81], [-79.76, 34.81], [-79.69, 34.8], [-79.68, 34.8], [-79.62, 34.76], [-79.55, 34.71], [-79.46, 34.63], [-79.36, 34.55], [-79.27, 34.46], [-79.2, 34.41], [-79.11, 34.34], [-79.0, 34.24], [-78.81, 34.08], [-78.66, 33.95], [-78.62, 33.92], [-78.56, 33.87], [-78.56, 33.87], [-78.55, 33.86], [-78.55, 33.85], [-78.58, 33.84], [-78.66, 33.82], [-78.69, 33.81], [-78.73, 33.79], [-78.8, 33.76], [-78.82, 33.74], [-78.85, 33.71], [-78.88, 33.69], [-78.89, 33.68], [-78.93, 33.64], [-78.95, 33.63], [-79.0, 33.58], [-79.01, 33.56], [-79.03, 33.53], [-79.04, 33.52], [-79.08, 33.49], [-79.1, 33.46], [-79.11, 33.44], [-79.12, 33.44], [-79.14, 33.4], [-79.15, 33.38], [-79.15, 33.35], [-79.16, 33.33], [-79.17, 33.33], [-79.16, 33.32], [-79.16, 33.31], [-79.17, 33.3], [-79.18, 33.25], [-79.18, 33.23], [-79.17, 33.21], [-79.18, 33.21], [-79.19, 33.25], [-79.2, 33.25], [-79.2, 33.27], [-79.19, 33.29], [-79.2, 33.3], [-79.23, 33.3], [-79.26, 33.3], [-79.27, 33.3], [-79.27, 33.31], [-79.27, 33.32], [-79.26, 33.35], [-79.26, 33.36], [-79.27, 33.36], [-79.28, 33.34], [-79.29, 33.34], [-79.29, 33.32], [-79.29, 33.31], [-79.29, 33.3], [-79.28, 33.28], [-79.27, 33.27], [-79.26, 33.26], [-79.21, 33.25], [-79.2, 33.23], [-79.2, 33.22], [-79.2, 33.21], [-79.2, 33.2], [-79.2, 33.19], [-79.18, 33.19], [-79.19, 33.17], [-79.21, 33.16], [-79.24, 33.14], [-79.25, 33.12], [-79.26, 33.12], [-79.29, 33.11], [-79.33, 33.09], [-79.35, 33.09], [-79.35, 33.08], [-79.36, 33.08], [-79.37, 33.06], [-79.37, 33.05], [-79.39, 33.05], [-79.4, 33.06], [-79.42, 33.07], [-79.43, 33.08], [-79.45, 33.06], [-79.44, 33.06], [-79.43, 33.06], [-79.42, 33.05], [-79.42, 33.05], [-79.41, 33.04], [-79.41, 33.04], [-79.4, 33.03], [-79.41, 33.01], [-79.42, 33.02], [-79.45, 33.01], [-79.46, 33.01], [-79.48, 33.01], [-79.47, 33.02], [-79.47, 33.03], [-79.47, 33.03], [-79.48, 33.04], [-79.49, 33.03], [-79.5, 33.04], [-79.51, 33.03], [-79.53, 33.04], [-79.53, 33.03], [-79.55, 33.03], [-79.56, 33.02], [-79.58, 33.01], [-79.58, 33.0], [-79.61, 32.96], [-79.62, 32.94], [-79.61, 32.93], [-79.59, 32.93], [-79.58, 32.93], [-79.57, 32.92], [-79.58, 32.91], [-79.58, 32.9], [-79.62, 32.89], [-79.64, 32.88], [-79.64, 32.88], [-79.65, 32.87], [-79.68, 32.86], [-79.7, 32.85], [-79.71, 32.86], [-79.73, 32.87], [-79.74, 32.87], [-79.77, 32.85], [-79.79, 32.83], [-79.79, 32.82], [-79.79, 32.81], [-79.78, 32.8], [-79.76, 32.81], [-79.76, 32.81], [-79.84, 32.77], [-79.86, 32.77], [-79.88, 32.79], [-79.91, 32.79], [-79.91, 32.8], [-79.92, 32.81], [-79.93, 32.8], [-79.92, 32.78], [-79.93, 32.76], [-79.93, 32.75], [-79.92, 32.75], [-79.9, 32.75], [-79.89, 32.74], [-79.89, 32.73], [-79.88, 32.73], [-79.87, 32.73], [-79.88, 32.71], [-79.89, 32.7], [-79.9, 32.69], [-79.9, 32.68], [-79.92, 32.67], [-79.94, 32.66], [-79.95, 32.66], [-79.96, 32.65], [-79.97, 32.65], [-79.99, 32.64], [-79.99, 32.64], [-80.0, 32.63], [-79.99, 32.62], [-79.99, 32.61], [-80.02, 32.61], [-80.04, 32.61], [-80.08, 32.6], [-80.1, 32.6], [-80.12, 32.59], [-80.15, 32.58], [-80.16, 32.56], [-80.17, 32.56], [-80.19, 32.57], [-80.2, 32.56], [-80.2, 32.55], [-80.22, 32.55], [-80.29, 32.51], [-80.32, 32.49], [-80.33, 32.48], [-80.34, 32.48], [-80.34, 32.49], [-80.36, 32.5], [-80.37, 32.49], [-80.39, 32.49], [-80.39, 32.48], [-80.39, 32.47], [-80.41, 32.47], [-80.42, 32.48], [-80.42, 32.49], [-80.43, 32.5], [-80.45, 32.5], [-80.47, 32.5], [-80.49, 32.5], [-80.51, 32.51], [-80.53, 32.51], [-80.55, 32.51], [-80.56, 32.51], [-80.56, 32.5], [-80.59, 32.5], [-80.6, 32.51], [-80.61, 32.52], [-80.63, 32.52], [-80.65, 32.51], [-80.66, 32.52], [-80.68, 32.53], [-80.69, 32.53], [-80.74, 32.54], [-80.76, 32.55], [-80.77, 32.54], [-80.78, 32.53], [-80.78, 32.52], [-80.79, 32.51], [-80.79, 32.5], [-80.8, 32.5], [-80.81, 32.49], [-80.83, 32.51], [-80.83, 32.52], [-80.85, 32.53], [-80.86, 32.53], [-80.84, 32.52], [-80.84, 32.51], [-80.83, 32.49], [-80.83, 32.47], [-80.83, 32.46], [-80.83, 32.45], [-80.81, 32.42], [-80.82, 32.41], [-80.81, 32.39], [-80.8, 32.39], [-80.79, 32.38], [-80.79, 32.35], [-80.8, 32.34], [-80.8, 32.33], [-80.79, 32.32], [-80.77, 32.29], [-80.77, 32.29], [-80.76, 32.28], [-80.77, 32.27], [-80.77, 32.26], [-80.78, 32.26], [-80.79, 32.25], [-80.79, 32.24], [-80.79, 32.23], [-80.79, 32.22], [-80.79, 32.21], [-80.79, 32.19], [-80.79, 32.19], [-80.81, 32.17], [-80.82, 32.17], [-80.83, 32.15], [-80.85, 32.15], [-80.87, 32.14], [-80.88, 32.13], [-80.89, 32.13], [-80.9, 32.13], [-80.9, 32.12], [-80.9, 32.11], [-80.9, 32.1], [-80.91, 32.08], [-80.91, 32.08], [-80.89, 32.07], [-80.9, 32.06], [-80.91, 32.05], [-80.94, 32.06], [-80.95, 32.07], [-80.98, 32.08], [-80.99, 32.08], [-80.99, 32.09], [-81.01, 32.1], [-81.01, 32.1], [-81.03, 32.09], [-81.04, 32.08], [-81.05, 32.09], [-81.07, 32.09], [-81.09, 32.1], [-81.09, 32.11], [-81.11, 32.11], [-81.12, 32.12], [-81.12, 32.13], [-81.12, 32.13], [-81.12, 32.14], [-81.12, 32.16], [-81.13, 32.17], [-81.12, 32.17], [-81.12, 32.19], [-81.13, 32.21], [-81.14, 32.21], [-81.14, 32.23], [-81.16, 32.24], [-81.15, 32.25], [-81.15, 32.26], [-81.13, 32.27], [-81.13, 32.28], [-81.12, 32.29], [-81.12, 32.29], [-81.12, 32.31], [-81.13, 32.32], [-81.14, 32.33], [-81.13, 32.34], [-81.14, 32.34], [-81.14, 32.35], [-81.16, 32.35], [-81.17, 32.36], [-81.17, 32.37], [-81.18, 32.38], [-81.18, 32.39], [-81.2, 32.42], [-81.21, 32.44], [-81.2, 32.44], [-81.21, 32.45], [-81.2, 32.45], [-81.19, 32.47], [-81.2, 32.47], [-81.23, 32.5], [-81.24, 32.51], [-81.23, 32.52], [-81.25, 32.52], [-81.27, 32.53], [-81.27, 32.54], [-81.28, 32.55], [-81.3, 32.55], [-81.3, 32.56], [-81.32, 32.56], [-81.36, 32.57], [-81.36, 32.58], [-81.38, 32.59], [-81.41, 32.61], [-81.42, 32.63], [-81.41, 32.63], [-81.41, 32.64], [-81.39, 32.65], [-81.4, 32.66], [-81.4, 32.67], [-81.4, 32.68], [-81.41, 32.69], [-81.43, 32.7], [-81.42, 32.71], [-81.42, 32.73], [-81.41, 32.74], [-81.41, 32.75], [-81.42, 32.75], [-81.41, 32.76], [-81.42, 32.77], [-81.43, 32.77], [-81.42, 32.78], [-81.43, 32.81], [-81.42, 32.82], [-81.43, 32.84], [-81.44, 32.84], [-81.44, 32.85], [-81.46, 32.85], [-81.45, 32.87], [-81.47, 32.88], [-81.48, 32.88], [-81.47, 32.89], [-81.48, 32.9], [-81.48, 32.91], [-81.48, 32.92], [-81.5, 32.94], [-81.5, 32.94], [-81.51, 32.95], [-81.51, 32.97], [-81.5, 32.96], [-81.49, 32.98], [-81.5, 32.99], [-81.49, 33.0], [-81.49, 33.01], [-81.5, 33.02], [-81.51, 33.03], [-81.54, 33.04], [-81.57, 33.05], [-81.57, 33.05], [-81.58, 33.07], [-81.59, 33.07], [-81.6, 33.09], [-81.61, 33.1], [-81.64, 33.09], [-81.65, 33.09], [-81.66, 33.1], [-81.68, 33.11], [-81.7, 33.12], [-81.72, 33.13], [-81.73, 33.13], [-81.74, 33.14], [-81.76, 33.16], [-81.77, 33.17], [-81.77, 33.18], [-81.76, 33.19], [-81.76, 33.2], [-81.76, 33.2], [-81.77, 33.22], [-81.78, 33.21], [-81.79, 33.21], [-81.81, 33.21], [-81.81, 33.22], [-81.83, 33.23], [-81.84, 33.24], [-81.85, 33.25], [-81.84, 33.26], [-81.84, 33.27], [-81.85, 33.28], [-81.86, 33.29], [-81.86, 33.3], [-81.85, 33.3], [-81.85, 33.31], [-81.85, 33.31], [-81.88, 33.31], [-81.89, 33.32], [-81.91, 33.33], [-81.92, 33.33], [-81.92, 33.35], [-81.94, 33.35], [-81.94, 33.36], [-81.95, 33.37], [-81.94, 33.37], [-81.93, 33.37], [-81.92, 33.38], [-81.93, 33.38], [-81.94, 33.4], [-81.94, 33.4], [-81.93, 33.41], [-81.92, 33.41], [-81.91, 33.42], [-81.93, 33.42], [-81.93, 33.43], [-81.92, 33.43], [-81.91, 33.44], [-81.93, 33.46], [-81.93, 33.47], [-81.99, 33.49], [-81.99, 33.5], [-82.0, 33.52], [-82.01, 33.53], [-82.02, 33.54], [-82.05, 33.56], [-82.06, 33.57], [-82.07, 33.58], [-82.09, 33.58], [-82.11, 33.6], [-82.12, 33.6], [-82.13, 33.59], [-82.14, 33.59], [-82.15, 33.6], [-82.16, 33.61], [-82.17, 33.61], [-82.2, 33.63], [-82.2, 33.65], [-82.2, 33.66], [-82.21, 33.67], [-82.22, 33.69], [-82.23, 33.7], [-82.24, 33.73], [-82.25, 33.75], [-82.26, 33.76], [-82.28, 33.77], [-82.29, 33.78], [-82.3, 33.79], [-82.3, 33.8], [-82.31, 33.81], [-82.33, 33.82], [-82.35, 33.83], [-82.37, 33.84], [-82.38, 33.85], [-82.41, 33.87], [-82.42, 33.86], [-82.44, 33.87], [-82.46, 33.88], [-82.48, 33.9], [-82.49, 33.91], [-82.51, 33.94], [-82.52, 33.94], [-82.54, 33.94], [-82.56, 33.95], [-82.56, 33.96], [-82.57, 33.97], [-82.58, 33.98], [-82.58, 33.99], [-82.59, 34.0], [-82.6, 34.02], [-82.59, 34.03], [-82.61, 34.04], [-82.63, 34.06], [-82.64, 34.07], [-82.65, 34.08], [-82.64, 34.09], [-82.65, 34.1], [-82.66, 34.1], [-82.67, 34.11], [-82.68, 34.13], [-82.69, 34.14], [-82.7, 34.14], [-82.72, 34.15], [-82.73, 34.17], [-82.73, 34.18], [-82.73, 34.2], [-82.74, 34.21], [-82.74, 34.22], [-82.74, 34.25], [-82.74, 34.25], [-82.76, 34.28], [-82.77, 34.29], [-82.78, 34.3], [-82.79, 34.31], [-82.79, 34.33], [-82.8, 34.34], [-82.82, 34.36], [-82.84, 34.37], [-82.84, 34.38], [-82.85, 34.41], [-82.85, 34.42], [-82.85, 34.43], [-82.86, 34.44], [-82.86, 34.46], [-82.87, 34.46], [-82.87, 34.47], [-82.88, 34.48], [-82.9, 34.49], [-82.92, 34.48], [-82.94, 34.49], [-82.95, 34.48], [-82.96, 34.48], [-82.98, 34.48], [-82.99, 34.48], [-83.0, 34.47], [-83.03, 34.48], [-83.03, 34.48], [-83.05, 34.5], [-83.06, 34.5], [-83.07, 34.5], [-83.08, 34.51], [-83.08, 34.52], [-83.08, 34.53], [-83.1, 34.53], [-83.1, 34.54], [-83.12, 34.56], [-83.14, 34.56], [-83.14, 34.57], [-83.16, 34.58], [-83.15, 34.59], [-83.17, 34.59], [-83.17, 34.61], [-83.2, 34.6], [-83.21, 34.61], [-83.23, 34.61], [-83.24, 34.62], [-83.24, 34.62], [-83.26, 34.64], [-83.28, 34.64], [-83.28, 34.64], [-83.28, 34.64], [-83.29, 34.65], [-83.3, 34.67], [-83.32, 34.67], [-83.32, 34.68], [-83.34, 34.68], [-83.34, 34.69], [-83.35, 34.7], [-83.35, 34.7], [-83.35, 34.72], [-83.35, 34.73], [-83.35, 34.74], [-83.33, 34.75], [-83.32, 34.77], [-83.32, 34.79], [-83.31, 34.8], [-83.3, 34.8], [-83.29, 34.82], [-83.28, 34.82], [-83.27, 34.83], [-83.27, 34.84], [-83.27, 34.85], [-83.25, 34.85], [-83.25, 34.86], [-83.24, 34.87], [-83.23, 34.88], [-83.21, 34.88], [-83.2, 34.88], [-83.2, 34.89], [-83.19, 34.9], [-83.17, 34.91], [-83.17, 34.92], [-83.16, 34.92], [-83.16, 34.93], [-83.14, 34.92], [-83.13, 34.93], [-83.13, 34.95], [-83.12, 34.95], [-83.12, 34.97], [-83.11, 34.98], [-83.1, 34.99], [-83.11, 35.0], [-83.02, 35.03], [-82.97, 35.04], [-82.81, 35.08], [-82.78, 35.09], [-82.78, 35.08], [-82.78, 35.07], [-82.78, 35.06], [-82.76, 35.07], [-82.75, 35.08], [-82.74, 35.08], [-82.73, 35.09], [-82.72, 35.09], [-82.71, 35.1], [-82.7, 35.1], [-82.69, 35.11], [-82.69, 35.11], [-82.69, 35.13], [-82.67, 35.13], [-82.67, 35.12], [-82.66, 35.12], [-82.64, 35.13], [-82.63, 35.13], [-82.62, 35.13], [-82.61, 35.14], [-82.6, 35.14], [-82.59, 35.14], [-82.57, 35.15], [-82.56, 35.15], [-82.55, 35.16], [-82.54, 35.16], [-82.54, 35.16], [-82.53, 35.16], [-82.52, 35.16], [-82.5, 35.16], [-82.49, 35.17], [-82.47, 35.18], [-82.46, 35.18], [-82.45, 35.17], [-82.46, 35.16], [-82.44, 35.17], [-82.43, 35.17], [-82.42, 35.19], [-82.42, 35.2], [-82.4, 35.21], [-82.39, 35.22], [-82.38, 35.21], [-82.38, 35.2], [-82.38, 35.19]]]]}}]}