{"type": "FeatureCollection", "features": [{"type": "Feature", "properties": {"ID": 40, "abbreviation": "TN", "name": "Tennessee"}, "geometry": {"type": "Polygon", "coordinates": [[[-87.85, 36.66], [-87.85, 36.63], [-87.74, 36.64], [-87.62, 36.64], [-87.51, 36.64], [-87.38, 36.64], [-87.36, 36.64], [-87.14, 36.64], [-87.01, 36.64], [-86.91, 36.65], [-86.83, 36.65], [-86.77, 36.65], [-86.71, 36.65], [-86.59, 36.65], [-86.56, 36.63], [-86.51, 36.65], [-86.41, 36.65], [-86.36, 36.65], [-86.2, 36.64], [-86.08, 36.63], [-86.04, 36.63], [-85.96, 36.63], [-85.87, 36.62], [-85.83, 36.62], [-85.8, 36.62], [-85.68, 36.62], [-85.5, 36.61], [-85.43, 36.62], [-85.3, 36.62], [-85.28, 36.63], [-85.19, 36.63], [-85.11, 36.62], [-85.03, 36.62], [-84.97, 36.62], [-84.94, 36.61], [-84.84, 36.61], [-84.79, 36.6], [-84.62, 36.6], [-84.54, 36.6], [-84.5, 36.6], [-84.37, 36.59], [-84.26, 36.59], [-84.14, 36.59], [-84.01, 36.59], [-83.89, 36.59], [-83.79, 36.58], [-83.69, 36.58], [-83.68, 36.6], [-83.62, 36.6], [-83.5, 36.6], [-83.37, 36.6], [-83.28, 36.6], [-83.26, 36.59], [-83.12, 36.59], [-82.87, 36.59], [-82.83, 36.59], [-82.66, 36.59], [-82.48, 36.6], [-82.47, 36.59], [-82.37, 36.6], [-82.22, 36.6], [-82.17, 36.59], [-81.93, 36.59], [-81.92, 36.62], [-81.74, 36.61], [-81.65, 36.61], [-81.68, 36.59], [-81.68, 36.57], [-81.69, 36.57], [-81.69, 36.56], [-81.7, 36.54], [-81.71, 36.54], [-81.71, 36.52], [-81.7, 36.51], [-81.7, 36.49], [-81.69, 36.47], [-81.7, 36.46], [-81.72, 36.46], [-81.71, 36.44], [-81.72, 36.42], [-81.73, 36.42], [-81.74, 36.41], [-81.74, 36.4], [-81.73, 36.39], [-81.73, 36.38], [-81.73, 36.37], [-81.72, 36.36], [-81.72, 36.35], [-81.71, 36.35], [-81.71, 36.34], [-81.72, 36.34], [-81.74, 36.34], [-81.74, 36.34], [-81.76, 36.34], [-81.78, 36.35], [-81.79, 36.35], [-81.8, 36.36], [-81.82, 36.35], [-81.83, 36.35], [-81.86, 36.34], [-81.88, 36.31], [-81.91, 36.3], [-81.94, 36.26], [-81.96, 36.23], [-82.03, 36.12], [-82.05, 36.13], [-82.06, 36.11], [-82.08, 36.11], [-82.08, 36.1], [-82.09, 36.11], [-82.11, 36.11], [-82.11, 36.1], [-82.13, 36.1], [-82.14, 36.12], [-82.14, 36.13], [-82.15, 36.15], [-82.16, 36.15], [-82.17, 36.15], [-82.18, 36.14], [-82.21, 36.16], [-82.22, 36.16], [-82.23, 36.14], [-82.24, 36.14], [-82.25, 36.13], [-82.26, 36.13], [-82.26, 36.13], [-82.28, 36.13], [-82.29, 36.14], [-82.3, 36.13], [-82.32, 36.12], [-82.34, 36.12], [-82.36, 36.12], [-82.37, 36.11], [-82.38, 36.11], [-82.38, 36.1], [-82.39, 36.1], [-82.41, 36.08], [-82.46, 36.01], [-82.47, 36.0], [-82.51, 35.98], [-82.53, 35.97], [-82.55, 35.96], [-82.56, 35.95], [-82.58, 35.96], [-82.58, 35.96], [-82.61, 35.97], [-82.61, 35.97], [-82.6, 35.99], [-82.61, 35.99], [-82.61, 36.0], [-82.61, 36.01], [-82.6, 36.02], [-82.59, 36.03], [-82.6, 36.04], [-82.61, 36.04], [-82.62, 36.05], [-82.62, 36.06], [-82.64, 36.07], [-82.65, 36.06], [-82.66, 36.06], [-82.68, 36.05], [-82.69, 36.04], [-82.71, 36.03], [-82.72, 36.02], [-82.75, 36.01], [-82.75, 36.0], [-82.78, 36.0], [-82.79, 35.99], [-82.79, 35.98], [-82.77, 35.97], [-82.78, 35.96], [-82.79, 35.95], [-82.8, 35.94], [-82.81, 35.94], [-82.8, 35.93], [-82.82, 35.92], [-82.83, 35.93], [-82.84, 35.94], [-82.85, 35.95], [-82.86, 35.95], [-82.87, 35.95], [-82.9, 35.95], [-82.9, 35.93], [-82.91, 35.93], [-82.91, 35.93], [-82.91, 35.91], [-82.91, 35.91], [-82.9, 35.89], [-82.9, 35.88], [-82.91, 35.87], [-82.92, 35.87], [-82.92, 35.85], [-82.92, 35.84], [-82.93, 35.83], [-82.94, 35.83], [-82.94, 35.83], [-82.96, 35.8], [-82.96, 35.79], [-82.97, 35.79], [-82.98, 35.78], [-83.0, 35.77], [-83.01, 35.78], [-83.04, 35.79], [-83.04, 35.79], [-83.05, 35.79], [-83.06, 35.79], [-83.08, 35.79], [-83.1, 35.78], [-83.12, 35.77], [-83.16, 35.76], [-83.17, 35.76], [-83.17, 35.75], [-83.18, 35.74], [-83.19, 35.73], [-83.2, 35.73], [-83.24, 35.73], [-83.26, 35.72], [-83.26, 35.71], [-83.25, 35.7], [-83.27, 35.68], [-83.29, 35.67], [-83.3, 35.66], [-83.31, 35.65], [-83.32, 35.66], [-83.33, 35.67], [-83.35, 35.66], [-83.36, 35.65], [-83.37, 35.64], [-83.39, 35.63], [-83.39, 35.63], [-83.42, 35.61], [-83.45, 35.61], [-83.46, 35.6], [-83.47, 35.59], [-83.48, 35.58], [-83.49, 35.57], [-83.5, 35.56], [-83.52, 35.56], [-83.52, 35.57], [-83.55, 35.56], [-83.57, 35.57], [-83.58, 35.56], [-83.6, 35.58], [-83.64, 35.57], [-83.66, 35.57], [-83.71, 35.57], [-83.72, 35.56], [-83.74, 35.57], [-83.75, 35.56], [-83.76, 35.56], [-83.77, 35.56], [-83.78, 35.55], [-83.8, 35.54], [-83.83, 35.52], [-83.83, 35.52], [-83.85, 35.52], [-83.86, 35.52], [-83.87, 35.52], [-83.88, 35.52], [-83.89, 35.5], [-83.9, 35.5], [-83.91, 35.48], [-83.94, 35.47], [-83.95, 35.46], [-83.96, 35.46], [-83.96, 35.45], [-83.98, 35.45], [-83.98, 35.44], [-83.99, 35.44], [-84.0, 35.42], [-84.01, 35.41], [-84.02, 35.41], [-84.02, 35.4], [-84.01, 35.39], [-84.01, 35.38], [-84.01, 35.37], [-84.02, 35.35], [-84.04, 35.35], [-84.04, 35.34], [-84.03, 35.33], [-84.04, 35.32], [-84.02, 35.3], [-84.02, 35.3], [-84.04, 35.29], [-84.04, 35.28], [-84.06, 35.27], [-84.08, 35.26], [-84.08, 35.26], [-84.1, 35.25], [-84.11, 35.25], [-84.13, 35.25], [-84.13, 35.24], [-84.14, 35.25], [-84.17, 35.25], [-84.18, 35.24], [-84.2, 35.24], [-84.2, 35.26], [-84.21, 35.27], [-84.22, 35.27], [-84.23, 35.26], [-84.24, 35.25], [-84.25, 35.25], [-84.26, 35.24], [-84.28, 35.23], [-84.29, 35.22], [-84.29, 35.19], [-84.3, 35.17], [-84.31, 35.1], [-84.31, 35.08], [-84.32, 34.99], [-84.38, 34.99], [-84.5, 34.99], [-84.62, 34.99], [-84.62, 34.99], [-84.75, 34.99], [-84.81, 34.99], [-84.95, 34.99], [-85.05, 34.99], [-85.24, 34.99], [-85.39, 34.98], [-85.47, 34.98], [-85.61, 34.98], [-85.82, 34.99], [-86.01, 34.99], [-86.25, 34.99], [-86.31, 34.99], [-86.32, 34.99], [-86.37, 34.99], [-86.46, 34.99], [-86.61, 34.99], [-86.64, 34.99], [-86.86, 34.99], [-86.94, 34.99], [-87.09, 35.0], [-87.31, 35.0], [-87.43, 35.0], [-87.52, 35.0], [-87.63, 35.0], [-87.66, 35.0], [-87.85, 35.01], [-88.0, 35.01], [-88.16, 35.01], [-88.2, 35.01], [-88.2, 35.0], [-88.38, 35.0], [-88.49, 35.0], [-88.62, 35.0], [-88.74, 35.0], [-88.86, 35.0], [-88.9, 35.0], [-88.93, 34.99], [-89.02, 34.99], [-89.13, 34.99], [-89.16, 34.99], [-89.21, 34.99], [-89.35, 34.99], [-89.44, 34.99], [-89.52, 34.99], [-89.66, 35.0], [-89.74, 35.0], [-89.8, 34.99], [-90.02, 34.99], [-90.11, 34.99], [-90.2, 35.0], [-90.31, 35.0], [-90.31, 35.01], [-90.3, 35.04], [-90.29, 35.04], [-90.27, 35.04], [-90.22, 35.03], [-90.2, 35.03], [-90.19, 35.04], [-90.19, 35.06], [-90.18, 35.09], [-90.17, 35.12], [-90.16, 35.13], [-90.14, 35.13], [-90.11, 35.12], [-90.1, 35.12], [-90.09, 35.12], [-90.07, 35.13], [-90.06, 35.14], [-90.07, 35.15], [-90.09, 35.16], [-90.11, 35.17], [-90.11, 35.18], [-90.12, 35.19], [-90.12, 35.2], [-90.11, 35.2], [-90.1, 35.19], [-90.09, 35.21], [-90.08, 35.2], [-90.07, 35.21], [-90.08, 35.23], [-90.1, 35.25], [-90.11, 35.26], [-90.14, 35.25], [-90.15, 35.26], [-90.16, 35.27], [-90.17, 35.28], [-90.16, 35.3], [-90.15, 35.3], [-90.14, 35.3], [-90.1, 35.31], [-90.1, 35.35], [-90.09, 35.36], [-90.07, 35.38], [-90.1, 35.4], [-90.11, 35.41], [-90.14, 35.41], [-90.15, 35.4], [-90.14, 35.39], [-90.14, 35.38], [-90.16, 35.37], [-90.18, 35.39], [-90.17, 35.41], [-90.17, 35.42], [-90.14, 35.44], [-90.13, 35.44], [-90.12, 35.47], [-90.11, 35.48], [-90.08, 35.48], [-90.07, 35.47], [-90.07, 35.43], [-90.07, 35.42], [-90.06, 35.42], [-90.07, 35.41], [-90.05, 35.39], [-90.04, 35.4], [-90.06, 35.4], [-90.05, 35.41], [-90.04, 35.42], [-90.03, 35.43], [-90.03, 35.45], [-90.02, 35.46], [-90.02, 35.47], [-90.03, 35.48], [-90.05, 35.5], [-90.05, 35.51], [-90.04, 35.55], [-90.03, 35.56], [-90.0, 35.56], [-89.98, 35.55], [-89.96, 35.54], [-89.96, 35.53], [-89.95, 35.52], [-89.92, 35.51], [-89.91, 35.52], [-89.9, 35.53], [-89.91, 35.55], [-89.93, 35.55], [-89.94, 35.56], [-89.95, 35.57], [-89.96, 35.59], [-89.95, 35.6], [-89.91, 35.62], [-89.9, 35.61], [-89.88, 35.63], [-89.86, 35.63], [-89.85, 35.65], [-89.86, 35.67], [-89.87, 35.67], [-89.88, 35.67], [-89.89, 35.65], [-89.9, 35.65], [-89.92, 35.65], [-89.93, 35.66], [-89.96, 35.69], [-89.96, 35.72], [-89.95, 35.74], [-89.91, 35.76], [-89.89, 35.75], [-89.88, 35.74], [-89.85, 35.76], [-89.82, 35.76], [-89.81, 35.76], [-89.8, 35.78], [-89.8, 35.79], [-89.78, 35.81], [-89.76, 35.81], [-89.74, 35.81], [-89.72, 35.81], [-89.7, 35.82], [-89.7, 35.83], [-89.71, 35.84], [-89.73, 35.85], [-89.76, 35.86], [-89.77, 35.86], [-89.77, 35.88], [-89.77, 35.89], [-89.76, 35.9], [-89.73, 35.9], [-89.71, 35.91], [-89.69, 35.9], [-89.68, 35.89], [-89.67, 35.88], [-89.65, 35.89], [-89.65, 35.89], [-89.64, 35.9], [-89.66, 35.93], [-89.69, 35.95], [-89.71, 35.96], [-89.72, 35.97], [-89.72, 35.99], [-89.73, 36.0], [-89.71, 36.0], [-89.69, 36.02], [-89.69, 36.03], [-89.68, 36.08], [-89.67, 36.1], [-89.63, 36.11], [-89.6, 36.12], [-89.59, 36.13], [-89.59, 36.15], [-89.61, 36.17], [-89.62, 36.18], [-89.64, 36.19], [-89.65, 36.2], [-89.69, 36.22], [-89.71, 36.24], [-89.7, 36.25], [-89.68, 36.25], [-89.65, 36.25], [-89.64, 36.25], [-89.61, 36.24], [-89.59, 36.24], [-89.57, 36.24], [-89.56, 36.25], [-89.55, 36.25], [-89.53, 36.25], [-89.54, 36.27], [-89.54, 36.28], [-89.56, 36.28], [-89.58, 36.29], [-89.58, 36.29], [-89.61, 36.31], [-89.62, 36.32], [-89.62, 36.33], [-89.61, 36.34], [-89.6, 36.34], [-89.58, 36.34], [-89.56, 36.34], [-89.55, 36.34], [-89.53, 36.34], [-89.52, 36.35], [-89.51, 36.37], [-89.51, 36.38], [-89.54, 36.42], [-89.55, 36.43], [-89.54, 36.44], [-89.53, 36.45], [-89.52, 36.47], [-89.52, 36.48], [-89.54, 36.5], [-89.49, 36.5], [-89.49, 36.48], [-89.49, 36.47], [-89.48, 36.46], [-89.46, 36.46], [-89.45, 36.46], [-89.43, 36.48], [-89.42, 36.5], [-89.39, 36.5], [-89.3, 36.51], [-89.13, 36.5], [-88.96, 36.5], [-88.83, 36.5], [-88.72, 36.5], [-88.5, 36.5], [-88.33, 36.5], [-88.13, 36.5], [-88.05, 36.5], [-88.04, 36.51], [-88.03, 36.54], [-88.04, 36.56], [-88.04, 36.57], [-88.05, 36.6], [-88.06, 36.63], [-88.06, 36.64], [-88.07, 36.66], [-88.07, 36.68], [-88.01, 36.68], [-87.87, 36.67], [-87.85, 36.66]]]}}]}