{"type": "FeatureCollection", "features": [{"type": "Feature", "properties": {"ID": 41, "abbreviation": "TX", "name": "Texas"}, "geometry": {"type": "MultiPolygon", "coordinates": [[[[-97.15, 26.05], [-97.15, 26.02], [-97.16, 26.03], [-97.16, 26.04], [-97.16, 26.05], [-97.16, 26.05], [-97.16, 26.06], [-97.15, 26.06], [-97.15, 26.05]]], [[[-97.2, 26.05], [-97.21, 26.05], [-97.21, 26.06], [-97.2, 26.07], [-97.19, 26.07], [-97.2, 26.07], [-97.2, 26.05]]], [[[-97.27, 26.55], [-97.25, 26.48], [-97.23, 26.42], [-97.21, 26.37], [-97.19, 26.31], [-97.19, 26.27], [-97.18, 26.22], [-97.16, 26.1], [-97.16, 26.08], [-97.15, 26.07], [-97.16, 26.07], [-97.18, 26.13], [-97.17, 26.15], [-97.17, 26.17], [-97.18, 26.17], [-97.18, 26.18], [-97.18, 26.19], [-97.18, 26.21], [-97.19, 26.22], [-97.19, 26.24], [-97.19, 26.26], [-97.19, 26.27], [-97.2, 26.29], [-97.2, 26.3], [-97.2, 26.32], [-97.21, 26.32], [-97.21, 26.34], [-97.21, 26.34], [-97.21, 26.35], [-97.22, 26.38], [-97.22, 26.39], [-97.22, 26.39], [-97.22, 26.41], [-97.24, 26.41], [-97.24, 26.43], [-97.24, 26.44], [-97.25, 26.44], [-97.24, 26.46], [-97.25, 26.46], [-97.25, 26.48], [-97.26, 26.48], [-97.26, 26.5], [-97.26, 26.51], [-97.26, 26.51], [-97.26, 26.52], [-97.27, 26.54], [-97.27, 26.55], [-97.28, 26.55], [-97.28, 26.54], [-97.29, 26.52], [-97.3, 26.54], [-97.31, 26.56], [-97.33, 26.56], [-97.28, 26.56], [-97.27, 26.56], [-97.27, 26.55]]], [[[-97.48, 27.0], [-97.47, 26.99], [-97.46, 27.0], [-97.45, 27.0], [-97.45, 26.99], [-97.47, 26.97], [-97.47, 26.99], [-97.47, 26.99], [-97.48, 27.0]]], [[[-97.2, 27.63], [-97.23, 27.56], [-97.26, 27.51], [-97.29, 27.44], [-97.31, 27.39], [-97.33, 27.32], [-97.35, 27.28], [-97.36, 27.24], [-97.37, 27.19], [-97.37, 27.14], [-97.38, 27.1], [-97.38, 27.03], [-97.38, 27.0], [-97.38, 26.95], [-97.37, 26.91], [-97.36, 26.87], [-97.35, 26.82], [-97.35, 26.78], [-97.33, 26.74], [-97.31, 26.68], [-97.3, 26.63], [-97.29, 26.6], [-97.28, 26.57], [-97.3, 26.56], [-97.3, 26.57], [-97.3, 26.58], [-97.3, 26.58], [-97.31, 26.6], [-97.32, 26.61], [-97.32, 26.64], [-97.33, 26.63], [-97.35, 26.65], [-97.33, 26.67], [-97.32, 26.66], [-97.32, 26.65], [-97.31, 26.63], [-97.31, 26.62], [-97.3, 26.61], [-97.3, 26.6], [-97.3, 26.59], [-97.29, 26.59], [-97.29, 26.58], [-97.28, 26.58], [-97.29, 26.6], [-97.3, 26.61], [-97.3, 26.63], [-97.31, 26.64], [-97.31, 26.65], [-97.32, 26.66], [-97.33, 26.68], [-97.33, 26.7], [-97.34, 26.72], [-97.35, 26.73], [-97.35, 26.73], [-97.37, 26.75], [-97.36, 26.76], [-97.37, 26.77], [-97.37, 26.8], [-97.39, 26.82], [-97.39, 26.83], [-97.39, 26.84], [-97.38, 26.85], [-97.39, 26.86], [-97.39, 26.87], [-97.38, 26.89], [-97.37, 26.9], [-97.38, 26.91], [-97.38, 26.92], [-97.38, 26.93], [-97.39, 26.94], [-97.38, 26.94], [-97.39, 26.96], [-97.39, 26.98], [-97.39, 26.98], [-97.39, 27.0], [-97.39, 27.01], [-97.39, 27.04], [-97.39, 27.09], [-97.39, 27.09], [-97.39, 27.12], [-97.39, 27.14], [-97.39, 27.15], [-97.39, 27.16], [-97.38, 27.18], [-97.38, 27.19], [-97.38, 27.2], [-97.38, 27.21], [-97.37, 27.22], [-97.38, 27.23], [-97.38, 27.23], [-97.37, 27.25], [-97.37, 27.25], [-97.37, 27.27], [-97.36, 27.27], [-97.36, 27.28], [-97.36, 27.28], [-97.36, 27.28], [-97.36, 27.28], [-97.37, 27.28], [-97.37, 27.28], [-97.37, 27.28], [-97.37, 27.28], [-97.37, 27.3], [-97.35, 27.31], [-97.37, 27.33], [-97.36, 27.35], [-97.36, 27.36], [-97.36, 27.37], [-97.35, 27.38], [-97.34, 27.39], [-97.34, 27.4], [-97.33, 27.42], [-97.33, 27.43], [-97.31, 27.48], [-97.3, 27.49], [-97.28, 27.52], [-97.27, 27.54], [-97.27, 27.54], [-97.26, 27.56], [-97.26, 27.56], [-97.26, 27.57], [-97.25, 27.58], [-97.25, 27.58], [-97.25, 27.6], [-97.24, 27.61], [-97.23, 27.63], [-97.22, 27.63], [-97.21, 27.62], [-97.2, 27.64], [-97.2, 27.65], [-97.2, 27.67], [-97.19, 27.68], [-97.18, 27.68], [-97.17, 27.68], [-97.16, 27.68], [-97.2, 27.63]]], [[[-97.04, 27.83], [-97.05, 27.83], [-97.09, 27.79], [-97.12, 27.75], [-97.16, 27.68], [-97.16, 27.68], [-97.18, 27.68], [-97.18, 27.69], [-97.17, 27.7], [-97.18, 27.71], [-97.17, 27.72], [-97.16, 27.72], [-97.15, 27.73], [-97.14, 27.74], [-97.13, 27.75], [-97.13, 27.76], [-97.11, 27.77], [-97.09, 27.81], [-97.08, 27.81], [-97.07, 27.82], [-97.08, 27.83], [-97.09, 27.83], [-97.1, 27.83], [-97.07, 27.84], [-97.06, 27.84], [-97.05, 27.84], [-97.04, 27.83]]], [[[-97.06, 27.84], [-97.1, 27.84], [-97.08, 27.85], [-97.09, 27.85], [-97.08, 27.86], [-97.06, 27.85], [-97.06, 27.84]]], [[[-96.91, 28.01], [-96.93, 27.99], [-96.96, 27.95], [-97.0, 27.91], [-97.03, 27.88], [-97.04, 27.85], [-97.05, 27.84], [-97.06, 27.85], [-97.05, 27.85], [-97.04, 27.86], [-97.01, 27.9], [-97.02, 27.91], [-97.01, 27.93], [-96.99, 27.96], [-96.98, 27.96], [-96.98, 27.97], [-96.97, 27.99], [-96.98, 27.99], [-96.98, 28.0], [-96.97, 28.0], [-96.96, 28.01], [-96.95, 28.0], [-96.94, 28.01], [-96.93, 28.01], [-96.93, 28.01], [-96.93, 28.03], [-96.91, 28.03], [-96.91, 28.04], [-96.91, 28.05], [-96.89, 28.06], [-96.88, 28.07], [-96.86, 28.06], [-96.86, 28.05], [-96.91, 28.01]]], [[[-96.46, 28.31], [-96.51, 28.29], [-96.56, 28.26], [-96.61, 28.23], [-96.67, 28.2], [-96.7, 28.18], [-96.78, 28.12], [-96.81, 28.09], [-96.85, 28.07], [-96.84, 28.08], [-96.83, 28.11], [-96.81, 28.12], [-96.81, 28.13], [-96.8, 28.14], [-96.8, 28.14], [-96.82, 28.14], [-96.82, 28.15], [-96.82, 28.16], [-96.82, 28.17], [-96.82, 28.17], [-96.8, 28.18], [-96.79, 28.19], [-96.76, 28.19], [-96.76, 28.19], [-96.73, 28.19], [-96.7, 28.2], [-96.69, 28.21], [-96.69, 28.22], [-96.67, 28.23], [-96.66, 28.24], [-96.65, 28.25], [-96.64, 28.26], [-96.63, 28.26], [-96.61, 28.27], [-96.6, 28.27], [-96.59, 28.28], [-96.59, 28.29], [-96.58, 28.29], [-96.57, 28.3], [-96.57, 28.29], [-96.56, 28.29], [-96.55, 28.3], [-96.54, 28.3], [-96.53, 28.3], [-96.52, 28.31], [-96.52, 28.3], [-96.5, 28.32], [-96.48, 28.32], [-96.48, 28.33], [-96.45, 28.34], [-96.42, 28.35], [-96.41, 28.37], [-96.4, 28.37], [-96.4, 28.34], [-96.41, 28.33], [-96.44, 28.32], [-96.46, 28.31]]], [[[-96.35, 28.41], [-96.38, 28.39], [-96.39, 28.39], [-96.38, 28.4], [-96.36, 28.42], [-96.35, 28.43], [-96.34, 28.43], [-96.33, 28.43], [-96.35, 28.41]]], [[[-96.31, 28.44], [-96.32, 28.42], [-96.33, 28.43], [-96.31, 28.46], [-96.26, 28.48], [-96.24, 28.49], [-96.23, 28.5], [-96.23, 28.49], [-96.27, 28.46], [-96.31, 28.44]]], [[[-95.98, 28.61], [-95.98, 28.6], [-95.99, 28.59], [-96.04, 28.58], [-96.08, 28.56], [-96.17, 28.52], [-96.22, 28.49], [-96.21, 28.51], [-96.21, 28.51], [-96.2, 28.52], [-96.19, 28.52], [-96.16, 28.54], [-96.12, 28.55], [-96.09, 28.56], [-96.09, 28.57], [-96.06, 28.57], [-96.04, 28.58], [-96.02, 28.59], [-96.02, 28.6], [-96.01, 28.59], [-96.0, 28.6], [-95.99, 28.6], [-95.98, 28.61]]], [[[-94.91, 29.29], [-94.92, 29.29], [-94.93, 29.3], [-94.91, 29.3], [-94.91, 29.29]]], [[[-94.73, 29.34], [-94.74, 29.32], [-94.77, 29.3], [-94.8, 29.28], [-94.85, 29.25], [-94.85, 29.25], [-95.0, 29.16], [-95.04, 29.14], [-95.09, 29.1], [-95.11, 29.09], [-95.11, 29.09], [-95.1, 29.12], [-95.09, 29.12], [-95.07, 29.13], [-95.07, 29.14], [-95.06, 29.14], [-95.04, 29.16], [-95.03, 29.16], [-95.03, 29.17], [-95.03, 29.17], [-95.02, 29.17], [-95.01, 29.19], [-94.99, 29.19], [-94.99, 29.2], [-94.96, 29.22], [-94.95, 29.22], [-94.95, 29.23], [-94.94, 29.24], [-94.93, 29.23], [-94.93, 29.25], [-94.92, 29.25], [-94.92, 29.26], [-94.88, 29.27], [-94.87, 29.27], [-94.86, 29.28], [-94.84, 29.28], [-94.85, 29.29], [-94.87, 29.28], [-94.88, 29.28], [-94.87, 29.29], [-94.85, 29.3], [-94.82, 29.31], [-94.8, 29.31], [-94.77, 29.32], [-94.77, 29.33], [-94.77, 29.34], [-94.75, 29.33], [-94.73, 29.34]]], [[[-94.78, 29.32], [-94.8, 29.31], [-94.82, 29.31], [-94.82, 29.32], [-94.82, 29.35], [-94.81, 29.35], [-94.81, 29.35], [-94.79, 29.34], [-94.78, 29.32]]], [[[-94.71, 29.4], [-94.73, 29.37], [-94.74, 29.37], [-94.76, 29.36], [-94.77, 29.37], [-94.78, 29.36], [-94.78, 29.37], [-94.77, 29.38], [-94.71, 29.43], [-94.68, 29.45], [-94.53, 29.51], [-94.51, 29.52], [-94.51, 29.51], [-94.5, 29.51], [-94.59, 29.47], [-94.64, 29.45], [-94.68, 29.43], [-94.69, 29.42], [-94.71, 29.4]]], [[[-94.51, 29.52], [-94.68, 29.45], [-94.7, 29.44], [-94.69, 29.46], [-94.68, 29.47], [-94.67, 29.48], [-94.65, 29.48], [-94.65, 29.47], [-94.63, 29.48], [-94.6, 29.49], [-94.6, 29.49], [-94.59, 29.51], [-94.58, 29.53], [-94.57, 29.53], [-94.56, 29.53], [-94.54, 29.52], [-94.51, 29.52]]], [[[-102.82, 36.5], [-102.63, 36.5], [-102.37, 36.5], [-102.13, 36.5], [-102.08, 36.5], [-101.9, 36.5], [-101.83, 36.5], [-101.7, 36.5], [-101.5, 36.5], [-101.22, 36.5], [-101.07, 36.5], [-100.92, 36.5], [-100.71, 36.5], [-100.5, 36.5], [-100.33, 36.5], [-100.29, 36.5], [-100.17, 36.5], [-100.0, 36.5], [-100.0, 36.36], [-100.0, 36.13], [-100.0, 35.88], [-100.0, 35.79], [-100.0, 35.62], [-100.0, 35.48], [-100.0, 35.28], [-100.0, 35.03], [-100.0, 34.9], [-100.0, 34.75], [-100.0, 34.56], [-99.99, 34.56], [-99.97, 34.56], [-99.96, 34.57], [-99.94, 34.58], [-99.92, 34.57], [-99.92, 34.57], [-99.89, 34.55], [-99.88, 34.54], [-99.87, 34.53], [-99.85, 34.51], [-99.83, 34.5], [-99.82, 34.5], [-99.82, 34.49], [-99.81, 34.48], [-99.78, 34.45], [-99.78, 34.44], [-99.77, 34.44], [-99.77, 34.43], [-99.75, 34.42], [-99.73, 34.41], [-99.71, 34.4], [-99.71, 34.39], [-99.69, 34.38], [-99.68, 34.38], [-99.66, 34.37], [-99.65, 34.38], [-99.62, 34.37], [-99.61, 34.38], [-99.6, 34.37], [-99.58, 34.39], [-99.58, 34.41], [-99.58, 34.42], [-99.57, 34.42], [-99.55, 34.41], [-99.53, 34.41], [-99.52, 34.41], [-99.5, 34.41], [-99.49, 34.4], [-99.47, 34.4], [-99.45, 34.39], [-99.44, 34.37], [-99.43, 34.37], [-99.43, 34.39], [-99.41, 34.37], [-99.4, 34.38], [-99.4, 34.39], [-99.39, 34.41], [-99.4, 34.42], [-99.39, 34.43], [-99.39, 34.44], [-99.38, 34.46], [-99.38, 34.46], [-99.36, 34.46], [-99.35, 34.45], [-99.36, 34.44], [-99.33, 34.42], [-99.32, 34.41], [-99.31, 34.41], [-99.29, 34.42], [-99.29, 34.41], [-99.28, 34.4], [-99.28, 34.4], [-99.26, 34.4], [-99.26, 34.39], [-99.27, 34.38], [-99.25, 34.38], [-99.24, 34.37], [-99.23, 34.35], [-99.23, 34.35], [-99.23, 34.34], [-99.21, 34.34], [-99.21, 34.32], [-99.21, 34.31], [-99.21, 34.28], [-99.2, 34.28], [-99.19, 34.27], [-99.2, 34.26], [-99.19, 34.26], [-99.2, 34.24], [-99.19, 34.23], [-99.19, 34.22], [-99.19, 34.21], [-99.16, 34.21], [-99.15, 34.21], [-99.14, 34.22], [-99.13, 34.22], [-99.13, 34.21], [-99.12, 34.2], [-99.11, 34.21], [-99.1, 34.21], [-99.08, 34.21], [-99.07, 34.21], [-99.06, 34.2], [-99.04, 34.2], [-99.04, 34.21], [-99.01, 34.2], [-99.0, 34.21], [-98.99, 34.22], [-98.98, 34.22], [-98.98, 34.21], [-98.97, 34.2], [-98.96, 34.21], [-98.95, 34.21], [-98.94, 34.2], [-98.92, 34.18], [-98.9, 34.18], [-98.89, 34.17], [-98.87, 34.17], [-98.87, 34.16], [-98.87, 34.15], [-98.86, 34.15], [-98.85, 34.16], [-98.84, 34.16], [-98.83, 34.16], [-98.8, 34.15], [-98.8, 34.14], [-98.79, 34.15], [-98.78, 34.14], [-98.77, 34.14], [-98.76, 34.12], [-98.74, 34.13], [-98.74, 34.14], [-98.72, 34.14], [-98.71, 34.13], [-98.7, 34.14], [-98.69, 34.13], [-98.67, 34.15], [-98.64, 34.16], [-98.62, 34.16], [-98.6, 34.16], [-98.59, 34.16], [-98.58, 34.14], [-98.56, 34.14], [-98.55, 34.13], [-98.56, 34.12], [-98.55, 34.12], [-98.54, 34.11], [-98.53, 34.09], [-98.5, 34.07], [-98.48, 34.06], [-98.47, 34.07], [-98.47, 34.07], [-98.45, 34.08], [-98.43, 34.09], [-98.42, 34.08], [-98.41, 34.08], [-98.4, 34.09], [-98.4, 34.1], [-98.4, 34.12], [-98.38, 34.15], [-98.36, 34.16], [-98.32, 34.15], [-98.3, 34.13], [-98.28, 34.13], [-98.27, 34.13], [-98.26, 34.13], [-98.23, 34.13], [-98.22, 34.13], [-98.2, 34.12], [-98.17, 34.11], [-98.15, 34.13], [-98.14, 34.14], [-98.12, 34.15], [-98.11, 34.15], [-98.1, 34.15], [-98.1, 34.13], [-98.09, 34.13], [-98.09, 34.12], [-98.1, 34.1], [-98.12, 34.09], [-98.12, 34.07], [-98.11, 34.06], [-98.1, 34.05], [-98.08, 34.04], [-98.09, 34.03], [-98.11, 34.04], [-98.1, 34.03], [-98.08, 34.01], [-98.08, 34.0], [-98.04, 33.99], [-98.02, 33.99], [-97.99, 34.0], [-97.97, 34.01], [-97.96, 33.99], [-97.95, 33.99], [-97.96, 33.96], [-97.96, 33.95], [-97.97, 33.94], [-97.97, 33.94], [-97.95, 33.94], [-97.96, 33.91], [-97.97, 33.91], [-97.98, 33.91], [-97.98, 33.9], [-97.97, 33.89], [-97.96, 33.88], [-97.94, 33.88], [-97.91, 33.87], [-97.9, 33.86], [-97.88, 33.85], [-97.87, 33.85], [-97.83, 33.86], [-97.82, 33.87], [-97.82, 33.88], [-97.81, 33.88], [-97.8, 33.89], [-97.8, 33.9], [-97.79, 33.9], [-97.78, 33.89], [-97.78, 33.9], [-97.79, 33.91], [-97.78, 33.92], [-97.77, 33.91], [-97.76, 33.92], [-97.76, 33.93], [-97.75, 33.94], [-97.73, 33.94], [-97.71, 33.95], [-97.7, 33.96], [-97.7, 33.98], [-97.69, 33.99], [-97.67, 33.99], [-97.66, 33.99], [-97.63, 33.98], [-97.62, 33.97], [-97.61, 33.97], [-97.6, 33.96], [-97.59, 33.95], [-97.6, 33.94], [-97.59, 33.93], [-97.6, 33.92], [-97.59, 33.9], [-97.58, 33.9], [-97.57, 33.9], [-97.56, 33.9], [-97.54, 33.9], [-97.52, 33.91], [-97.5, 33.92], [-97.49, 33.92], [-97.46, 33.91], [-97.45, 33.89], [-97.45, 33.88], [-97.46, 33.84], [-97.46, 33.83], [-97.45, 33.82], [-97.42, 33.82], [-97.4, 33.82], [-97.37, 33.82], [-97.36, 33.83], [-97.34, 33.86], [-97.34, 33.88], [-97.32, 33.88], [-97.34, 33.86], [-97.33, 33.85], [-97.31, 33.87], [-97.31, 33.89], [-97.29, 33.87], [-97.27, 33.86], [-97.25, 33.87], [-97.25, 33.87], [-97.25, 33.89], [-97.25, 33.9], [-97.23, 33.92], [-97.22, 33.91], [-97.21, 33.92], [-97.2, 33.91], [-97.19, 33.9], [-97.18, 33.89], [-97.18, 33.88], [-97.17, 33.85], [-97.16, 33.85], [-97.17, 33.83], [-97.19, 33.83], [-97.2, 33.83], [-97.2, 33.82], [-97.21, 33.8], [-97.2, 33.79], [-97.19, 33.78], [-97.19, 33.77], [-97.19, 33.76], [-97.17, 33.75], [-97.17, 33.74], [-97.15, 33.72], [-97.13, 33.72], [-97.11, 33.72], [-97.09, 33.73], [-97.09, 33.74], [-97.09, 33.77], [-97.09, 33.78], [-97.1, 33.8], [-97.08, 33.81], [-97.07, 33.82], [-97.05, 33.82], [-97.05, 33.82], [-97.05, 33.83], [-97.07, 33.84], [-97.08, 33.84], [-97.09, 33.85], [-97.09, 33.85], [-97.07, 33.86], [-97.06, 33.86], [-97.05, 33.85], [-97.04, 33.84], [-97.02, 33.85], [-97.0, 33.87], [-96.98, 33.89], [-96.98, 33.9], [-97.0, 33.94], [-96.99, 33.95], [-96.99, 33.95], [-96.98, 33.95], [-96.98, 33.94], [-96.97, 33.94], [-96.95, 33.94], [-96.94, 33.95], [-96.92, 33.96], [-96.91, 33.95], [-96.9, 33.93], [-96.9, 33.9], [-96.88, 33.87], [-96.87, 33.85], [-96.85, 33.85], [-96.84, 33.85], [-96.84, 33.87], [-96.83, 33.87], [-96.79, 33.87], [-96.78, 33.86], [-96.78, 33.84], [-96.77, 33.83], [-96.76, 33.82], [-96.74, 33.83], [-96.71, 33.83], [-96.7, 33.84], [-96.69, 33.85], [-96.68, 33.86], [-96.68, 33.89], [-96.67, 33.91], [-96.67, 33.92], [-96.65, 33.91], [-96.63, 33.9], [-96.59, 33.9], [-96.59, 33.89], [-96.6, 33.88], [-96.61, 33.87], [-96.63, 33.85], [-96.63, 33.84], [-96.59, 33.83], [-96.57, 33.82], [-96.55, 33.82], [-96.53, 33.82], [-96.53, 33.82], [-96.52, 33.81], [-96.51, 33.79], [-96.5, 33.77], [-96.47, 33.78], [-96.46, 33.78], [-96.45, 33.78], [-96.44, 33.78], [-96.42, 33.78], [-96.41, 33.76], [-96.4, 33.74], [-96.37, 33.72], [-96.36, 33.7], [-96.36, 33.69], [-96.36, 33.69], [-96.34, 33.69], [-96.33, 33.69], [-96.32, 33.7], [-96.31, 33.71], [-96.31, 33.72], [-96.31, 33.73], [-96.3, 33.75], [-96.29, 33.76], [-96.28, 33.77], [-96.25, 33.76], [-96.23, 33.75], [-96.22, 33.75], [-96.2, 33.75], [-96.18, 33.76], [-96.17, 33.77], [-96.17, 33.78], [-96.16, 33.81], [-96.17, 33.8], [-96.18, 33.8], [-96.18, 33.81], [-96.17, 33.82], [-96.15, 33.82], [-96.15, 33.83], [-96.15, 33.84], [-96.12, 33.84], [-96.11, 33.83], [-96.1, 33.83], [-96.1, 33.85], [-96.08, 33.85], [-96.05, 33.84], [-96.03, 33.84], [-96.03, 33.85], [-96.02, 33.85], [-96.02, 33.84], [-96.01, 33.85], [-96.0, 33.85], [-95.99, 33.86], [-96.0, 33.87], [-96.0, 33.87], [-95.98, 33.87], [-95.98, 33.85], [-95.97, 33.86], [-95.95, 33.86], [-95.94, 33.86], [-95.93, 33.89], [-95.91, 33.88], [-95.88, 33.86], [-95.86, 33.85], [-95.84, 33.84], [-95.83, 33.84], [-95.82, 33.84], [-95.82, 33.86], [-95.8, 33.86], [-95.79, 33.86], [-95.77, 33.84], [-95.76, 33.85], [-95.75, 33.86], [-95.76, 33.87], [-95.76, 33.88], [-95.76, 33.89], [-95.74, 33.9], [-95.73, 33.89], [-95.71, 33.88], [-95.7, 33.89], [-95.68, 33.89], [-95.67, 33.91], [-95.66, 33.91], [-95.64, 33.91], [-95.62, 33.92], [-95.6, 33.93], [-95.6, 33.94], [-95.59, 33.93], [-95.56, 33.93], [-95.56, 33.93], [-95.55, 33.91], [-95.55, 33.89], [-95.55, 33.88], [-95.53, 33.88], [-95.51, 33.89], [-95.51, 33.89], [-95.51, 33.88], [-95.49, 33.87], [-95.48, 33.88], [-95.47, 33.89], [-95.46, 33.88], [-95.46, 33.87], [-95.45, 33.87], [-95.44, 33.87], [-95.41, 33.87], [-95.38, 33.87], [-95.35, 33.87], [-95.34, 33.87], [-95.33, 33.89], [-95.31, 33.88], [-95.3, 33.87], [-95.28, 33.88], [-95.28, 33.89], [-95.29, 33.9], [-95.28, 33.91], [-95.27, 33.91], [-95.27, 33.89], [-95.26, 33.89], [-95.25, 33.89], [-95.25, 33.92], [-95.25, 33.93], [-95.25, 33.94], [-95.23, 33.95], [-95.23, 33.96], [-95.22, 33.96], [-95.19, 33.95], [-95.17, 33.94], [-95.15, 33.94], [-95.13, 33.94], [-95.12, 33.93], [-95.12, 33.93], [-95.13, 33.92], [-95.13, 33.91], [-95.12, 33.9], [-95.11, 33.91], [-95.09, 33.92], [-95.08, 33.92], [-95.08, 33.91], [-95.1, 33.89], [-95.09, 33.88], [-95.08, 33.89], [-95.08, 33.91], [-95.07, 33.92], [-95.06, 33.91], [-95.07, 33.9], [-95.06, 33.9], [-95.06, 33.89], [-95.05, 33.88], [-95.05, 33.86], [-95.04, 33.86], [-95.02, 33.86], [-95.01, 33.87], [-95.0, 33.86], [-94.99, 33.85], [-94.98, 33.85], [-94.98, 33.86], [-94.97, 33.86], [-94.96, 33.84], [-94.94, 33.83], [-94.95, 33.82], [-94.94, 33.81], [-94.92, 33.81], [-94.93, 33.83], [-94.92, 33.83], [-94.91, 33.82], [-94.92, 33.81], [-94.92, 33.79], [-94.91, 33.78], [-94.91, 33.78], [-94.88, 33.76], [-94.87, 33.75], [-94.85, 33.74], [-94.83, 33.74], [-94.82, 33.75], [-94.83, 33.76], [-94.82, 33.77], [-94.82, 33.76], [-94.81, 33.75], [-94.82, 33.74], [-94.8, 33.73], [-94.78, 33.74], [-94.78, 33.76], [-94.77, 33.76], [-94.76, 33.76], [-94.76, 33.75], [-94.78, 33.75], [-94.79, 33.74], [-94.77, 33.73], [-94.76, 33.73], [-94.75, 33.73], [-94.75, 33.73], [-94.73, 33.72], [-94.74, 33.72], [-94.75, 33.71], [-94.75, 33.7], [-94.74, 33.7], [-94.74, 33.69], [-94.72, 33.69], [-94.72, 33.69], [-94.72, 33.7], [-94.73, 33.71], [-94.73, 33.71], [-94.71, 33.71], [-94.7, 33.7], [-94.71, 33.7], [-94.72, 33.69], [-94.68, 33.68], [-94.67, 33.69], [-94.66, 33.69], [-94.65, 33.7], [-94.65, 33.69], [-94.65, 33.67], [-94.66, 33.68], [-94.67, 33.67], [-94.66, 33.66], [-94.64, 33.66], [-94.63, 33.68], [-94.62, 33.68], [-94.61, 33.67], [-94.6, 33.66], [-94.59, 33.67], [-94.59, 33.69], [-94.58, 33.68], [-94.58, 33.67], [-94.56, 33.67], [-94.56, 33.66], [-94.58, 33.66], [-94.59, 33.65], [-94.58, 33.65], [-94.56, 33.66], [-94.55, 33.66], [-94.54, 33.65], [-94.55, 33.64], [-94.56, 33.64], [-94.57, 33.63], [-94.56, 33.63], [-94.55, 33.63], [-94.54, 33.64], [-94.53, 33.64], [-94.52, 33.64], [-94.54, 33.63], [-94.53, 33.62], [-94.52, 33.62], [-94.52, 33.63], [-94.51, 33.62], [-94.5, 33.62], [-94.49, 33.63], [-94.49, 33.64], [-94.47, 33.64], [-94.46, 33.65], [-94.45, 33.64], [-94.45, 33.63], [-94.46, 33.63], [-94.45, 33.62], [-94.47, 33.61], [-94.47, 33.6], [-94.46, 33.6], [-94.45, 33.59], [-94.43, 33.59], [-94.41, 33.57], [-94.41, 33.57], [-94.39, 33.57], [-94.39, 33.58], [-94.38, 33.59], [-94.37, 33.59], [-94.37, 33.58], [-94.38, 33.56], [-94.4, 33.56], [-94.39, 33.55], [-94.38, 33.54], [-94.37, 33.55], [-94.35, 33.54], [-94.35, 33.55], [-94.35, 33.56], [-94.35, 33.57], [-94.33, 33.56], [-94.33, 33.55], [-94.32, 33.55], [-94.31, 33.55], [-94.3, 33.58], [-94.29, 33.58], [-94.28, 33.57], [-94.29, 33.57], [-94.29, 33.56], [-94.27, 33.56], [-94.27, 33.57], [-94.26, 33.58], [-94.25, 33.59], [-94.24, 33.59], [-94.24, 33.58], [-94.25, 33.57], [-94.25, 33.56], [-94.24, 33.55], [-94.23, 33.55], [-94.21, 33.56], [-94.2, 33.57], [-94.2, 33.56], [-94.19, 33.56], [-94.19, 33.57], [-94.2, 33.58], [-94.18, 33.59], [-94.16, 33.59], [-94.16, 33.58], [-94.15, 33.58], [-94.14, 33.57], [-94.13, 33.57], [-94.13, 33.55], [-94.12, 33.55], [-94.12, 33.57], [-94.11, 33.57], [-94.1, 33.57], [-94.08, 33.58], [-94.07, 33.57], [-94.07, 33.56], [-94.07, 33.55], [-94.06, 33.55], [-94.04, 33.55], [-94.04, 33.38], [-94.04, 33.19], [-94.04, 33.02], [-94.04, 32.92], [-94.04, 32.87], [-94.04, 32.87], [-94.04, 32.77], [-94.04, 32.67], [-94.04, 32.6], [-94.04, 32.55], [-94.04, 32.39], [-94.04, 32.18], [-94.04, 32.0], [-94.04, 31.99], [-94.03, 32.0], [-94.02, 31.99], [-94.02, 31.98], [-94.01, 31.97], [-94.0, 31.96], [-93.98, 31.94], [-93.98, 31.93], [-93.97, 31.92], [-93.96, 31.92], [-93.95, 31.91], [-93.94, 31.91], [-93.93, 31.91], [-93.92, 31.91], [-93.93, 31.89], [-93.92, 31.89], [-93.9, 31.9], [-93.9, 31.89], [-93.9, 31.88], [-93.89, 31.87], [-93.88, 31.87], [-93.89, 31.86], [-93.88, 31.85], [-93.88, 31.84], [-93.87, 31.84], [-93.87, 31.82], [-93.85, 31.81], [-93.84, 31.8], [-93.84, 31.79], [-93.82, 31.77], [-93.83, 31.75], [-93.84, 31.75], [-93.82, 31.73], [-93.82, 31.73], [-93.81, 31.71], [-93.81, 31.7], [-93.79, 31.7], [-93.81, 31.68], [-93.82, 31.67], [-93.83, 31.66], [-93.82, 31.65], [-93.82, 31.64], [-93.82, 31.63], [-93.82, 31.62], [-93.83, 31.62], [-93.84, 31.6], [-93.83, 31.59], [-93.82, 31.57], [-93.82, 31.56], [-93.8, 31.54], [-93.8, 31.54], [-93.79, 31.53], [-93.76, 31.52], [-93.75, 31.53], [-93.74, 31.53], [-93.74, 31.51], [-93.71, 31.51], [-93.72, 31.51], [-93.72, 31.49], [-93.74, 31.48], [-93.75, 31.47], [-93.72, 31.45], [-93.72, 31.46], [-93.7, 31.45], [-93.71, 31.44], [-93.69, 31.44], [-93.7, 31.42], [-93.7, 31.41], [-93.69, 31.41], [-93.68, 31.4], [-93.67, 31.4], [-93.67, 31.39], [-93.67, 31.37], [-93.64, 31.37], [-93.65, 31.36], [-93.67, 31.35], [-93.67, 31.34], [-93.68, 31.33], [-93.67, 31.32], [-93.68, 31.32], [-93.69, 31.31], [-93.68, 31.3], [-93.67, 31.3], [-93.66, 31.28], [-93.65, 31.28], [-93.64, 31.27], [-93.62, 31.27], [-93.61, 31.26], [-93.62, 31.23], [-93.61, 31.23], [-93.6, 31.22], [-93.61, 31.2], [-93.6, 31.2], [-93.6, 31.18], [-93.59, 31.17], [-93.58, 31.17], [-93.57, 31.18], [-93.55, 31.19], [-93.53, 31.19], [-93.53, 31.18], [-93.54, 31.17], [-93.54, 31.16], [-93.55, 31.16], [-93.54, 31.14], [-93.54, 31.13], [-93.54, 31.12], [-93.55, 31.11], [-93.55, 31.1], [-93.56, 31.09], [-93.55, 31.09], [-93.55, 31.08], [-93.53, 31.07], [-93.52, 31.07], [-93.52, 31.06], [-93.53, 31.06], [-93.52, 31.04], [-93.51, 31.03], [-93.52, 31.02], [-93.53, 31.02], [-93.54, 31.01], [-93.55, 31.01], [-93.56, 31.0], [-93.57, 31.01], [-93.58, 31.0], [-93.57, 30.99], [-93.57, 30.99], [-93.57, 30.97], [-93.56, 30.97], [-93.55, 30.96], [-93.54, 30.96], [-93.53, 30.96], [-93.53, 30.95], [-93.53, 30.94], [-93.53, 30.93], [-93.54, 30.92], [-93.55, 30.93], [-93.56, 30.91], [-93.55, 30.91], [-93.55, 30.9], [-93.57, 30.89], [-93.57, 30.88], [-93.57, 30.88], [-93.56, 30.87], [-93.56, 30.86], [-93.56, 30.85], [-93.56, 30.85], [-93.55, 30.84], [-93.55, 30.82], [-93.56, 30.82], [-93.57, 30.8], [-93.58, 30.8], [-93.58, 30.79], [-93.59, 30.79], [-93.59, 30.77], [-93.59, 30.76], [-93.61, 30.75], [-93.61, 30.75], [-93.62, 30.74], [-93.61, 30.73], [-93.61, 30.72], [-93.62, 30.7], [-93.62, 30.7], [-93.63, 30.68], [-93.65, 30.67], [-93.65, 30.67], [-93.66, 30.66], [-93.68, 30.64], [-93.69, 30.63], [-93.68, 30.62], [-93.68, 30.61], [-93.68, 30.6], [-93.69, 30.59], [-93.69, 30.59], [-93.7, 30.59], [-93.71, 30.59], [-93.71, 30.58], [-93.73, 30.57], [-93.72, 30.56], [-93.73, 30.55], [-93.73, 30.54], [-93.73, 30.53], [-93.71, 30.52], [-93.71, 30.51], [-93.71, 30.5], [-93.72, 30.49], [-93.72, 30.48], [-93.71, 30.47], [-93.7, 30.46], [-93.7, 30.44], [-93.7, 30.44], [-93.71, 30.43], [-93.72, 30.42], [-93.75, 30.4], [-93.76, 30.39], [-93.76, 30.38], [-93.76, 30.36], [-93.77, 30.34], [-93.76, 30.33], [-93.76, 30.33], [-93.74, 30.3], [-93.73, 30.3], [-93.71, 30.29], [-93.7, 30.28], [-93.71, 30.27], [-93.7, 30.26], [-93.71, 30.24], [-93.71, 30.23], [-93.71, 30.23], [-93.72, 30.21], [-93.71, 30.19], [-93.71, 30.18], [-93.7, 30.17], [-93.71, 30.16], [-93.7, 30.15], [-93.69, 30.14], [-93.7, 30.14], [-93.7, 30.13], [-93.7, 30.11], [-93.72, 30.09], [-93.72, 30.08], [-93.73, 30.08], [-93.72, 30.07], [-93.7, 30.07], [-93.7, 30.06], [-93.72, 30.05], [-93.74, 30.04], [-93.74, 30.02], [-93.76, 30.02], [-93.77, 30.0], [-93.78, 29.99], [-93.79, 29.99], [-93.8, 29.97], [-93.81, 29.96], [-93.81, 29.95], [-93.82, 29.92], [-93.83, 29.89], [-93.84, 29.88], [-93.86, 29.86], [-93.9, 29.84], [-93.92, 29.82], [-93.93, 29.81], [-93.93, 29.8], [-93.92, 29.79], [-93.9, 29.77], [-93.89, 29.77], [-93.89, 29.75], [-93.89, 29.74], [-93.87, 29.74], [-93.86, 29.72], [-93.84, 29.69], [-93.84, 29.68], [-93.86, 29.68], [-93.95, 29.68], [-93.98, 29.68], [-94.01, 29.68], [-94.04, 29.67], [-94.09, 29.66], [-94.14, 29.64], [-94.27, 29.59], [-94.33, 29.57], [-94.42, 29.54], [-94.46, 29.52], [-94.5, 29.51], [-94.49, 29.52], [-94.48, 29.53], [-94.47, 29.55], [-94.47, 29.55], [-94.47, 29.56], [-94.5, 29.55], [-94.5, 29.54], [-94.52, 29.54], [-94.53, 29.56], [-94.54, 29.56], [-94.55, 29.57], [-94.57, 29.57], [-94.59, 29.56], [-94.62, 29.55], [-94.66, 29.55], [-94.69, 29.54], [-94.71, 29.54], [-94.74, 29.53], [-94.76, 29.52], [-94.78, 29.53], [-94.79, 29.55], [-94.78, 29.55], [-94.77, 29.54], [-94.76, 29.54], [-94.75, 29.55], [-94.75, 29.56], [-94.74, 29.58], [-94.71, 29.63], [-94.7, 29.65], [-94.7, 29.68], [-94.69, 29.7], [-94.69, 29.71], [-94.69, 29.73], [-94.69, 29.75], [-94.71, 29.76], [-94.72, 29.76], [-94.72, 29.77], [-94.73, 29.79], [-94.74, 29.79], [-94.76, 29.78], [-94.79, 29.76], [-94.81, 29.76], [-94.85, 29.72], [-94.87, 29.7], [-94.87, 29.68], [-94.87, 29.67], [-94.89, 29.66], [-94.91, 29.66], [-94.92, 29.66], [-94.93, 29.68], [-94.94, 29.69], [-94.94, 29.7], [-94.97, 29.7], [-94.98, 29.69], [-94.98, 29.68], [-95.0, 29.66], [-95.01, 29.64], [-95.02, 29.63], [-95.01, 29.62], [-94.99, 29.61], [-94.98, 29.6], [-94.99, 29.59], [-95.01, 29.58], [-95.02, 29.55], [-95.01, 29.54], [-95.0, 29.53], [-94.98, 29.51], [-94.96, 29.51], [-94.91, 29.5], [-94.93, 29.47], [-94.93, 29.48], [-94.95, 29.48], [-94.95, 29.47], [-94.93, 29.45], [-94.89, 29.43], [-94.89, 29.39], [-94.89, 29.37], [-94.89, 29.36], [-94.9, 29.34], [-94.9, 29.33], [-94.89, 29.33], [-94.89, 29.31], [-94.9, 29.3], [-94.91, 29.31], [-94.94, 29.31], [-94.95, 29.3], [-94.96, 29.29], [-94.98, 29.28], [-95.0, 29.28], [-95.0, 29.27], [-94.99, 29.26], [-95.01, 29.24], [-95.03, 29.23], [-95.04, 29.21], [-95.07, 29.19], [-95.1, 29.18], [-95.11, 29.18], [-95.11, 29.2], [-95.12, 29.2], [-95.14, 29.19], [-95.15, 29.2], [-95.16, 29.2], [-95.17, 29.2], [-95.18, 29.21], [-95.19, 29.21], [-95.2, 29.21], [-95.19, 29.2], [-95.18, 29.19], [-95.16, 29.19], [-95.15, 29.18], [-95.15, 29.17], [-95.15, 29.15], [-95.17, 29.12], [-95.17, 29.11], [-95.19, 29.11], [-95.19, 29.1], [-95.2, 29.1], [-95.19, 29.08], [-95.18, 29.08], [-95.2, 29.07], [-95.22, 29.05], [-95.22, 29.04], [-95.21, 29.03], [-95.22, 29.02], [-95.21, 29.02], [-95.2, 29.03], [-95.19, 29.04], [-95.17, 29.05], [-95.16, 29.06], [-95.16, 29.07], [-95.14, 29.07], [-95.14, 29.07], [-95.13, 29.08], [-95.12, 29.08], [-95.12, 29.07], [-95.14, 29.06], [-95.18, 29.03], [-95.21, 29.01], [-95.25, 28.98], [-95.28, 28.96], [-95.29, 28.94], [-95.32, 28.92], [-95.37, 28.88], [-95.38, 28.86], [-95.39, 28.86], [-95.41, 28.86], [-95.44, 28.86], [-95.45, 28.85], [-95.47, 28.84], [-95.51, 28.82], [-95.56, 28.8], [-95.65, 28.75], [-95.7, 28.73], [-95.7, 28.73], [-95.68, 28.74], [-95.67, 28.75], [-95.66, 28.75], [-95.66, 28.76], [-95.67, 28.76], [-95.67, 28.76], [-95.7, 28.75], [-95.72, 28.74], [-95.74, 28.74], [-95.75, 28.75], [-95.77, 28.74], [-95.78, 28.75], [-95.81, 28.74], [-95.89, 28.72], [-95.89, 28.71], [-95.92, 28.7], [-95.94, 28.69], [-95.95, 28.68], [-95.94, 28.67], [-95.95, 28.65], [-95.96, 28.63], [-95.96, 28.63], [-95.94, 28.63], [-95.93, 28.63], [-95.92, 28.64], [-95.91, 28.64], [-95.89, 28.64], [-95.88, 28.65], [-95.87, 28.65], [-95.87, 28.66], [-95.86, 28.66], [-95.84, 28.67], [-95.83, 28.68], [-95.79, 28.69], [-95.79, 28.7], [-95.77, 28.7], [-95.74, 28.72], [-95.71, 28.73], [-95.7, 28.73], [-95.74, 28.7], [-95.81, 28.66], [-95.85, 28.65], [-95.89, 28.63], [-95.98, 28.6], [-95.97, 28.62], [-95.98, 28.62], [-95.98, 28.63], [-95.99, 28.65], [-95.98, 28.65], [-96.0, 28.65], [-96.0, 28.65], [-96.01, 28.64], [-96.03, 28.65], [-96.04, 28.65], [-96.06, 28.64], [-96.07, 28.63], [-96.08, 28.63], [-96.1, 28.62], [-96.13, 28.62], [-96.16, 28.61], [-96.18, 28.6], [-96.21, 28.58], [-96.23, 28.58], [-96.24, 28.6], [-96.22, 28.61], [-96.21, 28.62], [-96.21, 28.63], [-96.23, 28.64], [-96.22, 28.65], [-96.21, 28.66], [-96.22, 28.66], [-96.19, 28.69], [-96.19, 28.7], [-96.18, 28.71], [-96.18, 28.72], [-96.19, 28.72], [-96.19, 28.73], [-96.17, 28.74], [-96.18, 28.75], [-96.19, 28.74], [-96.2, 28.74], [-96.21, 28.73], [-96.2, 28.71], [-96.21, 28.71], [-96.21, 28.7], [-96.22, 28.7], [-96.24, 28.69], [-96.26, 28.68], [-96.26, 28.7], [-96.25, 28.7], [-96.26, 28.72], [-96.26, 28.71], [-96.26, 28.71], [-96.27, 28.7], [-96.26, 28.69], [-96.29, 28.68], [-96.3, 28.68], [-96.31, 28.67], [-96.3, 28.65], [-96.33, 28.64], [-96.35, 28.64], [-96.36, 28.63], [-96.36, 28.65], [-96.36, 28.66], [-96.37, 28.66], [-96.39, 28.67], [-96.4, 28.68], [-96.39, 28.69], [-96.39, 28.7], [-96.39, 28.71], [-96.39, 28.72], [-96.39, 28.73], [-96.4, 28.74], [-96.42, 28.73], [-96.42, 28.72], [-96.43, 28.72], [-96.43, 28.73], [-96.44, 28.73], [-96.44, 28.72], [-96.43, 28.71], [-96.42, 28.71], [-96.41, 28.72], [-96.41, 28.69], [-96.42, 28.68], [-96.42, 28.68], [-96.41, 28.67], [-96.41, 28.66], [-96.42, 28.65], [-96.42, 28.64], [-96.39, 28.63], [-96.4, 28.62], [-96.38, 28.62], [-96.42, 28.6], [-96.47, 28.57], [-96.48, 28.57], [-96.48, 28.59], [-96.47, 28.59], [-96.47, 28.58], [-96.46, 28.58], [-96.45, 28.59], [-96.44, 28.6], [-96.44, 28.61], [-96.45, 28.63], [-96.45, 28.63], [-96.46, 28.64], [-96.47, 28.63], [-96.48, 28.61], [-96.5, 28.62], [-96.5, 28.62], [-96.5, 28.63], [-96.51, 28.64], [-96.51, 28.65], [-96.52, 28.65], [-96.52, 28.64], [-96.54, 28.64], [-96.56, 28.65], [-96.57, 28.66], [-96.57, 28.67], [-96.56, 28.69], [-96.58, 28.7], [-96.58, 28.71], [-96.59, 28.73], [-96.59, 28.72], [-96.61, 28.72], [-96.63, 28.72], [-96.64, 28.71], [-96.66, 28.7], [-96.66, 28.69], [-96.64, 28.67], [-96.63, 28.66], [-96.62, 28.65], [-96.61, 28.64], [-96.62, 28.62], [-96.62, 28.62], [-96.61, 28.6], [-96.61, 28.59], [-96.62, 28.58], [-96.64, 28.58], [-96.63, 28.57], [-96.62, 28.57], [-96.6, 28.57], [-96.59, 28.57], [-96.59, 28.58], [-96.57, 28.58], [-96.56, 28.57], [-96.53, 28.56], [-96.52, 28.56], [-96.51, 28.53], [-96.47, 28.5], [-96.46, 28.5], [-96.44, 28.48], [-96.44, 28.47], [-96.43, 28.47], [-96.41, 28.46], [-96.4, 28.45], [-96.4, 28.44], [-96.43, 28.43], [-96.51, 28.4], [-96.52, 28.39], [-96.53, 28.39], [-96.54, 28.39], [-96.56, 28.38], [-96.57, 28.37], [-96.6, 28.36], [-96.62, 28.35], [-96.63, 28.36], [-96.65, 28.35], [-96.65, 28.36], [-96.66, 28.36], [-96.66, 28.35], [-96.67, 28.33], [-96.69, 28.35], [-96.7, 28.34], [-96.71, 28.35], [-96.7, 28.36], [-96.7, 28.38], [-96.71, 28.39], [-96.71, 28.41], [-96.75, 28.41], [-96.75, 28.42], [-96.75, 28.43], [-96.76, 28.44], [-96.78, 28.45], [-96.79, 28.47], [-96.79, 28.48], [-96.8, 28.48], [-96.83, 28.47], [-96.83, 28.45], [-96.82, 28.45], [-96.8, 28.46], [-96.79, 28.46], [-96.79, 28.45], [-96.77, 28.43], [-96.76, 28.41], [-96.79, 28.4], [-96.82, 28.43], [-96.84, 28.43], [-96.85, 28.43], [-96.86, 28.42], [-96.86, 28.41], [-96.85, 28.4], [-96.83, 28.38], [-96.81, 28.37], [-96.8, 28.36], [-96.79, 28.36], [-96.79, 28.34], [-96.79, 28.32], [-96.79, 28.31], [-96.81, 28.29], [-96.81, 28.29], [-96.8, 28.28], [-96.8, 28.27], [-96.79, 28.26], [-96.79, 28.25], [-96.8, 28.22], [-96.81, 28.22], [-96.83, 28.2], [-96.85, 28.19], [-96.87, 28.17], [-96.89, 28.16], [-96.91, 28.15], [-96.93, 28.12], [-96.96, 28.12], [-96.95, 28.14], [-96.95, 28.15], [-96.95, 28.17], [-96.94, 28.17], [-96.94, 28.18], [-96.93, 28.19], [-96.92, 28.2], [-96.93, 28.21], [-96.94, 28.22], [-96.93, 28.23], [-96.91, 28.26], [-96.91, 28.27], [-96.93, 28.26], [-96.93, 28.25], [-96.94, 28.25], [-96.95, 28.24], [-96.95, 28.23], [-96.97, 28.22], [-96.95, 28.2], [-96.95, 28.18], [-96.97, 28.17], [-96.97, 28.16], [-96.97, 28.15], [-96.97, 28.15], [-96.98, 28.13], [-96.99, 28.13], [-97.0, 28.14], [-97.01, 28.14], [-97.02, 28.15], [-97.01, 28.16], [-97.02, 28.16], [-97.02, 28.17], [-97.02, 28.18], [-97.01, 28.18], [-97.01, 28.19], [-97.01, 28.2], [-97.02, 28.2], [-97.03, 28.19], [-97.05, 28.18], [-97.09, 28.17], [-97.11, 28.16], [-97.13, 28.15], [-97.14, 28.14], [-97.14, 28.17], [-97.15, 28.17], [-97.16, 28.17], [-97.18, 28.16], [-97.18, 28.15], [-97.17, 28.13], [-97.18, 28.12], [-97.21, 28.1], [-97.22, 28.08], [-97.23, 28.08], [-97.24, 28.06], [-97.22, 28.06], [-97.22, 28.07], [-97.21, 28.07], [-97.19, 28.06], [-97.18, 28.06], [-97.18, 28.05], [-97.16, 28.05], [-97.16, 28.04], [-97.15, 28.03], [-97.15, 28.02], [-97.16, 28.02], [-97.16, 28.01], [-97.17, 28.0], [-97.17, 28.0], [-97.18, 27.98], [-97.17, 27.98], [-97.17, 27.99], [-97.16, 28.0], [-97.15, 28.0], [-97.15, 28.01], [-97.14, 28.03], [-97.12, 28.03], [-97.13, 28.05], [-97.11, 28.06], [-97.11, 28.07], [-97.1, 28.08], [-97.08, 28.08], [-97.06, 28.09], [-97.05, 28.1], [-97.05, 28.11], [-97.04, 28.12], [-97.02, 28.11], [-97.02, 28.1], [-97.03, 28.09], [-97.04, 28.08], [-97.03, 28.07], [-97.03, 28.04], [-97.05, 28.03], [-97.04, 28.03], [-97.05, 28.02], [-97.06, 28.0], [-97.07, 28.0], [-97.08, 27.99], [-97.08, 27.98], [-97.11, 27.94], [-97.13, 27.91], [-97.13, 27.9], [-97.14, 27.9], [-97.16, 27.87], [-97.17, 27.86], [-97.17, 27.86], [-97.19, 27.83], [-97.2, 27.82], [-97.21, 27.82], [-97.22, 27.83], [-97.22, 27.84], [-97.24, 27.85], [-97.25, 27.88], [-97.27, 27.88], [-97.31, 27.87], [-97.32, 27.87], [-97.35, 27.85], [-97.36, 27.86], [-97.33, 27.87], [-97.34, 27.88], [-97.35, 27.88], [-97.37, 27.88], [-97.41, 27.87], [-97.42, 27.87], [-97.45, 27.87], [-97.46, 27.86], [-97.48, 27.86], [-97.48, 27.87], [-97.49, 27.88], [-97.51, 27.88], [-97.53, 27.87], [-97.55, 27.87], [-97.55, 27.87], [-97.52, 27.85], [-97.5, 27.85], [-97.49, 27.84], [-97.49, 27.83], [-97.48, 27.83], [-97.46, 27.82], [-97.45, 27.83], [-97.44, 27.83], [-97.44, 27.83], [-97.42, 27.82], [-97.41, 27.83], [-97.39, 27.84], [-97.38, 27.83], [-97.39, 27.81], [-97.39, 27.8], [-97.39, 27.79], [-97.39, 27.79], [-97.39, 27.77], [-97.38, 27.76], [-97.37, 27.75], [-97.37, 27.74], [-97.35, 27.73], [-97.33, 27.72], [-97.31, 27.71], [-97.28, 27.7], [-97.25, 27.7], [-97.26, 27.68], [-97.27, 27.67], [-97.28, 27.65], [-97.29, 27.64], [-97.29, 27.63], [-97.3, 27.62], [-97.3, 27.6], [-97.29, 27.59], [-97.32, 27.57], [-97.34, 27.52], [-97.34, 27.51], [-97.35, 27.48], [-97.37, 27.44], [-97.37, 27.43], [-97.37, 27.41], [-97.38, 27.38], [-97.4, 27.35], [-97.4, 27.35], [-97.4, 27.33], [-97.41, 27.32], [-97.42, 27.32], [-97.43, 27.31], [-97.45, 27.31], [-97.47, 27.3], [-97.49, 27.29], [-97.51, 27.27], [-97.51, 27.28], [-97.53, 27.28], [-97.54, 27.28], [-97.53, 27.29], [-97.52, 27.31], [-97.5, 27.3], [-97.5, 27.31], [-97.5, 27.33], [-97.48, 27.33], [-97.48, 27.35], [-97.48, 27.36], [-97.48, 27.37], [-97.49, 27.38], [-97.48, 27.39], [-97.47, 27.39], [-97.47, 27.4], [-97.47, 27.41], [-97.48, 27.42], [-97.48, 27.43], [-97.48, 27.43], [-97.48, 27.45], [-97.49, 27.44], [-97.49, 27.43], [-97.49, 27.43], [-97.51, 27.43], [-97.53, 27.43], [-97.53, 27.41], [-97.52, 27.42], [-97.5, 27.42], [-97.5, 27.41], [-97.49, 27.41], [-97.47, 27.4], [-97.48, 27.39], [-97.49, 27.39], [-97.5, 27.38], [-97.5, 27.37], [-97.52, 27.37], [-97.51, 27.36], [-97.52, 27.35], [-97.53, 27.35], [-97.53, 27.34], [-97.56, 27.32], [-97.58, 27.31], [-97.61, 27.29], [-97.61, 27.29], [-97.63, 27.3], [-97.63, 27.31], [-97.63, 27.32], [-97.65, 27.32], [-97.65, 27.33], [-97.66, 27.34], [-97.67, 27.35], [-97.66, 27.36], [-97.66, 27.36], [-97.68, 27.37], [-97.68, 27.38], [-97.7, 27.38], [-97.7, 27.39], [-97.71, 27.4], [-97.72, 27.41], [-97.73, 27.41], [-97.73, 27.42], [-97.75, 27.43], [-97.76, 27.43], [-97.73, 27.42], [-97.74, 27.41], [-97.72, 27.39], [-97.72, 27.38], [-97.73, 27.37], [-97.71, 27.37], [-97.7, 27.37], [-97.7, 27.36], [-97.69, 27.34], [-97.69, 27.33], [-97.68, 27.32], [-97.67, 27.31], [-97.65, 27.3], [-97.66, 27.29], [-97.68, 27.28], [-97.68, 27.28], [-97.7, 27.27], [-97.71, 27.28], [-97.73, 27.27], [-97.73, 27.27], [-97.73, 27.28], [-97.75, 27.28], [-97.76, 27.29], [-97.77, 27.28], [-97.76, 27.28], [-97.74, 27.27], [-97.74, 27.27], [-97.73, 27.26], [-97.7, 27.27], [-97.68, 27.27], [-97.65, 27.28], [-97.64, 27.27], [-97.64, 27.26], [-97.63, 27.25], [-97.63, 27.24], [-97.6, 27.24], [-97.57, 27.24], [-97.55, 27.23], [-97.53, 27.23], [-97.51, 27.23], [-97.5, 27.25], [-97.47, 27.25], [-97.46, 27.26], [-97.44, 27.26], [-97.42, 27.26], [-97.42, 27.25], [-97.44, 27.18], [-97.44, 27.18], [-97.45, 27.16], [-97.45, 27.16], [-97.45, 27.14], [-97.45, 27.14], [-97.45, 27.13], [-97.45, 27.12], [-97.46, 27.1], [-97.47, 27.1], [-97.49, 27.11], [-97.5, 27.1], [-97.49, 27.09], [-97.5, 27.08], [-97.48, 27.07], [-97.5, 27.05], [-97.49, 27.05], [-97.49, 27.04], [-97.48, 27.03], [-97.48, 27.01], [-97.49, 27.0], [-97.51, 27.0], [-97.52, 27.0], [-97.54, 27.0], [-97.56, 26.99], [-97.55, 26.98], [-97.56, 26.97], [-97.57, 26.96], [-97.55, 26.96], [-97.55, 26.95], [-97.56, 26.94], [-97.55, 26.93], [-97.55, 26.92], [-97.54, 26.91], [-97.54, 26.9], [-97.55, 26.9], [-97.56, 26.87], [-97.56, 26.86], [-97.56, 26.85], [-97.56, 26.84], [-97.55, 26.83], [-97.55, 26.82], [-97.53, 26.82], [-97.52, 26.81], [-97.51, 26.8], [-97.5, 26.79], [-97.49, 26.77], [-97.49, 26.78], [-97.48, 26.76], [-97.47, 26.75], [-97.47, 26.72], [-97.47, 26.71], [-97.46, 26.67], [-97.46, 26.67], [-97.45, 26.64], [-97.45, 26.6], [-97.44, 26.6], [-97.44, 26.58], [-97.43, 26.58], [-97.43, 26.57], [-97.42, 26.55], [-97.42, 26.53], [-97.43, 26.52], [-97.43, 26.51], [-97.43, 26.5], [-97.44, 26.49], [-97.43, 26.49], [-97.43, 26.48], [-97.44, 26.47], [-97.45, 26.46], [-97.47, 26.47], [-97.47, 26.46], [-97.47, 26.45], [-97.45, 26.44], [-97.45, 26.45], [-97.43, 26.45], [-97.44, 26.44], [-97.43, 26.44], [-97.43, 26.42], [-97.45, 26.4], [-97.44, 26.4], [-97.43, 26.41], [-97.42, 26.42], [-97.41, 26.41], [-97.41, 26.41], [-97.41, 26.4], [-97.41, 26.39], [-97.41, 26.39], [-97.4, 26.36], [-97.41, 26.36], [-97.4, 26.35], [-97.39, 26.36], [-97.39, 26.35], [-97.38, 26.35], [-97.37, 26.35], [-97.36, 26.35], [-97.35, 26.35], [-97.37, 26.34], [-97.36, 26.33], [-97.35, 26.32], [-97.34, 26.33], [-97.34, 26.35], [-97.33, 26.35], [-97.33, 26.33], [-97.34, 26.33], [-97.35, 26.31], [-97.35, 26.31], [-97.35, 26.29], [-97.34, 26.28], [-97.35, 26.27], [-97.32, 26.26], [-97.33, 26.25], [-97.33, 26.25], [-97.33, 26.22], [-97.31, 26.22], [-97.3, 26.2], [-97.3, 26.2], [-97.3, 26.18], [-97.3, 26.17], [-97.31, 26.15], [-97.3, 26.15], [-97.29, 26.14], [-97.29, 26.13], [-97.3, 26.13], [-97.31, 26.13], [-97.31, 26.12], [-97.3, 26.12], [-97.3, 26.11], [-97.28, 26.09], [-97.27, 26.09], [-97.25, 26.08], [-97.23, 26.08], [-97.21, 26.08], [-97.2, 26.08], [-97.22, 26.06], [-97.21, 26.05], [-97.21, 26.04], [-97.22, 26.04], [-97.23, 26.07], [-97.25, 26.07], [-97.26, 26.07], [-97.27, 26.06], [-97.27, 26.05], [-97.26, 26.05], [-97.25, 26.05], [-97.25, 26.07], [-97.24, 26.07], [-97.23, 26.05], [-97.23, 26.04], [-97.23, 26.03], [-97.25, 26.02], [-97.26, 26.01], [-97.25, 26.0], [-97.24, 26.0], [-97.24, 26.0], [-97.22, 26.0], [-97.21, 25.99], [-97.2, 26.0], [-97.19, 25.99], [-97.17, 26.0], [-97.16, 26.01], [-97.15, 26.01], [-97.14, 25.97], [-97.15, 25.96], [-97.16, 25.95], [-97.16, 25.95], [-97.16, 25.96], [-97.17, 25.96], [-97.17, 25.97], [-97.19, 25.96], [-97.23, 25.96], [-97.24, 25.95], [-97.25, 25.95], [-97.28, 25.95], [-97.28, 25.96], [-97.29, 25.96], [-97.28, 25.94], [-97.29, 25.94], [-97.31, 25.93], [-97.32, 25.93], [-97.32, 25.93], [-97.33, 25.92], [-97.34, 25.92], [-97.34, 25.93], [-97.35, 25.93], [-97.36, 25.92], [-97.37, 25.92], [-97.37, 25.91], [-97.37, 25.9], [-97.37, 25.89], [-97.37, 25.88], [-97.36, 25.88], [-97.37, 25.84], [-97.39, 25.84], [-97.39, 25.84], [-97.4, 25.85], [-97.41, 25.84], [-97.43, 25.84], [-97.43, 25.85], [-97.44, 25.85], [-97.45, 25.86], [-97.44, 25.87], [-97.45, 25.88], [-97.46, 25.88], [-97.47, 25.89], [-97.48, 25.88], [-97.49, 25.89], [-97.5, 25.88], [-97.5, 25.9], [-97.51, 25.89], [-97.52, 25.89], [-97.52, 25.9], [-97.53, 25.91], [-97.53, 25.92], [-97.54, 25.92], [-97.55, 25.94], [-97.56, 25.94], [-97.56, 25.93], [-97.58, 25.94], [-97.58, 25.96], [-97.59, 25.96], [-97.6, 25.96], [-97.61, 25.97], [-97.61, 25.97], [-97.62, 25.98], [-97.62, 26.0], [-97.65, 26.01], [-97.64, 26.02], [-97.64, 26.03], [-97.65, 26.02], [-97.66, 26.02], [-97.67, 26.03], [-97.68, 26.03], [-97.68, 26.03], [-97.71, 26.03], [-97.71, 26.03], [-97.72, 26.02], [-97.72, 26.03], [-97.74, 26.03], [-97.75, 26.03], [-97.76, 26.03], [-97.77, 26.04], [-97.78, 26.03], [-97.78, 26.03], [-97.79, 26.04], [-97.8, 26.04], [-97.8, 26.06], [-97.81, 26.06], [-97.83, 26.06], [-97.84, 26.05], [-97.86, 26.05], [-97.88, 26.06], [-97.89, 26.07], [-97.89, 26.06], [-97.9, 26.06], [-97.91, 26.06], [-97.94, 26.05], [-97.95, 26.06], [-97.97, 26.05], [-97.99, 26.07], [-97.99, 26.06], [-98.0, 26.07], [-98.01, 26.07], [-98.02, 26.06], [-98.03, 26.07], [-98.03, 26.06], [-98.04, 26.04], [-98.06, 26.05], [-98.07, 26.05], [-98.08, 26.07], [-98.08, 26.06], [-98.1, 26.06], [-98.1, 26.07], [-98.13, 26.06], [-98.14, 26.06], [-98.14, 26.05], [-98.15, 26.05], [-98.16, 26.06], [-98.17, 26.06], [-98.18, 26.08], [-98.18, 26.07], [-98.19, 26.06], [-98.19, 26.05], [-98.2, 26.06], [-98.22, 26.08], [-98.23, 26.08], [-98.25, 26.07], [-98.25, 26.08], [-98.26, 26.08], [-98.27, 26.09], [-98.28, 26.1], [-98.27, 26.11], [-98.29, 26.12], [-98.31, 26.11], [-98.32, 26.12], [-98.34, 26.14], [-98.33, 26.14], [-98.34, 26.15], [-98.33, 26.17], [-98.35, 26.17], [-98.35, 26.15], [-98.37, 26.17], [-98.37, 26.16], [-98.39, 26.16], [-98.39, 26.17], [-98.4, 26.17], [-98.4, 26.18], [-98.42, 26.18], [-98.43, 26.19], [-98.44, 26.2], [-98.44, 26.21], [-98.45, 26.22], [-98.46, 26.22], [-98.46, 26.23], [-98.47, 26.22], [-98.48, 26.22], [-98.49, 26.21], [-98.51, 26.21], [-98.5, 26.22], [-98.51, 26.23], [-98.52, 26.22], [-98.54, 26.23], [-98.55, 26.23], [-98.56, 26.23], [-98.57, 26.24], [-98.58, 26.24], [-98.58, 26.24], [-98.58, 26.25], [-98.59, 26.26], [-98.6, 26.26], [-98.61, 26.25], [-98.62, 26.26], [-98.63, 26.25], [-98.63, 26.24], [-98.65, 26.24], [-98.66, 26.24], [-98.68, 26.24], [-98.68, 26.25], [-98.68, 26.26], [-98.72, 26.27], [-98.72, 26.28], [-98.7, 26.28], [-98.71, 26.29], [-98.72, 26.29], [-98.72, 26.3], [-98.73, 26.3], [-98.74, 26.29], [-98.75, 26.3], [-98.74, 26.31], [-98.75, 26.32], [-98.75, 26.33], [-98.77, 26.33], [-98.79, 26.33], [-98.79, 26.34], [-98.8, 26.35], [-98.8, 26.36], [-98.81, 26.37], [-98.82, 26.37], [-98.83, 26.37], [-98.84, 26.36], [-98.86, 26.37], [-98.89, 26.36], [-98.9, 26.36], [-98.9, 26.37], [-98.92, 26.37], [-98.92, 26.38], [-98.93, 26.39], [-98.94, 26.37], [-98.94, 26.37], [-98.96, 26.38], [-98.95, 26.39], [-98.96, 26.4], [-98.98, 26.4], [-98.99, 26.39], [-99.01, 26.39], [-99.02, 26.41], [-99.04, 26.41], [-99.05, 26.4], [-99.06, 26.4], [-99.09, 26.4], [-99.09, 26.41], [-99.1, 26.41], [-99.11, 26.43], [-99.11, 26.44], [-99.1, 26.44], [-99.1, 26.46], [-99.09, 26.48], [-99.11, 26.5], [-99.13, 26.53], [-99.14, 26.53], [-99.17, 26.54], [-99.17, 26.55], [-99.17, 26.56], [-99.18, 26.62], [-99.2, 26.66], [-99.21, 26.69], [-99.21, 26.72], [-99.24, 26.75], [-99.24, 26.79], [-99.26, 26.82], [-99.27, 26.84], [-99.28, 26.86], [-99.3, 26.87], [-99.32, 26.87], [-99.33, 26.88], [-99.32, 26.91], [-99.32, 26.92], [-99.34, 26.92], [-99.37, 26.93], [-99.38, 26.93], [-99.39, 26.94], [-99.39, 26.96], [-99.38, 26.97], [-99.38, 26.98], [-99.39, 26.98], [-99.4, 27.0], [-99.42, 27.02], [-99.43, 27.01], [-99.45, 27.02], [-99.44, 27.04], [-99.45, 27.06], [-99.45, 27.07], [-99.43, 27.08], [-99.43, 27.09], [-99.44, 27.11], [-99.43, 27.13], [-99.43, 27.14], [-99.44, 27.15], [-99.43, 27.16], [-99.43, 27.18], [-99.43, 27.2], [-99.43, 27.21], [-99.44, 27.22], [-99.45, 27.23], [-99.44, 27.24], [-99.44, 27.25], [-99.45, 27.26], [-99.47, 27.27], [-99.48, 27.26], [-99.49, 27.26], [-99.5, 27.27], [-99.49, 27.29], [-99.49, 27.29], [-99.5, 27.3], [-99.5, 27.31], [-99.52, 27.3], [-99.53, 27.31], [-99.54, 27.32], [-99.53, 27.32], [-99.52, 27.32], [-99.5, 27.34], [-99.51, 27.35], [-99.5, 27.37], [-99.49, 27.38], [-99.49, 27.39], [-99.49, 27.41], [-99.5, 27.44], [-99.5, 27.45], [-99.49, 27.46], [-99.48, 27.48], [-99.48, 27.49], [-99.5, 27.5], [-99.53, 27.5], [-99.53, 27.51], [-99.52, 27.54], [-99.51, 27.56], [-99.52, 27.57], [-99.53, 27.58], [-99.54, 27.61], [-99.56, 27.61], [-99.56, 27.61], [-99.58, 27.6], [-99.58, 27.62], [-99.59, 27.63], [-99.59, 27.64], [-99.6, 27.64], [-99.61, 27.64], [-99.62, 27.64], [-99.63, 27.64], [-99.63, 27.63], [-99.64, 27.63], [-99.65, 27.63], [-99.67, 27.64], [-99.66, 27.65], [-99.67, 27.66], [-99.69, 27.66], [-99.69, 27.67], [-99.7, 27.66], [-99.7, 27.65], [-99.72, 27.67], [-99.72, 27.67], [-99.74, 27.69], [-99.76, 27.71], [-99.76, 27.72], [-99.77, 27.73], [-99.79, 27.73], [-99.8, 27.74], [-99.81, 27.76], [-99.81, 27.77], [-99.82, 27.77], [-99.83, 27.76], [-99.84, 27.77], [-99.85, 27.79], [-99.87, 27.8], [-99.88, 27.8], [-99.87, 27.81], [-99.88, 27.83], [-99.88, 27.84], [-99.88, 27.85], [-99.89, 27.85], [-99.9, 27.86], [-99.9, 27.88], [-99.89, 27.9], [-99.9, 27.91], [-99.92, 27.92], [-99.93, 27.93], [-99.93, 27.94], [-99.94, 27.94], [-99.94, 27.95], [-99.93, 27.97], [-99.93, 27.98], [-99.96, 27.98], [-99.99, 27.99], [-100.01, 28.02], [-100.01, 28.04], [-100.02, 28.07], [-100.03, 28.07], [-100.05, 28.08], [-100.05, 28.08], [-100.06, 28.09], [-100.06, 28.1], [-100.07, 28.11], [-100.08, 28.13], [-100.09, 28.15], [-100.12, 28.16], [-100.14, 28.17], [-100.16, 28.17], [-100.17, 28.17], [-100.17, 28.18], [-100.2, 28.19], [-100.21, 28.19], [-100.22, 28.22], [-100.22, 28.24], [-100.25, 28.23], [-100.26, 28.24], [-100.27, 28.25], [-100.28, 28.27], [-100.29, 28.28], [-100.29, 28.28], [-100.29, 28.3], [-100.29, 28.32], [-100.31, 28.35], [-100.32, 28.36], [-100.34, 28.38], [-100.35, 28.4], [-100.34, 28.41], [-100.34, 28.43], [-100.34, 28.45], [-100.37, 28.48], [-100.36, 28.48], [-100.34, 28.49], [-100.34, 28.49], [-100.33, 28.5], [-100.36, 28.51], [-100.39, 28.51], [-100.39, 28.53], [-100.41, 28.54], [-100.41, 28.55], [-100.4, 28.58], [-100.4, 28.59], [-100.43, 28.6], [-100.43, 28.61], [-100.45, 28.61], [-100.45, 28.64], [-100.46, 28.64], [-100.47, 28.65], [-100.48, 28.65], [-100.5, 28.66], [-100.51, 28.69], [-100.51, 28.71], [-100.51, 28.72], [-100.51, 28.74], [-100.52, 28.76], [-100.53, 28.76], [-100.53, 28.77], [-100.54, 28.78], [-100.53, 28.79], [-100.54, 28.81], [-100.55, 28.81], [-100.55, 28.82], [-100.56, 28.83], [-100.57, 28.83], [-100.58, 28.84], [-100.57, 28.85], [-100.59, 28.86], [-100.59, 28.87], [-100.6, 28.88], [-100.59, 28.88], [-100.59, 28.89], [-100.6, 28.89], [-100.6, 28.9], [-100.61, 28.9], [-100.62, 28.91], [-100.63, 28.9], [-100.64, 28.91], [-100.63, 28.92], [-100.64, 28.93], [-100.65, 28.95], [-100.65, 28.96], [-100.65, 28.98], [-100.65, 28.99], [-100.65, 29.02], [-100.66, 29.03], [-100.66, 29.05], [-100.66, 29.07], [-100.67, 29.08], [-100.67, 29.1], [-100.68, 29.11], [-100.69, 29.12], [-100.71, 29.12], [-100.73, 29.13], [-100.74, 29.14], [-100.74, 29.15], [-100.75, 29.15], [-100.76, 29.16], [-100.77, 29.17], [-100.78, 29.17], [-100.77, 29.19], [-100.77, 29.2], [-100.78, 29.2], [-100.77, 29.21], [-100.78, 29.23], [-100.8, 29.23], [-100.79, 29.24], [-100.8, 29.25], [-100.81, 29.25], [-100.81, 29.26], [-100.84, 29.26], [-100.85, 29.27], [-100.88, 29.28], [-100.88, 29.3], [-100.89, 29.31], [-100.9, 29.31], [-100.92, 29.32], [-100.92, 29.33], [-100.94, 29.33], [-100.94, 29.34], [-100.95, 29.35], [-100.96, 29.35], [-100.97, 29.35], [-101.01, 29.37], [-101.01, 29.37], [-101.01, 29.38], [-101.02, 29.39], [-101.04, 29.41], [-101.04, 29.43], [-101.06, 29.44], [-101.06, 29.46], [-101.09, 29.47], [-101.1, 29.47], [-101.12, 29.47], [-101.13, 29.48], [-101.14, 29.47], [-101.15, 29.48], [-101.17, 29.5], [-101.17, 29.51], [-101.19, 29.52], [-101.23, 29.52], [-101.24, 29.52], [-101.25, 29.52], [-101.26, 29.54], [-101.25, 29.56], [-101.24, 29.57], [-101.25, 29.6], [-101.25, 29.62], [-101.25, 29.62], [-101.26, 29.63], [-101.27, 29.63], [-101.28, 29.62], [-101.28, 29.61], [-101.28, 29.59], [-101.29, 29.57], [-101.31, 29.58], [-101.31, 29.59], [-101.31, 29.6], [-101.31, 29.62], [-101.3, 29.64], [-101.3, 29.65], [-101.31, 29.66], [-101.35, 29.66], [-101.36, 29.65], [-101.36, 29.65], [-101.37, 29.67], [-101.37, 29.68], [-101.37, 29.69], [-101.38, 29.7], [-101.39, 29.71], [-101.4, 29.72], [-101.4, 29.73], [-101.42, 29.75], [-101.41, 29.75], [-101.4, 29.76], [-101.4, 29.77], [-101.41, 29.77], [-101.44, 29.75], [-101.45, 29.75], [-101.46, 29.77], [-101.46, 29.79], [-101.46, 29.79], [-101.48, 29.78], [-101.49, 29.77], [-101.5, 29.77], [-101.52, 29.77], [-101.53, 29.76], [-101.54, 29.76], [-101.54, 29.79], [-101.54, 29.8], [-101.54, 29.81], [-101.55, 29.8], [-101.57, 29.8], [-101.57, 29.79], [-101.57, 29.77], [-101.58, 29.77], [-101.61, 29.77], [-101.63, 29.77], [-101.64, 29.76], [-101.65, 29.75], [-101.66, 29.77], [-101.67, 29.77], [-101.68, 29.76], [-101.69, 29.77], [-101.71, 29.76], [-101.72, 29.78], [-101.73, 29.77], [-101.74, 29.78], [-101.75, 29.78], [-101.76, 29.78], [-101.77, 29.79], [-101.78, 29.79], [-101.79, 29.78], [-101.81, 29.78], [-101.81, 29.79], [-101.81, 29.79], [-101.8, 29.8], [-101.82, 29.81], [-101.83, 29.81], [-101.82, 29.79], [-101.83, 29.79], [-101.84, 29.79], [-101.85, 29.81], [-101.88, 29.79], [-101.89, 29.8], [-101.91, 29.8], [-101.92, 29.79], [-101.93, 29.79], [-101.94, 29.8], [-101.95, 29.8], [-101.96, 29.8], [-101.96, 29.8], [-101.97, 29.81], [-101.98, 29.81], [-101.98, 29.81], [-101.99, 29.8], [-102.0, 29.81], [-102.01, 29.8], [-102.02, 29.8], [-102.04, 29.8], [-102.04, 29.79], [-102.05, 29.79], [-102.07, 29.79], [-102.09, 29.79], [-102.09, 29.79], [-102.12, 29.79], [-102.12, 29.8], [-102.13, 29.8], [-102.14, 29.8], [-102.15, 29.81], [-102.16, 29.81], [-102.17, 29.83], [-102.18, 29.83], [-102.18, 29.84], [-102.18, 29.85], [-102.19, 29.85], [-102.19, 29.84], [-102.21, 29.84], [-102.22, 29.84], [-102.23, 29.85], [-102.24, 29.85], [-102.24, 29.86], [-102.26, 29.85], [-102.26, 29.86], [-102.26, 29.86], [-102.27, 29.87], [-102.28, 29.86], [-102.29, 29.87], [-102.3, 29.88], [-102.32, 29.88], [-102.32, 29.87], [-102.33, 29.86], [-102.34, 29.87], [-102.35, 29.86], [-102.35, 29.85], [-102.36, 29.84], [-102.36, 29.83], [-102.38, 29.8], [-102.38, 29.79], [-102.39, 29.78], [-102.39, 29.77], [-102.41, 29.76], [-102.42, 29.77], [-102.43, 29.78], [-102.44, 29.77], [-102.45, 29.78], [-102.46, 29.77], [-102.47, 29.78], [-102.47, 29.78], [-102.48, 29.78], [-102.49, 29.79], [-102.5, 29.78], [-102.51, 29.78], [-102.51, 29.77], [-102.51, 29.77], [-102.54, 29.75], [-102.55, 29.74], [-102.56, 29.77], [-102.57, 29.77], [-102.57, 29.76], [-102.59, 29.75], [-102.6, 29.75], [-102.61, 29.75], [-102.62, 29.74], [-102.65, 29.73], [-102.66, 29.74], [-102.67, 29.75], [-102.67, 29.74], [-102.68, 29.73], [-102.69, 29.72], [-102.69, 29.7], [-102.7, 29.7], [-102.7, 29.68], [-102.69, 29.68], [-102.71, 29.67], [-102.71, 29.66], [-102.72, 29.65], [-102.73, 29.64], [-102.74, 29.64], [-102.74, 29.63], [-102.74, 29.62], [-102.74, 29.61], [-102.74, 29.59], [-102.76, 29.6], [-102.77, 29.6], [-102.76, 29.58], [-102.77, 29.57], [-102.78, 29.56], [-102.77, 29.55], [-102.78, 29.54], [-102.8, 29.53], [-102.81, 29.52], [-102.81, 29.5], [-102.8, 29.49], [-102.81, 29.48], [-102.81, 29.47], [-102.83, 29.46], [-102.82, 29.45], [-102.83, 29.44], [-102.83, 29.43], [-102.83, 29.42], [-102.83, 29.41], [-102.82, 29.4], [-102.83, 29.39], [-102.83, 29.38], [-102.84, 29.38], [-102.85, 29.37], [-102.84, 29.36], [-102.86, 29.35], [-102.88, 29.35], [-102.88, 29.35], [-102.88, 29.34], [-102.88, 29.32], [-102.89, 29.31], [-102.89, 29.29], [-102.89, 29.29], [-102.9, 29.28], [-102.9, 29.27], [-102.91, 29.26], [-102.9, 29.25], [-102.9, 29.25], [-102.89, 29.25], [-102.87, 29.24], [-102.87, 29.22], [-102.89, 29.21], [-102.9, 29.21], [-102.91, 29.22], [-102.92, 29.22], [-102.91, 29.2], [-102.92, 29.19], [-102.93, 29.19], [-102.94, 29.19], [-102.95, 29.18], [-102.97, 29.19], [-102.99, 29.18], [-103.0, 29.17], [-103.0, 29.16], [-103.01, 29.14], [-103.02, 29.12], [-103.04, 29.11], [-103.03, 29.1], [-103.04, 29.1], [-103.05, 29.1], [-103.05, 29.1], [-103.06, 29.09], [-103.08, 29.09], [-103.08, 29.09], [-103.08, 29.07], [-103.09, 29.07], [-103.1, 29.06], [-103.1, 29.05], [-103.11, 29.04], [-103.1, 29.03], [-103.12, 29.0], [-103.11, 28.99], [-103.12, 28.98], [-103.14, 28.98], [-103.15, 28.97], [-103.17, 28.97], [-103.17, 28.98], [-103.2, 28.99], [-103.22, 28.98], [-103.23, 28.99], [-103.24, 28.98], [-103.25, 28.98], [-103.26, 28.99], [-103.27, 29.0], [-103.27, 28.99], [-103.28, 28.98], [-103.29, 29.0], [-103.3, 29.01], [-103.31, 29.0], [-103.32, 29.01], [-103.31, 29.02], [-103.32, 29.03], [-103.32, 29.02], [-103.34, 29.02], [-103.34, 29.03], [-103.33, 29.03], [-103.33, 29.04], [-103.35, 29.04], [-103.35, 29.03], [-103.36, 29.02], [-103.37, 29.02], [-103.39, 29.02], [-103.39, 29.03], [-103.4, 29.03], [-103.41, 29.04], [-103.41, 29.04], [-103.42, 29.04], [-103.43, 29.04], [-103.43, 29.06], [-103.44, 29.06], [-103.45, 29.07], [-103.47, 29.07], [-103.47, 29.09], [-103.48, 29.09], [-103.5, 29.11], [-103.52, 29.12], [-103.52, 29.12], [-103.53, 29.14], [-103.54, 29.14], [-103.55, 29.14], [-103.56, 29.15], [-103.58, 29.15], [-103.59, 29.15], [-103.61, 29.17], [-103.63, 29.16], [-103.63, 29.16], [-103.65, 29.16], [-103.66, 29.17], [-103.69, 29.18], [-103.7, 29.18], [-103.7, 29.18], [-103.71, 29.19], [-103.72, 29.18], [-103.73, 29.2], [-103.74, 29.21], [-103.74, 29.22], [-103.76, 29.22], [-103.75, 29.23], [-103.76, 29.23], [-103.78, 29.22], [-103.78, 29.23], [-103.78, 29.24], [-103.78, 29.25], [-103.78, 29.27], [-103.8, 29.26], [-103.8, 29.26], [-103.81, 29.27], [-103.81, 29.27], [-103.83, 29.27], [-103.84, 29.28], [-103.86, 29.28], [-103.88, 29.28], [-103.89, 29.28], [-103.9, 29.29], [-103.91, 29.28], [-103.92, 29.29], [-103.94, 29.29], [-103.97, 29.3], [-103.98, 29.3], [-103.99, 29.3], [-104.02, 29.31], [-104.04, 29.32], [-104.05, 29.33], [-104.06, 29.34], [-104.07, 29.35], [-104.08, 29.35], [-104.09, 29.35], [-104.09, 29.36], [-104.11, 29.37], [-104.12, 29.37], [-104.12, 29.38], [-104.14, 29.38], [-104.14, 29.39], [-104.15, 29.39], [-104.16, 29.39], [-104.17, 29.4], [-104.18, 29.41], [-104.18, 29.43], [-104.19, 29.44], [-104.2, 29.44], [-104.21, 29.45], [-104.22, 29.46], [-104.21, 29.46], [-104.21, 29.48], [-104.22, 29.49], [-104.23, 29.48], [-104.24, 29.5], [-104.24, 29.5], [-104.26, 29.51], [-104.27, 29.52], [-104.29, 29.52], [-104.3, 29.52], [-104.31, 29.52], [-104.32, 29.53], [-104.33, 29.52], [-104.34, 29.52], [-104.36, 29.54], [-104.37, 29.54], [-104.38, 29.54], [-104.39, 29.56], [-104.4, 29.57], [-104.45, 29.6], [-104.47, 29.62], [-104.48, 29.63], [-104.5, 29.64], [-104.51, 29.64], [-104.51, 29.65], [-104.53, 29.66], [-104.52, 29.67], [-104.54, 29.68], [-104.53, 29.69], [-104.54, 29.7], [-104.55, 29.72], [-104.55, 29.72], [-104.55, 29.74], [-104.57, 29.75], [-104.56, 29.76], [-104.57, 29.77], [-104.58, 29.78], [-104.59, 29.8], [-104.6, 29.81], [-104.6, 29.82], [-104.61, 29.82], [-104.61, 29.83], [-104.62, 29.83], [-104.61, 29.84], [-104.63, 29.85], [-104.63, 29.87], [-104.65, 29.88], [-104.65, 29.88], [-104.66, 29.89], [-104.66, 29.9], [-104.68, 29.92], [-104.68, 29.96], [-104.68, 29.96], [-104.68, 29.97], [-104.69, 29.98], [-104.69, 29.99], [-104.69, 30.01], [-104.69, 30.01], [-104.7, 30.02], [-104.7, 30.04], [-104.71, 30.05], [-104.7, 30.06], [-104.69, 30.08], [-104.69, 30.09], [-104.69, 30.1], [-104.69, 30.11], [-104.7, 30.13], [-104.7, 30.13], [-104.69, 30.15], [-104.69, 30.15], [-104.69, 30.17], [-104.69, 30.18], [-104.7, 30.19], [-104.7, 30.21], [-104.71, 30.22], [-104.71, 30.24], [-104.71, 30.24], [-104.72, 30.25], [-104.73, 30.26], [-104.75, 30.26], [-104.75, 30.27], [-104.76, 30.28], [-104.76, 30.28], [-104.76, 30.3], [-104.77, 30.3], [-104.78, 30.31], [-104.79, 30.32], [-104.8, 30.33], [-104.81, 30.33], [-104.81, 30.34], [-104.82, 30.35], [-104.81, 30.35], [-104.82, 30.37], [-104.84, 30.37], [-104.86, 30.39], [-104.85, 30.4], [-104.86, 30.41], [-104.85, 30.42], [-104.86, 30.43], [-104.86, 30.43], [-104.87, 30.46], [-104.87, 30.47], [-104.87, 30.48], [-104.87, 30.49], [-104.88, 30.52], [-104.88, 30.53], [-104.89, 30.54], [-104.89, 30.55], [-104.89, 30.55], [-104.9, 30.57], [-104.91, 30.59], [-104.92, 30.59], [-104.92, 30.6], [-104.94, 30.61], [-104.95, 30.6], [-104.96, 30.61], [-104.97, 30.61], [-104.98, 30.62], [-104.98, 30.63], [-104.99, 30.66], [-105.0, 30.67], [-105.01, 30.69], [-105.03, 30.68], [-105.04, 30.69], [-105.05, 30.68], [-105.06, 30.69], [-105.06, 30.7], [-105.08, 30.7], [-105.09, 30.72], [-105.1, 30.72], [-105.1, 30.73], [-105.11, 30.73], [-105.11, 30.74], [-105.12, 30.75], [-105.13, 30.75], [-105.14, 30.75], [-105.15, 30.75], [-105.16, 30.76], [-105.16, 30.77], [-105.16, 30.78], [-105.18, 30.77], [-105.19, 30.78], [-105.2, 30.79], [-105.21, 30.78], [-105.22, 30.79], [-105.22, 30.79], [-105.21, 30.8], [-105.22, 30.81], [-105.25, 30.8], [-105.26, 30.79], [-105.27, 30.81], [-105.28, 30.81], [-105.28, 30.82], [-105.29, 30.83], [-105.3, 30.83], [-105.3, 30.81], [-105.32, 30.81], [-105.32, 30.82], [-105.34, 30.84], [-105.34, 30.84], [-105.35, 30.84], [-105.36, 30.85], [-105.37, 30.85], [-105.39, 30.85], [-105.4, 30.85], [-105.39, 30.87], [-105.4, 30.88], [-105.4, 30.89], [-105.41, 30.9], [-105.43, 30.9], [-105.44, 30.91], [-105.45, 30.92], [-105.47, 30.93], [-105.47, 30.93], [-105.49, 30.94], [-105.49, 30.96], [-105.5, 30.97], [-105.52, 30.97], [-105.52, 30.98], [-105.53, 30.98], [-105.54, 30.98], [-105.56, 30.99], [-105.57, 31.01], [-105.57, 31.02], [-105.58, 31.02], [-105.58, 31.04], [-105.59, 31.06], [-105.6, 31.06], [-105.6, 31.07], [-105.61, 31.09], [-105.63, 31.1], [-105.64, 31.1], [-105.65, 31.11], [-105.67, 31.12], [-105.71, 31.14], [-105.72, 31.14], [-105.72, 31.15], [-105.74, 31.17], [-105.76, 31.16], [-105.77, 31.17], [-105.78, 31.18], [-105.78, 31.2], [-105.79, 31.2], [-105.82, 31.23], [-105.84, 31.25], [-105.85, 31.27], [-105.85, 31.27], [-105.87, 31.29], [-105.87, 31.29], [-105.89, 31.29], [-105.9, 31.29], [-105.91, 31.31], [-105.93, 31.31], [-105.94, 31.32], [-105.95, 31.34], [-105.95, 31.35], [-105.95, 31.36], [-105.97, 31.37], [-106.0, 31.39], [-106.01, 31.39], [-106.08, 31.4], [-106.08, 31.4], [-106.11, 31.42], [-106.12, 31.42], [-106.13, 31.43], [-106.16, 31.44], [-106.18, 31.46], [-106.2, 31.46], [-106.21, 31.47], [-106.22, 31.48], [-106.22, 31.5], [-106.24, 31.51], [-106.25, 31.54], [-106.25, 31.55], [-106.28, 31.56], [-106.29, 31.59], [-106.3, 31.61], [-106.3, 31.62], [-106.31, 31.63], [-106.33, 31.66], [-106.35, 31.69], [-106.37, 31.71], [-106.38, 31.73], [-106.41, 31.75], [-106.44, 31.76], [-106.45, 31.76], [-106.47, 31.76], [-106.47, 31.75], [-106.49, 31.75], [-106.51, 31.76], [-106.51, 31.77], [-106.53, 31.78], [-106.53, 31.79], [-106.54, 31.8], [-106.54, 31.8], [-106.54, 31.8], [-106.55, 31.81], [-106.55, 31.81], [-106.55, 31.81], [-106.55, 31.81], [-106.56, 31.81], [-106.56, 31.81], [-106.57, 31.81], [-106.57, 31.81], [-106.57, 31.81], [-106.57, 31.81], [-106.57, 31.81], [-106.57, 31.81], [-106.57, 31.81], [-106.58, 31.81], [-106.58, 31.81], [-106.58, 31.81], [-106.58, 31.81], [-106.58, 31.81], [-106.58, 31.81], [-106.58, 31.82], [-106.58, 31.82], [-106.58, 31.82], [-106.59, 31.82], [-106.59, 31.82], [-106.59, 31.82], [-106.59, 31.82], [-106.59, 31.82], [-106.59, 31.82], [-106.6, 31.82], [-106.6, 31.82], [-106.6, 31.82], [-106.61, 31.83], [-106.6, 31.84], [-106.6, 31.84], [-106.6, 31.84], [-106.6, 31.84], [-106.6, 31.84], [-106.6, 31.84], [-106.61, 31.85], [-106.61, 31.85], [-106.61, 31.85], [-106.61, 31.85], [-106.61, 31.85], [-106.61, 31.85], [-106.61, 31.85], [-106.61, 31.85], [-106.61, 31.85], [-106.61, 31.85], [-106.61, 31.85], [-106.61, 31.85], [-106.63, 31.86], [-106.63, 31.86], [-106.63, 31.86], [-106.63, 31.86], [-106.63, 31.87], [-106.63, 31.87], [-106.63, 31.88], [-106.63, 31.88], [-106.63, 31.88], [-106.63, 31.88], [-106.63, 31.88], [-106.63, 31.88], [-106.63, 31.88], [-106.63, 31.88], [-106.63, 31.89], [-106.63, 31.89], [-106.63, 31.89], [-106.63, 31.89], [-106.64, 31.89], [-106.64, 31.89], [-106.64, 31.89], [-106.64, 31.89], [-106.64, 31.89], [-106.64, 31.89], [-106.64, 31.89], [-106.64, 31.89], [-106.65, 31.89], [-106.65, 31.9], [-106.65, 31.9], [-106.64, 31.9], [-106.64, 31.9], [-106.64, 31.9], [-106.64, 31.91], [-106.64, 31.91], [-106.64, 31.91], [-106.63, 31.91], [-106.63, 31.91], [-106.63, 31.91], [-106.63, 31.91], [-106.63, 31.91], [-106.63, 31.91], [-106.63, 31.91], [-106.61, 31.92], [-106.63, 31.93], [-106.63, 31.93], [-106.62, 31.93], [-106.62, 31.93], [-106.62, 31.93], [-106.62, 31.94], [-106.62, 31.94], [-106.62, 31.94], [-106.62, 31.95], [-106.62, 31.95], [-106.62, 31.95], [-106.62, 31.95], [-106.61, 31.95], [-106.61, 31.95], [-106.62, 31.96], [-106.62, 31.96], [-106.62, 31.97], [-106.62, 31.97], [-106.63, 31.97], [-106.63, 31.97], [-106.63, 31.97], [-106.64, 31.98], [-106.64, 31.98], [-106.64, 31.98], [-106.64, 31.98], [-106.64, 31.98], [-106.64, 31.99], [-106.64, 31.99], [-106.63, 31.99], [-106.63, 31.99], [-106.63, 31.99], [-106.63, 31.99], [-106.63, 31.99], [-106.63, 31.99], [-106.63, 31.99], [-106.62, 31.99], [-106.62, 32.0], [-106.62, 32.0], [-106.62, 32.0], [-106.61, 32.0], [-106.6, 32.0], [-106.59, 32.0], [-106.58, 32.0], [-106.55, 32.0], [-106.53, 32.0], [-106.52, 32.0], [-106.5, 32.0], [-106.49, 32.0], [-106.48, 32.0], [-106.47, 32.0], [-106.42, 32.0], [-106.33, 32.0], [-106.33, 32.0], [-106.32, 32.0], [-106.32, 32.0], [-106.32, 32.0], [-106.17, 32.0], [-106.14, 32.0], [-106.13, 32.0], [-106.13, 32.0], [-106.12, 32.0], [-106.0, 32.0], [-106.0, 32.0], [-105.93, 32.0], [-105.75, 32.0], [-105.73, 32.0], [-105.55, 32.0], [-105.43, 32.0], [-105.22, 32.0], [-105.14, 32.0], [-105.0, 32.0], [-104.77, 32.0], [-104.76, 32.0], [-104.61, 32.0], [-104.46, 32.0], [-104.25, 32.0], [-104.08, 32.0], [-103.92, 32.0], [-103.88, 32.0], [-103.75, 32.0], [-103.54, 32.0], [-103.38, 32.0], [-103.22, 32.0], [-103.06, 32.0], [-103.06, 32.09], [-103.06, 32.23], [-103.06, 32.38], [-103.06, 32.49], [-103.06, 32.67], [-103.06, 32.81], [-103.06, 33.0], [-103.06, 33.12], [-103.06, 33.25], [-103.06, 33.32], [-103.05, 33.48], [-103.05, 33.57], [-103.05, 33.74], [-103.05, 33.77], [-103.05, 33.88], [-103.04, 34.02], [-103.04, 34.12], [-103.04, 34.23], [-103.04, 34.38], [-103.04, 34.61], [-103.04, 34.75], [-103.04, 34.95], [-103.04, 35.11], [-103.04, 35.25], [-103.04, 35.38], [-103.04, 35.51], [-103.04, 35.63], [-103.04, 35.79], [-103.04, 35.83], [-103.04, 35.84], [-103.04, 36.0], [-103.04, 36.13], [-103.04, 36.32], [-103.04, 36.46], [-103.04, 36.5], [-103.0, 36.5], [-102.88, 36.5], [-102.82, 36.5]]]]}}]}