{"type": "FeatureCollection", "features": [{"type": "Feature", "properties": {"ID": 42, "abbreviation": "UT", "name": "Utah"}, "geometry": {"type": "Polygon", "coordinates": [[[-111.05, 42.0], [-111.05, 41.98], [-111.05, 41.96], [-111.05, 41.94], [-111.05, 41.88], [-111.05, 41.75], [-111.05, 41.62], [-111.05, 41.5], [-111.05, 41.38], [-111.05, 41.38], [-111.05, 41.38], [-111.05, 41.37], [-111.05, 41.37], [-111.05, 41.36], [-111.05, 41.3], [-111.05, 41.25], [-111.05, 41.12], [-111.05, 41.0], [-110.88, 41.0], [-110.68, 41.0], [-110.54, 41.0], [-110.5, 40.99], [-110.38, 40.99], [-110.25, 41.0], [-110.24, 41.0], [-110.13, 41.0], [-110.12, 41.0], [-110.06, 41.0], [-110.01, 41.0], [-110.0, 41.0], [-109.99, 41.0], [-109.98, 41.0], [-109.93, 41.0], [-109.81, 41.0], [-109.71, 41.0], [-109.66, 41.0], [-109.62, 41.0], [-109.54, 41.0], [-109.5, 41.0], [-109.37, 41.0], [-109.25, 41.0], [-109.23, 41.0], [-109.19, 41.0], [-109.05, 41.0], [-109.05, 41.0], [-109.05, 41.0], [-109.05, 40.96], [-109.05, 40.86], [-109.05, 40.83], [-109.05, 40.71], [-109.05, 40.62], [-109.05, 40.6], [-109.05, 40.6], [-109.05, 40.58], [-109.05, 40.54], [-109.05, 40.44], [-109.05, 40.23], [-109.05, 40.12], [-109.05, 40.0], [-109.05, 39.87], [-109.05, 39.8], [-109.05, 39.75], [-109.05, 39.75], [-109.05, 39.75], [-109.05, 39.75], [-109.05, 39.74], [-109.05, 39.71], [-109.05, 39.7], [-109.05, 39.62], [-109.05, 39.6], [-109.05, 39.58], [-109.05, 39.54], [-109.05, 39.5], [-109.05, 39.5], [-109.05, 39.47], [-109.05, 39.46], [-109.05, 39.45], [-109.05, 39.42], [-109.05, 39.4], [-109.05, 39.39], [-109.05, 39.37], [-109.05, 39.37], [-109.05, 39.12], [-109.05, 39.0], [-109.05, 38.87], [-109.06, 38.8], [-109.06, 38.72], [-109.06, 38.6], [-109.06, 38.5], [-109.06, 38.49], [-109.06, 38.46], [-109.06, 38.43], [-109.06, 38.43], [-109.06, 38.42], [-109.06, 38.41], [-109.06, 38.4], [-109.06, 38.4], [-109.06, 38.4], [-109.06, 38.39], [-109.06, 38.39], [-109.06, 38.39], [-109.06, 38.36], [-109.06, 38.35], [-109.06, 38.33], [-109.06, 38.33], [-109.06, 38.32], [-109.06, 38.28], [-109.04, 38.16], [-109.04, 38.16], [-109.04, 38.04], [-109.04, 38.02], [-109.04, 38.01], [-109.04, 38.0], [-109.04, 38.0], [-109.04, 38.0], [-109.04, 37.99], [-109.04, 37.98], [-109.04, 37.98], [-109.04, 37.97], [-109.04, 37.97], [-109.04, 37.91], [-109.04, 37.87], [-109.04, 37.87], [-109.04, 37.87], [-109.04, 37.86], [-109.04, 37.86], [-109.04, 37.84], [-109.04, 37.84], [-109.04, 37.8], [-109.04, 37.67], [-109.04, 37.61], [-109.04, 37.53], [-109.04, 37.5], [-109.05, 37.37], [-109.05, 37.18], [-109.05, 37.11], [-109.05, 37.0], [-109.05, 37.0], [-109.05, 37.0], [-109.07, 37.0], [-109.12, 37.0], [-109.19, 37.0], [-109.36, 37.0], [-109.5, 37.0], [-109.63, 37.0], [-109.75, 37.0], [-109.94, 37.0], [-109.97, 37.0], [-110.02, 37.0], [-110.25, 37.0], [-110.47, 37.0], [-110.49, 37.0], [-110.51, 37.0], [-110.76, 37.0], [-110.99, 37.0], [-111.08, 37.0], [-111.13, 37.0], [-111.24, 37.0], [-111.28, 37.0], [-111.39, 37.0], [-111.62, 37.0], [-111.75, 37.0], [-111.88, 37.0], [-111.88, 37.0], [-111.89, 37.0], [-112.0, 37.0], [-112.13, 37.0], [-112.25, 37.0], [-112.54, 37.0], [-112.75, 37.0], [-112.88, 37.0], [-113.01, 37.0], [-113.11, 37.0], [-113.11, 37.0], [-113.12, 37.0], [-113.41, 37.0], [-113.58, 37.0], [-113.8, 37.0], [-113.97, 37.0], [-114.05, 37.0], [-114.05, 37.09], [-114.05, 37.1], [-114.05, 37.24], [-114.05, 37.25], [-114.05, 37.25], [-114.05, 37.42], [-114.05, 37.43], [-114.05, 37.59], [-114.05, 37.6], [-114.05, 37.75], [-114.05, 37.77], [-114.05, 37.81], [-114.05, 37.82], [-114.05, 37.88], [-114.05, 38.0], [-114.05, 38.15], [-114.05, 38.25], [-114.05, 38.26], [-114.05, 38.44], [-114.05, 38.68], [-114.05, 38.75], [-114.05, 38.87], [-114.05, 38.88], [-114.05, 39.01], [-114.05, 39.12], [-114.05, 39.33], [-114.05, 39.5], [-114.05, 39.54], [-114.05, 39.76], [-114.05, 39.91], [-114.05, 40.0], [-114.05, 40.04], [-114.05, 40.25], [-114.05, 40.42], [-114.05, 40.43], [-114.05, 40.51], [-114.04, 40.67], [-114.04, 40.85], [-114.04, 41.0], [-114.04, 41.12], [-114.04, 41.25], [-114.04, 41.37], [-114.04, 41.49], [-114.04, 41.5], [-114.04, 41.62], [-114.04, 41.62], [-114.04, 41.75], [-114.04, 41.85], [-114.04, 41.88], [-114.04, 41.99], [-113.99, 41.99], [-113.89, 41.99], [-113.82, 41.99], [-113.65, 41.99], [-113.62, 41.99], [-113.5, 41.99], [-113.5, 41.99], [-113.25, 42.0], [-113.25, 42.0], [-113.08, 42.0], [-112.88, 42.0], [-112.75, 42.0], [-112.62, 42.0], [-112.36, 42.0], [-112.36, 42.0], [-112.36, 42.0], [-112.19, 42.0], [-112.17, 42.0], [-112.11, 42.0], [-112.01, 42.0], [-111.86, 42.0], [-111.75, 42.0], [-111.66, 42.0], [-111.66, 42.0], [-111.65, 42.0], [-111.49, 42.0], [-111.43, 42.0], [-111.31, 42.0], [-111.17, 42.0], [-111.1, 42.0], [-111.09, 42.0], [-111.05, 42.0], [-111.05, 42.0], [-111.05, 42.0]]]}}]}