{"type": "FeatureCollection", "features": [{"type": "Feature", "properties": {"ID": 45, "abbreviation": "WA", "name": "Washington"}, "geometry": {"type": "MultiPolygon", "coordinates": [[[[-122.67, 47.16], [-122.68, 47.14], [-122.7, 47.14], [-122.7, 47.14], [-122.69, 47.13], [-122.7, 47.12], [-122.72, 47.13], [-122.74, 47.15], [-122.73, 47.16], [-122.73, 47.17], [-122.72, 47.18], [-122.71, 47.19], [-122.7, 47.18], [-122.68, 47.18], [-122.67, 47.17], [-122.67, 47.16]]], [[[-122.9, 47.19], [-122.9, 47.18], [-122.92, 47.18], [-122.92, 47.19], [-122.92, 47.2], [-122.92, 47.21], [-122.93, 47.22], [-122.92, 47.22], [-122.91, 47.21], [-122.91, 47.21], [-122.91, 47.19], [-122.9, 47.19]]], [[[-122.66, 47.19], [-122.68, 47.19], [-122.7, 47.2], [-122.72, 47.2], [-122.73, 47.21], [-122.72, 47.21], [-122.7, 47.23], [-122.68, 47.23], [-122.67, 47.22], [-122.65, 47.22], [-122.64, 47.2], [-122.66, 47.19]]], [[[-122.59, 47.23], [-122.6, 47.22], [-122.62, 47.22], [-122.63, 47.24], [-122.67, 47.27], [-122.66, 47.27], [-122.65, 47.27], [-122.63, 47.26], [-122.61, 47.25], [-122.6, 47.24], [-122.59, 47.24], [-122.59, 47.23]]], [[[-122.86, 47.29], [-122.87, 47.28], [-122.87, 47.27], [-122.87, 47.25], [-122.87, 47.24], [-122.86, 47.24], [-122.86, 47.23], [-122.84, 47.21], [-122.86, 47.17], [-122.88, 47.17], [-122.89, 47.21], [-122.9, 47.22], [-122.92, 47.22], [-122.93, 47.24], [-122.92, 47.25], [-122.92, 47.28], [-122.91, 47.28], [-122.9, 47.28], [-122.87, 47.29], [-122.85, 47.3], [-122.86, 47.29]]], [[[-122.44, 47.41], [-122.42, 47.4], [-122.4, 47.4], [-122.37, 47.39], [-122.38, 47.39], [-122.4, 47.38], [-122.43, 47.37], [-122.44, 47.36], [-122.45, 47.34], [-122.47, 47.35], [-122.48, 47.35], [-122.46, 47.37], [-122.46, 47.37], [-122.44, 47.38], [-122.44, 47.4], [-122.46, 47.4], [-122.45, 47.39], [-122.45, 47.38], [-122.47, 47.39], [-122.48, 47.38], [-122.49, 47.36], [-122.5, 47.33], [-122.52, 47.33], [-122.53, 47.34], [-122.52, 47.37], [-122.52, 47.38], [-122.53, 47.39], [-122.53, 47.4], [-122.51, 47.42], [-122.51, 47.43], [-122.51, 47.45], [-122.51, 47.46], [-122.5, 47.47], [-122.5, 47.48], [-122.48, 47.48], [-122.48, 47.51], [-122.47, 47.51], [-122.45, 47.5], [-122.46, 47.5], [-122.46, 47.49], [-122.44, 47.47], [-122.43, 47.47], [-122.44, 47.46], [-122.44, 47.43], [-122.43, 47.42], [-122.44, 47.42], [-122.44, 47.41]]], [[[-122.48, 47.54], [-122.49, 47.53], [-122.5, 47.53], [-122.51, 47.54], [-122.49, 47.55], [-122.48, 47.54]]], [[[-122.54, 47.71], [-122.53, 47.7], [-122.51, 47.71], [-122.5, 47.7], [-122.51, 47.68], [-122.51, 47.67], [-122.5, 47.66], [-122.51, 47.65], [-122.51, 47.64], [-122.49, 47.63], [-122.5, 47.62], [-122.5, 47.6], [-122.5, 47.59], [-122.48, 47.58], [-122.5, 47.57], [-122.52, 47.57], [-122.54, 47.59], [-122.56, 47.6], [-122.57, 47.59], [-122.58, 47.6], [-122.57, 47.62], [-122.58, 47.62], [-122.58, 47.65], [-122.59, 47.66], [-122.58, 47.67], [-122.56, 47.68], [-122.57, 47.69], [-122.56, 47.71], [-122.55, 47.72], [-122.54, 47.72], [-122.54, 47.71]]], [[[-122.32, 48.02], [-122.31, 48.01], [-122.33, 48.01], [-122.33, 48.02], [-122.32, 48.02]]], [[[-122.67, 48.03], [-122.67, 48.02], [-122.69, 48.01], [-122.72, 48.03], [-122.74, 48.05], [-122.74, 48.07], [-122.75, 48.07], [-122.73, 48.09], [-122.72, 48.07], [-122.72, 48.06], [-122.71, 48.05], [-122.72, 48.04], [-122.71, 48.03], [-122.7, 48.02], [-122.69, 48.03], [-122.7, 48.05], [-122.7, 48.05], [-122.7, 48.07], [-122.73, 48.09], [-122.7, 48.1], [-122.69, 48.09], [-122.69, 48.07], [-122.68, 48.05], [-122.68, 48.04], [-122.67, 48.03]]], [[[-122.91, 48.13], [-122.94, 48.12], [-122.93, 48.13], [-122.91, 48.13]]], [[[-122.6, 48.4], [-122.59, 48.39], [-122.59, 48.39], [-122.58, 48.37], [-122.6, 48.36], [-122.57, 48.35], [-122.55, 48.34], [-122.53, 48.33], [-122.52, 48.32], [-122.51, 48.31], [-122.51, 48.29], [-122.53, 48.28], [-122.56, 48.28], [-122.57, 48.29], [-122.59, 48.3], [-122.61, 48.3], [-122.63, 48.29], [-122.62, 48.28], [-122.63, 48.27], [-122.64, 48.27], [-122.63, 48.29], [-122.64, 48.29], [-122.66, 48.28], [-122.65, 48.27], [-122.65, 48.25], [-122.66, 48.25], [-122.67, 48.24], [-122.69, 48.24], [-122.71, 48.24], [-122.73, 48.23], [-122.72, 48.21], [-122.71, 48.21], [-122.69, 48.22], [-122.67, 48.22], [-122.64, 48.22], [-122.62, 48.22], [-122.61, 48.21], [-122.61, 48.2], [-122.59, 48.18], [-122.58, 48.16], [-122.57, 48.15], [-122.57, 48.13], [-122.56, 48.12], [-122.56, 48.11], [-122.57, 48.1], [-122.55, 48.08], [-122.55, 48.08], [-122.55, 48.06], [-122.55, 48.05], [-122.54, 48.05], [-122.54, 48.04], [-122.54, 48.02], [-122.53, 48.02], [-122.52, 48.02], [-122.51, 48.04], [-122.52, 48.06], [-122.51, 48.07], [-122.52, 48.1], [-122.49, 48.09], [-122.48, 48.08], [-122.47, 48.08], [-122.45, 48.05], [-122.43, 48.05], [-122.42, 48.04], [-122.4, 48.04], [-122.38, 48.03], [-122.37, 48.03], [-122.37, 48.0], [-122.35, 47.98], [-122.35, 47.97], [-122.35, 47.95], [-122.36, 47.94], [-122.38, 47.92], [-122.38, 47.91], [-122.39, 47.91], [-122.39, 47.92], [-122.41, 47.92], [-122.41, 47.91], [-122.43, 47.92], [-122.44, 47.93], [-122.45, 47.94], [-122.44, 47.95], [-122.45, 47.96], [-122.46, 47.98], [-122.47, 47.99], [-122.49, 47.99], [-122.51, 47.99], [-122.52, 47.98], [-122.55, 47.97], [-122.55, 47.98], [-122.54, 47.99], [-122.56, 48.01], [-122.58, 48.01], [-122.59, 48.02], [-122.6, 48.03], [-122.59, 48.05], [-122.6, 48.06], [-122.61, 48.07], [-122.6, 48.11], [-122.6, 48.13], [-122.61, 48.15], [-122.63, 48.16], [-122.65, 48.16], [-122.68, 48.15], [-122.69, 48.18], [-122.72, 48.19], [-122.74, 48.2], [-122.74, 48.21], [-122.76, 48.22], [-122.77, 48.23], [-122.76, 48.24], [-122.75, 48.26], [-122.73, 48.28], [-122.72, 48.3], [-122.71, 48.32], [-122.7, 48.33], [-122.69, 48.33], [-122.67, 48.35], [-122.66, 48.37], [-122.66, 48.4], [-122.64, 48.41], [-122.63, 48.4], [-122.63, 48.4], [-122.61, 48.41], [-122.6, 48.41], [-122.6, 48.4]]], [[[-122.8, 48.49], [-122.82, 48.49], [-122.82, 48.5], [-122.83, 48.51], [-122.83, 48.52], [-122.82, 48.52], [-122.79, 48.52], [-122.8, 48.52], [-122.79, 48.51], [-122.8, 48.49]]], [[[-122.88, 48.55], [-122.88, 48.55], [-122.86, 48.54], [-122.86, 48.53], [-122.87, 48.51], [-122.87, 48.51], [-122.85, 48.48], [-122.86, 48.47], [-122.85, 48.45], [-122.85, 48.44], [-122.82, 48.46], [-122.83, 48.47], [-122.82, 48.48], [-122.81, 48.47], [-122.82, 48.46], [-122.81, 48.45], [-122.81, 48.44], [-122.8, 48.43], [-122.81, 48.42], [-122.84, 48.43], [-122.86, 48.43], [-122.85, 48.42], [-122.88, 48.42], [-122.89, 48.42], [-122.87, 48.43], [-122.87, 48.44], [-122.88, 48.45], [-122.92, 48.45], [-122.92, 48.45], [-122.93, 48.46], [-122.94, 48.46], [-122.95, 48.47], [-122.94, 48.5], [-122.92, 48.51], [-122.91, 48.52], [-122.92, 48.54], [-122.92, 48.55], [-122.91, 48.55], [-122.89, 48.56], [-122.89, 48.57], [-122.88, 48.57], [-122.88, 48.55]]], [[[-122.79, 48.54], [-122.81, 48.53], [-122.82, 48.55], [-122.83, 48.56], [-122.83, 48.58], [-122.81, 48.59], [-122.79, 48.58], [-122.77, 48.56], [-122.77, 48.55], [-122.79, 48.54]]], [[[-122.58, 48.55], [-122.57, 48.53], [-122.6, 48.54], [-122.62, 48.53], [-122.64, 48.53], [-122.65, 48.53], [-122.65, 48.54], [-122.65, 48.55], [-122.65, 48.56], [-122.65, 48.57], [-122.65, 48.59], [-122.64, 48.59], [-122.63, 48.57], [-122.6, 48.55], [-122.58, 48.55]]], [[[-122.95, 48.59], [-122.94, 48.57], [-122.93, 48.59], [-122.92, 48.59], [-122.9, 48.58], [-122.91, 48.57], [-122.92, 48.56], [-122.94, 48.56], [-122.95, 48.56], [-122.95, 48.55], [-122.98, 48.55], [-122.97, 48.56], [-123.0, 48.58], [-123.01, 48.58], [-122.97, 48.59], [-122.97, 48.59], [-122.95, 48.59]]], [[[-122.68, 48.54], [-122.72, 48.54], [-122.72, 48.55], [-122.72, 48.56], [-122.74, 48.57], [-122.74, 48.59], [-122.73, 48.59], [-122.72, 48.6], [-122.71, 48.61], [-122.7, 48.6], [-122.69, 48.58], [-122.68, 48.58], [-122.67, 48.57], [-122.69, 48.56], [-122.68, 48.54]]], [[[-123.18, 48.6], [-123.19, 48.59], [-123.2, 48.6], [-123.2, 48.61], [-123.18, 48.61], [-123.18, 48.6]]], [[[-123.15, 48.62], [-123.14, 48.62], [-123.12, 48.62], [-123.11, 48.62], [-123.1, 48.61], [-123.11, 48.6], [-123.08, 48.59], [-123.06, 48.58], [-123.05, 48.57], [-123.03, 48.56], [-123.01, 48.56], [-123.01, 48.55], [-123.02, 48.54], [-123.02, 48.54], [-123.01, 48.53], [-122.98, 48.54], [-122.97, 48.52], [-123.0, 48.52], [-123.0, 48.52], [-123.02, 48.52], [-123.02, 48.51], [-123.02, 48.49], [-123.01, 48.48], [-123.01, 48.47], [-122.99, 48.46], [-122.96, 48.46], [-122.96, 48.45], [-122.97, 48.45], [-123.04, 48.46], [-123.06, 48.47], [-123.07, 48.47], [-123.07, 48.49], [-123.09, 48.48], [-123.11, 48.49], [-123.13, 48.5], [-123.15, 48.51], [-123.16, 48.53], [-123.16, 48.55], [-123.18, 48.56], [-123.17, 48.58], [-123.15, 48.59], [-123.17, 48.61], [-123.15, 48.61], [-123.16, 48.62], [-123.15, 48.62]]], [[[-122.66, 48.61], [-122.67, 48.61], [-122.69, 48.61], [-122.7, 48.62], [-122.67, 48.63], [-122.66, 48.62], [-122.66, 48.61]]], [[[-123.18, 48.67], [-123.18, 48.66], [-123.2, 48.66], [-123.23, 48.68], [-123.24, 48.69], [-123.21, 48.69], [-123.21, 48.68], [-123.18, 48.67]]], [[[-122.84, 48.7], [-122.82, 48.69], [-122.8, 48.68], [-122.74, 48.66], [-122.76, 48.66], [-122.75, 48.65], [-122.77, 48.64], [-122.79, 48.64], [-122.8, 48.63], [-122.8, 48.63], [-122.81, 48.62], [-122.8, 48.6], [-122.82, 48.61], [-122.83, 48.6], [-122.83, 48.62], [-122.85, 48.62], [-122.87, 48.65], [-122.88, 48.65], [-122.88, 48.66], [-122.88, 48.68], [-122.88, 48.69], [-122.89, 48.7], [-122.9, 48.69], [-122.92, 48.69], [-122.91, 48.65], [-122.89, 48.64], [-122.88, 48.63], [-122.88, 48.62], [-122.86, 48.61], [-122.87, 48.6], [-122.88, 48.59], [-122.89, 48.59], [-122.94, 48.59], [-122.95, 48.6], [-122.96, 48.62], [-122.96, 48.63], [-122.97, 48.63], [-122.98, 48.64], [-122.99, 48.63], [-122.99, 48.63], [-122.98, 48.62], [-122.98, 48.61], [-122.99, 48.6], [-123.0, 48.62], [-123.01, 48.61], [-123.03, 48.61], [-123.03, 48.63], [-123.02, 48.64], [-123.01, 48.66], [-122.99, 48.67], [-122.99, 48.67], [-122.96, 48.69], [-122.94, 48.7], [-122.94, 48.71], [-122.9, 48.71], [-122.88, 48.71], [-122.87, 48.71], [-122.84, 48.7]]], [[[-122.61, 48.71], [-122.61, 48.7], [-122.62, 48.69], [-122.63, 48.7], [-122.64, 48.71], [-122.63, 48.71], [-122.62, 48.71], [-122.61, 48.71], [-122.62, 48.72], [-122.61, 48.71]]], [[[-123.02, 48.68], [-123.04, 48.68], [-123.04, 48.69], [-123.05, 48.7], [-123.04, 48.72], [-123.01, 48.72], [-123.01, 48.69], [-123.02, 48.68]]], [[[-122.68, 48.72], [-122.68, 48.72], [-122.67, 48.71], [-122.66, 48.7], [-122.65, 48.69], [-122.64, 48.69], [-122.62, 48.67], [-122.61, 48.65], [-122.63, 48.65], [-122.65, 48.67], [-122.67, 48.68], [-122.69, 48.71], [-122.7, 48.72], [-122.72, 48.72], [-122.72, 48.73], [-122.71, 48.75], [-122.69, 48.74], [-122.68, 48.72]]], [[[-123.04, 49.0], [-123.02, 48.98], [-123.04, 48.98], [-123.08, 48.97], [-123.08, 48.98], [-123.09, 49.0], [-123.04, 49.0]]], [[[-121.82, 49.0], [-121.75, 49.0], [-121.51, 49.0], [-121.39, 49.0], [-121.35, 49.0], [-121.29, 49.0], [-121.13, 49.0], [-121.06, 49.0], [-120.85, 49.0], [-120.7, 49.0], [-120.38, 49.0], [-120.12, 49.0], [-120.0, 49.0], [-119.88, 49.0], [-119.73, 49.0], [-119.48, 49.0], [-119.21, 49.0], [-118.95, 49.0], [-118.75, 49.0], [-118.54, 49.0], [-118.38, 49.0], [-118.17, 49.0], [-117.88, 49.0], [-117.63, 49.0], [-117.58, 49.0], [-117.27, 49.0], [-117.13, 49.0], [-117.03, 49.0], [-117.03, 48.98], [-117.03, 48.94], [-117.03, 48.91], [-117.03, 48.9], [-117.03, 48.87], [-117.03, 48.85], [-117.03, 48.81], [-117.03, 48.79], [-117.03, 48.78], [-117.03, 48.73], [-117.03, 48.7], [-117.03, 48.7], [-117.03, 48.69], [-117.03, 48.69], [-117.03, 48.69], [-117.03, 48.66], [-117.03, 48.62], [-117.03, 48.62], [-117.03, 48.61], [-117.03, 48.59], [-117.03, 48.57], [-117.04, 48.55], [-117.04, 48.53], [-117.04, 48.51], [-117.04, 48.49], [-117.04, 48.49], [-117.04, 48.47], [-117.04, 48.47], [-117.04, 48.44], [-117.04, 48.43], [-117.04, 48.42], [-117.04, 48.42], [-117.04, 48.42], [-117.04, 48.41], [-117.04, 48.37], [-117.04, 48.37], [-117.04, 48.35], [-117.04, 48.34], [-117.04, 48.34], [-117.04, 48.31], [-117.04, 48.31], [-117.04, 48.29], [-117.04, 48.29], [-117.04, 48.28], [-117.04, 48.22], [-117.04, 48.21], [-117.04, 48.2], [-117.04, 48.2], [-117.04, 48.2], [-117.04, 48.19], [-117.04, 48.19], [-117.04, 48.19], [-117.04, 48.18], [-117.04, 48.18], [-117.04, 48.18], [-117.04, 48.18], [-117.04, 48.18], [-117.04, 48.17], [-117.04, 48.16], [-117.04, 48.15], [-117.04, 48.13], [-117.04, 48.12], [-117.04, 48.11], [-117.04, 48.1], [-117.04, 48.07], [-117.04, 48.07], [-117.04, 48.07], [-117.04, 48.02], [-117.04, 48.0], [-117.04, 48.0], [-117.04, 47.99], [-117.04, 47.98], [-117.04, 47.94], [-117.04, 47.94], [-117.04, 47.93], [-117.04, 47.92], [-117.04, 47.91], [-117.04, 47.9], [-117.04, 47.89], [-117.04, 47.88], [-117.04, 47.88], [-117.04, 47.88], [-117.04, 47.87], [-117.04, 47.87], [-117.04, 47.86], [-117.04, 47.86], [-117.04, 47.84], [-117.04, 47.83], [-117.04, 47.83], [-117.04, 47.81], [-117.04, 47.79], [-117.04, 47.78], [-117.04, 47.77], [-117.04, 47.76], [-117.04, 47.74], [-117.04, 47.71], [-117.04, 47.71], [-117.04, 47.7], [-117.04, 47.69], [-117.04, 47.68], [-117.04, 47.68], [-117.04, 47.67], [-117.04, 47.66], [-117.04, 47.66], [-117.04, 47.65], [-117.04, 47.59], [-117.04, 47.57], [-117.04, 47.56], [-117.04, 47.56], [-117.04, 47.55], [-117.04, 47.53], [-117.04, 47.52], [-117.04, 47.49], [-117.04, 47.49], [-117.04, 47.47], [-117.04, 47.42], [-117.04, 47.41], [-117.04, 47.4], [-117.04, 47.39], [-117.04, 47.35], [-117.04, 47.32], [-117.04, 47.32], [-117.04, 47.32], [-117.04, 47.32], [-117.04, 47.32], [-117.04, 47.29], [-117.04, 47.27], [-117.04, 47.24], [-117.04, 47.24], [-117.04, 47.24], [-117.04, 47.22], [-117.04, 47.2], [-117.04, 47.2], [-117.04, 47.2], [-117.04, 47.19], [-117.04, 47.17], [-117.04, 47.17], [-117.04, 47.15], [-117.04, 47.15], [-117.04, 47.14], [-117.04, 47.13], [-117.04, 47.12], [-117.04, 47.1], [-117.04, 47.09], [-117.04, 47.09], [-117.04, 47.07], [-117.04, 47.05], [-117.04, 47.04], [-117.04, 47.02], [-117.04, 47.01], [-117.04, 47.0], [-117.04, 47.0], [-117.04, 46.98], [-117.04, 46.97], [-117.04, 46.97], [-117.04, 46.97], [-117.04, 46.93], [-117.04, 46.91], [-117.04, 46.9], [-117.04, 46.89], [-117.04, 46.88], [-117.04, 46.86], [-117.04, 46.84], [-117.04, 46.83], [-117.04, 46.83], [-117.04, 46.82], [-117.04, 46.82], [-117.04, 46.79], [-117.04, 46.78], [-117.04, 46.77], [-117.04, 46.76], [-117.04, 46.75], [-117.04, 46.74], [-117.04, 46.71], [-117.04, 46.7], [-117.04, 46.69], [-117.04, 46.68], [-117.04, 46.67], [-117.04, 46.62], [-117.04, 46.6], [-117.04, 46.57], [-117.04, 46.55], [-117.04, 46.55], [-117.04, 46.54], [-117.04, 46.52], [-117.04, 46.5], [-117.04, 46.47], [-117.04, 46.46], [-117.04, 46.44], [-117.04, 46.43], [-117.04, 46.43], [-117.04, 46.43], [-117.04, 46.43], [-117.04, 46.43], [-117.04, 46.43], [-117.04, 46.42], [-117.04, 46.42], [-117.04, 46.42], [-117.03, 46.42], [-117.04, 46.41], [-117.04, 46.41], [-117.04, 46.41], [-117.04, 46.4], [-117.04, 46.4], [-117.04, 46.4], [-117.04, 46.4], [-117.05, 46.38], [-117.05, 46.38], [-117.05, 46.38], [-117.05, 46.37], [-117.06, 46.37], [-117.06, 46.37], [-117.06, 46.37], [-117.06, 46.37], [-117.06, 46.36], [-117.06, 46.36], [-117.06, 46.35], [-117.06, 46.35], [-117.06, 46.35], [-117.05, 46.34], [-117.05, 46.34], [-117.03, 46.34], [-117.03, 46.34], [-117.03, 46.34], [-117.02, 46.34], [-117.02, 46.33], [-117.02, 46.33], [-117.02, 46.33], [-117.02, 46.32], [-117.02, 46.32], [-117.02, 46.32], [-117.02, 46.31], [-117.02, 46.31], [-117.02, 46.31], [-117.01, 46.31], [-117.01, 46.31], [-117.0, 46.3], [-117.0, 46.3], [-117.0, 46.3], [-116.99, 46.3], [-116.98, 46.29], [-116.99, 46.29], [-116.99, 46.28], [-116.99, 46.28], [-116.99, 46.28], [-116.98, 46.27], [-116.98, 46.27], [-116.97, 46.26], [-116.97, 46.25], [-116.96, 46.25], [-116.96, 46.25], [-116.96, 46.24], [-116.96, 46.23], [-116.96, 46.23], [-116.96, 46.23], [-116.96, 46.22], [-116.97, 46.21], [-116.97, 46.21], [-116.97, 46.2], [-116.96, 46.2], [-116.96, 46.2], [-116.95, 46.19], [-116.94, 46.19], [-116.94, 46.19], [-116.94, 46.18], [-116.94, 46.18], [-116.94, 46.18], [-116.93, 46.17], [-116.92, 46.17], [-116.92, 46.17], [-116.92, 46.16], [-116.92, 46.16], [-116.92, 46.16], [-116.93, 46.16], [-116.93, 46.16], [-116.93, 46.16], [-116.94, 46.15], [-116.94, 46.14], [-116.94, 46.14], [-116.93, 46.14], [-116.93, 46.14], [-116.94, 46.13], [-116.94, 46.13], [-116.94, 46.13], [-116.95, 46.13], [-116.95, 46.13], [-116.95, 46.13], [-116.95, 46.12], [-116.95, 46.12], [-116.95, 46.12], [-116.95, 46.12], [-116.95, 46.11], [-116.95, 46.11], [-116.95, 46.11], [-116.95, 46.1], [-116.96, 46.1], [-116.96, 46.1], [-116.96, 46.1], [-116.97, 46.1], [-116.97, 46.1], [-116.98, 46.1], [-116.98, 46.1], [-116.98, 46.09], [-116.98, 46.09], [-116.98, 46.08], [-116.96, 46.08], [-116.96, 46.08], [-116.96, 46.07], [-116.95, 46.07], [-116.95, 46.07], [-116.94, 46.06], [-116.94, 46.04], [-116.93, 46.04], [-116.93, 46.04], [-116.93, 46.04], [-116.93, 46.04], [-116.93, 46.04], [-116.93, 46.02], [-116.92, 46.02], [-116.92, 46.01], [-116.92, 46.01], [-116.92, 46.0], [-116.92, 46.0], [-116.92, 46.0], [-116.92, 46.0], [-116.92, 46.0], [-116.92, 46.0], [-116.92, 46.0], [-116.92, 46.0], [-116.92, 46.0], [-116.92, 46.0], [-116.93, 46.0], [-116.93, 46.0], [-116.96, 46.0], [-116.96, 46.0], [-116.97, 46.0], [-116.98, 46.0], [-116.99, 46.0], [-117.04, 46.0], [-117.05, 46.0], [-117.05, 46.0], [-117.09, 46.0], [-117.1, 46.0], [-117.13, 46.0], [-117.2, 46.0], [-117.21, 46.0], [-117.21, 46.0], [-117.23, 46.0], [-117.25, 46.0], [-117.26, 46.0], [-117.28, 46.0], [-117.3, 46.0], [-117.34, 46.0], [-117.35, 46.0], [-117.37, 46.0], [-117.38, 46.0], [-117.38, 46.0], [-117.39, 46.0], [-117.41, 46.0], [-117.43, 46.0], [-117.44, 46.0], [-117.44, 46.0], [-117.47, 46.0], [-117.48, 46.0], [-117.48, 46.0], [-117.5, 46.0], [-117.52, 46.0], [-117.54, 46.0], [-117.55, 46.0], [-117.6, 46.0], [-117.64, 46.0], [-117.7, 46.0], [-117.73, 46.0], [-117.75, 46.0], [-117.77, 46.0], [-117.82, 46.0], [-117.84, 46.0], [-117.86, 46.0], [-117.88, 46.0], [-117.95, 46.0], [-117.98, 46.0], [-117.99, 46.0], [-118.0, 46.0], [-118.0, 46.0], [-118.0, 46.0], [-118.01, 46.0], [-118.04, 46.0], [-118.08, 46.0], [-118.1, 46.0], [-118.11, 46.0], [-118.12, 46.0], [-118.12, 46.0], [-118.13, 46.0], [-118.14, 46.0], [-118.15, 46.0], [-118.17, 46.0], [-118.21, 46.0], [-118.21, 46.0], [-118.23, 46.0], [-118.25, 46.0], [-118.25, 46.0], [-118.26, 46.0], [-118.29, 46.0], [-118.31, 46.0], [-118.32, 46.0], [-118.34, 46.0], [-118.35, 46.0], [-118.36, 46.0], [-118.37, 46.0], [-118.37, 46.0], [-118.38, 46.0], [-118.38, 46.0], [-118.38, 46.0], [-118.39, 46.0], [-118.39, 46.0], [-118.4, 46.0], [-118.4, 46.0], [-118.4, 46.0], [-118.41, 46.0], [-118.41, 46.0], [-118.41, 46.0], [-118.43, 46.0], [-118.44, 46.0], [-118.45, 46.0], [-118.45, 46.0], [-118.47, 46.0], [-118.48, 46.0], [-118.51, 46.0], [-118.51, 46.0], [-118.54, 46.0], [-118.55, 46.0], [-118.55, 46.0], [-118.56, 46.0], [-118.57, 46.0], [-118.58, 46.0], [-118.59, 46.0], [-118.61, 46.0], [-118.63, 46.0], [-118.64, 46.0], [-118.66, 46.0], [-118.68, 46.0], [-118.69, 46.0], [-118.7, 46.0], [-118.7, 46.0], [-118.72, 46.0], [-118.73, 46.0], [-118.77, 46.0], [-118.79, 46.0], [-118.83, 46.0], [-118.86, 46.0], [-118.9, 46.0], [-118.93, 46.0], [-118.94, 46.0], [-118.96, 46.0], [-118.98, 46.0], [-118.98, 46.0], [-118.98, 46.0], [-118.98, 46.0], [-119.0, 45.99], [-119.02, 45.97], [-119.04, 45.96], [-119.06, 45.96], [-119.08, 45.95], [-119.09, 45.94], [-119.13, 45.93], [-119.17, 45.93], [-119.18, 45.93], [-119.2, 45.93], [-119.23, 45.93], [-119.25, 45.94], [-119.26, 45.94], [-119.3, 45.94], [-119.3, 45.94], [-119.31, 45.93], [-119.32, 45.93], [-119.34, 45.93], [-119.36, 45.92], [-119.4, 45.92], [-119.43, 45.92], [-119.45, 45.92], [-119.49, 45.91], [-119.5, 45.91], [-119.52, 45.91], [-119.56, 45.92], [-119.57, 45.93], [-119.58, 45.92], [-119.6, 45.92], [-119.62, 45.91], [-119.63, 45.9], [-119.65, 45.88], [-119.67, 45.86], [-119.72, 45.85], [-119.77, 45.85], [-119.8, 45.85], [-119.84, 45.84], [-119.87, 45.84], [-119.91, 45.83], [-119.97, 45.82], [-120.0, 45.81], [-120.07, 45.79], [-120.1, 45.78], [-120.14, 45.77], [-120.16, 45.77], [-120.18, 45.76], [-120.18, 45.75], [-120.2, 45.74], [-120.21, 45.73], [-120.22, 45.73], [-120.25, 45.72], [-120.25, 45.72], [-120.26, 45.72], [-120.27, 45.72], [-120.27, 45.72], [-120.27, 45.72], [-120.28, 45.72], [-120.28, 45.72], [-120.29, 45.72], [-120.31, 45.72], [-120.33, 45.71], [-120.33, 45.71], [-120.34, 45.71], [-120.34, 45.71], [-120.35, 45.71], [-120.37, 45.71], [-120.39, 45.7], [-120.4, 45.7], [-120.41, 45.7], [-120.43, 45.7], [-120.46, 45.7], [-120.48, 45.69], [-120.51, 45.7], [-120.52, 45.71], [-120.53, 45.72], [-120.55, 45.73], [-120.56, 45.74], [-120.59, 45.75], [-120.63, 45.75], [-120.63, 45.75], [-120.67, 45.73], [-120.68, 45.72], [-120.69, 45.72], [-120.71, 45.71], [-120.79, 45.69], [-120.8, 45.68], [-120.86, 45.67], [-120.87, 45.66], [-120.9, 45.64], [-120.91, 45.64], [-120.94, 45.66], [-120.95, 45.66], [-120.98, 45.65], [-121.01, 45.65], [-121.02, 45.65], [-121.05, 45.65], [-121.06, 45.65], [-121.08, 45.65], [-121.09, 45.64], [-121.12, 45.62], [-121.12, 45.62], [-121.12, 45.62], [-121.12, 45.62], [-121.12, 45.62], [-121.12, 45.61], [-121.12, 45.61], [-121.13, 45.61], [-121.14, 45.61], [-121.15, 45.61], [-121.17, 45.61], [-121.18, 45.61], [-121.2, 45.62], [-121.2, 45.63], [-121.2, 45.65], [-121.2, 45.66], [-121.22, 45.67], [-121.25, 45.68], [-121.25, 45.68], [-121.27, 45.68], [-121.29, 45.69], [-121.31, 45.7], [-121.34, 45.7], [-121.35, 45.7], [-121.38, 45.7], [-121.4, 45.69], [-121.42, 45.69], [-121.43, 45.7], [-121.46, 45.7], [-121.47, 45.7], [-121.5, 45.72], [-121.52, 45.72], [-121.53, 45.73], [-121.63, 45.7], [-121.67, 45.71], [-121.71, 45.69], [-121.74, 45.69], [-121.81, 45.71], [-121.87, 45.69], [-121.9, 45.67], [-121.9, 45.66], [-121.91, 45.65], [-121.92, 45.65], [-121.94, 45.64], [-121.94, 45.64], [-121.94, 45.64], [-121.95, 45.64], [-121.95, 45.64], [-121.96, 45.63], [-121.98, 45.62], [-122.0, 45.62], [-122.0, 45.62], [-122.03, 45.61], [-122.06, 45.6], [-122.07, 45.6], [-122.1, 45.58], [-122.13, 45.58], [-122.15, 45.58], [-122.17, 45.58], [-122.18, 45.58], [-122.2, 45.56], [-122.21, 45.56], [-122.23, 45.56], [-122.25, 45.55], [-122.27, 45.54], [-122.29, 45.54], [-122.3, 45.54], [-122.33, 45.55], [-122.34, 45.56], [-122.35, 45.57], [-122.38, 45.58], [-122.4, 45.57], [-122.42, 45.57], [-122.42, 45.57], [-122.44, 45.56], [-122.46, 45.57], [-122.47, 45.58], [-122.47, 45.58], [-122.48, 45.58], [-122.49, 45.58], [-122.51, 45.59], [-122.55, 45.6], [-122.55, 45.6], [-122.55, 45.6], [-122.55, 45.6], [-122.55, 45.6], [-122.58, 45.6], [-122.6, 45.61], [-122.64, 45.61], [-122.67, 45.62], [-122.68, 45.62], [-122.68, 45.62], [-122.7, 45.63], [-122.71, 45.64], [-122.74, 45.64], [-122.75, 45.65], [-122.76, 45.66], [-122.77, 45.67], [-122.77, 45.68], [-122.77, 45.69], [-122.77, 45.71], [-122.77, 45.72], [-122.76, 45.73], [-122.76, 45.74], [-122.76, 45.76], [-122.77, 45.78], [-122.77, 45.78], [-122.79, 45.8], [-122.8, 45.81], [-122.8, 45.82], [-122.8, 45.83], [-122.79, 45.84], [-122.79, 45.85], [-122.79, 45.87], [-122.79, 45.87], [-122.8, 45.88], [-122.8, 45.89], [-122.81, 45.9], [-122.81, 45.91], [-122.81, 45.93], [-122.81, 45.95], [-122.82, 45.97], [-122.84, 45.98], [-122.86, 46.01], [-122.87, 46.03], [-122.88, 46.03], [-122.88, 46.05], [-122.88, 46.06], [-122.89, 46.06], [-122.89, 46.06], [-122.9, 46.08], [-122.9, 46.08], [-122.92, 46.09], [-122.94, 46.1], [-122.96, 46.1], [-122.99, 46.13], [-123.0, 46.13], [-123.01, 46.14], [-123.02, 46.14], [-123.02, 46.14], [-123.03, 46.14], [-123.04, 46.14], [-123.04, 46.15], [-123.05, 46.15], [-123.05, 46.15], [-123.05, 46.15], [-123.06, 46.16], [-123.11, 46.18], [-123.11, 46.18], [-123.12, 46.19], [-123.13, 46.19], [-123.16, 46.19], [-123.18, 46.18], [-123.2, 46.18], [-123.21, 46.17], [-123.25, 46.16], [-123.25, 46.16], [-123.28, 46.14], [-123.28, 46.14], [-123.29, 46.14], [-123.29, 46.14], [-123.29, 46.14], [-123.29, 46.14], [-123.3, 46.14], [-123.3, 46.14], [-123.3, 46.14], [-123.3, 46.14], [-123.31, 46.15], [-123.32, 46.15], [-123.32, 46.15], [-123.33, 46.15], [-123.33, 46.15], [-123.34, 46.15], [-123.34, 46.15], [-123.34, 46.15], [-123.36, 46.15], [-123.36, 46.15], [-123.38, 46.15], [-123.41, 46.17], [-123.42, 46.17], [-123.43, 46.18], [-123.43, 46.19], [-123.43, 46.2], [-123.43, 46.22], [-123.43, 46.23], [-123.45, 46.25], [-123.46, 46.26], [-123.46, 46.26], [-123.48, 46.27], [-123.5, 46.27], [-123.53, 46.26], [-123.54, 46.26], [-123.56, 46.26], [-123.57, 46.26], [-123.59, 46.26], [-123.63, 46.26], [-123.65, 46.26], [-123.69, 46.25], [-123.7, 46.25], [-123.71, 46.26], [-123.74, 46.27], [-123.75, 46.27], [-123.78, 46.25], [-123.78, 46.25], [-123.79, 46.25], [-123.8, 46.25], [-123.81, 46.25], [-123.82, 46.25], [-123.85, 46.24], [-123.87, 46.23], [-123.9, 46.24], [-123.93, 46.24], [-123.95, 46.25], [-123.95, 46.26], [-123.98, 46.27], [-123.99, 46.27], [-124.0, 46.27], [-124.01, 46.28], [-124.01, 46.28], [-124.01, 46.28], [-124.02, 46.3], [-124.02, 46.3], [-124.03, 46.3], [-124.04, 46.29], [-124.04, 46.28], [-124.03, 46.28], [-124.04, 46.26], [-124.08, 46.26], [-124.08, 46.28], [-124.07, 46.32], [-124.06, 46.34], [-124.06, 46.39], [-124.06, 46.43], [-124.06, 46.49], [-124.06, 46.51], [-124.06, 46.54], [-124.06, 46.58], [-124.07, 46.6], [-124.07, 46.63], [-124.06, 46.64], [-124.05, 46.63], [-124.05, 46.62], [-124.04, 46.61], [-124.04, 46.6], [-124.02, 46.58], [-124.02, 46.56], [-124.03, 46.54], [-124.03, 46.51], [-124.03, 46.5], [-124.03, 46.47], [-124.03, 46.45], [-124.02, 46.44], [-124.01, 46.38], [-124.01, 46.37], [-123.99, 46.38], [-123.97, 46.38], [-123.96, 46.37], [-123.95, 46.37], [-123.95, 46.4], [-123.94, 46.4], [-123.94, 46.41], [-123.92, 46.42], [-123.93, 46.43], [-123.93, 46.44], [-123.94, 46.45], [-123.93, 46.45], [-123.92, 46.43], [-123.91, 46.44], [-123.91, 46.45], [-123.92, 46.46], [-123.93, 46.47], [-123.94, 46.47], [-123.94, 46.49], [-123.93, 46.49], [-123.92, 46.51], [-123.91, 46.51], [-123.89, 46.52], [-123.9, 46.54], [-123.9, 46.55], [-123.9, 46.55], [-123.92, 46.57], [-123.92, 46.58], [-123.93, 46.59], [-123.96, 46.6], [-123.96, 46.62], [-123.93, 46.61], [-123.94, 46.64], [-123.92, 46.65], [-123.92, 46.67], [-123.91, 46.68], [-123.9, 46.68], [-123.89, 46.69], [-123.86, 46.7], [-123.85, 46.7], [-123.84, 46.71], [-123.85, 46.72], [-123.88, 46.73], [-123.89, 46.75], [-123.91, 46.75], [-123.92, 46.74], [-123.91, 46.73], [-123.93, 46.73], [-123.95, 46.73], [-123.97, 46.74], [-123.97, 46.73], [-123.98, 46.72], [-123.98, 46.71], [-123.99, 46.71], [-124.0, 46.71], [-124.02, 46.72], [-124.02, 46.71], [-124.05, 46.72], [-124.08, 46.73], [-124.09, 46.74], [-124.1, 46.79], [-124.1, 46.81], [-124.12, 46.86], [-124.13, 46.89], [-124.14, 46.91], [-124.12, 46.9], [-124.12, 46.91], [-124.1, 46.9], [-124.09, 46.9], [-124.09, 46.89], [-124.1, 46.88], [-124.09, 46.86], [-124.08, 46.86], [-124.08, 46.85], [-124.06, 46.85], [-124.06, 46.86], [-124.05, 46.86], [-124.03, 46.84], [-124.02, 46.85], [-124.03, 46.85], [-124.05, 46.86], [-124.06, 46.87], [-124.05, 46.89], [-124.03, 46.9], [-124.01, 46.9], [-124.0, 46.9], [-123.99, 46.92], [-123.99, 46.92], [-123.96, 46.92], [-123.94, 46.93], [-123.88, 46.94], [-123.86, 46.95], [-123.82, 46.96], [-123.81, 46.97], [-123.84, 46.96], [-123.86, 46.97], [-123.88, 46.97], [-123.89, 46.97], [-123.91, 46.97], [-123.95, 46.97], [-123.95, 46.97], [-123.93, 46.97], [-123.92, 46.98], [-123.94, 46.98], [-124.0, 46.98], [-124.02, 46.99], [-124.01, 47.0], [-124.02, 47.01], [-124.02, 47.01], [-124.03, 47.03], [-124.05, 47.03], [-124.06, 47.04], [-124.08, 47.04], [-124.11, 47.04], [-124.12, 47.04], [-124.15, 47.03], [-124.15, 47.02], [-124.15, 47.01], [-124.14, 47.0], [-124.14, 46.99], [-124.14, 46.97], [-124.13, 46.96], [-124.13, 46.95], [-124.14, 46.94], [-124.16, 46.93], [-124.17, 46.93], [-124.17, 46.99], [-124.17, 47.04], [-124.18, 47.09], [-124.18, 47.12], [-124.18, 47.13], [-124.19, 47.15], [-124.2, 47.21], [-124.22, 47.24], [-124.22, 47.25], [-124.24, 47.29], [-124.24, 47.3], [-124.26, 47.3], [-124.28, 47.31], [-124.29, 47.33], [-124.3, 47.35], [-124.32, 47.36], [-124.32, 47.37], [-124.33, 47.4], [-124.34, 47.41], [-124.34, 47.48], [-124.35, 47.53], [-124.36, 47.55], [-124.37, 47.59], [-124.37, 47.6], [-124.38, 47.63], [-124.4, 47.67], [-124.41, 47.69], [-124.42, 47.73], [-124.43, 47.74], [-124.46, 47.76], [-124.48, 47.78], [-124.48, 47.79], [-124.48, 47.8], [-124.49, 47.82], [-124.5, 47.82], [-124.51, 47.82], [-124.52, 47.83], [-124.54, 47.83], [-124.54, 47.84], [-124.56, 47.85], [-124.56, 47.86], [-124.57, 47.87], [-124.59, 47.88], [-124.6, 47.87], [-124.63, 47.9], [-124.63, 47.9], [-124.64, 47.91], [-124.64, 47.92], [-124.65, 47.94], [-124.66, 47.95], [-124.66, 47.96], [-124.67, 47.97], [-124.67, 47.98], [-124.68, 48.0], [-124.68, 48.01], [-124.69, 48.05], [-124.69, 48.06], [-124.7, 48.07], [-124.7, 48.09], [-124.69, 48.1], [-124.69, 48.1], [-124.7, 48.12], [-124.71, 48.13], [-124.71, 48.13], [-124.72, 48.15], [-124.73, 48.16], [-124.73, 48.17], [-124.71, 48.18], [-124.7, 48.19], [-124.69, 48.21], [-124.7, 48.24], [-124.68, 48.26], [-124.68, 48.28], [-124.69, 48.29], [-124.67, 48.3], [-124.66, 48.31], [-124.67, 48.32], [-124.66, 48.33], [-124.67, 48.34], [-124.68, 48.34], [-124.7, 48.34], [-124.71, 48.35], [-124.71, 48.37], [-124.73, 48.37], [-124.73, 48.38], [-124.72, 48.39], [-124.71, 48.39], [-124.66, 48.39], [-124.64, 48.38], [-124.62, 48.37], [-124.61, 48.37], [-124.59, 48.37], [-124.56, 48.37], [-124.54, 48.35], [-124.51, 48.34], [-124.49, 48.33], [-124.48, 48.33], [-124.45, 48.32], [-124.44, 48.31], [-124.42, 48.3], [-124.39, 48.29], [-124.38, 48.28], [-124.36, 48.29], [-124.34, 48.28], [-124.3, 48.27], [-124.29, 48.26], [-124.27, 48.25], [-124.25, 48.26], [-124.24, 48.26], [-124.22, 48.25], [-124.19, 48.25], [-124.14, 48.23], [-124.13, 48.22], [-124.11, 48.22], [-124.1, 48.22], [-124.11, 48.2], [-124.07, 48.19], [-124.05, 48.18], [-124.02, 48.18], [-123.98, 48.16], [-123.95, 48.17], [-123.94, 48.16], [-123.92, 48.16], [-123.88, 48.16], [-123.87, 48.15], [-123.84, 48.16], [-123.83, 48.16], [-123.82, 48.16], [-123.78, 48.16], [-123.77, 48.16], [-123.73, 48.17], [-123.72, 48.16], [-123.7, 48.17], [-123.67, 48.16], [-123.65, 48.16], [-123.64, 48.15], [-123.63, 48.14], [-123.59, 48.14], [-123.57, 48.14], [-123.56, 48.15], [-123.55, 48.15], [-123.53, 48.15], [-123.52, 48.13], [-123.51, 48.13], [-123.46, 48.14], [-123.45, 48.12], [-123.45, 48.13], [-123.43, 48.12], [-123.4, 48.11], [-123.38, 48.11], [-123.35, 48.12], [-123.34, 48.11], [-123.31, 48.11], [-123.29, 48.12], [-123.28, 48.12], [-123.25, 48.12], [-123.22, 48.13], [-123.19, 48.15], [-123.18, 48.15], [-123.15, 48.15], [-123.14, 48.15], [-123.13, 48.15], [-123.11, 48.15], [-123.11, 48.14], [-123.09, 48.13], [-123.07, 48.12], [-123.05, 48.1], [-123.05, 48.08], [-123.04, 48.05], [-123.02, 48.04], [-123.01, 48.03], [-123.0, 48.02], [-123.0, 48.04], [-123.01, 48.05], [-123.01, 48.07], [-123.02, 48.08], [-123.01, 48.09], [-122.98, 48.1], [-122.95, 48.1], [-122.92, 48.1], [-122.93, 48.07], [-122.92, 48.06], [-122.89, 48.05], [-122.88, 48.05], [-122.87, 48.03], [-122.86, 48.02], [-122.87, 48.0], [-122.88, 48.0], [-122.88, 47.99], [-122.85, 48.0], [-122.84, 48.0], [-122.83, 48.01], [-122.83, 48.04], [-122.83, 48.05], [-122.85, 48.05], [-122.86, 48.07], [-122.88, 48.08], [-122.89, 48.08], [-122.88, 48.09], [-122.89, 48.1], [-122.88, 48.11], [-122.85, 48.12], [-122.84, 48.14], [-122.83, 48.13], [-122.78, 48.14], [-122.75, 48.14], [-122.76, 48.13], [-122.75, 48.12], [-122.78, 48.1], [-122.8, 48.09], [-122.79, 48.08], [-122.79, 48.07], [-122.77, 48.06], [-122.77, 48.04], [-122.75, 48.03], [-122.75, 48.03], [-122.73, 48.03], [-122.73, 48.03], [-122.73, 48.02], [-122.72, 48.01], [-122.72, 47.99], [-122.7, 47.97], [-122.68, 47.97], [-122.68, 47.96], [-122.68, 47.94], [-122.68, 47.93], [-122.69, 47.92], [-122.68, 47.92], [-122.66, 47.93], [-122.65, 47.92], [-122.65, 47.9], [-122.65, 47.9], [-122.64, 47.89], [-122.62, 47.89], [-122.62, 47.89], [-122.63, 47.87], [-122.65, 47.86], [-122.67, 47.87], [-122.69, 47.87], [-122.68, 47.84], [-122.69, 47.83], [-122.7, 47.83], [-122.71, 47.82], [-122.73, 47.81], [-122.74, 47.81], [-122.75, 47.8], [-122.74, 47.79], [-122.75, 47.79], [-122.75, 47.78], [-122.76, 47.75], [-122.77, 47.74], [-122.78, 47.72], [-122.78, 47.7], [-122.77, 47.69], [-122.79, 47.69], [-122.81, 47.68], [-122.83, 47.69], [-122.82, 47.71], [-122.81, 47.71], [-122.81, 47.73], [-122.81, 47.73], [-122.81, 47.75], [-122.8, 47.76], [-122.8, 47.77], [-122.79, 47.79], [-122.79, 47.8], [-122.8, 47.81], [-122.79, 47.82], [-122.8, 47.83], [-122.81, 47.85], [-122.82, 47.84], [-122.83, 47.82], [-122.82, 47.81], [-122.82, 47.81], [-122.82, 47.79], [-122.84, 47.78], [-122.85, 47.78], [-122.84, 47.8], [-122.85, 47.82], [-122.86, 47.82], [-122.87, 47.81], [-122.87, 47.79], [-122.87, 47.77], [-122.85, 47.76], [-122.85, 47.75], [-122.88, 47.74], [-122.87, 47.73], [-122.88, 47.73], [-122.89, 47.71], [-122.89, 47.71], [-122.89, 47.69], [-122.91, 47.67], [-122.9, 47.65], [-122.9, 47.65], [-122.93, 47.65], [-122.94, 47.63], [-122.98, 47.62], [-122.98, 47.6], [-123.0, 47.58], [-123.01, 47.56], [-123.03, 47.55], [-123.05, 47.53], [-123.06, 47.5], [-123.08, 47.48], [-123.1, 47.46], [-123.11, 47.46], [-123.11, 47.45], [-123.12, 47.43], [-123.13, 47.42], [-123.14, 47.4], [-123.15, 47.38], [-123.16, 47.37], [-123.15, 47.36], [-123.16, 47.35], [-123.14, 47.34], [-123.14, 47.34], [-123.14, 47.34], [-123.12, 47.34], [-123.11, 47.34], [-123.11, 47.36], [-123.08, 47.36], [-123.07, 47.35], [-123.04, 47.35], [-123.02, 47.35], [-123.01, 47.36], [-122.97, 47.38], [-122.96, 47.38], [-122.93, 47.39], [-122.91, 47.39], [-122.89, 47.4], [-122.88, 47.41], [-122.87, 47.42], [-122.84, 47.44], [-122.85, 47.44], [-122.88, 47.43], [-122.9, 47.42], [-122.91, 47.42], [-122.92, 47.41], [-122.94, 47.41], [-122.98, 47.4], [-122.99, 47.39], [-123.01, 47.38], [-123.02, 47.36], [-123.04, 47.36], [-123.06, 47.37], [-123.08, 47.38], [-123.11, 47.37], [-123.11, 47.38], [-123.12, 47.39], [-123.1, 47.41], [-123.1, 47.42], [-123.08, 47.45], [-123.07, 47.46], [-123.06, 47.47], [-123.04, 47.48], [-123.03, 47.49], [-123.03, 47.51], [-123.02, 47.53], [-123.0, 47.54], [-122.98, 47.56], [-122.98, 47.56], [-122.97, 47.58], [-122.95, 47.59], [-122.92, 47.6], [-122.92, 47.61], [-122.91, 47.62], [-122.9, 47.63], [-122.88, 47.63], [-122.86, 47.64], [-122.85, 47.65], [-122.83, 47.65], [-122.84, 47.64], [-122.82, 47.64], [-122.8, 47.65], [-122.79, 47.66], [-122.76, 47.66], [-122.76, 47.67], [-122.75, 47.68], [-122.75, 47.7], [-122.75, 47.72], [-122.74, 47.73], [-122.73, 47.74], [-122.72, 47.76], [-122.71, 47.77], [-122.69, 47.78], [-122.68, 47.8], [-122.67, 47.81], [-122.66, 47.81], [-122.65, 47.82], [-122.63, 47.83], [-122.62, 47.84], [-122.61, 47.85], [-122.61, 47.86], [-122.58, 47.86], [-122.58, 47.83], [-122.57, 47.82], [-122.56, 47.82], [-122.57, 47.83], [-122.57, 47.85], [-122.58, 47.86], [-122.57, 47.87], [-122.58, 47.88], [-122.59, 47.91], [-122.6, 47.92], [-122.62, 47.92], [-122.62, 47.94], [-122.6, 47.94], [-122.59, 47.92], [-122.58, 47.92], [-122.55, 47.92], [-122.52, 47.91], [-122.52, 47.9], [-122.51, 47.88], [-122.51, 47.87], [-122.51, 47.86], [-122.51, 47.83], [-122.5, 47.83], [-122.48, 47.82], [-122.48, 47.81], [-122.5, 47.79], [-122.5, 47.79], [-122.48, 47.78], [-122.48, 47.78], [-122.47, 47.77], [-122.47, 47.75], [-122.49, 47.74], [-122.52, 47.74], [-122.54, 47.75], [-122.55, 47.74], [-122.55, 47.73], [-122.56, 47.72], [-122.58, 47.7], [-122.59, 47.69], [-122.6, 47.7], [-122.61, 47.71], [-122.63, 47.72], [-122.64, 47.73], [-122.65, 47.74], [-122.66, 47.73], [-122.65, 47.71], [-122.63, 47.71], [-122.61, 47.7], [-122.62, 47.69], [-122.61, 47.68], [-122.61, 47.66], [-122.62, 47.65], [-122.59, 47.64], [-122.59, 47.63], [-122.6, 47.6], [-122.59, 47.6], [-122.6, 47.57], [-122.62, 47.57], [-122.62, 47.58], [-122.64, 47.58], [-122.65, 47.59], [-122.66, 47.6], [-122.66, 47.62], [-122.68, 47.62], [-122.67, 47.64], [-122.69, 47.65], [-122.69, 47.65], [-122.7, 47.64], [-122.71, 47.62], [-122.71, 47.6], [-122.69, 47.61], [-122.69, 47.58], [-122.68, 47.57], [-122.67, 47.57], [-122.67, 47.57], [-122.67, 47.58], [-122.67, 47.58], [-122.67, 47.58], [-122.67, 47.6], [-122.66, 47.6], [-122.67, 47.58], [-122.65, 47.59], [-122.65, 47.58], [-122.63, 47.58], [-122.62, 47.57], [-122.63, 47.56], [-122.65, 47.56], [-122.67, 47.55], [-122.68, 47.54], [-122.69, 47.53], [-122.69, 47.53], [-122.67, 47.53], [-122.67, 47.54], [-122.65, 47.54], [-122.64, 47.54], [-122.63, 47.54], [-122.62, 47.55], [-122.61, 47.55], [-122.59, 47.57], [-122.57, 47.58], [-122.56, 47.59], [-122.55, 47.59], [-122.55, 47.57], [-122.53, 47.57], [-122.54, 47.56], [-122.54, 47.54], [-122.55, 47.52], [-122.52, 47.52], [-122.52, 47.52], [-122.5, 47.52], [-122.49, 47.51], [-122.52, 47.49], [-122.52, 47.48], [-122.53, 47.47], [-122.53, 47.46], [-122.54, 47.45], [-122.53, 47.43], [-122.55, 47.41], [-122.55, 47.39], [-122.54, 47.38], [-122.55, 47.37], [-122.56, 47.35], [-122.57, 47.33], [-122.59, 47.34], [-122.59, 47.34], [-122.58, 47.33], [-122.56, 47.31], [-122.55, 47.29], [-122.55, 47.28], [-122.57, 47.26], [-122.58, 47.26], [-122.59, 47.25], [-122.6, 47.26], [-122.63, 47.28], [-122.64, 47.28], [-122.67, 47.29], [-122.68, 47.29], [-122.69, 47.28], [-122.7, 47.29], [-122.69, 47.31], [-122.68, 47.32], [-122.66, 47.33], [-122.66, 47.33], [-122.67, 47.34], [-122.65, 47.36], [-122.64, 47.36], [-122.62, 47.37], [-122.63, 47.38], [-122.66, 47.37], [-122.68, 47.37], [-122.69, 47.35], [-122.71, 47.35], [-122.73, 47.34], [-122.72, 47.32], [-122.73, 47.31], [-122.74, 47.3], [-122.75, 47.29], [-122.76, 47.27], [-122.74, 47.26], [-122.74, 47.25], [-122.73, 47.24], [-122.72, 47.23], [-122.72, 47.22], [-122.75, 47.21], [-122.75, 47.2], [-122.75, 47.19], [-122.75, 47.17], [-122.76, 47.17], [-122.77, 47.17], [-122.78, 47.18], [-122.79, 47.19], [-122.81, 47.22], [-122.81, 47.22], [-122.82, 47.23], [-122.83, 47.24], [-122.82, 47.28], [-122.8, 47.29], [-122.79, 47.3], [-122.79, 47.32], [-122.79, 47.34], [-122.8, 47.35], [-122.79, 47.36], [-122.81, 47.36], [-122.82, 47.38], [-122.81, 47.39], [-122.82, 47.41], [-122.83, 47.39], [-122.83, 47.38], [-122.82, 47.36], [-122.83, 47.33], [-122.84, 47.32], [-122.85, 47.31], [-122.86, 47.31], [-122.89, 47.29], [-122.91, 47.29], [-122.93, 47.28], [-122.93, 47.27], [-122.93, 47.25], [-122.94, 47.25], [-122.94, 47.23], [-122.94, 47.22], [-122.93, 47.21], [-122.95, 47.2], [-122.96, 47.21], [-122.98, 47.2], [-123.0, 47.2], [-123.0, 47.21], [-123.02, 47.21], [-123.04, 47.21], [-123.06, 47.21], [-123.07, 47.21], [-123.05, 47.23], [-123.05, 47.23], [-123.03, 47.25], [-123.02, 47.25], [-123.02, 47.26], [-123.04, 47.25], [-123.05, 47.24], [-123.08, 47.22], [-123.08, 47.21], [-123.06, 47.2], [-123.04, 47.21], [-123.0, 47.2], [-123.0, 47.2], [-122.96, 47.2], [-122.94, 47.2], [-122.95, 47.19], [-122.96, 47.18], [-122.97, 47.17], [-122.98, 47.17], [-122.99, 47.17], [-123.01, 47.15], [-123.02, 47.16], [-123.03, 47.15], [-123.04, 47.16], [-123.05, 47.15], [-123.09, 47.13], [-123.07, 47.13], [-123.06, 47.14], [-123.06, 47.15], [-123.04, 47.15], [-123.02, 47.15], [-123.02, 47.14], [-123.02, 47.13], [-123.02, 47.12], [-123.03, 47.12], [-123.05, 47.12], [-123.06, 47.12], [-123.08, 47.11], [-123.09, 47.1], [-123.07, 47.1], [-123.06, 47.11], [-123.04, 47.11], [-123.02, 47.11], [-123.01, 47.12], [-123.0, 47.13], [-123.01, 47.14], [-123.0, 47.15], [-122.98, 47.15], [-122.97, 47.15], [-122.96, 47.15], [-122.94, 47.17], [-122.94, 47.18], [-122.92, 47.17], [-122.92, 47.16], [-122.93, 47.15], [-122.96, 47.14], [-122.96, 47.12], [-122.96, 47.11], [-122.96, 47.11], [-122.98, 47.1], [-122.99, 47.08], [-123.01, 47.08], [-123.02, 47.07], [-122.99, 47.08], [-122.98, 47.08], [-122.95, 47.1], [-122.94, 47.11], [-122.94, 47.13], [-122.93, 47.14], [-122.92, 47.12], [-122.93, 47.11], [-122.94, 47.08], [-122.93, 47.08], [-122.92, 47.07], [-122.91, 47.05], [-122.9, 47.06], [-122.9, 47.07], [-122.9, 47.08], [-122.89, 47.1], [-122.89, 47.12], [-122.9, 47.13], [-122.91, 47.14], [-122.89, 47.15], [-122.88, 47.15], [-122.86, 47.16], [-122.84, 47.16], [-122.84, 47.15], [-122.84, 47.15], [-122.84, 47.13], [-122.84, 47.12], [-122.83, 47.12], [-122.83, 47.16], [-122.82, 47.18], [-122.8, 47.16], [-122.79, 47.14], [-122.79, 47.13], [-122.77, 47.12], [-122.75, 47.11], [-122.73, 47.1], [-122.72, 47.1], [-122.7, 47.1], [-122.68, 47.1], [-122.67, 47.11], [-122.66, 47.13], [-122.64, 47.14], [-122.62, 47.14], [-122.62, 47.16], [-122.61, 47.17], [-122.59, 47.18], [-122.58, 47.19], [-122.58, 47.21], [-122.57, 47.22], [-122.56, 47.24], [-122.56, 47.24], [-122.55, 47.26], [-122.53, 47.28], [-122.53, 47.29], [-122.54, 47.31], [-122.53, 47.32], [-122.5, 47.3], [-122.48, 47.28], [-122.47, 47.28], [-122.46, 47.27], [-122.44, 47.26], [-122.41, 47.28], [-122.41, 47.28], [-122.41, 47.29], [-122.44, 47.3], [-122.44, 47.31], [-122.43, 47.31], [-122.43, 47.32], [-122.4, 47.32], [-122.4, 47.33], [-122.38, 47.33], [-122.37, 47.34], [-122.34, 47.34], [-122.32, 47.35], [-122.33, 47.39], [-122.33, 47.41], [-122.35, 47.42], [-122.36, 47.44], [-122.38, 47.45], [-122.37, 47.46], [-122.37, 47.47], [-122.36, 47.48], [-122.37, 47.49], [-122.39, 47.5], [-122.4, 47.52], [-122.39, 47.52], [-122.4, 47.53], [-122.4, 47.54], [-122.4, 47.55], [-122.41, 47.57], [-122.42, 47.58], [-122.4, 47.58], [-122.39, 47.6], [-122.37, 47.58], [-122.36, 47.58], [-122.34, 47.59], [-122.34, 47.6], [-122.37, 47.63], [-122.38, 47.63], [-122.42, 47.64], [-122.42, 47.65], [-122.44, 47.66], [-122.41, 47.67], [-122.4, 47.68], [-122.41, 47.69], [-122.39, 47.7], [-122.38, 47.71], [-122.37, 47.73], [-122.38, 47.75], [-122.38, 47.76], [-122.39, 47.77], [-122.4, 47.78], [-122.39, 47.79], [-122.4, 47.81], [-122.38, 47.82], [-122.35, 47.84], [-122.34, 47.84], [-122.34, 47.85], [-122.34, 47.86], [-122.33, 47.87], [-122.33, 47.88], [-122.32, 47.91], [-122.31, 47.93], [-122.31, 47.94], [-122.31, 47.95], [-122.28, 47.96], [-122.25, 47.96], [-122.22, 47.98], [-122.22, 47.99], [-122.22, 48.0], [-122.21, 48.02], [-122.21, 48.03], [-122.21, 48.04], [-122.23, 48.04], [-122.23, 48.03], [-122.24, 48.03], [-122.27, 48.05], [-122.28, 48.06], [-122.3, 48.07], [-122.3, 48.07], [-122.32, 48.08], [-122.33, 48.09], [-122.34, 48.1], [-122.35, 48.11], [-122.36, 48.12], [-122.37, 48.14], [-122.36, 48.15], [-122.37, 48.17], [-122.36, 48.18], [-122.36, 48.19], [-122.37, 48.2], [-122.37, 48.21], [-122.39, 48.22], [-122.39, 48.23], [-122.41, 48.23], [-122.42, 48.23], [-122.43, 48.24], [-122.45, 48.23], [-122.45, 48.21], [-122.44, 48.21], [-122.45, 48.2], [-122.48, 48.19], [-122.48, 48.18], [-122.47, 48.16], [-122.46, 48.15], [-122.45, 48.14], [-122.44, 48.13], [-122.43, 48.13], [-122.38, 48.09], [-122.36, 48.06], [-122.37, 48.06], [-122.39, 48.06], [-122.39, 48.08], [-122.4, 48.09], [-122.42, 48.09], [-122.42, 48.1], [-122.44, 48.11], [-122.47, 48.13], [-122.48, 48.13], [-122.49, 48.12], [-122.51, 48.13], [-122.51, 48.15], [-122.53, 48.17], [-122.54, 48.18], [-122.53, 48.19], [-122.54, 48.2], [-122.53, 48.22], [-122.54, 48.24], [-122.53, 48.25], [-122.5, 48.26], [-122.49, 48.25], [-122.47, 48.26], [-122.47, 48.27], [-122.44, 48.27], [-122.42, 48.26], [-122.4, 48.25], [-122.4, 48.25], [-122.39, 48.28], [-122.37, 48.29], [-122.37, 48.3], [-122.4, 48.31], [-122.41, 48.33], [-122.45, 48.34], [-122.46, 48.35], [-122.47, 48.35], [-122.48, 48.37], [-122.5, 48.38], [-122.51, 48.37], [-122.52, 48.38], [-122.53, 48.38], [-122.54, 48.39], [-122.55, 48.41], [-122.55, 48.41], [-122.56, 48.43], [-122.55, 48.44], [-122.56, 48.45], [-122.58, 48.45], [-122.58, 48.43], [-122.58, 48.43], [-122.6, 48.42], [-122.61, 48.42], [-122.62, 48.41], [-122.63, 48.42], [-122.64, 48.41], [-122.66, 48.41], [-122.66, 48.42], [-122.67, 48.43], [-122.68, 48.44], [-122.65, 48.45], [-122.66, 48.47], [-122.67, 48.49], [-122.69, 48.49], [-122.7, 48.49], [-122.68, 48.51], [-122.67, 48.5], [-122.61, 48.52], [-122.6, 48.52], [-122.6, 48.51], [-122.61, 48.51], [-122.6, 48.5], [-122.58, 48.46], [-122.57, 48.47], [-122.58, 48.49], [-122.57, 48.5], [-122.56, 48.5], [-122.54, 48.47], [-122.51, 48.46], [-122.5, 48.46], [-122.47, 48.47], [-122.47, 48.48], [-122.48, 48.49], [-122.49, 48.51], [-122.48, 48.52], [-122.49, 48.54], [-122.5, 48.54], [-122.5, 48.55], [-122.51, 48.57], [-122.52, 48.57], [-122.54, 48.58], [-122.5, 48.58], [-122.49, 48.56], [-122.47, 48.56], [-122.46, 48.56], [-122.46, 48.57], [-122.45, 48.57], [-122.44, 48.58], [-122.43, 48.6], [-122.45, 48.62], [-122.46, 48.63], [-122.49, 48.64], [-122.5, 48.66], [-122.49, 48.67], [-122.49, 48.69], [-122.5, 48.7], [-122.51, 48.7], [-122.52, 48.71], [-122.51, 48.72], [-122.49, 48.74], [-122.49, 48.76], [-122.5, 48.76], [-122.53, 48.77], [-122.54, 48.78], [-122.58, 48.78], [-122.58, 48.79], [-122.6, 48.78], [-122.61, 48.76], [-122.63, 48.74], [-122.65, 48.72], [-122.66, 48.73], [-122.67, 48.73], [-122.67, 48.74], [-122.65, 48.77], [-122.65, 48.79], [-122.66, 48.79], [-122.68, 48.8], [-122.71, 48.8], [-122.72, 48.84], [-122.73, 48.86], [-122.75, 48.86], [-122.76, 48.87], [-122.79, 48.89], [-122.78, 48.89], [-122.77, 48.91], [-122.75, 48.91], [-122.75, 48.93], [-122.76, 48.94], [-122.77, 48.94], [-122.79, 48.93], [-122.82, 48.94], [-122.82, 48.94], [-122.82, 48.96], [-122.8, 48.97], [-122.79, 48.98], [-122.78, 48.97], [-122.75, 48.96], [-122.73, 48.96], [-122.73, 48.97], [-122.74, 48.98], [-122.76, 48.99], [-122.76, 49.0], [-122.38, 49.0], [-122.31, 49.0], [-122.1, 49.0], [-121.82, 49.0]]]]}}]}