{"type": "FeatureCollection", "features": [{"type": "Feature", "properties": {"ID": 46, "abbreviation": "WV", "name": "West Virginia"}, "geometry": {"type": "Polygon", "coordinates": [[[-80.52, 40.64], [-80.52, 40.47], [-80.52, 40.46], [-80.52, 40.37], [-80.52, 40.35], [-80.52, 40.21], [-80.52, 40.12], [-80.52, 39.93], [-80.52, 39.89], [-80.52, 39.81], [-80.52, 39.72], [-80.41, 39.72], [-80.41, 39.72], [-80.4, 39.72], [-80.27, 39.72], [-80.0, 39.72], [-79.94, 39.72], [-79.8, 39.72], [-79.76, 39.72], [-79.75, 39.72], [-79.67, 39.72], [-79.56, 39.72], [-79.48, 39.72], [-79.48, 39.64], [-79.48, 39.63], [-79.48, 39.53], [-79.48, 39.53], [-79.48, 39.34], [-79.49, 39.34], [-79.49, 39.28], [-79.49, 39.26], [-79.49, 39.21], [-79.47, 39.2], [-79.46, 39.21], [-79.45, 39.21], [-79.42, 39.23], [-79.43, 39.23], [-79.41, 39.24], [-79.39, 39.26], [-79.38, 39.27], [-79.35, 39.28], [-79.33, 39.3], [-79.32, 39.3], [-79.3, 39.3], [-79.29, 39.3], [-79.28, 39.31], [-79.28, 39.32], [-79.26, 39.33], [-79.25, 39.36], [-79.23, 39.36], [-79.21, 39.36], [-79.2, 39.39], [-79.19, 39.39], [-79.18, 39.39], [-79.16, 39.39], [-79.17, 39.4], [-79.16, 39.42], [-79.15, 39.41], [-79.13, 39.42], [-79.13, 39.43], [-79.12, 39.43], [-79.11, 39.43], [-79.12, 39.44], [-79.1, 39.45], [-79.1, 39.46], [-79.1, 39.48], [-79.08, 39.47], [-79.07, 39.47], [-79.07, 39.48], [-79.07, 39.48], [-79.07, 39.48], [-79.06, 39.47], [-79.05, 39.48], [-79.04, 39.48], [-79.03, 39.47], [-79.02, 39.47], [-79.01, 39.46], [-78.98, 39.45], [-78.97, 39.44], [-78.96, 39.44], [-78.95, 39.45], [-78.96, 39.46], [-78.95, 39.47], [-78.94, 39.47], [-78.94, 39.48], [-78.93, 39.49], [-78.92, 39.49], [-78.9, 39.5], [-78.9, 39.51], [-78.89, 39.51], [-78.89, 39.52], [-78.88, 39.52], [-78.85, 39.55], [-78.85, 39.56], [-78.84, 39.57], [-78.82, 39.56], [-78.81, 39.57], [-78.83, 39.58], [-78.82, 39.59], [-78.81, 39.6], [-78.81, 39.61], [-78.8, 39.61], [-78.8, 39.63], [-78.8, 39.64], [-78.77, 39.64], [-78.78, 39.62], [-78.76, 39.62], [-78.75, 39.63], [-78.74, 39.62], [-78.73, 39.61], [-78.75, 39.61], [-78.75, 39.61], [-78.76, 39.61], [-78.78, 39.6], [-78.77, 39.59], [-78.76, 39.58], [-78.74, 39.58], [-78.73, 39.59], [-78.73, 39.57], [-78.73, 39.56], [-78.71, 39.56], [-78.71, 39.56], [-78.69, 39.55], [-78.69, 39.55], [-78.66, 39.53], [-78.62, 39.54], [-78.6, 39.53], [-78.6, 39.54], [-78.59, 39.53], [-78.57, 39.52], [-78.52, 39.52], [-78.5, 39.52], [-78.48, 39.52], [-78.47, 39.52], [-78.46, 39.52], [-78.46, 39.54], [-78.44, 39.54], [-78.43, 39.55], [-78.42, 39.55], [-78.43, 39.56], [-78.44, 39.56], [-78.45, 39.57], [-78.46, 39.59], [-78.44, 39.59], [-78.41, 39.58], [-78.4, 39.58], [-78.4, 39.59], [-78.42, 39.6], [-78.43, 39.61], [-78.43, 39.62], [-78.42, 39.62], [-78.4, 39.62], [-78.38, 39.61], [-78.37, 39.61], [-78.38, 39.62], [-78.37, 39.63], [-78.35, 39.63], [-78.36, 39.64], [-78.35, 39.64], [-78.31, 39.63], [-78.29, 39.62], [-78.27, 39.62], [-78.26, 39.63], [-78.25, 39.64], [-78.22, 39.66], [-78.23, 39.67], [-78.23, 39.68], [-78.21, 39.68], [-78.19, 39.69], [-78.18, 39.7], [-78.17, 39.7], [-78.15, 39.69], [-78.11, 39.68], [-78.09, 39.67], [-78.08, 39.67], [-78.04, 39.64], [-78.01, 39.6], [-78.01, 39.6], [-77.98, 39.6], [-77.97, 39.61], [-77.95, 39.61], [-77.95, 39.59], [-77.94, 39.59], [-77.93, 39.62], [-77.92, 39.6], [-77.89, 39.6], [-77.88, 39.6], [-77.87, 39.61], [-77.86, 39.61], [-77.84, 39.61], [-77.83, 39.6], [-77.83, 39.59], [-77.83, 39.57], [-77.84, 39.56], [-77.87, 39.56], [-77.89, 39.56], [-77.89, 39.55], [-77.87, 39.54], [-77.86, 39.53], [-77.87, 39.52], [-77.86, 39.51], [-77.84, 39.52], [-77.84, 39.53], [-77.83, 39.53], [-77.83, 39.52], [-77.85, 39.51], [-77.85, 39.5], [-77.83, 39.49], [-77.8, 39.49], [-77.79, 39.49], [-77.78, 39.5], [-77.77, 39.5], [-77.77, 39.49], [-77.8, 39.48], [-77.8, 39.47], [-77.78, 39.46], [-77.79, 39.46], [-77.8, 39.46], [-77.79, 39.45], [-77.8, 39.44], [-77.8, 39.44], [-77.79, 39.43], [-77.76, 39.43], [-77.75, 39.42], [-77.74, 39.4], [-77.74, 39.39], [-77.75, 39.38], [-77.74, 39.37], [-77.75, 39.35], [-77.76, 39.34], [-77.76, 39.33], [-77.72, 39.32], [-77.73, 39.31], [-77.75, 39.3], [-77.77, 39.24], [-77.79, 39.22], [-77.8, 39.2], [-77.8, 39.19], [-77.81, 39.17], [-77.82, 39.16], [-77.82, 39.15], [-77.82, 39.14], [-77.83, 39.13], [-78.03, 39.26], [-78.11, 39.31], [-78.14, 39.33], [-78.16, 39.34], [-78.19, 39.36], [-78.21, 39.38], [-78.26, 39.41], [-78.29, 39.43], [-78.35, 39.47], [-78.35, 39.46], [-78.35, 39.44], [-78.35, 39.44], [-78.35, 39.43], [-78.36, 39.42], [-78.36, 39.41], [-78.34, 39.39], [-78.35, 39.38], [-78.37, 39.36], [-78.34, 39.35], [-78.35, 39.34], [-78.36, 39.32], [-78.39, 39.29], [-78.39, 39.28], [-78.4, 39.28], [-78.42, 39.26], [-78.4, 39.24], [-78.41, 39.23], [-78.42, 39.21], [-78.44, 39.2], [-78.43, 39.2], [-78.43, 39.18], [-78.4, 39.17], [-78.41, 39.16], [-78.43, 39.15], [-78.44, 39.14], [-78.44, 39.13], [-78.46, 39.11], [-78.48, 39.11], [-78.48, 39.11], [-78.5, 39.1], [-78.53, 39.07], [-78.54, 39.06], [-78.57, 39.03], [-78.55, 39.02], [-78.57, 39.0], [-78.58, 38.99], [-78.59, 38.97], [-78.6, 38.96], [-78.62, 38.97], [-78.62, 38.98], [-78.63, 38.98], [-78.64, 38.97], [-78.65, 38.97], [-78.66, 38.95], [-78.68, 38.93], [-78.69, 38.92], [-78.7, 38.91], [-78.7, 38.92], [-78.72, 38.91], [-78.72, 38.93], [-78.74, 38.93], [-78.75, 38.92], [-78.76, 38.9], [-78.78, 38.89], [-78.79, 38.89], [-78.81, 38.86], [-78.82, 38.84], [-78.84, 38.81], [-78.85, 38.79], [-78.87, 38.76], [-78.99, 38.85], [-79.0, 38.85], [-79.01, 38.82], [-79.02, 38.82], [-79.02, 38.81], [-79.02, 38.8], [-79.03, 38.79], [-79.05, 38.79], [-79.05, 38.79], [-79.05, 38.77], [-79.06, 38.76], [-79.07, 38.75], [-79.09, 38.72], [-79.09, 38.7], [-79.09, 38.69], [-79.09, 38.66], [-79.11, 38.66], [-79.12, 38.66], [-79.13, 38.65], [-79.14, 38.64], [-79.15, 38.62], [-79.16, 38.6], [-79.16, 38.59], [-79.16, 38.58], [-79.18, 38.57], [-79.18, 38.55], [-79.19, 38.54], [-79.21, 38.52], [-79.21, 38.51], [-79.21, 38.5], [-79.21, 38.49], [-79.22, 38.48], [-79.23, 38.48], [-79.24, 38.47], [-79.24, 38.45], [-79.25, 38.46], [-79.27, 38.44], [-79.28, 38.43], [-79.28, 38.42], [-79.3, 38.41], [-79.31, 38.41], [-79.37, 38.43], [-79.48, 38.46], [-79.5, 38.5], [-79.52, 38.53], [-79.54, 38.55], [-79.54, 38.55], [-79.54, 38.55], [-79.55, 38.56], [-79.57, 38.56], [-79.65, 38.59], [-79.66, 38.57], [-79.67, 38.55], [-79.67, 38.53], [-79.66, 38.52], [-79.68, 38.51], [-79.68, 38.5], [-79.69, 38.49], [-79.7, 38.49], [-79.69, 38.48], [-79.7, 38.48], [-79.69, 38.46], [-79.69, 38.44], [-79.69, 38.43], [-79.71, 38.42], [-79.73, 38.39], [-79.73, 38.37], [-79.73, 38.36], [-79.74, 38.35], [-79.76, 38.36], [-79.77, 38.35], [-79.77, 38.34], [-79.8, 38.32], [-79.81, 38.3], [-79.8, 38.29], [-79.8, 38.29], [-79.79, 38.27], [-79.79, 38.27], [-79.81, 38.26], [-79.82, 38.25], [-79.83, 38.25], [-79.83, 38.24], [-79.85, 38.24], [-79.85, 38.23], [-79.88, 38.21], [-79.89, 38.2], [-79.9, 38.19], [-79.91, 38.19], [-79.92, 38.18], [-79.91, 38.17], [-79.92, 38.15], [-79.93, 38.14], [-79.95, 38.13], [-79.94, 38.11], [-79.93, 38.11], [-79.93, 38.1], [-79.95, 38.08], [-79.96, 38.07], [-79.96, 38.06], [-79.98, 38.03], [-80.0, 38.01], [-80.0, 38.0], [-80.01, 37.99], [-80.06, 37.95], [-80.07, 37.95], [-80.09, 37.93], [-80.1, 37.92], [-80.11, 37.91], [-80.14, 37.88], [-80.15, 37.88], [-80.16, 37.88], [-80.18, 37.85], [-80.18, 37.84], [-80.19, 37.83], [-80.21, 37.82], [-80.22, 37.81], [-80.23, 37.79], [-80.22, 37.78], [-80.23, 37.78], [-80.24, 37.77], [-80.25, 37.77], [-80.25, 37.76], [-80.26, 37.76], [-80.26, 37.74], [-80.25, 37.73], [-80.26, 37.72], [-80.29, 37.7], [-80.3, 37.69], [-80.28, 37.66], [-80.27, 37.65], [-80.24, 37.64], [-80.22, 37.63], [-80.23, 37.62], [-80.24, 37.61], [-80.26, 37.6], [-80.33, 37.56], [-80.31, 37.55], [-80.33, 37.54], [-80.31, 37.53], [-80.29, 37.54], [-80.28, 37.53], [-80.3, 37.51], [-80.33, 37.49], [-80.34, 37.49], [-80.37, 37.48], [-80.36, 37.48], [-80.43, 37.45], [-80.44, 37.44], [-80.48, 37.42], [-80.49, 37.44], [-80.5, 37.44], [-80.49, 37.46], [-80.51, 37.48], [-80.54, 37.47], [-80.55, 37.47], [-80.59, 37.46], [-80.59, 37.45], [-80.63, 37.43], [-80.65, 37.42], [-80.67, 37.41], [-80.71, 37.39], [-80.74, 37.38], [-80.77, 37.37], [-80.78, 37.39], [-80.8, 37.4], [-80.81, 37.4], [-80.84, 37.43], [-80.85, 37.42], [-80.86, 37.43], [-80.87, 37.42], [-80.86, 37.41], [-80.88, 37.38], [-80.85, 37.35], [-80.87, 37.34], [-80.9, 37.32], [-80.92, 37.31], [-80.95, 37.29], [-80.97, 37.29], [-80.99, 37.3], [-81.04, 37.29], [-81.08, 37.28], [-81.1, 37.28], [-81.17, 37.26], [-81.2, 37.24], [-81.23, 37.23], [-81.32, 37.3], [-81.36, 37.34], [-81.37, 37.32], [-81.39, 37.32], [-81.41, 37.3], [-81.41, 37.28], [-81.42, 37.27], [-81.43, 37.27], [-81.44, 37.27], [-81.46, 37.27], [-81.46, 37.26], [-81.48, 37.25], [-81.5, 37.25], [-81.51, 37.23], [-81.54, 37.22], [-81.55, 37.21], [-81.56, 37.21], [-81.68, 37.2], [-81.68, 37.21], [-81.69, 37.21], [-81.7, 37.22], [-81.72, 37.23], [-81.72, 37.24], [-81.73, 37.24], [-81.74, 37.24], [-81.74, 37.24], [-81.74, 37.25], [-81.75, 37.26], [-81.77, 37.27], [-81.79, 37.28], [-81.8, 37.29], [-81.83, 37.28], [-81.84, 37.29], [-81.85, 37.29], [-81.85, 37.3], [-81.86, 37.32], [-81.87, 37.32], [-81.87, 37.33], [-81.9, 37.33], [-81.9, 37.34], [-81.91, 37.34], [-81.93, 37.36], [-81.93, 37.37], [-81.94, 37.38], [-81.93, 37.39], [-81.93, 37.41], [-81.94, 37.42], [-81.94, 37.43], [-81.94, 37.44], [-81.95, 37.44], [-81.96, 37.45], [-81.97, 37.45], [-81.98, 37.46], [-81.99, 37.45], [-81.99, 37.46], [-82.0, 37.48], [-81.99, 37.48], [-81.98, 37.48], [-81.94, 37.51], [-81.93, 37.51], [-81.95, 37.52], [-81.94, 37.52], [-81.97, 37.53], [-81.97, 37.54], [-81.97, 37.55], [-81.99, 37.54], [-82.0, 37.54], [-82.01, 37.53], [-82.02, 37.54], [-82.03, 37.54], [-82.04, 37.55], [-82.04, 37.54], [-82.06, 37.54], [-82.06, 37.54], [-82.07, 37.56], [-82.09, 37.56], [-82.1, 37.55], [-82.1, 37.56], [-82.12, 37.56], [-82.12, 37.55], [-82.13, 37.55], [-82.13, 37.56], [-82.14, 37.57], [-82.13, 37.57], [-82.12, 37.58], [-82.13, 37.59], [-82.14, 37.6], [-82.16, 37.59], [-82.16, 37.61], [-82.17, 37.61], [-82.18, 37.63], [-82.17, 37.63], [-82.19, 37.65], [-82.19, 37.64], [-82.19, 37.63], [-82.21, 37.63], [-82.22, 37.63], [-82.23, 37.65], [-82.24, 37.66], [-82.25, 37.66], [-82.27, 37.66], [-82.28, 37.68], [-82.3, 37.68], [-82.3, 37.69], [-82.3, 37.7], [-82.3, 37.7], [-82.31, 37.71], [-82.32, 37.72], [-82.32, 37.73], [-82.33, 37.74], [-82.32, 37.75], [-82.32, 37.76], [-82.33, 37.77], [-82.32, 37.77], [-82.34, 37.78], [-82.34, 37.79], [-82.38, 37.8], [-82.38, 37.81], [-82.39, 37.82], [-82.4, 37.81], [-82.4, 37.81], [-82.4, 37.83], [-82.41, 37.84], [-82.41, 37.84], [-82.42, 37.85], [-82.41, 37.86], [-82.42, 37.86], [-82.42, 37.87], [-82.42, 37.89], [-82.43, 37.89], [-82.44, 37.9], [-82.45, 37.91], [-82.47, 37.91], [-82.47, 37.91], [-82.5, 37.93], [-82.5, 37.95], [-82.49, 37.95], [-82.47, 37.96], [-82.48, 37.96], [-82.48, 37.97], [-82.47, 37.97], [-82.46, 37.98], [-82.47, 37.99], [-82.48, 37.98], [-82.49, 38.0], [-82.51, 38.0], [-82.52, 38.01], [-82.53, 38.03], [-82.54, 38.04], [-82.54, 38.05], [-82.54, 38.05], [-82.55, 38.07], [-82.56, 38.07], [-82.57, 38.08], [-82.58, 38.08], [-82.59, 38.09], [-82.59, 38.11], [-82.6, 38.12], [-82.62, 38.12], [-82.62, 38.13], [-82.64, 38.14], [-82.64, 38.16], [-82.64, 38.17], [-82.64, 38.17], [-82.62, 38.17], [-82.61, 38.17], [-82.6, 38.2], [-82.6, 38.22], [-82.61, 38.22], [-82.61, 38.24], [-82.61, 38.25], [-82.59, 38.25], [-82.57, 38.26], [-82.57, 38.28], [-82.58, 38.3], [-82.57, 38.32], [-82.58, 38.33], [-82.6, 38.35], [-82.6, 38.36], [-82.59, 38.38], [-82.6, 38.39], [-82.59, 38.4], [-82.6, 38.41], [-82.59, 38.42], [-82.58, 38.41], [-82.55, 38.4], [-82.53, 38.4], [-82.49, 38.42], [-82.43, 38.43], [-82.4, 38.44], [-82.38, 38.43], [-82.34, 38.44], [-82.32, 38.45], [-82.31, 38.47], [-82.31, 38.48], [-82.3, 38.5], [-82.3, 38.52], [-82.3, 38.54], [-82.29, 38.56], [-82.29, 38.58], [-82.27, 38.6], [-82.25, 38.6], [-82.22, 38.59], [-82.19, 38.59], [-82.18, 38.6], [-82.17, 38.61], [-82.17, 38.63], [-82.18, 38.64], [-82.19, 38.66], [-82.19, 38.68], [-82.18, 38.71], [-82.19, 38.72], [-82.19, 38.73], [-82.2, 38.76], [-82.22, 38.77], [-82.22, 38.77], [-82.22, 38.79], [-82.21, 38.8], [-82.19, 38.82], [-82.16, 38.82], [-82.14, 38.84], [-82.14, 38.87], [-82.15, 38.88], [-82.14, 38.9], [-82.13, 38.91], [-82.11, 38.93], [-82.11, 38.95], [-82.09, 38.96], [-82.09, 38.98], [-82.05, 38.99], [-82.05, 39.0], [-82.04, 39.02], [-82.04, 39.03], [-82.02, 39.03], [-82.01, 39.03], [-81.99, 39.02], [-81.99, 39.01], [-81.98, 38.99], [-81.97, 38.99], [-81.95, 39.0], [-81.93, 38.99], [-81.92, 38.96], [-81.9, 38.94], [-81.9, 38.93], [-81.93, 38.9], [-81.93, 38.89], [-81.91, 38.88], [-81.89, 38.87], [-81.86, 38.89], [-81.85, 38.9], [-81.84, 38.93], [-81.83, 38.94], [-81.81, 38.95], [-81.79, 38.93], [-81.77, 38.92], [-81.76, 38.93], [-81.76, 38.93], [-81.78, 38.96], [-81.78, 38.96], [-81.77, 38.99], [-81.77, 39.0], [-81.76, 39.02], [-81.77, 39.03], [-81.8, 39.05], [-81.81, 39.06], [-81.81, 39.08], [-81.81, 39.08], [-81.78, 39.08], [-81.77, 39.08], [-81.75, 39.09], [-81.75, 39.1], [-81.74, 39.11], [-81.75, 39.15], [-81.76, 39.18], [-81.74, 39.19], [-81.73, 39.21], [-81.72, 39.22], [-81.7, 39.22], [-81.69, 39.23], [-81.7, 39.24], [-81.7, 39.26], [-81.69, 39.27], [-81.68, 39.27], [-81.65, 39.28], [-81.62, 39.27], [-81.61, 39.28], [-81.58, 39.27], [-81.57, 39.27], [-81.57, 39.28], [-81.57, 39.29], [-81.56, 39.34], [-81.54, 39.35], [-81.5, 39.38], [-81.47, 39.4], [-81.46, 39.41], [-81.45, 39.41], [-81.43, 39.41], [-81.41, 39.39], [-81.4, 39.36], [-81.38, 39.34], [-81.37, 39.34], [-81.34, 39.35], [-81.3, 39.37], [-81.28, 39.38], [-81.27, 39.39], [-81.24, 39.39], [-81.23, 39.39], [-81.22, 39.39], [-81.21, 39.39], [-81.21, 39.4], [-81.19, 39.42], [-81.19, 39.43], [-81.17, 39.44], [-81.13, 39.45], [-81.11, 39.47], [-81.1, 39.49], [-81.09, 39.5], [-81.04, 39.54], [-81.03, 39.55], [-81.02, 39.55], [-80.99, 39.57], [-80.97, 39.59], [-80.93, 39.61], [-80.92, 39.62], [-80.89, 39.62], [-80.88, 39.62], [-80.88, 39.63], [-80.87, 39.65], [-80.87, 39.69], [-80.85, 39.7], [-80.83, 39.7], [-80.83, 39.71], [-80.85, 39.74], [-80.87, 39.75], [-80.87, 39.76], [-80.86, 39.78], [-80.84, 39.79], [-80.83, 39.8], [-80.82, 39.81], [-80.82, 39.83], [-80.83, 39.84], [-80.82, 39.85], [-80.79, 39.86], [-80.79, 39.87], [-80.79, 39.88], [-80.8, 39.89], [-80.81, 39.91], [-80.81, 39.92], [-80.8, 39.92], [-80.76, 39.91], [-80.76, 39.92], [-80.76, 39.93], [-80.76, 39.95], [-80.76, 39.96], [-80.74, 39.97], [-80.74, 39.99], [-80.74, 40.0], [-80.74, 40.03], [-80.73, 40.04], [-80.73, 40.06], [-80.74, 40.08], [-80.73, 40.09], [-80.71, 40.1], [-80.71, 40.11], [-80.71, 40.13], [-80.71, 40.14], [-80.7, 40.16], [-80.69, 40.18], [-80.67, 40.19], [-80.67, 40.2], [-80.66, 40.23], [-80.65, 40.24], [-80.64, 40.25], [-80.62, 40.26], [-80.62, 40.27], [-80.61, 40.29], [-80.6, 40.31], [-80.6, 40.32], [-80.61, 40.35], [-80.61, 40.37], [-80.62, 40.38], [-80.63, 40.39], [-80.63, 40.39], [-80.61, 40.4], [-80.61, 40.43], [-80.61, 40.44], [-80.6, 40.46], [-80.59, 40.47], [-80.6, 40.48], [-80.61, 40.49], [-80.62, 40.5], [-80.63, 40.53], [-80.65, 40.56], [-80.66, 40.57], [-80.67, 40.58], [-80.66, 40.59], [-80.64, 40.6], [-80.63, 40.62], [-80.63, 40.62], [-80.6, 40.63], [-80.59, 40.62], [-80.58, 40.62], [-80.57, 40.62], [-80.55, 40.63], [-80.52, 40.64]]]}}]}