{"type": "FeatureCollection", "features": [{"type": "Feature", "properties": {"ID": 48, "abbreviation": "WY", "name": "Wyoming"}, "geometry": {"type": "Polygon", "coordinates": [[[-109.1, 45.01], [-109.08, 45.0], [-109.07, 45.0], [-109.07, 45.0], [-109.07, 45.0], [-109.06, 45.0], [-109.06, 45.0], [-109.0, 45.0], [-108.74, 45.0], [-108.7, 45.0], [-108.7, 45.0], [-108.63, 45.0], [-108.62, 45.0], [-108.58, 45.0], [-108.57, 45.0], [-108.5, 45.0], [-108.38, 45.0], [-108.35, 45.0], [-108.27, 45.0], [-108.26, 45.0], [-108.26, 45.0], [-108.25, 45.0], [-108.23, 45.0], [-108.15, 45.0], [-108.0, 45.0], [-108.0, 45.0], [-107.75, 45.0], [-107.63, 45.0], [-107.63, 45.0], [-107.63, 45.0], [-107.61, 45.0], [-107.56, 45.0], [-107.5, 45.0], [-107.5, 45.0], [-107.5, 45.0], [-107.49, 45.0], [-107.46, 45.0], [-107.41, 45.0], [-107.38, 45.0], [-107.35, 45.0], [-107.28, 45.0], [-107.28, 45.0], [-107.25, 45.0], [-107.24, 45.0], [-107.22, 45.0], [-107.16, 45.0], [-107.11, 45.0], [-107.1, 45.0], [-107.09, 45.0], [-107.09, 45.0], [-107.08, 45.0], [-107.06, 45.0], [-107.0, 45.0], [-106.87, 45.0], [-106.63, 44.99], [-106.42, 44.99], [-106.25, 44.99], [-106.2, 44.99], [-106.13, 44.99], [-106.01, 44.99], [-106.0, 44.99], [-105.93, 44.99], [-105.92, 45.0], [-105.91, 45.0], [-105.91, 45.0], [-105.91, 45.0], [-105.9, 45.0], [-105.88, 45.0], [-105.85, 45.0], [-105.72, 45.0], [-105.49, 45.0], [-105.25, 45.0], [-105.0, 45.0], [-104.88, 45.0], [-104.77, 45.0], [-104.72, 45.0], [-104.57, 45.0], [-104.37, 45.0], [-104.27, 45.0], [-104.12, 45.0], [-104.11, 45.0], [-104.07, 45.0], [-104.06, 45.0], [-104.06, 45.0], [-104.06, 45.0], [-104.06, 45.0], [-104.06, 44.94], [-104.06, 44.91], [-104.06, 44.87], [-104.06, 44.81], [-104.06, 44.78], [-104.06, 44.77], [-104.06, 44.75], [-104.06, 44.75], [-104.06, 44.72], [-104.06, 44.7], [-104.06, 44.69], [-104.06, 44.69], [-104.06, 44.69], [-104.06, 44.69], [-104.06, 44.67], [-104.06, 44.67], [-104.06, 44.62], [-104.06, 44.58], [-104.06, 44.58], [-104.06, 44.56], [-104.06, 44.55], [-104.06, 44.54], [-104.06, 44.53], [-104.06, 44.38], [-104.06, 44.37], [-104.06, 44.36], [-104.06, 44.33], [-104.06, 44.25], [-104.05, 44.18], [-104.05, 44.14], [-104.05, 44.11], [-104.05, 44.03], [-104.05, 44.02], [-104.05, 44.0], [-104.05, 43.95], [-104.05, 43.94], [-104.06, 43.94], [-104.06, 43.94], [-104.06, 43.94], [-104.06, 43.89], [-104.06, 43.88], [-104.06, 43.87], [-104.06, 43.85], [-104.06, 43.75], [-104.05, 43.62], [-104.05, 43.58], [-104.05, 43.58], [-104.05, 43.58], [-104.05, 43.56], [-104.05, 43.53], [-104.05, 43.47], [-104.05, 43.43], [-104.05, 43.39], [-104.05, 43.37], [-104.05, 43.37], [-104.05, 43.33], [-104.05, 43.32], [-104.05, 43.31], [-104.05, 43.3], [-104.05, 43.3], [-104.05, 43.3], [-104.05, 43.29], [-104.05, 43.25], [-104.05, 43.25], [-104.05, 43.2], [-104.05, 43.2], [-104.05, 43.12], [-104.05, 43.1], [-104.05, 43.09], [-104.05, 43.07], [-104.05, 43.06], [-104.05, 43.04], [-104.05, 43.03], [-104.05, 43.02], [-104.05, 43.0], [-104.05, 43.0], [-104.05, 42.97], [-104.05, 42.95], [-104.05, 42.94], [-104.05, 42.93], [-104.05, 42.89], [-104.05, 42.87], [-104.05, 42.87], [-104.05, 42.87], [-104.05, 42.86], [-104.05, 42.84], [-104.05, 42.76], [-104.05, 42.75], [-104.05, 42.74], [-104.05, 42.7], [-104.05, 42.7], [-104.05, 42.66], [-104.05, 42.65], [-104.05, 42.65], [-104.05, 42.63], [-104.05, 42.63], [-104.05, 42.62], [-104.05, 42.61], [-104.05, 42.61], [-104.05, 42.61], [-104.05, 42.61], [-104.05, 42.61], [-104.05, 42.5], [-104.05, 42.42], [-104.05, 42.37], [-104.05, 42.36], [-104.05, 42.34], [-104.05, 42.33], [-104.05, 42.25], [-104.05, 42.25], [-104.05, 42.23], [-104.05, 42.15], [-104.05, 42.15], [-104.05, 42.14], [-104.05, 42.13], [-104.05, 42.13], [-104.05, 42.12], [-104.05, 42.03], [-104.05, 42.02], [-104.05, 42.02], [-104.05, 41.99], [-104.05, 41.99], [-104.05, 41.98], [-104.05, 41.96], [-104.05, 41.91], [-104.05, 41.87], [-104.05, 41.86], [-104.05, 41.86], [-104.05, 41.84], [-104.05, 41.84], [-104.05, 41.83], [-104.05, 41.83], [-104.05, 41.81], [-104.05, 41.81], [-104.05, 41.78], [-104.05, 41.78], [-104.05, 41.75], [-104.05, 41.62], [-104.05, 41.52], [-104.05, 41.52], [-104.05, 41.5], [-104.05, 41.5], [-104.05, 41.48], [-104.05, 41.41], [-104.05, 41.33], [-104.05, 41.28], [-104.05, 41.28], [-104.05, 41.25], [-104.05, 41.16], [-104.05, 41.12], [-104.05, 41.12], [-104.05, 41.11], [-104.05, 41.09], [-104.05, 41.09], [-104.05, 41.08], [-104.05, 41.05], [-104.05, 41.0], [-104.17, 41.0], [-104.36, 41.0], [-104.63, 41.0], [-104.8, 41.0], [-104.86, 41.0], [-105.16, 41.0], [-105.45, 41.0], [-105.66, 41.0], [-105.73, 41.0], [-106.0, 41.0], [-106.06, 41.0], [-106.22, 41.0], [-106.31, 41.0], [-106.39, 41.0], [-106.44, 41.0], [-106.63, 41.0], [-106.87, 41.0], [-107.0, 41.0], [-107.24, 41.0], [-107.37, 41.0], [-107.5, 41.0], [-107.75, 41.0], [-107.87, 41.0], [-108.05, 41.0], [-108.18, 41.0], [-108.38, 41.0], [-108.5, 41.0], [-108.53, 41.0], [-108.63, 41.0], [-108.88, 41.0], [-109.0, 41.0], [-109.02, 41.0], [-109.05, 41.0], [-109.19, 41.0], [-109.23, 41.0], [-109.25, 41.0], [-109.37, 41.0], [-109.5, 41.0], [-109.54, 41.0], [-109.62, 41.0], [-109.66, 41.0], [-109.81, 41.0], [-109.92, 41.0], [-109.98, 41.0], [-110.0, 41.0], [-110.01, 41.0], [-110.12, 41.0], [-110.13, 41.0], [-110.24, 41.0], [-110.25, 41.0], [-110.38, 40.99], [-110.5, 40.99], [-110.54, 41.0], [-110.68, 41.0], [-110.88, 41.0], [-111.05, 41.0], [-111.05, 41.12], [-111.05, 41.25], [-111.05, 41.36], [-111.05, 41.37], [-111.05, 41.37], [-111.05, 41.38], [-111.05, 41.38], [-111.05, 41.5], [-111.05, 41.62], [-111.05, 41.75], [-111.05, 41.94], [-111.05, 41.96], [-111.05, 41.98], [-111.05, 42.0], [-111.05, 42.01], [-111.05, 42.02], [-111.05, 42.1], [-111.05, 42.21], [-111.05, 42.42], [-111.05, 42.47], [-111.05, 42.49], [-111.05, 42.5], [-111.05, 42.52], [-111.05, 42.58], [-111.04, 42.72], [-111.04, 42.83], [-111.04, 42.98], [-111.04, 43.11], [-111.04, 43.25], [-111.05, 43.37], [-111.05, 43.42], [-111.05, 43.48], [-111.05, 43.5], [-111.05, 43.51], [-111.05, 43.62], [-111.05, 43.8], [-111.05, 43.91], [-111.05, 44.0], [-111.05, 44.02], [-111.05, 44.11], [-111.05, 44.12], [-111.05, 44.13], [-111.05, 44.13], [-111.05, 44.16], [-111.05, 44.17], [-111.05, 44.22], [-111.05, 44.27], [-111.05, 44.35], [-111.05, 44.37], [-111.05, 44.43], [-111.05, 44.43], [-111.05, 44.44], [-111.05, 44.44], [-111.05, 44.44], [-111.05, 44.46], [-111.05, 44.47], [-111.05, 44.47], [-111.05, 44.48], [-111.05, 44.49], [-111.05, 44.54], [-111.05, 44.56], [-111.05, 44.62], [-111.06, 44.62], [-111.06, 44.73], [-111.06, 44.75], [-111.06, 44.87], [-111.06, 44.87], [-111.06, 44.93], [-111.06, 44.93], [-111.06, 44.94], [-111.06, 45.0], [-111.06, 45.0], [-111.0, 45.0], [-111.0, 45.0], [-110.88, 45.0], [-110.79, 45.0], [-110.71, 44.99], [-110.63, 44.99], [-110.49, 44.99], [-110.4, 44.99], [-110.36, 45.0], [-110.28, 45.0], [-110.2, 45.0], [-110.11, 45.0], [-110.0, 45.0], [-109.88, 45.0], [-109.75, 45.0], [-109.66, 45.0], [-109.57, 45.0], [-109.39, 45.0], [-109.1, 45.01]]]}}]}